{"type": "FeatureCollection", "features": [{"type": "Feature", "geometry": {"type": "Polygon", "coordinates": [[[29.822948323746516, 60.045365528658174], [29.822940663070824, 60.045275845663625], [29.82276135245609, 60.04527967705127], [29.822746032220103, 60.045100311029124], [29.8229253418648, 60.04509647966905], [29.822917681334463, 60.04500679666906], [29.823276299508468, 60.044999133247416], [29.823283961008826, 60.04508881621983], [29.823463270508146, 60.04508498413068], [29.823470932541987, 60.04517466708749], [29.82329162255764, 60.04517849919042], [29.82329928415492, 60.04526818215924], [29.822948323746516, 60.045365528658174]]]}, "properties": {"zone_id": "neva-2026-09-14-001", "aoi": "neva", "date": "2026-09-14", "scene_id": "S2A_MSIL2A_20260914T093141_R136_T36VUM_20260914T143714", "scene_datetime_utc": "2026-09-14T09:31:41.024000+00:00", "detection_status": "detected", "detection_status_ru": "обнаружено", "lon": 29.82308, "lat": 60.04517, "n_pixels": 3, "zone_area_km2": 0.001, "cover_m2": 31.0, "p_mean": 0.846, "p_max": 0.945, "cover_m2_km2": 31000.0, "h3": "881106843bfffff", "valid_frac_scene": 0.996, "wind_ms": 4.3, "sea": "спокойное", "scene_reliable": true, "field_event_id": "S3:HE419_MarLitter_transect28", "field_profile": "B", "field_date": "2014-04-11", "field_distance_km": 1405.4, "field_date_gap_days": 4539, "field_conc_items_km2": 43.1, "conc_A_items_km2": null, "conc_A_lo80": null, "conc_A_hi80": null, "conc_A_lo95": null, "conc_A_hi95": null, "conc_A_status": "unavailable", "conc_A_status_ru": "концентрация недоступна", "conc_A_reasons": "вне бассейна профиля: nw_atlantic_subtropical", "conc_A_model": "conc-A-c6bce5631d2b", "conc_B_items_km2": null, "conc_B_lo80": null, "conc_B_hi80": null, "conc_B_lo95": null, "conc_B_hi95": null, "conc_B_status": "unavailable", "conc_B_status_ru": "концентрация недоступна", "conc_B_reasons": "вне бассейна профиля: black_sea", "conc_B_model": "conc-B-c6bce5631d2b"}}, {"type": "Feature", "geometry": {"type": "Polygon", "coordinates": [[[29.58211735287016, 60.00923559967678], [29.58211035546867, 60.00914589838522], [29.58193120492362, 60.009149401876115], [29.58192420805053, 60.00905970057023], [29.582103358111404, 60.009056197091944], [29.582096360798367, 60.00896649579697], [29.582454659819124, 60.00895948813721], [29.5824616581005, 60.00904918940698], [29.582640808028707, 60.00904568520031], [29.58264780683848, 60.00913538645576], [29.582468656426105, 60.00913889067505], [29.58247565479594, 60.00922859194141], [29.58211735287016, 60.00923559967678]]]}, "properties": {"zone_id": "neva-2026-09-14-002", "aoi": "neva", "date": "2026-09-14", "scene_id": "S2A_MSIL2A_20260914T093141_R136_T36VUM_20260914T143714", "scene_datetime_utc": "2026-09-14T09:31:41.024000+00:00", "detection_status": "detected", "detection_status_ru": "обнаружено", "lon": 29.58229, "lat": 60.0091, "n_pixels": 2, "zone_area_km2": 0.0008, "cover_m2": 21.2, "p_mean": 0.729, "p_max": 0.827, "cover_m2_km2": 26500.0, "h3": "88110695c1fffff", "valid_frac_scene": 0.996, "wind_ms": 4.3, "sea": "спокойное", "scene_reliable": true, "field_event_id": "S3:HE419_MarLitter_transect28", "field_profile": "B", "field_date": "2014-04-11", "field_distance_km": 1391.4, "field_date_gap_days": 4539, "field_conc_items_km2": 43.1, "conc_A_items_km2": null, "conc_A_lo80": null, "conc_A_hi80": null, "conc_A_lo95": null, "conc_A_hi95": null, "conc_A_status": "unavailable", "conc_A_status_ru": "концентрация недоступна", "conc_A_reasons": "вне бассейна профиля: nw_atlantic_subtropical", "conc_A_model": "conc-A-c6bce5631d2b", "conc_B_items_km2": null, "conc_B_lo80": null, "conc_B_hi80": null, "conc_B_lo95": null, "conc_B_hi95": null, "conc_B_status": "unavailable", "conc_B_status_ru": "концентрация недоступна", "conc_B_reasons": "вне бассейна профиля: black_sea", "conc_B_model": "conc-B-c6bce5631d2b"}}, {"type": "Feature", "geometry": {"type": "Polygon", "coordinates": [[[29.801643338132884, 60.0017046212585], [29.801635748584108, 60.00161493602829], [29.80145667103427, 60.00161873687689], [29.80144149304768, 60.00143936638369], [29.801620569630387, 60.00143556556244], [29.801612980225443, 60.00134588032681], [29.801971132279903, 60.00133827798378], [29.801978722651967, 60.00142796319209], [29.802157799090836, 60.001424161642994], [29.802172980945937, 60.00160353202681], [29.80199390353994, 60.00160733360325], [29.802001494055855, 60.00169701880611], [29.801643338132884, 60.0017046212585]]]}, "properties": {"zone_id": "neva-2026-09-14-003", "aoi": "neva", "date": "2026-09-14", "scene_id": "S2A_MSIL2A_20260914T093141_R136_T36VUM_20260914T143714", "scene_datetime_utc": "2026-09-14T09:31:41.024000+00:00", "detection_status": "detected", "detection_status_ru": "обнаружено", "lon": 29.80181, "lat": 60.00152, "n_pixels": 4, "zone_area_km2": 0.0012, "cover_m2": 10.2, "p_mean": 0.925, "p_max": 0.945, "cover_m2_km2": 8500.0, "h3": "8811068553fffff", "valid_frac_scene": 0.996, "wind_ms": 4.3, "sea": "спокойное", "scene_reliable": true, "field_event_id": "S3:HE419_MarLitter_transect28", "field_profile": "B", "field_date": "2014-04-11", "field_distance_km": 1403.0, "field_date_gap_days": 4539, "field_conc_items_km2": 43.1, "conc_A_items_km2": null, "conc_A_lo80": null, "conc_A_hi80": null, "conc_A_lo95": null, "conc_A_hi95": null, "conc_A_status": "unavailable", "conc_A_status_ru": "концентрация недоступна", "conc_A_reasons": "вне бассейна профиля: nw_atlantic_subtropical", "conc_A_model": "conc-A-c6bce5631d2b", "conc_B_items_km2": null, "conc_B_lo80": null, "conc_B_hi80": null, "conc_B_lo95": null, "conc_B_hi95": null, "conc_B_status": "unavailable", "conc_B_status_ru": "концентрация недоступна", "conc_B_reasons": "вне бассейна профиля: black_sea", "conc_B_model": "conc-B-c6bce5631d2b"}}, {"type": "Feature", "geometry": {"type": "Polygon", "coordinates": [[[29.80466267608051, 59.994991861387014], [29.804655080411738, 59.99490217629649], [29.804476039596377, 59.99490598098469], [29.804460849369416, 59.99472661077089], [29.804639889218123, 59.99472280611006], [29.804632293693277, 59.99463312101415], [29.804997968771605, 59.99471519606078], [29.805013161898543, 59.99489456619247], [29.80466267608051, 59.994991861387014]]]}, "properties": {"zone_id": "neva-2026-09-14-004", "aoi": "neva", "date": "2026-09-14", "scene_id": "S2A_MSIL2A_20260914T093141_R136_T36VUM_20260914T143714", "scene_datetime_utc": "2026-09-14T09:31:41.024000+00:00", "detection_status": "detected", "detection_status_ru": "обнаружено", "lon": 29.80474, "lat": 59.99481, "n_pixels": 2, "zone_area_km2": 0.0008, "cover_m2": 8.6, "p_mean": 0.99, "p_max": 0.992, "cover_m2_km2": 10750.0, "h3": "8811068557fffff", "valid_frac_scene": 0.996, "wind_ms": 4.3, "sea": "спокойное", "scene_reliable": true, "field_event_id": "S3:HE419_MarLitter_transect28", "field_profile": "B", "field_date": "2014-04-11", "field_distance_km": 1403.0, "field_date_gap_days": 4539, "field_conc_items_km2": 43.1, "conc_A_items_km2": null, "conc_A_lo80": null, "conc_A_hi80": null, "conc_A_lo95": null, "conc_A_hi95": null, "conc_A_status": "unavailable", "conc_A_status_ru": "концентрация недоступна", "conc_A_reasons": "вне бассейна профиля: nw_atlantic_subtropical", "conc_A_model": "conc-A-c6bce5631d2b", "conc_B_items_km2": null, "conc_B_lo80": null, "conc_B_hi80": null, "conc_B_lo95": null, "conc_B_hi95": null, "conc_B_status": "unavailable", "conc_B_status_ru": "концентрация недоступна", "conc_B_reasons": "вне бассейна профиля: black_sea", "conc_B_model": "conc-B-c6bce5631d2b"}}, {"type": "Feature", "geometry": {"type": "Polygon", "coordinates": [[[29.88597151018019, 59.987398608657536], [29.88596369688012, 59.98730892979119], [29.885784709703138, 59.98731284439614], [29.88577689693534, 59.987223165513875], [29.885955883629382, 59.98721925092298], [29.885948070427975, 59.98712957205296], [29.886306042702188, 59.98712174217208], [29.886313856869464, 59.98721142101395], [29.886492843415496, 59.98720750569577], [29.886500658115047, 59.98729718452174], [29.886321671086076, 59.98730109985401], [29.886329485352025, 59.98739077869218], [29.88597151018019, 59.987398608657536]]]}, "properties": {"zone_id": "neva-2026-09-14-005", "aoi": "neva", "date": "2026-09-14", "scene_id": "S2A_MSIL2A_20260914T093141_R136_T36VUM_20260914T143714", "scene_datetime_utc": "2026-09-14T09:31:41.024000+00:00", "detection_status": "detected", "detection_status_ru": "обнаружено", "lon": 29.88614, "lat": 59.98726, "n_pixels": 2, "zone_area_km2": 0.0008, "cover_m2": 13.7, "p_mean": 0.996, "p_max": 1.0, "cover_m2_km2": 17125.0, "h3": "8811068ed3fffff", "valid_frac_scene": 0.996, "wind_ms": 4.3, "sea": "спокойное", "scene_reliable": true, "field_event_id": "S3:HE419_MarLitter_transect28", "field_profile": "B", "field_date": "2014-04-11", "field_distance_km": 1407.2, "field_date_gap_days": 4539, "field_conc_items_km2": 43.1, "conc_A_items_km2": null, "conc_A_lo80": null, "conc_A_hi80": null, "conc_A_lo95": null, "conc_A_hi95": null, "conc_A_status": "unavailable", "conc_A_status_ru": "концентрация недоступна", "conc_A_reasons": "вне бассейна профиля: nw_atlantic_subtropical", "conc_A_model": "conc-A-c6bce5631d2b", "conc_B_items_km2": null, "conc_B_lo80": null, "conc_B_hi80": null, "conc_B_lo95": null, "conc_B_hi95": null, "conc_B_status": "unavailable", "conc_B_status_ru": "концентрация недоступна", "conc_B_reasons": "вне бассейна профиля: black_sea", "conc_B_model": "conc-B-c6bce5631d2b"}}, {"type": "Feature", "geometry": {"type": "Polygon", "coordinates": [[[30.170332918776122, 59.96415749244177], [30.170324344385147, 59.96406783680931], [30.17014552955301, 59.9640721357732], [30.170119808149536, 59.96380316881775], [30.17029862153676, 59.96379886990021], [30.170290047362137, 59.96370921425989], [30.17065624814893, 59.96379027133899], [30.17068197388713, 59.96405923815542], [30.170332918776122, 59.96415749244177]]]}, "properties": {"zone_id": "neva-2026-09-14-006", "aoi": "neva", "date": "2026-09-14", "scene_id": "S2A_MSIL2A_20260914T093141_R136_T36VUM_20260914T143714", "scene_datetime_utc": "2026-09-14T09:31:41.024000+00:00", "detection_status": "detected", "detection_status_ru": "обнаружено", "lon": 30.1704, "lat": 59.96393, "n_pixels": 3, "zone_area_km2": 0.0011, "cover_m2": 23.9, "p_mean": 0.693, "p_max": 0.867, "cover_m2_km2": 21727.3, "h3": "8811061687fffff", "valid_frac_scene": 0.996, "wind_ms": 4.3, "sea": "спокойное", "scene_reliable": true, "field_event_id": "S3:HE419_MarLitter_transect28", "field_profile": "B", "field_date": "2014-04-11", "field_distance_km": 1422.0, "field_date_gap_days": 4539, "field_conc_items_km2": 43.1, "conc_A_items_km2": null, "conc_A_lo80": null, "conc_A_hi80": null, "conc_A_lo95": null, "conc_A_hi95": null, "conc_A_status": "unavailable", "conc_A_status_ru": "концентрация недоступна", "conc_A_reasons": "вне бассейна профиля: nw_atlantic_subtropical", "conc_A_model": "conc-A-c6bce5631d2b", "conc_B_items_km2": null, "conc_B_lo80": null, "conc_B_hi80": null, "conc_B_lo95": null, "conc_B_hi95": null, "conc_B_status": "unavailable", "conc_B_status_ru": "концентрация недоступна", "conc_B_reasons": "вне бассейна профиля: black_sea", "conc_B_model": "conc-B-c6bce5631d2b"}}, {"type": "Feature", "geometry": {"type": "Polygon", "coordinates": [[[30.162991732718453, 59.941688670195965], [30.162983185888805, 59.94159901362029], [30.162804490770643, 59.941603301681376], [30.162795944475764, 59.941513645088335], [30.162974639113035, 59.941509357042655], [30.162966092391148, 59.94141970046304], [30.163144786493646, 59.94141541219094], [30.16313623934475, 59.94132575562477], [30.16350217453699, 59.941406834921224], [30.163519270919988, 59.941586147986065], [30.16334057596348, 59.941590436772636], [30.163349123754923, 59.941680093317515], [30.162991732718453, 59.941688670195965]]]}, "properties": {"zone_id": "neva-2026-09-14-007", "aoi": "neva", "date": "2026-09-14", "scene_id": "S2A_MSIL2A_20260914T093141_R136_T36VUM_20260914T143714", "scene_datetime_utc": "2026-09-14T09:31:41.024000+00:00", "detection_status": "detected", "detection_status_ru": "обнаружено", "lon": 30.16318, "lat": 59.94152, "n_pixels": 3, "zone_area_km2": 0.001, "cover_m2": 18.8, "p_mean": 0.641, "p_max": 0.878, "cover_m2_km2": 18800.0, "h3": "881106145bfffff", "valid_frac_scene": 0.996, "wind_ms": 4.3, "sea": "спокойное", "scene_reliable": true, "field_event_id": "S3:HE419_MarLitter_transect28", "field_profile": "B", "field_date": "2014-04-11", "field_distance_km": 1421.0, "field_date_gap_days": 4539, "field_conc_items_km2": 43.1, "conc_A_items_km2": null, "conc_A_lo80": null, "conc_A_hi80": null, "conc_A_lo95": null, "conc_A_hi95": null, "conc_A_status": "unavailable", "conc_A_status_ru": "концентрация недоступна", "conc_A_reasons": "вне бассейна профиля: nw_atlantic_subtropical", "conc_A_model": "conc-A-c6bce5631d2b", "conc_B_items_km2": null, "conc_B_lo80": null, "conc_B_hi80": null, "conc_B_lo95": null, "conc_B_hi95": null, "conc_B_status": "unavailable", "conc_B_status_ru": "концентрация недоступна", "conc_B_reasons": "вне бассейна профиля: black_sea", "conc_B_model": "conc-B-c6bce5631d2b"}}, {"type": "Feature", "geometry": {"type": "Polygon", "coordinates": [[[30.163433791160546, 59.94068958258322], [30.163425243480983, 59.94059992603212], [30.16324655381412, 59.940604214649284], [30.163238006669296, 59.94051455808081], [30.163416695855304, 59.940510269479056], [30.163408148283512, 59.940420612924015], [30.16377407406566, 59.94050169155006], [30.163782622653056, 59.94059134807233], [30.163603933093963, 59.94059563717314], [30.163612481254386, 59.94068529370883], [30.163433791160546, 59.94068958258322]]]}, "properties": {"zone_id": "neva-2026-09-14-008", "aoi": "neva", "date": "2026-09-14", "scene_id": "S2A_MSIL2A_20260914T093141_R136_T36VUM_20260914T143714", "scene_datetime_utc": "2026-09-14T09:31:41.024000+00:00", "detection_status": "detected", "detection_status_ru": "обнаружено", "lon": 30.16351, "lat": 59.94055, "n_pixels": 1, "zone_area_km2": 0.0005, "cover_m2": 4.7, "p_mean": 0.851, "p_max": 0.851, "cover_m2_km2": 9400.0, "h3": "881106145bfffff", "valid_frac_scene": 0.996, "wind_ms": 4.3, "sea": "спокойное", "scene_reliable": true, "field_event_id": "S3:HE419_MarLitter_transect28", "field_profile": "B", "field_date": "2014-04-11", "field_distance_km": 1421.0, "field_date_gap_days": 4539, "field_conc_items_km2": 43.1, "conc_A_items_km2": null, "conc_A_lo80": null, "conc_A_hi80": null, "conc_A_lo95": null, "conc_A_hi95": null, "conc_A_status": "unavailable", "conc_A_status_ru": "концентрация недоступна", "conc_A_reasons": "вне бассейна профиля: nw_atlantic_subtropical", "conc_A_model": "conc-A-c6bce5631d2b", "conc_B_items_km2": null, "conc_B_lo80": null, "conc_B_hi80": null, "conc_B_lo95": null, "conc_B_hi95": null, "conc_B_status": "unavailable", "conc_B_status_ru": "концентрация недоступна", "conc_B_reasons": "вне бассейна профиля: black_sea", "conc_B_model": "conc-B-c6bce5631d2b"}}, {"type": "Feature", "geometry": {"type": "Polygon", "coordinates": [[[30.16298239987828, 59.93971193709743], [30.162973853753094, 59.9396222804939], [30.162795169267756, 59.93962656845802], [30.16277807814065, 59.939447255214276], [30.16295676166434, 59.93944296728096], [30.16294821570077, 59.939353310671514], [30.163314128550095, 59.93943439068885], [30.16333122256215, 59.93961370384021], [30.16298239987828, 59.93971193709743]]]}, "properties": {"zone_id": "neva-2026-09-14-009", "aoi": "neva", "date": "2026-09-14", "scene_id": "S2A_MSIL2A_20260914T093141_R136_T36VUM_20260914T143714", "scene_datetime_utc": "2026-09-14T09:31:41.024000+00:00", "detection_status": "detected", "detection_status_ru": "обнаружено", "lon": 30.16305, "lat": 59.93953, "n_pixels": 2, "zone_area_km2": 0.0008, "cover_m2": 6.7, "p_mean": 0.982, "p_max": 0.992, "cover_m2_km2": 8375.0, "h3": "881106145bfffff", "valid_frac_scene": 0.996, "wind_ms": 4.3, "sea": "спокойное", "scene_reliable": true, "field_event_id": "S3:HE419_MarLitter_transect28", "field_profile": "B", "field_date": "2014-04-11", "field_distance_km": 1421.0, "field_date_gap_days": 4539, "field_conc_items_km2": 43.1, "conc_A_items_km2": null, "conc_A_lo80": null, "conc_A_hi80": null, "conc_A_lo95": null, "conc_A_hi95": null, "conc_A_status": "unavailable", "conc_A_status_ru": "концентрация недоступна", "conc_A_reasons": "вне бассейна профиля: nw_atlantic_subtropical", "conc_A_model": "conc-A-c6bce5631d2b", "conc_B_items_km2": null, "conc_B_lo80": null, "conc_B_hi80": null, "conc_B_lo95": null, "conc_B_hi95": null, "conc_B_status": "unavailable", "conc_B_status_ru": "концентрация недоступна", "conc_B_reasons": "вне бассейна профиля: black_sea", "conc_B_model": "conc-B-c6bce5631d2b"}}, {"type": "Feature", "geometry": {"type": "Polygon", "coordinates": [[[29.711117452047567, 59.938997655217946], [29.711110126049576, 59.93890796230429], [29.710931373066256, 59.93891163813939], [29.710924047596052, 59.93882194521077], [29.711102800097795, 59.93881826938888], [29.711095474192213, 59.93872857647169], [29.710916722172044, 59.938732252280374], [29.710909396794236, 59.93864255934821], [29.71125957353045, 59.93854551460765], [29.711266899825212, 59.9386352075152], [29.711445651271397, 59.93863153123562], [29.711452978093934, 59.93872122412816], [29.711631729975487, 59.938717547593306], [29.71163905732581, 59.93880724047088], [29.711460304962678, 59.93881091701893], [29.71146763187763, 59.938900609907925], [29.711117452047567, 59.938997655217946]]]}, "properties": {"zone_id": "neva-2026-09-14-010", "aoi": "neva", "date": "2026-09-14", "scene_id": "S2A_MSIL2A_20260914T093141_R136_T36VUM_20260914T143714", "scene_datetime_utc": "2026-09-14T09:31:41.024000+00:00", "detection_status": "detected", "detection_status_ru": "обнаружено", "lon": 29.71125, "lat": 59.93877, "n_pixels": 3, "zone_area_km2": 0.0011, "cover_m2": 11.8, "p_mean": 0.956, "p_max": 0.98, "cover_m2_km2": 10727.3, "h3": "8811068089fffff", "valid_frac_scene": 0.996, "wind_ms": 4.3, "sea": "спокойное", "scene_reliable": true, "field_event_id": "S3:HE419_MarLitter_transect28", "field_profile": "B", "field_date": "2014-04-11", "field_distance_km": 1396.5, "field_date_gap_days": 4539, "field_conc_items_km2": 43.1, "conc_A_items_km2": null, "conc_A_lo80": null, "conc_A_hi80": null, "conc_A_lo95": null, "conc_A_hi95": null, "conc_A_status": "unavailable", "conc_A_status_ru": "концентрация недоступна", "conc_A_reasons": "вне бассейна профиля: nw_atlantic_subtropical", "conc_A_model": "conc-A-c6bce5631d2b", "conc_B_items_km2": null, "conc_B_lo80": null, "conc_B_hi80": null, "conc_B_lo95": null, "conc_B_hi95": null, "conc_B_status": "unavailable", "conc_B_status_ru": "концентрация недоступна", "conc_B_reasons": "вне бассейна профиля: black_sea", "conc_B_model": "conc-B-c6bce5631d2b"}}, {"type": "Feature", "geometry": {"type": "Polygon", "coordinates": [[[30.16424943741976, 59.93797415109358], [30.164240888471948, 59.9378844945759], [30.164062213552796, 59.93788878418186], [30.164045116780365, 59.93770947110978], [30.164223790737985, 59.93770518153462], [30.164215241951837, 59.937615525011054], [30.164581138491556, 59.937696601658935], [30.164598238148574, 59.93787591463859], [30.16424943741976, 59.93797415109358]]]}, "properties": {"zone_id": "neva-2026-09-14-011", "aoi": "neva", "date": "2026-09-14", "scene_id": "S2A_MSIL2A_20260914T093141_R136_T36VUM_20260914T143714", "scene_datetime_utc": "2026-09-14T09:31:41.024000+00:00", "detection_status": "detected", "detection_status_ru": "обнаружено", "lon": 30.16432, "lat": 59.93779, "n_pixels": 2, "zone_area_km2": 0.0008, "cover_m2": 7.8, "p_mean": 0.802, "p_max": 0.988, "cover_m2_km2": 9750.0, "h3": "881106145bfffff", "valid_frac_scene": 0.996, "wind_ms": 4.3, "sea": "спокойное", "scene_reliable": true, "field_event_id": "S3:HE419_MarLitter_transect28", "field_profile": "B", "field_date": "2014-04-11", "field_distance_km": 1421.0, "field_date_gap_days": 4539, "field_conc_items_km2": 43.1, "conc_A_items_km2": null, "conc_A_lo80": null, "conc_A_hi80": null, "conc_A_lo95": null, "conc_A_hi95": null, "conc_A_status": "unavailable", "conc_A_status_ru": "концентрация недоступна", "conc_A_reasons": "вне бассейна профиля: nw_atlantic_subtropical", "conc_A_model": "conc-A-c6bce5631d2b", "conc_B_items_km2": null, "conc_B_lo80": null, "conc_B_hi80": null, "conc_B_lo95": null, "conc_B_hi95": null, "conc_B_status": "unavailable", "conc_B_status_ru": "концентрация недоступна", "conc_B_reasons": "вне бассейна профиля: black_sea", "conc_B_model": "conc-B-c6bce5631d2b"}}, {"type": "Feature", "geometry": {"type": "Polygon", "coordinates": [[[29.771017793782825, 59.93370912900832], [29.771010307638342, 59.933619440513496], [29.770831592057814, 59.93362319730619], [29.770824106441843, 59.93353350879607], [29.771002821541064, 59.93352975201686], [29.770995335490984, 59.93344006351844], [29.77136025159791, 59.933522237732554], [29.771367738657798, 59.93361192620218], [29.771189023171676, 59.93361568347883], [29.771196509797466, 59.93370537196018], [29.771017793782825, 59.93370912900832]]]}, "properties": {"zone_id": "neva-2026-09-14-012", "aoi": "neva", "date": "2026-09-14", "scene_id": "S2A_MSIL2A_20260914T093141_R136_T36VUM_20260914T143714", "scene_datetime_utc": "2026-09-14T09:31:41.024000+00:00", "detection_status": "detected", "detection_status_ru": "обнаружено", "lon": 29.7711, "lat": 59.93357, "n_pixels": 1, "zone_area_km2": 0.0005, "cover_m2": 4.7, "p_mean": 0.576, "p_max": 0.576, "cover_m2_km2": 9400.0, "h3": "88110680b5fffff", "valid_frac_scene": 0.996, "wind_ms": 4.3, "sea": "спокойное", "scene_reliable": true, "field_event_id": "S3:HE419_MarLitter_transect28", "field_profile": "B", "field_date": "2014-04-11", "field_distance_km": 1399.6, "field_date_gap_days": 4539, "field_conc_items_km2": 43.1, "conc_A_items_km2": null, "conc_A_lo80": null, "conc_A_hi80": null, "conc_A_lo95": null, "conc_A_hi95": null, "conc_A_status": "unavailable", "conc_A_status_ru": "концентрация недоступна", "conc_A_reasons": "вне бассейна профиля: nw_atlantic_subtropical", "conc_A_model": "conc-A-c6bce5631d2b", "conc_B_items_km2": null, "conc_B_lo80": null, "conc_B_hi80": null, "conc_B_lo95": null, "conc_B_hi95": null, "conc_B_status": "unavailable", "conc_B_status_ru": "концентрация недоступна", "conc_B_reasons": "вне бассейна профиля: black_sea", "conc_B_model": "conc-B-c6bce5631d2b"}}, {"type": "Feature", "geometry": {"type": "Polygon", "coordinates": [[[29.817260630559183, 59.913231928837654], [29.817253025847076, 59.91314224359665], [29.81707442737293, 59.91314606225638], [29.81706682318928, 59.91305637699985], [29.817245421182886, 59.913052558353826], [29.81723781656662, 59.912962873109215], [29.817059219053544, 59.912966691741524], [29.817051614965727, 59.91287700648135], [29.817230211998268, 59.91287318786277], [29.81722260747783, 59.91278350261452], [29.817587405919593, 59.91286554990034], [29.817595011449008, 59.912955235119355], [29.817416414031772, 59.91295905423517], [29.817424019128577, 59.91304873946607], [29.81760261702635, 59.91304492033657], [29.81761022265162, 59.91313460555197], [29.817260630559183, 59.913231928837654]]]}, "properties": {"zone_id": "neva-2026-09-14-013", "aoi": "neva", "date": "2026-09-14", "scene_id": "S2A_MSIL2A_20260914T093141_R136_T36VUM_20260914T143714", "scene_datetime_utc": "2026-09-14T09:31:41.024000+00:00", "detection_status": "detected", "detection_status_ru": "обнаружено", "lon": 29.81733, "lat": 59.91301, "n_pixels": 2, "zone_area_km2": 0.0009, "cover_m2": 10.6, "p_mean": 0.99, "p_max": 0.996, "cover_m2_km2": 11777.8, "h3": "8811068e63fffff", "valid_frac_scene": 0.996, "wind_ms": 4.3, "sea": "спокойное", "scene_reliable": true, "field_event_id": "S3:HE419_MarLitter_transect28", "field_profile": "B", "field_date": "2014-04-11", "field_distance_km": 1401.5, "field_date_gap_days": 4539, "field_conc_items_km2": 43.1, "conc_A_items_km2": null, "conc_A_lo80": null, "conc_A_hi80": null, "conc_A_lo95": null, "conc_A_hi95": null, "conc_A_status": "unavailable", "conc_A_status_ru": "концентрация недоступна", "conc_A_reasons": "вне бассейна профиля: nw_atlantic_subtropical", "conc_A_model": "conc-A-c6bce5631d2b", "conc_B_items_km2": null, "conc_B_lo80": null, "conc_B_hi80": null, "conc_B_lo95": null, "conc_B_hi95": null, "conc_B_status": "unavailable", "conc_B_status_ru": "концентрация недоступна", "conc_B_reasons": "вне бассейна профиля: black_sea", "conc_B_model": "conc-B-c6bce5631d2b"}}, {"type": "Feature", "geometry": {"type": "Polygon", "coordinates": [[[29.816173832502564, 59.913075466603665], [29.816166230769518, 59.9129857812768], [29.815987632969005, 59.9129895984586], [29.815980031764393, 59.912899913116206], [29.816158629084374, 59.9128960959481], [29.816151027447123, 59.91280641061759], [29.81651582358063, 59.912888460886656], [29.81652342622685, 59.91297814618793], [29.816344828522134, 59.912981963853234], [29.81635243073572, 59.913071649166405], [29.816173832502564, 59.913075466603665]]]}, "properties": {"zone_id": "neva-2026-09-14-014", "aoi": "neva", "date": "2026-09-14", "scene_id": "S2A_MSIL2A_20260914T093141_R136_T36VUM_20260914T143714", "scene_datetime_utc": "2026-09-14T09:31:41.024000+00:00", "detection_status": "detected", "detection_status_ru": "обнаружено", "lon": 29.81625, "lat": 59.91294, "n_pixels": 1, "zone_area_km2": 0.0005, "cover_m2": 3.9, "p_mean": 1.0, "p_max": 1.0, "cover_m2_km2": 7800.0, "h3": "8811068e63fffff", "valid_frac_scene": 0.996, "wind_ms": 4.3, "sea": "спокойное", "scene_reliable": true, "field_event_id": "S3:HE419_MarLitter_transect28", "field_profile": "B", "field_date": "2014-04-11", "field_distance_km": 1401.5, "field_date_gap_days": 4539, "field_conc_items_km2": 43.1, "conc_A_items_km2": null, "conc_A_lo80": null, "conc_A_hi80": null, "conc_A_lo95": null, "conc_A_hi95": null, "conc_A_status": "unavailable", "conc_A_status_ru": "концентрация недоступна", "conc_A_reasons": "вне бассейна профиля: nw_atlantic_subtropical", "conc_A_model": "conc-A-c6bce5631d2b", "conc_B_items_km2": null, "conc_B_lo80": null, "conc_B_hi80": null, "conc_B_lo95": null, "conc_B_hi95": null, "conc_B_status": "unavailable", "conc_B_status_ru": "концентрация недоступна", "conc_B_reasons": "вне бассейна профиля: black_sea", "conc_B_model": "conc-B-c6bce5631d2b"}}, {"type": "Feature", "geometry": {"type": "Polygon", "coordinates": [[[29.81975339945233, 59.913088756976926], [29.819745788060636, 59.91299907192611], [29.81956719073816, 59.91300289395659], [29.81955196905971, 59.91282352382215], [29.81973056542113, 59.91281970181909], [29.819722954173315, 59.912730016762865], [29.820080145791234, 59.91272237205901], [29.820087758000092, 59.91281205708779], [29.82026635421763, 59.91280823435951], [29.820281579740307, 59.912987604384156], [29.820102982561714, 59.912991427139886], [29.820110594914475, 59.91308111216325], [29.81975339945233, 59.913088756976926]]]}, "properties": {"zone_id": "neva-2026-09-14-015", "aoi": "neva", "date": "2026-09-14", "scene_id": "S2A_MSIL2A_20260914T093141_R136_T36VUM_20260914T143714", "scene_datetime_utc": "2026-09-14T09:31:41.024000+00:00", "detection_status": "detected", "detection_status_ru": "обнаружено", "lon": 29.81992, "lat": 59.91291, "n_pixels": 4, "zone_area_km2": 0.0012, "cover_m2": 18.8, "p_mean": 0.994, "p_max": 1.0, "cover_m2_km2": 15666.7, "h3": "8811068e05fffff", "valid_frac_scene": 0.996, "wind_ms": 4.3, "sea": "спокойное", "scene_reliable": true, "field_event_id": "S3:HE419_MarLitter_transect28", "field_profile": "B", "field_date": "2014-04-11", "field_distance_km": 1401.7, "field_date_gap_days": 4539, "field_conc_items_km2": 43.1, "conc_A_items_km2": null, "conc_A_lo80": null, "conc_A_hi80": null, "conc_A_lo95": null, "conc_A_hi95": null, "conc_A_status": "unavailable", "conc_A_status_ru": "концентрация недоступна", "conc_A_reasons": "вне бассейна профиля: nw_atlantic_subtropical", "conc_A_model": "conc-A-c6bce5631d2b", "conc_B_items_km2": null, "conc_B_lo80": null, "conc_B_hi80": null, "conc_B_lo95": null, "conc_B_hi95": null, "conc_B_status": "unavailable", "conc_B_status_ru": "концентрация недоступна", "conc_B_reasons": "вне бассейна профиля: black_sea", "conc_B_model": "conc-B-c6bce5631d2b"}}, {"type": "Feature", "geometry": {"type": "Polygon", "coordinates": [[[29.826512679636377, 59.910518026149276], [29.826505050802172, 59.91042834158522], [29.826326468325192, 59.91043217267236], [29.82631884001949, 59.91034248809277], [29.826497422016033, 59.91033865701938], [29.826489793277958, 59.91024897245171], [29.82685458586492, 59.91033099414746], [29.826862215611925, 59.910420678685796], [29.82668363323108, 59.91042451025638], [29.826691262545722, 59.91051419480666], [29.826512679636377, 59.910518026149276]]]}, "properties": {"zone_id": "neva-2026-09-14-016", "aoi": "neva", "date": "2026-09-14", "scene_id": "S2A_MSIL2A_20260914T093141_R136_T36VUM_20260914T143714", "scene_datetime_utc": "2026-09-14T09:31:41.024000+00:00", "detection_status": "detected", "detection_status_ru": "обнаружено", "lon": 29.82659, "lat": 59.91038, "n_pixels": 1, "zone_area_km2": 0.0005, "cover_m2": 3.9, "p_mean": 1.0, "p_max": 1.0, "cover_m2_km2": 7800.0, "h3": "8811068e29fffff", "valid_frac_scene": 0.996, "wind_ms": 4.3, "sea": "спокойное", "scene_reliable": true, "field_event_id": "S3:HE419_MarLitter_transect28", "field_profile": "B", "field_date": "2014-04-11", "field_distance_km": 1402.0, "field_date_gap_days": 4539, "field_conc_items_km2": 43.1, "conc_A_items_km2": null, "conc_A_lo80": null, "conc_A_hi80": null, "conc_A_lo95": null, "conc_A_hi95": null, "conc_A_status": "unavailable", "conc_A_status_ru": "концентрация недоступна", "conc_A_reasons": "вне бассейна профиля: nw_atlantic_subtropical", "conc_A_model": "conc-A-c6bce5631d2b", "conc_B_items_km2": null, "conc_B_lo80": null, "conc_B_hi80": null, "conc_B_lo95": null, "conc_B_hi95": null, "conc_B_status": "unavailable", "conc_B_status_ru": "концентрация недоступна", "conc_B_reasons": "вне бассейна профиля: black_sea", "conc_B_model": "conc-B-c6bce5631d2b"}}, {"type": "Feature", "geometry": {"type": "Polygon", "coordinates": [[[29.822553370705037, 59.91024351505481], [29.822545752632507, 59.910153830181116], [29.822367171020574, 59.91015765589546], [29.822359553476474, 59.91006797100621], [29.82253813460797, 59.91006414530559], [29.822530516631435, 59.909974460428266], [29.822895296726973, 59.91005649317919], [29.82290291571237, 59.910146178027254], [29.822724334196437, 59.910150004225045], [29.822731952749404, 59.91023968908499], [29.822553370705037, 59.91024351505481]]]}, "properties": {"zone_id": "neva-2026-09-14-017", "aoi": "neva", "date": "2026-09-14", "scene_id": "S2A_MSIL2A_20260914T093141_R136_T36VUM_20260914T143714", "scene_datetime_utc": "2026-09-14T09:31:41.024000+00:00", "detection_status": "detected", "detection_status_ru": "обнаружено", "lon": 29.82263, "lat": 59.91011, "n_pixels": 1, "zone_area_km2": 0.0005, "cover_m2": 5.9, "p_mean": 0.576, "p_max": 0.576, "cover_m2_km2": 11800.0, "h3": "8811068e29fffff", "valid_frac_scene": 0.996, "wind_ms": 4.3, "sea": "спокойное", "scene_reliable": true, "field_event_id": "S3:HE419_MarLitter_transect28", "field_profile": "B", "field_date": "2014-04-11", "field_distance_km": 1401.8, "field_date_gap_days": 4539, "field_conc_items_km2": 43.1, "conc_A_items_km2": null, "conc_A_lo80": null, "conc_A_hi80": null, "conc_A_lo95": null, "conc_A_hi95": null, "conc_A_status": "unavailable", "conc_A_status_ru": "концентрация недоступна", "conc_A_reasons": "вне бассейна профиля: nw_atlantic_subtropical", "conc_A_model": "conc-A-c6bce5631d2b", "conc_B_items_km2": null, "conc_B_lo80": null, "conc_B_hi80": null, "conc_B_lo95": null, "conc_B_hi95": null, "conc_B_status": "unavailable", "conc_B_status_ru": "концентрация недоступна", "conc_B_reasons": "вне бассейна профиля: black_sea", "conc_B_model": "conc-B-c6bce5631d2b"}}, {"type": "Feature", "geometry": {"type": "Polygon", "coordinates": [[[29.826831696912343, 59.91006194052153], [29.826824067357624, 59.909972255975894], [29.826645487378904, 59.909976087477695], [29.826637858352676, 59.90988640291652], [29.82681643785098, 59.90988257142848], [29.8268088083924, 59.9097928868792], [29.82717359670336, 59.90987490772725], [29.82718122717084, 59.90996459224717], [29.827002647288268, 59.909968424232396], [29.827010277323406, 59.910058108764275], [29.826831696912343, 59.91006194052153]]]}, "properties": {"zone_id": "neva-2026-09-14-018", "aoi": "neva", "date": "2026-09-14", "scene_id": "S2A_MSIL2A_20260914T093141_R136_T36VUM_20260914T143714", "scene_datetime_utc": "2026-09-14T09:31:41.024000+00:00", "detection_status": "detected", "detection_status_ru": "обнаружено", "lon": 29.82691, "lat": 59.90993, "n_pixels": 1, "zone_area_km2": 0.0005, "cover_m2": 5.5, "p_mean": 0.961, "p_max": 0.961, "cover_m2_km2": 11000.0, "h3": "8811068e29fffff", "valid_frac_scene": 0.996, "wind_ms": 4.3, "sea": "спокойное", "scene_reliable": true, "field_event_id": "S3:HE419_MarLitter_transect28", "field_profile": "B", "field_date": "2014-04-11", "field_distance_km": 1402.0, "field_date_gap_days": 4539, "field_conc_items_km2": 43.1, "conc_A_items_km2": null, "conc_A_lo80": null, "conc_A_hi80": null, "conc_A_lo95": null, "conc_A_hi95": null, "conc_A_status": "unavailable", "conc_A_status_ru": "концентрация недоступна", "conc_A_reasons": "вне бассейна профиля: nw_atlantic_subtropical", "conc_A_model": "conc-A-c6bce5631d2b", "conc_B_items_km2": null, "conc_B_lo80": null, "conc_B_hi80": null, "conc_B_lo95": null, "conc_B_hi95": null, "conc_B_status": "unavailable", "conc_B_status_ru": "концентрация недоступна", "conc_B_reasons": "вне бассейна профиля: black_sea", "conc_B_model": "conc-B-c6bce5631d2b"}}, {"type": "Feature", "geometry": {"type": "Polygon", "coordinates": [[[30.046353644508397, 59.886567977774305], [30.04634543076254, 59.88647831053943], [30.046167011921842, 59.88648243835541], [30.046158798706934, 59.886392771103786], [30.046337217068388, 59.88638864330259], [30.046329003425942, 59.886298976063884], [30.046694053636177, 59.88638038697614], [30.046702268288822, 59.88647005418335], [30.046523849551537, 59.886474182482075], [30.046532063776638, 59.88656384970213], [30.046353644508397, 59.886567977774305]]]}, "properties": {"zone_id": "neva-2026-09-14-019", "aoi": "neva", "date": "2026-09-14", "scene_id": "S2A_MSIL2A_20260914T093141_R136_T36VUM_20260914T143714", "scene_datetime_utc": "2026-09-14T09:31:41.024000+00:00", "detection_status": "detected", "detection_status_ru": "обнаружено", "lon": 30.04643, "lat": 59.88643, "n_pixels": 1, "zone_area_km2": 0.0005, "cover_m2": 9.4, "p_mean": 0.976, "p_max": 0.976, "cover_m2_km2": 18800.0, "h3": "8811068db5fffff", "valid_frac_scene": 0.996, "wind_ms": 4.3, "sea": "спокойное", "scene_reliable": true, "field_event_id": "S3:HE419_MarLitter_transect28", "field_profile": "B", "field_date": "2014-04-11", "field_distance_km": 1413.3, "field_date_gap_days": 4539, "field_conc_items_km2": 43.1, "conc_A_items_km2": null, "conc_A_lo80": null, "conc_A_hi80": null, "conc_A_lo95": null, "conc_A_hi95": null, "conc_A_status": "unavailable", "conc_A_status_ru": "концентрация недоступна", "conc_A_reasons": "вне бассейна профиля: nw_atlantic_subtropical", "conc_A_model": "conc-A-c6bce5631d2b", "conc_B_items_km2": null, "conc_B_lo80": null, "conc_B_hi80": null, "conc_B_lo95": null, "conc_B_hi95": null, "conc_B_status": "unavailable", "conc_B_status_ru": "концентрация недоступна", "conc_B_reasons": "вне бассейна профиля: black_sea", "conc_B_model": "conc-B-c6bce5631d2b"}}]}