{"type": "FeatureCollection", "features": [{"type": "Feature", "geometry": {"type": "Polygon", "coordinates": [[[49.067802398142454, 53.718626754134206], [49.06780651686399, 53.71853692186759], [49.067655067107076, 53.718534478763274], [49.06766330512793, 53.71835481424129], [49.067511856037996, 53.718352370961604], [49.06752009461436, 53.718172706449295], [49.06767154305961, 53.71817514971302], [49.067675661992006, 53.71808531744652], [49.067974440017, 53.71818003566645], [49.067966203374674, 53.71835970022665], [49.068117652531484, 53.71836214293232], [49.068109416444685, 53.718541807502184], [49.067802398142454, 53.718626754134206]]]}, "properties": {"zone_id": "kuibyshev-2026-05-23-001", "aoi": "kuibyshev", "date": "2026-05-23", "scene_id": "S2B_MSIL2A_20260523T075609_R035_T39UUV_20260523T101352", "scene_datetime_utc": "2026-05-23T07:56:09.024000+00:00", "detection_status": "detected", "detection_status_ru": "обнаружено", "lon": 49.06781, "lat": 53.71836, "n_pixels": 4, "zone_area_km2": 0.0014, "cover_m2": 13.7, "p_mean": 0.726, "p_max": 0.961, "cover_m2_km2": 9785.7, "h3": "8810856749fffff", "valid_frac_scene": 0.999, "wind_ms": 3.9, "sea": "спокойное", "scene_reliable": true, "field_event_id": "S4:DOORS3:T23", "field_profile": "B", "field_date": "2024-06-10", "field_distance_km": 1381.4, "field_date_gap_days": 712, "field_conc_items_km2": 102.37, "conc_A_items_km2": null, "conc_A_lo80": null, "conc_A_hi80": null, "conc_A_lo95": null, "conc_A_hi95": null, "conc_A_status": "unavailable", "conc_A_status_ru": "концентрация недоступна", "conc_A_reasons": "вне бассейна профиля: nw_atlantic_subtropical", "conc_A_model": "conc-A-c6bce5631d2b", "conc_B_items_km2": null, "conc_B_lo80": null, "conc_B_hi80": null, "conc_B_lo95": null, "conc_B_hi95": null, "conc_B_status": "unavailable", "conc_B_status_ru": "концентрация недоступна", "conc_B_reasons": "вне бассейна профиля: black_sea", "conc_B_model": "conc-B-c6bce5631d2b"}}, {"type": "Feature", "geometry": {"type": "Polygon", "coordinates": [[[49.04086048623536, 53.646089628947074], [49.04086465131741, 53.64599979702222], [49.04071346398895, 53.64599732214068], [49.04071762936942, 53.64590749022232], [49.04086881637696, 53.64590996509578], [49.04087298141399, 53.645820133167774], [49.04102416812312, 53.64582260784232], [49.04102833281674, 53.64573277590465], [49.0413265416089, 53.645827556618954], [49.04131821343783, 53.64600722052185], [49.04116702604185, 53.64600474621282], [49.041162861601634, 53.646094578153814], [49.04086048623536, 53.646089628947074]]]}, "properties": {"zone_id": "kuibyshev-2026-05-23-002", "aoi": "kuibyshev", "date": "2026-05-23", "scene_id": "S2B_MSIL2A_20260523T075609_R035_T39UUV_20260523T101352", "scene_datetime_utc": "2026-05-23T07:56:09.024000+00:00", "detection_status": "detected", "detection_status_ru": "обнаружено", "lon": 49.04104, "lat": 53.64593, "n_pixels": 3, "zone_area_km2": 0.001, "cover_m2": 11.8, "p_mean": 0.997, "p_max": 1.0, "cover_m2_km2": 11800.0, "h3": "881085601bfffff", "valid_frac_scene": 0.999, "wind_ms": 3.9, "sea": "спокойное", "scene_reliable": true, "field_event_id": "S4:DOORS3:T23", "field_profile": "B", "field_date": "2024-06-10", "field_distance_km": 1373.4, "field_date_gap_days": 712, "field_conc_items_km2": 102.37, "conc_A_items_km2": null, "conc_A_lo80": null, "conc_A_hi80": null, "conc_A_lo95": null, "conc_A_hi95": null, "conc_A_status": "unavailable", "conc_A_status_ru": "концентрация недоступна", "conc_A_reasons": "вне бассейна профиля: nw_atlantic_subtropical", "conc_A_model": "conc-A-c6bce5631d2b", "conc_B_items_km2": null, "conc_B_lo80": null, "conc_B_hi80": null, "conc_B_lo95": null, "conc_B_hi95": null, "conc_B_status": "unavailable", "conc_B_status_ru": "концентрация недоступна", "conc_B_reasons": "вне бассейна профиля: black_sea", "conc_B_model": "conc-B-c6bce5631d2b"}}, {"type": "Feature", "geometry": {"type": "Polygon", "coordinates": [[[49.05050571092151, 53.50905840319377], [49.0505098348417, 53.50896856868262], [49.05035913473814, 53.508966110265995], [49.05036325895439, 53.50887627576128], [49.05066878210458, 53.50879135786628], [49.05066465854714, 53.50888119238861], [49.050815358376845, 53.50888365041745], [49.05081123511548, 53.508973484946196], [49.050660534967484, 53.508971026909336], [49.050656411365594, 53.509060861428516], [49.05050571092151, 53.50905840319377]]]}, "properties": {"zone_id": "kuibyshev-2026-05-23-003", "aoi": "kuibyshev", "date": "2026-05-23", "scene_id": "S2B_MSIL2A_20260523T075609_R035_T39UUV_20260523T101352", "scene_datetime_utc": "2026-05-23T07:56:09.024000+00:00", "detection_status": "detected", "detection_status_ru": "обнаружено", "lon": 49.05059, "lat": 53.50892, "n_pixels": 1, "zone_area_km2": 0.0005, "cover_m2": 2.0, "p_mean": 0.647, "p_max": 0.647, "cover_m2_km2": 4000.0, "h3": "8810856ae9fffff", "valid_frac_scene": 0.999, "wind_ms": 3.9, "sea": "спокойное", "scene_reliable": true, "field_event_id": "S4:DOORS3:T23", "field_profile": "B", "field_date": "2024-06-10", "field_distance_km": 1360.1, "field_date_gap_days": 712, "field_conc_items_km2": 102.37, "conc_A_items_km2": null, "conc_A_lo80": null, "conc_A_hi80": null, "conc_A_lo95": null, "conc_A_hi95": null, "conc_A_status": "unavailable", "conc_A_status_ru": "концентрация недоступна", "conc_A_reasons": "вне бассейна профиля: nw_atlantic_subtropical", "conc_A_model": "conc-A-c6bce5631d2b", "conc_B_items_km2": null, "conc_B_lo80": null, "conc_B_hi80": null, "conc_B_lo95": null, "conc_B_hi95": null, "conc_B_status": "unavailable", "conc_B_status_ru": "концентрация недоступна", "conc_B_reasons": "вне бассейна профиля: black_sea", "conc_B_model": "conc-B-c6bce5631d2b"}}, {"type": "Feature", "geometry": {"type": "Polygon", "coordinates": [[[49.22157142429764, 53.50075867635392], [49.22157518533253, 53.50066883298078], [49.22142450000899, 53.50066659044362], [49.22142826134188, 53.50057674707626], [49.22173339204882, 53.500491388562544], [49.22172963137272, 53.50058123194608], [49.221880316418535, 53.50058347409617], [49.22187655604043, 53.500673317485465], [49.221725870676345, 53.500671075328064], [49.221722109959714, 53.500760918708515], [49.22157142429764, 53.50075867635392]]]}, "properties": {"zone_id": "kuibyshev-2026-05-23-004", "aoi": "kuibyshev", "date": "2026-05-23", "scene_id": "S2B_MSIL2A_20260523T075609_R035_T39UUV_20260523T101352", "scene_datetime_utc": "2026-05-23T07:56:09.024000+00:00", "detection_status": "detected", "detection_status_ru": "обнаружено", "lon": 49.22165, "lat": 53.50063, "n_pixels": 1, "zone_area_km2": 0.0005, "cover_m2": 4.7, "p_mean": 0.984, "p_max": 0.984, "cover_m2_km2": 9400.0, "h3": "8810856d69fffff", "valid_frac_scene": 0.999, "wind_ms": 3.9, "sea": "спокойное", "scene_reliable": true, "field_event_id": "S4:DOORS3:T23", "field_profile": "B", "field_date": "2024-06-10", "field_distance_km": 1364.5, "field_date_gap_days": 712, "field_conc_items_km2": 102.37, "conc_A_items_km2": null, "conc_A_lo80": null, "conc_A_hi80": null, "conc_A_lo95": null, "conc_A_hi95": null, "conc_A_status": "unavailable", "conc_A_status_ru": "концентрация недоступна", "conc_A_reasons": "вне бассейна профиля: nw_atlantic_subtropical", "conc_A_model": "conc-A-c6bce5631d2b", "conc_B_items_km2": null, "conc_B_lo80": null, "conc_B_hi80": null, "conc_B_lo95": null, "conc_B_hi95": null, "conc_B_status": "unavailable", "conc_B_status_ru": "концентрация недоступна", "conc_B_reasons": "вне бассейна профиля: black_sea", "conc_B_model": "conc-B-c6bce5631d2b"}}, {"type": "Feature", "geometry": {"type": "Polygon", "coordinates": [[[49.22189911800514, 53.50013425712656], [49.221902878261666, 53.50004441372803], [49.22175219512538, 53.50004217162178], [49.2217559556799, 53.49995232822899], [49.222061081234, 53.49986696882808], [49.222057321336244, 53.499956812237016], [49.22220800419481, 53.49995905395621], [49.222204244595034, 53.50004889737091], [49.22205356141822, 53.500046655644404], [49.22204980147993, 53.50013649905025], [49.22189911800514, 53.50013425712656]]]}, "properties": {"zone_id": "kuibyshev-2026-05-23-005", "aoi": "kuibyshev", "date": "2026-05-23", "scene_id": "S2B_MSIL2A_20260523T075609_R035_T39UUV_20260523T101352", "scene_datetime_utc": "2026-05-23T07:56:09.024000+00:00", "detection_status": "detected", "detection_status_ru": "обнаружено", "lon": 49.22198, "lat": 53.5, "n_pixels": 1, "zone_area_km2": 0.0005, "cover_m2": 8.2, "p_mean": 0.984, "p_max": 0.984, "cover_m2_km2": 16400.0, "h3": "8810856d6dfffff", "valid_frac_scene": 0.999, "wind_ms": 3.9, "sea": "спокойное", "scene_reliable": true, "field_event_id": "S4:DOORS3:T23", "field_profile": "B", "field_date": "2024-06-10", "field_distance_km": 1364.4, "field_date_gap_days": 712, "field_conc_items_km2": 102.37, "conc_A_items_km2": null, "conc_A_lo80": null, "conc_A_hi80": null, "conc_A_lo95": null, "conc_A_hi95": null, "conc_A_status": "unavailable", "conc_A_status_ru": "концентрация недоступна", "conc_A_reasons": "вне бассейна профиля: nw_atlantic_subtropical", "conc_A_model": "conc-A-c6bce5631d2b", "conc_B_items_km2": null, "conc_B_lo80": null, "conc_B_hi80": null, "conc_B_lo95": null, "conc_B_hi95": null, "conc_B_status": "unavailable", "conc_B_status_ru": "концентрация недоступна", "conc_B_reasons": "вне бассейна профиля: black_sea", "conc_B_model": "conc-B-c6bce5631d2b"}}, {"type": "Feature", "geometry": {"type": "Polygon", "coordinates": [[[49.2448700484955, 53.49885564923953], [49.24487376001633, 53.49876580470975], [49.24472307954848, 53.49876359159456], [49.244730503166615, 53.49858390254482], [49.24503557399195, 53.49849848401486], [49.24503186284936, 53.498588328556465], [49.24518254272073, 53.49859054127749], [49.245175121012025, 53.498770230370496], [49.2448700484955, 53.49885564923953]]]}, "properties": {"zone_id": "kuibyshev-2026-05-23-006", "aoi": "kuibyshev", "date": "2026-05-23", "scene_id": "S2B_MSIL2A_20260523T075609_R035_T39UUV_20260523T101352", "scene_datetime_utc": "2026-05-23T07:56:09.024000+00:00", "detection_status": "detected", "detection_status_ru": "обнаружено", "lon": 49.24495, "lat": 53.49868, "n_pixels": 2, "zone_area_km2": 0.0008, "cover_m2": 8.2, "p_mean": 0.831, "p_max": 0.969, "cover_m2_km2": 10250.0, "h3": "8810856d67fffff", "valid_frac_scene": 0.999, "wind_ms": 3.9, "sea": "спокойное", "scene_reliable": true, "field_event_id": "S4:DOORS3:T23", "field_profile": "B", "field_date": "2024-06-10", "field_distance_km": 1365.0, "field_date_gap_days": 712, "field_conc_items_km2": 102.37, "conc_A_items_km2": null, "conc_A_lo80": null, "conc_A_hi80": null, "conc_A_lo95": null, "conc_A_hi95": null, "conc_A_status": "unavailable", "conc_A_status_ru": "концентрация недоступна", "conc_A_reasons": "вне бассейна профиля: nw_atlantic_subtropical", "conc_A_model": "conc-A-c6bce5631d2b", "conc_B_items_km2": null, "conc_B_lo80": null, "conc_B_hi80": null, "conc_B_lo95": null, "conc_B_hi95": null, "conc_B_status": "unavailable", "conc_B_status_ru": "концентрация недоступна", "conc_B_reasons": "вне бассейна профиля: black_sea", "conc_B_model": "conc-B-c6bce5631d2b"}}, {"type": "Feature", "geometry": {"type": "Polygon", "coordinates": [[[49.252820011767874, 53.49618527722303], [49.25282370612281, 53.49609543227142], [49.25267303448215, 53.496093229252125], [49.252680423768695, 53.49591353935867], [49.25298545977418, 53.49582810021528], [49.252981765797145, 53.49591794517866], [49.253132436841234, 53.495920147803886], [49.253125049463854, 53.496099837740424], [49.252820011767874, 53.49618527722303]]]}, "properties": {"zone_id": "kuibyshev-2026-05-23-007", "aoi": "kuibyshev", "date": "2026-05-23", "scene_id": "S2B_MSIL2A_20260523T075609_R035_T39UUV_20260523T101352", "scene_datetime_utc": "2026-05-23T07:56:09.024000+00:00", "detection_status": "detected", "detection_status_ru": "обнаружено", "lon": 49.2529, "lat": 53.49601, "n_pixels": 2, "zone_area_km2": 0.0008, "cover_m2": 3.1, "p_mean": 0.763, "p_max": 0.957, "cover_m2_km2": 3875.0, "h3": "8810856d29fffff", "valid_frac_scene": 0.999, "wind_ms": 3.9, "sea": "спокойное", "scene_reliable": true, "field_event_id": "S4:DOORS3:T23", "field_profile": "B", "field_date": "2024-06-10", "field_distance_km": 1365.0, "field_date_gap_days": 712, "field_conc_items_km2": 102.37, "conc_A_items_km2": null, "conc_A_lo80": null, "conc_A_hi80": null, "conc_A_lo95": null, "conc_A_hi95": null, "conc_A_status": "unavailable", "conc_A_status_ru": "концентрация недоступна", "conc_A_reasons": "вне бассейна профиля: nw_atlantic_subtropical", "conc_A_model": "conc-A-c6bce5631d2b", "conc_B_items_km2": null, "conc_B_lo80": null, "conc_B_hi80": null, "conc_B_lo95": null, "conc_B_hi95": null, "conc_B_status": "unavailable", "conc_B_status_ru": "концентрация недоступна", "conc_B_reasons": "вне бассейна профиля: black_sea", "conc_B_model": "conc-B-c6bce5631d2b"}}, {"type": "Feature", "geometry": {"type": "Polygon", "coordinates": [[[49.24243484226933, 53.4957632896335], [49.24243855851937, 53.49567344517415], [49.242287889210864, 53.49567122907678], [49.24229160575906, 53.49558138462311], [49.24259665965153, 53.495495972143914], [49.242592943759725, 53.49558581661356], [49.242743612790086, 53.495588032324015], [49.24273989719644, 53.495677876799355], [49.24258922784789, 53.49567566108168], [49.24258551191603, 53.49576550554824], [49.24243484226933, 53.4957632896335]]]}, "properties": {"zone_id": "kuibyshev-2026-05-23-008", "aoi": "kuibyshev", "date": "2026-05-23", "scene_id": "S2B_MSIL2A_20260523T075609_R035_T39UUV_20260523T101352", "scene_datetime_utc": "2026-05-23T07:56:09.024000+00:00", "detection_status": "detected", "detection_status_ru": "обнаружено", "lon": 49.24252, "lat": 53.49563, "n_pixels": 1, "zone_area_km2": 0.0005, "cover_m2": 2.4, "p_mean": 0.953, "p_max": 0.953, "cover_m2_km2": 4800.0, "h3": "8810856d67fffff", "valid_frac_scene": 0.999, "wind_ms": 3.9, "sea": "спокойное", "scene_reliable": true, "field_event_id": "S4:DOORS3:T23", "field_profile": "B", "field_date": "2024-06-10", "field_distance_km": 1364.6, "field_date_gap_days": 712, "field_conc_items_km2": 102.37, "conc_A_items_km2": null, "conc_A_lo80": null, "conc_A_hi80": null, "conc_A_lo95": null, "conc_A_hi95": null, "conc_A_status": "unavailable", "conc_A_status_ru": "концентрация недоступна", "conc_A_reasons": "вне бассейна профиля: nw_atlantic_subtropical", "conc_A_model": "conc-A-c6bce5631d2b", "conc_B_items_km2": null, "conc_B_lo80": null, "conc_B_hi80": null, "conc_B_lo95": null, "conc_B_hi95": null, "conc_B_status": "unavailable", "conc_B_status_ru": "концентрация недоступна", "conc_B_reasons": "вне бассейна профиля: black_sea", "conc_B_model": "conc-B-c6bce5631d2b"}}, {"type": "Feature", "geometry": {"type": "Polygon", "coordinates": [[[49.2426040913751, 53.49531628320001], [49.242607807206845, 53.495226438725766], [49.242457139469195, 53.49522422285434], [49.24246457170897, 53.49504453391566], [49.24261523881028, 53.49504674977263], [49.24261895458197, 53.49495690529376], [49.2429202882083, 53.494961336423735], [49.24291657307295, 53.49505118091704], [49.24306724023431, 53.49505339620449], [49.2430598105399, 53.49523308520093], [49.24290914274219, 53.49523086989906], [49.24290542754679, 53.49532071438776], [49.2426040913751, 53.49531628320001]]]}, "properties": {"zone_id": "kuibyshev-2026-05-23-009", "aoi": "kuibyshev", "date": "2026-05-23", "scene_id": "S2B_MSIL2A_20260523T075609_R035_T39UUV_20260523T101352", "scene_datetime_utc": "2026-05-23T07:56:09.024000+00:00", "detection_status": "detected", "detection_status_ru": "обнаружено", "lon": 49.24276, "lat": 53.49514, "n_pixels": 4, "zone_area_km2": 0.0012, "cover_m2": 15.3, "p_mean": 1.0, "p_max": 1.0, "cover_m2_km2": 12750.0, "h3": "8810856d67fffff", "valid_frac_scene": 0.999, "wind_ms": 3.9, "sea": "спокойное", "scene_reliable": true, "field_event_id": "S4:DOORS3:T23", "field_profile": "B", "field_date": "2024-06-10", "field_distance_km": 1364.6, "field_date_gap_days": 712, "field_conc_items_km2": 102.37, "conc_A_items_km2": null, "conc_A_lo80": null, "conc_A_hi80": null, "conc_A_lo95": null, "conc_A_hi95": null, "conc_A_status": "unavailable", "conc_A_status_ru": "концентрация недоступна", "conc_A_reasons": "вне бассейна профиля: nw_atlantic_subtropical", "conc_A_model": "conc-A-c6bce5631d2b", "conc_B_items_km2": null, "conc_B_lo80": null, "conc_B_hi80": null, "conc_B_lo95": null, "conc_B_hi95": null, "conc_B_status": "unavailable", "conc_B_status_ru": "концентрация недоступна", "conc_B_reasons": "вне бассейна профиля: black_sea", "conc_B_model": "conc-B-c6bce5631d2b"}}, {"type": "Feature", "geometry": {"type": "MultiPolygon", "coordinates": [[[[49.24501849373082, 53.49526186684947], [49.24502220445179, 53.49517202225822], [49.24532353999097, 53.49517644734204], [49.24532725005562, 53.49508660273481], [49.24547791753701, 53.49508881498475], [49.245492756323024, 53.494729436511676], [49.24519513420841, 53.49463516727195], [49.24519142392555, 53.49472501187964], [49.24504075775679, 53.49472279927887], [49.24502962583377, 53.494992333071075], [49.24472458032992, 53.49507775183663], [49.24472086899259, 53.49516759641501], [49.24487153671219, 53.49516980943154], [49.24486782567304, 53.495259654015584], [49.24501849373082, 53.49526186684947]]], [[[49.24456648961748, 53.495255227778266], [49.24456277792199, 53.49534507234634], [49.24441210960604, 53.49534285893569], [49.244408397572364, 53.495432703495034], [49.24470602344331, 53.49552697471311], [49.244702312006, 53.4956168192838], [49.24500736144791, 53.49553140061402], [49.245014782989834, 53.4953517114392], [49.2448641146139, 53.49534949859809], [49.24486782567304, 53.495259654015584], [49.24456648961748, 53.495255227778266]]]]}, "properties": {"zone_id": "kuibyshev-2026-05-23-010", "aoi": "kuibyshev", "date": "2026-05-23", "scene_id": "S2B_MSIL2A_20260523T075609_R035_T39UUV_20260523T101352", "scene_datetime_utc": "2026-05-23T07:56:09.024000+00:00", "detection_status": "detected", "detection_status_ru": "обнаружено", "lon": 49.24502, "lat": 53.49513, "n_pixels": 8, "zone_area_km2": 0.0029, "cover_m2": 42.7, "p_mean": 0.849, "p_max": 0.996, "cover_m2_km2": 14724.1, "h3": "8810856d67fffff", "valid_frac_scene": 0.999, "wind_ms": 3.9, "sea": "спокойное", "scene_reliable": true, "field_event_id": "S4:DOORS3:T23", "field_profile": "B", "field_date": "2024-06-10", "field_distance_km": 1364.6, "field_date_gap_days": 712, "field_conc_items_km2": 102.37, "conc_A_items_km2": null, "conc_A_lo80": null, "conc_A_hi80": null, "conc_A_lo95": null, "conc_A_hi95": null, "conc_A_status": "unavailable", "conc_A_status_ru": "концентрация недоступна", "conc_A_reasons": "вне бассейна профиля: nw_atlantic_subtropical", "conc_A_model": "conc-A-c6bce5631d2b", "conc_B_items_km2": null, "conc_B_lo80": null, "conc_B_hi80": null, "conc_B_lo95": null, "conc_B_hi95": null, "conc_B_status": "unavailable", "conc_B_status_ru": "концентрация недоступна", "conc_B_reasons": "вне бассейна профиля: black_sea", "conc_B_model": "conc-B-c6bce5631d2b"}}, {"type": "Feature", "geometry": {"type": "Polygon", "coordinates": [[[49.25609255379283, 53.482568429347474], [49.25609623940092, 53.48247858403344], [49.255945615748466, 53.482476385520854], [49.25594930165463, 53.482386540212445], [49.256099924989144, 53.48238873871786], [49.25610361055752, 53.48229889340075], [49.25640485665023, 53.48230328982799], [49.25640117171772, 53.482393135159434], [49.25655179511178, 53.48239533309558], [49.25654811047737, 53.48248517843264], [49.256397486765366, 53.48248298048934], [49.25639380179316, 53.482572825817705], [49.25609255379283, 53.482568429347474]]]}, "properties": {"zone_id": "kuibyshev-2026-05-23-011", "aoi": "kuibyshev", "date": "2026-05-23", "scene_id": "S2B_MSIL2A_20260523T075609_R035_T39UUV_20260523T101352", "scene_datetime_utc": "2026-05-23T07:56:09.024000+00:00", "detection_status": "detected", "detection_status_ru": "обнаружено", "lon": 49.25625, "lat": 53.48244, "n_pixels": 2, "zone_area_km2": 0.0008, "cover_m2": 8.2, "p_mean": 0.563, "p_max": 0.565, "cover_m2_km2": 10250.0, "h3": "881081d253fffff", "valid_frac_scene": 0.999, "wind_ms": 3.9, "sea": "спокойное", "scene_reliable": true, "field_event_id": "S4:DOORS3:T23", "field_profile": "B", "field_date": "2024-06-10", "field_distance_km": 1363.7, "field_date_gap_days": 712, "field_conc_items_km2": 102.37, "conc_A_items_km2": null, "conc_A_lo80": null, "conc_A_hi80": null, "conc_A_lo95": null, "conc_A_hi95": null, "conc_A_status": "unavailable", "conc_A_status_ru": "концентрация недоступна", "conc_A_reasons": "вне бассейна профиля: nw_atlantic_subtropical", "conc_A_model": "conc-A-c6bce5631d2b", "conc_B_items_km2": null, "conc_B_lo80": null, "conc_B_hi80": null, "conc_B_lo95": null, "conc_B_hi95": null, "conc_B_status": "unavailable", "conc_B_status_ru": "концентрация недоступна", "conc_B_reasons": "вне бассейна профиля: black_sea", "conc_B_model": "conc-B-c6bce5631d2b"}}, {"type": "Feature", "geometry": {"type": "Polygon", "coordinates": [[[49.341244195218366, 53.46714974867334], [49.34124769894784, 53.467059899156595], [49.341097123230334, 53.46705780836917], [49.34110062725864, 53.46696795885773], [49.34140528145116, 53.46688229070266], [49.34140177807711, 53.46697214022927], [49.34155235351465, 53.46697423063052], [49.34154885043945, 53.46706408016241], [49.34139827468421, 53.46706198975434], [49.341394771272434, 53.467151839277896], [49.341244195218366, 53.46714974867334]]]}, "properties": {"zone_id": "kuibyshev-2026-05-23-012", "aoi": "kuibyshev", "date": "2026-05-23", "scene_id": "S2B_MSIL2A_20260523T075609_R035_T39UUV_20260523T101352", "scene_datetime_utc": "2026-05-23T07:56:09.024000+00:00", "detection_status": "detected", "detection_status_ru": "обнаружено", "lon": 49.34132, "lat": 53.46702, "n_pixels": 1, "zone_area_km2": 0.0005, "cover_m2": 2.7, "p_mean": 0.675, "p_max": 0.675, "cover_m2_km2": 5400.0, "h3": "881081d2a9fffff", "valid_frac_scene": 0.999, "wind_ms": 3.9, "sea": "спокойное", "scene_reliable": true, "field_event_id": "S4:DOORS3:T23", "field_profile": "B", "field_date": "2024-06-10", "field_distance_km": 1364.9, "field_date_gap_days": 712, "field_conc_items_km2": 102.37, "conc_A_items_km2": null, "conc_A_lo80": null, "conc_A_hi80": null, "conc_A_lo95": null, "conc_A_hi95": null, "conc_A_status": "unavailable", "conc_A_status_ru": "концентрация недоступна", "conc_A_reasons": "вне бассейна профиля: nw_atlantic_subtropical", "conc_A_model": "conc-A-c6bce5631d2b", "conc_B_items_km2": null, "conc_B_lo80": null, "conc_B_hi80": null, "conc_B_lo95": null, "conc_B_hi95": null, "conc_B_status": "unavailable", "conc_B_status_ru": "концентрация недоступна", "conc_B_reasons": "вне бассейна профиля: black_sea", "conc_B_model": "conc-B-c6bce5631d2b"}}, {"type": "Feature", "geometry": {"type": "Polygon", "coordinates": [[[49.34612551955323, 53.465599258486904], [49.34612901277759, 53.46550940872517], [49.34597844217556, 53.4655073241297], [49.34598542920319, 53.46532762461528], [49.34613599916988, 53.46532970919716], [49.346139492337805, 53.46523985943087], [49.34643713915968, 53.46533387779192], [49.34643364660829, 53.46542372757025], [49.34658421694907, 53.46542581158992], [49.34658072469654, 53.465515661373544], [49.34643015403808, 53.46551357734709], [49.34642666144907, 53.46560342712241], [49.34612551955323, 53.465599258486904]]]}, "properties": {"zone_id": "kuibyshev-2026-05-23-013", "aoi": "kuibyshev", "date": "2026-05-23", "scene_id": "S2B_MSIL2A_20260523T075609_R035_T39UUV_20260523T101352", "scene_datetime_utc": "2026-05-23T07:56:09.024000+00:00", "detection_status": "detected", "detection_status_ru": "обнаружено", "lon": 49.34626, "lat": 53.46544, "n_pixels": 3, "zone_area_km2": 0.001, "cover_m2": 14.5, "p_mean": 0.865, "p_max": 0.996, "cover_m2_km2": 14500.0, "h3": "881081d2abfffff", "valid_frac_scene": 0.999, "wind_ms": 3.9, "sea": "спокойное", "scene_reliable": true, "field_event_id": "S4:DOORS3:T23", "field_profile": "B", "field_date": "2024-06-10", "field_distance_km": 1364.9, "field_date_gap_days": 712, "field_conc_items_km2": 102.37, "conc_A_items_km2": null, "conc_A_lo80": null, "conc_A_hi80": null, "conc_A_lo95": null, "conc_A_hi95": null, "conc_A_status": "unavailable", "conc_A_status_ru": "концентрация недоступна", "conc_A_reasons": "вне бассейна профиля: nw_atlantic_subtropical", "conc_A_model": "conc-A-c6bce5631d2b", "conc_B_items_km2": null, "conc_B_lo80": null, "conc_B_hi80": null, "conc_B_lo95": null, "conc_B_hi95": null, "conc_B_status": "unavailable", "conc_B_status_ru": "концентрация недоступна", "conc_B_reasons": "вне бассейна профиля: black_sea", "conc_B_model": "conc-B-c6bce5631d2b"}}, {"type": "Feature", "geometry": {"type": "Polygon", "coordinates": [[[49.34047394017567, 53.46372291991251], [49.340477445094066, 53.46363307037895], [49.34032688156114, 53.463630978712466], [49.340333891976584, 53.46345127965439], [49.34063852233494, 53.463365613225534], [49.34063501779079, 53.46345546277046], [49.3407855807262, 53.46345755404402], [49.34077857221654, 53.46363725314296], [49.34047394017567, 53.46372291991251]]]}, "properties": {"zone_id": "kuibyshev-2026-05-23-014", "aoi": "kuibyshev", "date": "2026-05-23", "scene_id": "S2B_MSIL2A_20260523T075609_R035_T39UUV_20260523T101352", "scene_datetime_utc": "2026-05-23T07:56:09.024000+00:00", "detection_status": "detected", "detection_status_ru": "обнаружено", "lon": 49.34056, "lat": 53.46354, "n_pixels": 2, "zone_area_km2": 0.0008, "cover_m2": 5.1, "p_mean": 0.871, "p_max": 0.906, "cover_m2_km2": 6375.0, "h3": "881081d2a9fffff", "valid_frac_scene": 0.999, "wind_ms": 3.9, "sea": "спокойное", "scene_reliable": true, "field_event_id": "S4:DOORS3:T23", "field_profile": "B", "field_date": "2024-06-10", "field_distance_km": 1364.5, "field_date_gap_days": 712, "field_conc_items_km2": 102.37, "conc_A_items_km2": null, "conc_A_lo80": null, "conc_A_hi80": null, "conc_A_lo95": null, "conc_A_hi95": null, "conc_A_status": "unavailable", "conc_A_status_ru": "концентрация недоступна", "conc_A_reasons": "вне бассейна профиля: nw_atlantic_subtropical", "conc_A_model": "conc-A-c6bce5631d2b", "conc_B_items_km2": null, "conc_B_lo80": null, "conc_B_hi80": null, "conc_B_lo95": null, "conc_B_hi95": null, "conc_B_status": "unavailable", "conc_B_status_ru": "концентрация недоступна", "conc_B_reasons": "вне бассейна профиля: black_sea", "conc_B_model": "conc-B-c6bce5631d2b"}}, {"type": "Feature", "geometry": {"type": "Polygon", "coordinates": [[[49.334808796680086, 53.46220571443194], [49.33481231336553, 53.46211586513346], [49.33466175563289, 53.46211376636961], [49.33466878958217, 53.46193406778178], [49.33497342010703, 53.46184841578263], [49.334969903795994, 53.4619382650925], [49.33512046093131, 53.461940363463405], [49.33511342888763, 53.46212006209227], [49.334808796680086, 53.46220571443194]]]}, "properties": {"zone_id": "kuibyshev-2026-05-23-015", "aoi": "kuibyshev", "date": "2026-05-23", "scene_id": "S2B_MSIL2A_20260523T075609_R035_T39UUV_20260523T101352", "scene_datetime_utc": "2026-05-23T07:56:09.024000+00:00", "detection_status": "detected", "detection_status_ru": "обнаружено", "lon": 49.33489, "lat": 53.46203, "n_pixels": 2, "zone_area_km2": 0.0008, "cover_m2": 5.5, "p_mean": 0.902, "p_max": 0.988, "cover_m2_km2": 6875.0, "h3": "881081d2a9fffff", "valid_frac_scene": 0.999, "wind_ms": 3.9, "sea": "спокойное", "scene_reliable": true, "field_event_id": "S4:DOORS3:T23", "field_profile": "B", "field_date": "2024-06-10", "field_distance_km": 1364.2, "field_date_gap_days": 712, "field_conc_items_km2": 102.37, "conc_A_items_km2": null, "conc_A_lo80": null, "conc_A_hi80": null, "conc_A_lo95": null, "conc_A_hi95": null, "conc_A_status": "unavailable", "conc_A_status_ru": "концентрация недоступна", "conc_A_reasons": "вне бассейна профиля: nw_atlantic_subtropical", "conc_A_model": "conc-A-c6bce5631d2b", "conc_B_items_km2": null, "conc_B_lo80": null, "conc_B_hi80": null, "conc_B_lo95": null, "conc_B_hi95": null, "conc_B_status": "unavailable", "conc_B_status_ru": "концентрация недоступна", "conc_B_reasons": "вне бассейна профиля: black_sea", "conc_B_model": "conc-B-c6bce5631d2b"}}, {"type": "Feature", "geometry": {"type": "Polygon", "coordinates": [[[49.37865641168214, 53.45399888243347], [49.37865983476809, 53.45390903103654], [49.37850930275468, 53.45390698773377], [49.37851614950623, 53.45372728494868], [49.37882063499478, 53.453641519929874], [49.37881721228158, 53.45373137133801], [49.378967743696904, 53.45373341424827], [49.378960898850174, 53.45391311707329], [49.37865641168214, 53.45399888243347]]]}, "properties": {"zone_id": "kuibyshev-2026-05-23-016", "aoi": "kuibyshev", "date": "2026-05-23", "scene_id": "S2B_MSIL2A_20260523T075609_R035_T39UUV_20260523T101352", "scene_datetime_utc": "2026-05-23T07:56:09.024000+00:00", "detection_status": "detected", "detection_status_ru": "обнаружено", "lon": 49.37874, "lat": 53.45382, "n_pixels": 2, "zone_area_km2": 0.0008, "cover_m2": 8.2, "p_mean": 0.835, "p_max": 0.929, "cover_m2_km2": 10250.0, "h3": "881081d0c1fffff", "valid_frac_scene": 0.999, "wind_ms": 3.9, "sea": "спокойное", "scene_reliable": true, "field_event_id": "S4:DOORS3:T23", "field_profile": "B", "field_date": "2024-06-10", "field_distance_km": 1364.7, "field_date_gap_days": 712, "field_conc_items_km2": 102.37, "conc_A_items_km2": null, "conc_A_lo80": null, "conc_A_hi80": null, "conc_A_lo95": null, "conc_A_hi95": null, "conc_A_status": "unavailable", "conc_A_status_ru": "концентрация недоступна", "conc_A_reasons": "вне бассейна профиля: nw_atlantic_subtropical", "conc_A_model": "conc-A-c6bce5631d2b", "conc_B_items_km2": null, "conc_B_lo80": null, "conc_B_hi80": null, "conc_B_lo95": null, "conc_B_hi95": null, "conc_B_status": "unavailable", "conc_B_status_ru": "концентрация недоступна", "conc_B_reasons": "вне бассейна профиля: black_sea", "conc_B_model": "conc-B-c6bce5631d2b"}}, {"type": "Feature", "geometry": {"type": "Polygon", "coordinates": [[[49.207077080206645, 53.451187057322066], [49.207080865042045, 53.451097213908376], [49.20693035641685, 53.45109495453048], [49.20693414154918, 53.451005111122626], [49.207084649857066, 53.451007370493166], [49.207092219425995, 53.45082768365811], [49.207397018952996, 53.45074235836657], [49.20739323483369, 53.450832201801134], [49.20754374256809, 53.45083446058837], [49.20753617490298, 53.45101414746757], [49.20723137368762, 53.45109947309674], [49.20722758916953, 53.45118931651778], [49.207077080206645, 53.451187057322066]]]}, "properties": {"zone_id": "kuibyshev-2026-05-23-017", "aoi": "kuibyshev", "date": "2026-05-23", "scene_id": "S2B_MSIL2A_20260523T075609_R035_T39UUV_20260523T101352", "scene_datetime_utc": "2026-05-23T07:56:09.024000+00:00", "detection_status": "detected", "detection_status_ru": "обнаружено", "lon": 49.20726, "lat": 53.45097, "n_pixels": 3, "zone_area_km2": 0.0011, "cover_m2": 9.4, "p_mean": 0.888, "p_max": 1.0, "cover_m2_km2": 8545.5, "h3": "881081d245fffff", "valid_frac_scene": 0.999, "wind_ms": 3.9, "sea": "спокойное", "scene_reliable": true, "field_event_id": "S4:DOORS3:T23", "field_profile": "B", "field_date": "2024-06-10", "field_distance_km": 1359.1, "field_date_gap_days": 712, "field_conc_items_km2": 102.37, "conc_A_items_km2": null, "conc_A_lo80": null, "conc_A_hi80": null, "conc_A_lo95": null, "conc_A_hi95": null, "conc_A_status": "unavailable", "conc_A_status_ru": "концентрация недоступна", "conc_A_reasons": "вне бассейна профиля: nw_atlantic_subtropical", "conc_A_model": "conc-A-c6bce5631d2b", "conc_B_items_km2": null, "conc_B_lo80": null, "conc_B_hi80": null, "conc_B_lo95": null, "conc_B_hi95": null, "conc_B_status": "unavailable", "conc_B_status_ru": "концентрация недоступна", "conc_B_reasons": "вне бассейна профиля: black_sea", "conc_B_model": "conc-B-c6bce5631d2b"}}, {"type": "Feature", "geometry": {"type": "Polygon", "coordinates": [[[49.32265252578113, 53.44576399969046], [49.32265606601089, 53.445674150699936], [49.322505567349836, 53.44567203706345], [49.322512648386756, 53.4454923390916], [49.32281718431413, 53.44540671714551], [49.32281364445881, 53.44549656614748], [49.32296414252342, 53.44549867939114], [49.32295706339017, 53.445678377404306], [49.32265252578113, 53.44576399969046]]]}, "properties": {"zone_id": "kuibyshev-2026-05-23-018", "aoi": "kuibyshev", "date": "2026-05-23", "scene_id": "S2B_MSIL2A_20260523T075609_R035_T39UUV_20260523T101352", "scene_datetime_utc": "2026-05-23T07:56:09.024000+00:00", "detection_status": "detected", "detection_status_ru": "обнаружено", "lon": 49.32273, "lat": 53.44559, "n_pixels": 2, "zone_area_km2": 0.0008, "cover_m2": 20.4, "p_mean": 0.751, "p_max": 0.965, "cover_m2_km2": 25500.0, "h3": "881081d051fffff", "valid_frac_scene": 0.999, "wind_ms": 3.9, "sea": "спокойное", "scene_reliable": true, "field_event_id": "S4:DOORS3:T23", "field_profile": "B", "field_date": "2024-06-10", "field_distance_km": 1362.2, "field_date_gap_days": 712, "field_conc_items_km2": 102.37, "conc_A_items_km2": null, "conc_A_lo80": null, "conc_A_hi80": null, "conc_A_lo95": null, "conc_A_hi95": null, "conc_A_status": "unavailable", "conc_A_status_ru": "концентрация недоступна", "conc_A_reasons": "вне бассейна профиля: nw_atlantic_subtropical", "conc_A_model": "conc-A-c6bce5631d2b", "conc_B_items_km2": null, "conc_B_lo80": null, "conc_B_hi80": null, "conc_B_lo95": null, "conc_B_hi95": null, "conc_B_status": "unavailable", "conc_B_status_ru": "концентрация недоступна", "conc_B_reasons": "вне бассейна профиля: black_sea", "conc_B_model": "conc-B-c6bce5631d2b"}}, {"type": "Feature", "geometry": {"type": "Polygon", "coordinates": [[[49.474519452292846, 53.443485091206696], [49.474522671802504, 53.44339523551774], [49.47422166828044, 53.44339139079227], [49.47422488840743, 53.44330153511435], [49.473927106333676, 53.443207833976324], [49.47393032706066, 53.44311797830793], [49.474234548684414, 53.44303196807159], [49.47423132860942, 53.443121823754005], [49.47498383278462, 53.44313143405213], [49.474980614278934, 53.44322128976435], [49.475131115483286, 53.44322321126161], [49.4751278972776, 53.44331306697861], [49.47497739575592, 53.443311145475086], [49.474974177215586, 53.44340100118433], [49.474673173589544, 53.443397157596145], [49.47466995439721, 53.44348701329137], [49.474519452292846, 53.443485091206696]]]}, "properties": {"zone_id": "kuibyshev-2026-05-23-019", "aoi": "kuibyshev", "date": "2026-05-23", "scene_id": "S2B_MSIL2A_20260523T075609_R035_T39UUV_20260523T101352", "scene_datetime_utc": "2026-05-23T07:56:09.024000+00:00", "detection_status": "detected", "detection_status_ru": "обнаружено", "lon": 49.47454, "lat": 53.44326, "n_pixels": 7, "zone_area_km2": 0.0021, "cover_m2": 29.0, "p_mean": 0.918, "p_max": 0.996, "cover_m2_km2": 13809.5, "h3": "881081d0b3fffff", "valid_frac_scene": 0.999, "wind_ms": 3.9, "sea": "спокойное", "scene_reliable": true, "field_event_id": "S4:DOORS3:T23", "field_profile": "B", "field_date": "2024-06-10", "field_distance_km": 1366.7, "field_date_gap_days": 712, "field_conc_items_km2": 102.37, "conc_A_items_km2": null, "conc_A_lo80": null, "conc_A_hi80": null, "conc_A_lo95": null, "conc_A_hi95": null, "conc_A_status": "unavailable", "conc_A_status_ru": "концентрация недоступна", "conc_A_reasons": "вне бассейна профиля: nw_atlantic_subtropical", "conc_A_model": "conc-A-c6bce5631d2b", "conc_B_items_km2": null, "conc_B_lo80": null, "conc_B_hi80": null, "conc_B_lo95": null, "conc_B_hi95": null, "conc_B_status": "unavailable", "conc_B_status_ru": "концентрация недоступна", "conc_B_reasons": "вне бассейна профиля: black_sea", "conc_B_model": "conc-B-c6bce5631d2b"}}, {"type": "Feature", "geometry": {"type": "Polygon", "coordinates": [[[49.47347882486754, 53.443112208717224], [49.47348204652916, 53.44302235306615], [49.47333154615013, 53.44302042949643], [49.473334768111734, 53.44293057385012], [49.47348526817345, 53.44293249741357], [49.47348848980038, 53.44284264175948], [49.47378948934118, 53.442846488305236], [49.47378626834889, 53.44293634397185], [49.473936768462615, 53.44293826696667], [49.47393354777031, 53.44302812263805], [49.47378304733925, 53.44302619963697], [49.47377982631228, 53.44311605530057], [49.47347882486754, 53.443112208717224]]]}, "properties": {"zone_id": "kuibyshev-2026-05-23-020", "aoi": "kuibyshev", "date": "2026-05-23", "scene_id": "S2B_MSIL2A_20260523T075609_R035_T39UUV_20260523T101352", "scene_datetime_utc": "2026-05-23T07:56:09.024000+00:00", "detection_status": "detected", "detection_status_ru": "обнаружено", "lon": 49.47363, "lat": 53.44298, "n_pixels": 2, "zone_area_km2": 0.0008, "cover_m2": 7.1, "p_mean": 0.959, "p_max": 0.965, "cover_m2_km2": 8875.0, "h3": "881081d0b3fffff", "valid_frac_scene": 0.999, "wind_ms": 3.9, "sea": "спокойное", "scene_reliable": true, "field_event_id": "S4:DOORS3:T23", "field_profile": "B", "field_date": "2024-06-10", "field_distance_km": 1366.7, "field_date_gap_days": 712, "field_conc_items_km2": 102.37, "conc_A_items_km2": null, "conc_A_lo80": null, "conc_A_hi80": null, "conc_A_lo95": null, "conc_A_hi95": null, "conc_A_status": "unavailable", "conc_A_status_ru": "концентрация недоступна", "conc_A_reasons": "вне бассейна профиля: nw_atlantic_subtropical", "conc_A_model": "conc-A-c6bce5631d2b", "conc_B_items_km2": null, "conc_B_lo80": null, "conc_B_hi80": null, "conc_B_lo95": null, "conc_B_hi95": null, "conc_B_status": "unavailable", "conc_B_status_ru": "концентрация недоступна", "conc_B_reasons": "вне бассейна профиля: black_sea", "conc_B_model": "conc-B-c6bce5631d2b"}}]}