{"type": "FeatureCollection", "features": [{"type": "Feature", "geometry": {"type": "Polygon", "coordinates": [[[37.89448951254781, 44.66993680643774], [37.89449122371135, 44.669846798727114], [37.89436509070739, 44.66984557758493], [37.89436680205805, 44.669755569876635], [37.894492934866875, 44.66975679101501], [37.89449464601439, 44.66966678330144], [37.894746911265806, 44.66966922515274], [37.89474520050857, 44.66975923287393], [37.89487133334144, 44.669760453594485], [37.894869622771324, 44.669850461318035], [37.89474348974331, 44.66984924059366], [37.89474177897005, 44.669939248311906], [37.89448951254781, 44.66993680643774]]]}, "properties": {"zone_id": "novorossiysk-2026-04-17-001", "aoi": "novorossiysk", "date": "2026-04-17", "scene_id": "S2C_MSIL2A_20260417T082651_R021_T37TCK_20260417T135154", "scene_datetime_utc": "2026-04-17T08:26:51.025000+00:00", "detection_status": "detected", "detection_status_ru": "обнаружено", "lon": 37.89462, "lat": 44.6698, "n_pixels": 2, "zone_area_km2": 0.0008, "cover_m2": 9.0, "p_mean": 0.775, "p_max": 0.816, "cover_m2_km2": 11250.0, "h3": "882d721057fffff", "valid_frac_scene": 1.0, "wind_ms": 3.8, "sea": "спокойное", "scene_reliable": true, "field_event_id": "S4:DOORS3:T13", "field_profile": "B", "field_date": "2024-06-04", "field_distance_km": 257.5, "field_date_gap_days": 682, "field_conc_items_km2": 263.57, "conc_A_items_km2": null, "conc_A_lo80": null, "conc_A_hi80": null, "conc_A_lo95": null, "conc_A_hi95": null, "conc_A_status": "unavailable", "conc_A_status_ru": "концентрация недоступна", "conc_A_reasons": "вне бассейна профиля: nw_atlantic_subtropical", "conc_A_model": "conc-A-c6bce5631d2b", "conc_B_items_km2": 901.4, "conc_B_lo80": 192.7, "conc_B_hi80": 3027.3, "conc_B_lo95": 120.4, "conc_B_hi95": 5668.0, "conc_B_status": "research_estimate", "conc_B_status_ru": "исследовательская оценка", "conc_B_reasons": "ближайшее полевое измерение в 258 км (> 60 км); месяц 4 вне месяцев обучения [6]; log_dist_coast_km = 0.0 вне диапазона обучения [1.7; 5.0]", "conc_B_model": "conc-B-c6bce5631d2b"}}, {"type": "Feature", "geometry": {"type": "Polygon", "coordinates": [[[37.60122469344878, 44.66266997978544], [37.60122685791352, 44.66257998204638], [37.6011007548011, 44.6625784372372], [37.601102919450675, 44.66248843950144], [37.60122902236811, 44.6624899843058], [37.60123118681257, 44.66239998656372], [37.60135728954517, 44.66240153122407], [37.60135945378451, 44.66231153347566], [37.601609495040776, 44.662404620127205], [37.601605167311575, 44.66258461563877], [37.60147906416876, 44.66258307124716], [37.60147690009398, 44.66267306899588], [37.60122469344878, 44.66266997978544]]]}, "properties": {"zone_id": "novorossiysk-2026-04-17-002", "aoi": "novorossiysk", "date": "2026-04-17", "scene_id": "S2C_MSIL2A_20260417T082651_R021_T37TCK_20260417T135154", "scene_datetime_utc": "2026-04-17T08:26:51.025000+00:00", "detection_status": "detected", "detection_status_ru": "обнаружено", "lon": 37.60138, "lat": 44.66251, "n_pixels": 3, "zone_area_km2": 0.001, "cover_m2": 22.7, "p_mean": 0.95, "p_max": 0.98, "cover_m2_km2": 22700.0, "h3": "882d728b0dfffff", "valid_frac_scene": 1.0, "wind_ms": 3.8, "sea": "спокойное", "scene_reliable": true, "field_event_id": "S4:DOORS3:T12", "field_profile": "B", "field_date": "2024-06-04", "field_distance_km": 251.6, "field_date_gap_days": 682, "field_conc_items_km2": 48.97, "conc_A_items_km2": null, "conc_A_lo80": null, "conc_A_hi80": null, "conc_A_lo95": null, "conc_A_hi95": null, "conc_A_status": "unavailable", "conc_A_status_ru": "концентрация недоступна", "conc_A_reasons": "вне бассейна профиля: nw_atlantic_subtropical", "conc_A_model": "conc-A-c6bce5631d2b", "conc_B_items_km2": 901.4, "conc_B_lo80": 192.7, "conc_B_hi80": 3027.3, "conc_B_lo95": 120.4, "conc_B_hi95": 5668.0, "conc_B_status": "research_estimate", "conc_B_status_ru": "исследовательская оценка", "conc_B_reasons": "ближайшее полевое измерение в 252 км (> 60 км); месяц 4 вне месяцев обучения [6]; log_dist_coast_km = 0.0 вне диапазона обучения [1.7; 5.0]", "conc_B_model": "conc-B-c6bce5631d2b"}}, {"type": "Feature", "geometry": {"type": "Polygon", "coordinates": [[[37.918955167448075, 44.64325371169821], [37.918956839191694, 44.643163702830634], [37.91883076298906, 44.64316250926545], [37.91883577875754, 44.64289248266503], [37.91908960151883, 44.64280486075669], [37.9190879300014, 44.64289486963389], [37.91933841014105, 44.64298726492933], [37.919336738997714, 44.64307727381104], [37.91908291540215, 44.643164896256664], [37.91908124385341, 44.64325490512797], [37.918955167448075, 44.64325371169821]]]}, "properties": {"zone_id": "novorossiysk-2026-04-17-003", "aoi": "novorossiysk", "date": "2026-04-17", "scene_id": "S2C_MSIL2A_20260417T082651_R021_T37TCK_20260417T135154", "scene_datetime_utc": "2026-04-17T08:26:51.025000+00:00", "detection_status": "detected", "detection_status_ru": "обнаружено", "lon": 37.91905, "lat": 44.64303, "n_pixels": 4, "zone_area_km2": 0.0012, "cover_m2": 56.5, "p_mean": 0.875, "p_max": 0.976, "cover_m2_km2": 47083.3, "h3": "882d721035fffff", "valid_frac_scene": 1.0, "wind_ms": 3.8, "sea": "спокойное", "scene_reliable": true, "field_event_id": "S4:DOORS3:T13", "field_profile": "B", "field_date": "2024-06-04", "field_distance_km": 255.0, "field_date_gap_days": 682, "field_conc_items_km2": 263.57, "conc_A_items_km2": null, "conc_A_lo80": null, "conc_A_hi80": null, "conc_A_lo95": null, "conc_A_hi95": null, "conc_A_status": "unavailable", "conc_A_status_ru": "концентрация недоступна", "conc_A_reasons": "вне бассейна профиля: nw_atlantic_subtropical", "conc_A_model": "conc-A-c6bce5631d2b", "conc_B_items_km2": 669.0, "conc_B_lo80": 142.9, "conc_B_hi80": 2247.5, "conc_B_lo95": 89.1, "conc_B_hi95": 4208.1, "conc_B_status": "research_estimate", "conc_B_status_ru": "исследовательская оценка", "conc_B_reasons": "ближайшее полевое измерение в 255 км (> 60 км); месяц 4 вне месяцев обучения [6]; log_dist_coast_km = 0.8 вне диапазона обучения [1.7; 5.0]", "conc_B_model": "conc-B-c6bce5631d2b"}}, {"type": "Feature", "geometry": {"type": "Polygon", "coordinates": [[[37.918077652129696, 44.64297532726481], [37.91807932521392, 44.6428853184189], [37.91782884756151, 44.64279292038372], [37.9178305210198, 44.64270291154231], [37.91795659618541, 44.642704106202046], [37.917958269440994, 44.64261409735545], [37.91820874654014, 44.64270649510408], [37.91820707366646, 44.64279650395667], [37.91833314905044, 44.64279769820268], [37.9183314763638, 44.64288770705753], [37.91820540078494, 44.642886512807785], [37.91820372789559, 44.64297652165743], [37.918077652129696, 44.64297532726481]]]}, "properties": {"zone_id": "novorossiysk-2026-04-17-004", "aoi": "novorossiysk", "date": "2026-04-17", "scene_id": "S2C_MSIL2A_20260417T082651_R021_T37TCK_20260417T135154", "scene_datetime_utc": "2026-04-17T08:26:51.025000+00:00", "detection_status": "detected", "detection_status_ru": "обнаружено", "lon": 37.91808, "lat": 44.6428, "n_pixels": 2, "zone_area_km2": 0.0008, "cover_m2": 21.6, "p_mean": 0.81, "p_max": 0.984, "cover_m2_km2": 27000.0, "h3": "882d721035fffff", "valid_frac_scene": 1.0, "wind_ms": 3.8, "sea": "спокойное", "scene_reliable": true, "field_event_id": "S4:DOORS3:T13", "field_profile": "B", "field_date": "2024-06-04", "field_distance_km": 254.9, "field_date_gap_days": 682, "field_conc_items_km2": 263.57, "conc_A_items_km2": null, "conc_A_lo80": null, "conc_A_hi80": null, "conc_A_lo95": null, "conc_A_hi95": null, "conc_A_status": "unavailable", "conc_A_status_ru": "концентрация недоступна", "conc_A_reasons": "вне бассейна профиля: nw_atlantic_subtropical", "conc_A_model": "conc-A-c6bce5631d2b", "conc_B_items_km2": 669.0, "conc_B_lo80": 142.9, "conc_B_hi80": 2247.5, "conc_B_lo95": 89.1, "conc_B_hi95": 4208.1, "conc_B_status": "research_estimate", "conc_B_status_ru": "исследовательская оценка", "conc_B_reasons": "ближайшее полевое измерение в 255 км (> 60 км); месяц 4 вне месяцев обучения [6]; log_dist_coast_km = 0.8 вне диапазона обучения [1.7; 5.0]", "conc_B_model": "conc-B-c6bce5631d2b"}}, {"type": "Feature", "geometry": {"type": "Polygon", "coordinates": [[[37.91719847087668, 44.64278694497922], [37.917200145309316, 44.64269693615645], [37.917074070190736, 44.64269574066182], [37.91707741942221, 44.64251572301935], [37.91720349415106, 44.6425169185065], [37.917205168560166, 44.64242690967932], [37.917457317651646, 44.64242930022871], [37.917455643632266, 44.642519309063374], [37.91758171838463, 44.64252050413309], [37.917578370712086, 44.642700521805416], [37.917452295569994, 44.642699326728234], [37.917450621527095, 44.64278933555846], [37.91719847087668, 44.64278694497922]]]}, "properties": {"zone_id": "novorossiysk-2026-04-17-005", "aoi": "novorossiysk", "date": "2026-04-17", "scene_id": "S2C_MSIL2A_20260417T082651_R021_T37TCK_20260417T135154", "scene_datetime_utc": "2026-04-17T08:26:51.025000+00:00", "detection_status": "detected", "detection_status_ru": "обнаружено", "lon": 37.91733, "lat": 44.64261, "n_pixels": 4, "zone_area_km2": 0.0012, "cover_m2": 53.3, "p_mean": 0.833, "p_max": 0.969, "cover_m2_km2": 44416.7, "h3": "882d721035fffff", "valid_frac_scene": 1.0, "wind_ms": 3.8, "sea": "спокойное", "scene_reliable": true, "field_event_id": "S4:DOORS3:T13", "field_profile": "B", "field_date": "2024-06-04", "field_distance_km": 254.9, "field_date_gap_days": 682, "field_conc_items_km2": 263.57, "conc_A_items_km2": null, "conc_A_lo80": null, "conc_A_hi80": null, "conc_A_lo95": null, "conc_A_hi95": null, "conc_A_status": "unavailable", "conc_A_status_ru": "концентрация недоступна", "conc_A_reasons": "вне бассейна профиля: nw_atlantic_subtropical", "conc_A_model": "conc-A-c6bce5631d2b", "conc_B_items_km2": 669.0, "conc_B_lo80": 142.9, "conc_B_hi80": 2247.5, "conc_B_lo95": 89.1, "conc_B_hi95": 4208.1, "conc_B_status": "research_estimate", "conc_B_status_ru": "исследовательская оценка", "conc_B_reasons": "ближайшее полевое измерение в 255 км (> 60 км); месяц 4 вне месяцев обучения [6]; log_dist_coast_km = 0.8 вне диапазона обучения [1.7; 5.0]", "conc_B_model": "conc-B-c6bce5631d2b"}}, {"type": "Feature", "geometry": {"type": "Polygon", "coordinates": [[[37.91921901957926, 44.6426260362624], [37.91922069087833, 44.642536027377034], [37.91909461602415, 44.64253483411624], [37.919097958988544, 44.64235481634855], [37.91935177900602, 44.64226719382265], [37.9193501079253, 44.642357202716134], [37.91947618240541, 44.64235839569121], [37.919472840610204, 44.642538413481226], [37.91921901957926, 44.6426260362624]]]}, "properties": {"zone_id": "novorossiysk-2026-04-17-006", "aoi": "novorossiysk", "date": "2026-04-17", "scene_id": "S2C_MSIL2A_20260417T082651_R021_T37TCK_20260417T135154", "scene_datetime_utc": "2026-04-17T08:26:51.025000+00:00", "detection_status": "detected", "detection_status_ru": "обнаружено", "lon": 37.91929, "lat": 44.64245, "n_pixels": 2, "zone_area_km2": 0.0008, "cover_m2": 22.7, "p_mean": 0.72, "p_max": 0.812, "cover_m2_km2": 28375.0, "h3": "882d721035fffff", "valid_frac_scene": 1.0, "wind_ms": 3.8, "sea": "спокойное", "scene_reliable": true, "field_event_id": "S4:DOORS3:T13", "field_profile": "B", "field_date": "2024-06-04", "field_distance_km": 254.9, "field_date_gap_days": 682, "field_conc_items_km2": 263.57, "conc_A_items_km2": null, "conc_A_lo80": null, "conc_A_hi80": null, "conc_A_lo95": null, "conc_A_hi95": null, "conc_A_status": "unavailable", "conc_A_status_ru": "концентрация недоступна", "conc_A_reasons": "вне бассейна профиля: nw_atlantic_subtropical", "conc_A_model": "conc-A-c6bce5631d2b", "conc_B_items_km2": 669.0, "conc_B_lo80": 142.9, "conc_B_hi80": 2247.5, "conc_B_lo95": 89.1, "conc_B_hi95": 4208.1, "conc_B_status": "research_estimate", "conc_B_status_ru": "исследовательская оценка", "conc_B_reasons": "ближайшее полевое измерение в 255 км (> 60 км); месяц 4 вне месяцев обучения [6]; log_dist_coast_km = 0.8 вне диапазона обучения [1.7; 5.0]", "conc_B_model": "conc-B-c6bce5631d2b"}}, {"type": "Feature", "geometry": {"type": "Polygon", "coordinates": [[[37.918339839718705, 44.64243766276855], [37.91834151236618, 44.642347653906334], [37.91821543795653, 44.642346459678954], [37.918218783617725, 44.64216644195754], [37.91834485763765, 44.642167636177476], [37.91834653026163, 44.64207762731083], [37.91859867793525, 44.64208001532579], [37.91859700570099, 44.64217002419989], [37.91872307974441, 44.64217121800239], [37.91871973564213, 44.642351235753594], [37.91859366120898, 44.64235004194366], [37.91859198895123, 44.64244005081333], [37.918339839718705, 44.64243766276855]]]}, "properties": {"zone_id": "novorossiysk-2026-04-17-007", "aoi": "novorossiysk", "date": "2026-04-17", "scene_id": "S2C_MSIL2A_20260417T082651_R021_T37TCK_20260417T135154", "scene_datetime_utc": "2026-04-17T08:26:51.025000+00:00", "detection_status": "detected", "detection_status_ru": "обнаружено", "lon": 37.91847, "lat": 44.64226, "n_pixels": 4, "zone_area_km2": 0.0012, "cover_m2": 60.8, "p_mean": 0.827, "p_max": 0.973, "cover_m2_km2": 50666.7, "h3": "882d721035fffff", "valid_frac_scene": 1.0, "wind_ms": 3.8, "sea": "спокойное", "scene_reliable": true, "field_event_id": "S4:DOORS3:T13", "field_profile": "B", "field_date": "2024-06-04", "field_distance_km": 254.9, "field_date_gap_days": 682, "field_conc_items_km2": 263.57, "conc_A_items_km2": null, "conc_A_lo80": null, "conc_A_hi80": null, "conc_A_lo95": null, "conc_A_hi95": null, "conc_A_status": "unavailable", "conc_A_status_ru": "концентрация недоступна", "conc_A_reasons": "вне бассейна профиля: nw_atlantic_subtropical", "conc_A_model": "conc-A-c6bce5631d2b", "conc_B_items_km2": 669.0, "conc_B_lo80": 142.9, "conc_B_hi80": 2247.5, "conc_B_lo95": 89.1, "conc_B_hi95": 4208.1, "conc_B_status": "research_estimate", "conc_B_status_ru": "исследовательская оценка", "conc_B_reasons": "ближайшее полевое измерение в 255 км (> 60 км); месяц 4 вне месяцев обучения [6]; log_dist_coast_km = 0.8 вне диапазона обучения [1.7; 5.0]", "conc_B_model": "conc-B-c6bce5631d2b"}}, {"type": "Feature", "geometry": {"type": "Polygon", "coordinates": [[[37.67676925796174, 44.629991240138345], [37.67677130321947, 44.629901239058114], [37.67652127628969, 44.62980831672376], [37.676523321917614, 44.62971831564963], [37.67664935780712, 44.62971977634091], [37.67665140323079, 44.62962977526074], [37.676903474649215, 44.629632696217044], [37.67690142961487, 44.62972269730633], [37.677027465533115, 44.62972415758048], [37.67702337582505, 44.62990415976366], [37.67676925796174, 44.629991240138345]]]}, "properties": {"zone_id": "novorossiysk-2026-04-17-008", "aoi": "novorossiysk", "date": "2026-04-17", "scene_id": "S2C_MSIL2A_20260417T082651_R021_T37TCK_20260417T135154", "scene_datetime_utc": "2026-04-17T08:26:51.025000+00:00", "detection_status": "detected", "detection_status_ru": "обнаружено", "lon": 37.67679, "lat": 44.6298, "n_pixels": 3, "zone_area_km2": 0.001, "cover_m2": 31.8, "p_mean": 0.936, "p_max": 0.976, "cover_m2_km2": 31800.0, "h3": "882d728901fffff", "valid_frac_scene": 1.0, "wind_ms": 3.8, "sea": "спокойное", "scene_reliable": true, "field_event_id": "S4:DOORS3:T12", "field_profile": "B", "field_date": "2024-06-04", "field_distance_km": 249.2, "field_date_gap_days": 682, "field_conc_items_km2": 48.97, "conc_A_items_km2": null, "conc_A_lo80": null, "conc_A_hi80": null, "conc_A_lo95": null, "conc_A_hi95": null, "conc_A_status": "unavailable", "conc_A_status_ru": "концентрация недоступна", "conc_A_reasons": "вне бассейна профиля: nw_atlantic_subtropical", "conc_A_model": "conc-A-c6bce5631d2b", "conc_B_items_km2": 592.0, "conc_B_lo80": 126.3, "conc_B_hi80": 1988.9, "conc_B_lo95": 78.8, "conc_B_hi95": 3724.1, "conc_B_status": "research_estimate", "conc_B_status_ru": "исследовательская оценка", "conc_B_reasons": "ближайшее полевое измерение в 249 км (> 60 км); месяц 4 вне месяцев обучения [6]; log_dist_coast_km = 1.2 вне диапазона обучения [1.7; 5.0]", "conc_B_model": "conc-B-c6bce5631d2b"}}, {"type": "Feature", "geometry": {"type": "Polygon", "coordinates": [[[37.67037429137213, 44.628476560254875], [37.670376346404026, 44.62838655938368], [37.670250313719734, 44.62838509180417], [37.67025442414398, 44.62820509006642], [37.67050854355195, 44.6281180241878], [37.67050648874358, 44.62820802506808], [37.67063252105781, 44.62820949236034], [37.67062841180148, 44.628389494125564], [37.67037429137213, 44.628476560254875]]]}, "properties": {"zone_id": "novorossiysk-2026-04-17-009", "aoi": "novorossiysk", "date": "2026-04-17", "scene_id": "S2C_MSIL2A_20260417T082651_R021_T37TCK_20260417T135154", "scene_datetime_utc": "2026-04-17T08:26:51.025000+00:00", "detection_status": "detected", "detection_status_ru": "обнаружено", "lon": 37.67044, "lat": 44.6283, "n_pixels": 2, "zone_area_km2": 0.0008, "cover_m2": 20.4, "p_mean": 0.741, "p_max": 0.875, "cover_m2_km2": 25500.0, "h3": "882d72890dfffff", "valid_frac_scene": 1.0, "wind_ms": 3.8, "sea": "спокойное", "scene_reliable": true, "field_event_id": "S4:DOORS3:T12", "field_profile": "B", "field_date": "2024-06-04", "field_distance_km": 248.9, "field_date_gap_days": 682, "field_conc_items_km2": 48.97, "conc_A_items_km2": null, "conc_A_lo80": null, "conc_A_hi80": null, "conc_A_lo95": null, "conc_A_hi95": null, "conc_A_status": "unavailable", "conc_A_status_ru": "концентрация недоступна", "conc_A_reasons": "вне бассейна профиля: nw_atlantic_subtropical", "conc_A_model": "conc-A-c6bce5631d2b", "conc_B_items_km2": 592.0, "conc_B_lo80": 126.3, "conc_B_hi80": 1988.9, "conc_B_lo95": 78.8, "conc_B_hi95": 3724.1, "conc_B_status": "research_estimate", "conc_B_status_ru": "исследовательская оценка", "conc_B_reasons": "ближайшее полевое измерение в 249 км (> 60 км); месяц 4 вне месяцев обучения [6]; log_dist_coast_km = 1.2 вне диапазона обучения [1.7; 5.0]", "conc_B_model": "conc-B-c6bce5631d2b"}}, {"type": "Feature", "geometry": {"type": "Polygon", "coordinates": [[[37.92912080377588, 44.5978868454636], [37.929122457184796, 44.59779683557769], [37.92899647870179, 44.59779565417318], [37.928999785885225, 44.597615634404306], [37.929253395272596, 44.59752798716562], [37.92925174208131, 44.597617997059636], [37.92937772019096, 44.5976191781789], [37.92937441417403, 44.597799197969906], [37.92912080377588, 44.5978868454636]]]}, "properties": {"zone_id": "novorossiysk-2026-04-17-010", "aoi": "novorossiysk", "date": "2026-04-17", "scene_id": "S2C_MSIL2A_20260417T082651_R021_T37TCK_20260417T135154", "scene_datetime_utc": "2026-04-17T08:26:51.025000+00:00", "detection_status": "detected", "detection_status_ru": "обнаружено", "lon": 37.92919, "lat": 44.59771, "n_pixels": 2, "zone_area_km2": 0.0008, "cover_m2": 28.6, "p_mean": 0.878, "p_max": 0.922, "cover_m2_km2": 35750.0, "h3": "882d721133fffff", "valid_frac_scene": 1.0, "wind_ms": 3.8, "sea": "спокойное", "scene_reliable": true, "field_event_id": "S4:DOORS3:T13", "field_profile": "B", "field_date": "2024-06-04", "field_distance_km": 250.2, "field_date_gap_days": 682, "field_conc_items_km2": 263.57, "conc_A_items_km2": null, "conc_A_lo80": null, "conc_A_hi80": null, "conc_A_lo95": null, "conc_A_hi95": null, "conc_A_status": "unavailable", "conc_A_status_ru": "концентрация недоступна", "conc_A_reasons": "вне бассейна профиля: nw_atlantic_subtropical", "conc_A_model": "conc-A-c6bce5631d2b", "conc_B_items_km2": 901.4, "conc_B_lo80": 192.7, "conc_B_hi80": 3027.3, "conc_B_lo95": 120.4, "conc_B_hi95": 5668.0, "conc_B_status": "research_estimate", "conc_B_status_ru": "исследовательская оценка", "conc_B_reasons": "ближайшее полевое измерение в 250 км (> 60 км); месяц 4 вне месяцев обучения [6]; log_dist_coast_km = 0.0 вне диапазона обучения [1.7; 5.0]", "conc_B_model": "conc-B-c6bce5631d2b"}}]}