{"type": "FeatureCollection", "features": [{"type": "Feature", "geometry": {"type": "Polygon", "coordinates": [[[39.71600346877479, 43.567888555398596], [39.71600240224818, 43.56779852050916], [39.71587857876642, 43.56779929593626], [39.71587751242916, 43.56770926104294], [39.71600133572652, 43.56770848561827], [39.716000269209786, 43.567618450725924], [39.71624898230642, 43.56770693436664], [39.71625004919689, 43.56779696925267], [39.716126225725006, 43.56779774494796], [39.71612729243601, 43.56788777983499], [39.71600346877479, 43.567888555398596]]]}, "properties": {"zone_id": "sochi-2025-07-18-001", "aoi": "sochi", "date": "2025-07-18", "scene_id": "S2C_MSIL2A_20250718T081631_R121_T37TEJ_20250718T115713", "scene_datetime_utc": "2025-07-18T08:16:31.025000+00:00", "detection_status": "detected", "detection_status_ru": "обнаружено", "lon": 39.71606, "lat": 43.56775, "n_pixels": 1, "zone_area_km2": 0.0005, "cover_m2": 12.9, "p_mean": 0.965, "p_max": 0.965, "cover_m2_km2": 25800.0, "h3": "882d568e4bfffff", "valid_frac_scene": 1.0, "wind_ms": 1.9, "sea": "спокойное", "scene_reliable": true, "field_event_id": "S4:DOORS3:T17", "field_profile": "B", "field_date": "2024-06-04", "field_distance_km": 183.7, "field_date_gap_days": 409, "field_conc_items_km2": 89.61, "conc_A_items_km2": null, "conc_A_lo80": null, "conc_A_hi80": null, "conc_A_lo95": null, "conc_A_hi95": null, "conc_A_status": "unavailable", "conc_A_status_ru": "концентрация недоступна", "conc_A_reasons": "вне бассейна профиля: nw_atlantic_subtropical", "conc_A_model": "conc-A-c6bce5631d2b", "conc_B_items_km2": 666.4, "conc_B_lo80": 142.3, "conc_B_hi80": 2238.6, "conc_B_lo95": 88.8, "conc_B_hi95": 4191.5, "conc_B_status": "research_estimate", "conc_B_status_ru": "исследовательская оценка", "conc_B_reasons": "ближайшее полевое измерение в 184 км (> 60 км); месяц 7 вне месяцев обучения [6]; log_dist_coast_km = 0.9 вне диапазона обучения [1.7; 5.0]", "conc_B_model": "conc-B-c6bce5631d2b"}}, {"type": "Feature", "geometry": {"type": "Polygon", "coordinates": [[[39.80248308907679, 43.53390874267693], [39.80248189515835, 43.53381870905453], [39.80235814370124, 43.53381957760406], [39.80235575624909, 43.53363951034948], [39.8026020643356, 43.53354773950335], [39.80260325842152, 43.533637773127374], [39.802727009499435, 43.53363690431542], [39.80272939805599, 43.533816971553705], [39.80248308907679, 43.53390874267693]]]}, "properties": {"zone_id": "sochi-2025-07-18-002", "aoi": "sochi", "date": "2025-07-18", "scene_id": "S2C_MSIL2A_20250718T081631_R121_T37TEJ_20250718T115713", "scene_datetime_utc": "2025-07-18T08:16:31.025000+00:00", "detection_status": "detected", "detection_status_ru": "обнаружено", "lon": 39.80254, "lat": 43.53373, "n_pixels": 2, "zone_area_km2": 0.0008, "cover_m2": 11.0, "p_mean": 0.71, "p_max": 0.847, "cover_m2_km2": 13750.0, "h3": "882d568c09fffff", "valid_frac_scene": 1.0, "wind_ms": 1.9, "sea": "спокойное", "scene_reliable": true, "field_event_id": "S4:DOORS3:T17", "field_profile": "B", "field_date": "2024-06-04", "field_distance_km": 184.8, "field_date_gap_days": 409, "field_conc_items_km2": 89.61, "conc_A_items_km2": null, "conc_A_lo80": null, "conc_A_hi80": null, "conc_A_lo95": null, "conc_A_hi95": null, "conc_A_status": "unavailable", "conc_A_status_ru": "концентрация недоступна", "conc_A_reasons": "вне бассейна профиля: nw_atlantic_subtropical", "conc_A_model": "conc-A-c6bce5631d2b", "conc_B_items_km2": 666.4, "conc_B_lo80": 142.3, "conc_B_hi80": 2238.6, "conc_B_lo95": 88.8, "conc_B_hi95": 4191.5, "conc_B_status": "research_estimate", "conc_B_status_ru": "исследовательская оценка", "conc_B_reasons": "ближайшее полевое измерение в 185 км (> 60 км); месяц 7 вне месяцев обучения [6]; log_dist_coast_km = 0.9 вне диапазона обучения [1.7; 5.0]", "conc_B_model": "conc-B-c6bce5631d2b"}}, {"type": "Feature", "geometry": {"type": "Polygon", "coordinates": [[[39.77473837970737, 43.53220923443339], [39.774737227132775, 43.53211920018288], [39.774488577309626, 43.53203084278034], [39.774487425113804, 43.53194080852172], [39.774611173559364, 43.53193997016661], [39.77461002118483, 43.531849935909165], [39.774858670434476, 43.531938293054644], [39.77485982318246, 43.53202832730538], [39.774983571796064, 43.53202748854591], [39.774984724733436, 43.53211752279258], [39.77486097593577, 43.5321183615547], [39.77486212869443, 43.53220839580258], [39.77473837970737, 43.53220923443339]]]}, "properties": {"zone_id": "sochi-2025-07-18-003", "aoi": "sochi", "date": "2025-07-18", "scene_id": "S2C_MSIL2A_20250718T081631_R121_T37TEJ_20250718T115713", "scene_datetime_utc": "2025-07-18T08:16:31.025000+00:00", "detection_status": "detected", "detection_status_ru": "обнаружено", "lon": 39.77474, "lat": 43.53203, "n_pixels": 2, "zone_area_km2": 0.0008, "cover_m2": 14.5, "p_mean": 0.553, "p_max": 0.561, "cover_m2_km2": 18125.0, "h3": "882d568c49fffff", "valid_frac_scene": 1.0, "wind_ms": 1.9, "sea": "спокойное", "scene_reliable": true, "field_event_id": "S4:DOORS3:T17", "field_profile": "B", "field_date": "2024-06-04", "field_distance_km": 183.3, "field_date_gap_days": 409, "field_conc_items_km2": 89.61, "conc_A_items_km2": null, "conc_A_lo80": null, "conc_A_hi80": null, "conc_A_lo95": null, "conc_A_hi95": null, "conc_A_status": "unavailable", "conc_A_status_ru": "концентрация недоступна", "conc_A_reasons": "вне бассейна профиля: nw_atlantic_subtropical", "conc_A_model": "conc-A-c6bce5631d2b", "conc_B_items_km2": 621.6, "conc_B_lo80": 132.7, "conc_B_hi80": 2088.3, "conc_B_lo95": 82.8, "conc_B_hi95": 3910.2, "conc_B_status": "research_estimate", "conc_B_status_ru": "исследовательская оценка", "conc_B_reasons": "ближайшее полевое измерение в 183 км (> 60 км); месяц 7 вне месяцев обучения [6]; log_dist_coast_km = 1.0 вне диапазона обучения [1.7; 5.0]", "conc_B_model": "conc-B-c6bce5631d2b"}}, {"type": "Feature", "geometry": {"type": "Polygon", "coordinates": [[[39.758116184286855, 43.46983112530644], [39.75811505889193, 43.46974108971987], [39.75799143693989, 43.469741909291955], [39.75798918653259, 43.46956183810936], [39.75823530413481, 43.46947016325346], [39.75823642969758, 43.469560198841805], [39.75836005127227, 43.46955937900757], [39.75836230278038, 43.4697394501748], [39.758116184286855, 43.46983112530644]]]}, "properties": {"zone_id": "sochi-2025-07-18-004", "aoi": "sochi", "date": "2025-07-18", "scene_id": "S2C_MSIL2A_20250718T081631_R121_T37TEJ_20250718T115713", "scene_datetime_utc": "2025-07-18T08:16:31.025000+00:00", "detection_status": "detected", "detection_status_ru": "обнаружено", "lon": 39.75818, "lat": 43.46965, "n_pixels": 2, "zone_area_km2": 0.0008, "cover_m2": 5.1, "p_mean": 0.708, "p_max": 0.855, "cover_m2_km2": 6375.0, "h3": "882d568f25fffff", "valid_frac_scene": 1.0, "wind_ms": 1.9, "sea": "спокойное", "scene_reliable": true, "field_event_id": "S4:DOORS3:T17", "field_profile": "B", "field_date": "2024-06-04", "field_distance_km": 177.0, "field_date_gap_days": 409, "field_conc_items_km2": 89.61, "conc_A_items_km2": null, "conc_A_lo80": null, "conc_A_hi80": null, "conc_A_lo95": null, "conc_A_hi95": null, "conc_A_status": "unavailable", "conc_A_status_ru": "концентрация недоступна", "conc_A_reasons": "вне бассейна профиля: nw_atlantic_subtropical", "conc_A_model": "conc-A-c6bce5631d2b", "conc_B_items_km2": 406.7, "conc_B_lo80": 86.5, "conc_B_hi80": 1367.2, "conc_B_lo95": 53.9, "conc_B_hi95": 2560.2, "conc_B_status": "research_estimate", "conc_B_status_ru": "исследовательская оценка", "conc_B_reasons": "ближайшее полевое измерение в 177 км (> 60 км); месяц 7 вне месяцев обучения [6]", "conc_B_model": "conc-B-c6bce5631d2b"}}, {"type": "Feature", "geometry": {"type": "Polygon", "coordinates": [[[39.89972309828949, 43.43972061883713], [39.89972176410299, 43.439630586000185], [39.899598207897576, 43.439631558125186], [39.8995968739004, 43.43954152528375], [39.89972042992266, 43.4395405531618], [39.8997190957485, 43.439450520321955], [39.89996620740819, 43.43944857568367], [39.89996754194867, 43.439538608517445], [39.90009109795242, 43.439537635995045], [39.90009243268222, 43.43962766882431], [39.89996887649532, 43.43962864134975], [39.899970211048135, 43.43971867418061], [39.89972309828949, 43.43972061883713]]]}, "properties": {"zone_id": "sochi-2025-07-18-005", "aoi": "sochi", "date": "2025-07-18", "scene_id": "S2C_MSIL2A_20250718T081631_R121_T37TEJ_20250718T115713", "scene_datetime_utc": "2025-07-18T08:16:31.025000+00:00", "detection_status": "detected", "detection_status_ru": "обнаружено", "lon": 39.89984, "lat": 43.43958, "n_pixels": 2, "zone_area_km2": 0.0008, "cover_m2": 5.9, "p_mean": 0.629, "p_max": 0.69, "cover_m2_km2": 7375.0, "h3": "882d5612b9fffff", "valid_frac_scene": 1.0, "wind_ms": 1.9, "sea": "спокойное", "scene_reliable": true, "field_event_id": "S4:DOORS3:T23", "field_profile": "B", "field_date": "2024-06-10", "field_distance_km": 181.5, "field_date_gap_days": 403, "field_conc_items_km2": 102.37, "conc_A_items_km2": null, "conc_A_lo80": null, "conc_A_hi80": null, "conc_A_lo95": null, "conc_A_hi95": null, "conc_A_status": "unavailable", "conc_A_status_ru": "концентрация недоступна", "conc_A_reasons": "вне бассейна профиля: nw_atlantic_subtropical", "conc_A_model": "conc-A-c6bce5631d2b", "conc_B_items_km2": 666.4, "conc_B_lo80": 142.3, "conc_B_hi80": 2238.6, "conc_B_lo95": 88.8, "conc_B_hi95": 4191.5, "conc_B_status": "research_estimate", "conc_B_status_ru": "исследовательская оценка", "conc_B_reasons": "ближайшее полевое измерение в 182 км (> 60 км); месяц 7 вне месяцев обучения [6]; log_dist_coast_km = 0.9 вне диапазона обучения [1.7; 5.0]", "conc_B_model": "conc-B-c6bce5631d2b"}}, {"type": "Feature", "geometry": {"type": "Polygon", "coordinates": [[[39.90274909071117, 43.43546473092242], [39.90274775223665, 43.435374698093156], [39.90262420479326, 43.43537567341183], [39.902622866508054, 43.435285640578066], [39.90274641376833, 43.43528466526245], [39.90274507530619, 43.43519463243027], [39.90286862237715, 43.43519365698424], [39.90286728373809, 43.43510362415366], [39.90311571650051, 43.43519170569179], [39.90311839452967, 43.435371771336385], [39.90299484710486, 43.43537274705544], [39.90299618594561, 43.43546277987859], [39.90274909071117, 43.43546473092242]]]}, "properties": {"zone_id": "sochi-2025-07-18-006", "aoi": "sochi", "date": "2025-07-18", "scene_id": "S2C_MSIL2A_20250718T081631_R121_T37TEJ_20250718T115713", "scene_datetime_utc": "2025-07-18T08:16:31.025000+00:00", "detection_status": "detected", "detection_status_ru": "обнаружено", "lon": 39.90289, "lat": 43.4353, "n_pixels": 3, "zone_area_km2": 0.001, "cover_m2": 22.7, "p_mean": 0.793, "p_max": 0.91, "cover_m2_km2": 22700.0, "h3": "882d5612b9fffff", "valid_frac_scene": 1.0, "wind_ms": 1.9, "sea": "спокойное", "scene_reliable": true, "field_event_id": "S4:DOORS3:T23", "field_profile": "B", "field_date": "2024-06-10", "field_distance_km": 181.0, "field_date_gap_days": 403, "field_conc_items_km2": 102.37, "conc_A_items_km2": null, "conc_A_lo80": null, "conc_A_hi80": null, "conc_A_lo95": null, "conc_A_hi95": null, "conc_A_status": "unavailable", "conc_A_status_ru": "концентрация недоступна", "conc_A_reasons": "вне бассейна профиля: nw_atlantic_subtropical", "conc_A_model": "conc-A-c6bce5631d2b", "conc_B_items_km2": 666.4, "conc_B_lo80": 142.3, "conc_B_hi80": 2238.6, "conc_B_lo95": 88.8, "conc_B_hi95": 4191.5, "conc_B_status": "research_estimate", "conc_B_status_ru": "исследовательская оценка", "conc_B_reasons": "ближайшее полевое измерение в 181 км (> 60 км); месяц 7 вне месяцев обучения [6]; log_dist_coast_km = 0.9 вне диапазона обучения [1.7; 5.0]", "conc_B_model": "conc-B-c6bce5631d2b"}}, {"type": "Feature", "geometry": {"type": "Polygon", "coordinates": [[[39.9017711856487, 43.41953474415603], [39.9017698493671, 43.419444711050765], [39.901521483288, 43.419356625762134], [39.9015201473847, 43.41926659264789], [39.901643662106665, 43.41926561880858], [39.901642326026575, 43.4191755856959], [39.901889355086034, 43.41917363762322], [39.90189069153206, 43.419263670729805], [39.90201420623549, 43.41926269649033], [39.90201687951201, 43.41944276269302], [39.9017711856487, 43.41953474415603]]]}, "properties": {"zone_id": "sochi-2025-07-18-007", "aoi": "sochi", "date": "2025-07-18", "scene_id": "S2C_MSIL2A_20250718T081631_R121_T37TEJ_20250718T115713", "scene_datetime_utc": "2025-07-18T08:16:31.025000+00:00", "detection_status": "detected", "detection_status_ru": "обнаружено", "lon": 39.90179, "lat": 43.41934, "n_pixels": 3, "zone_area_km2": 0.001, "cover_m2": 23.5, "p_mean": 0.903, "p_max": 0.988, "cover_m2_km2": 23500.0, "h3": "882d5612a3fffff", "valid_frac_scene": 1.0, "wind_ms": 1.9, "sea": "спокойное", "scene_reliable": true, "field_event_id": "S4:DOORS3:T23", "field_profile": "B", "field_date": "2024-06-10", "field_distance_km": 179.9, "field_date_gap_days": 403, "field_conc_items_km2": 102.37, "conc_A_items_km2": null, "conc_A_lo80": null, "conc_A_hi80": null, "conc_A_lo95": null, "conc_A_hi95": null, "conc_A_status": "unavailable", "conc_A_status_ru": "концентрация недоступна", "conc_A_reasons": "вне бассейна профиля: nw_atlantic_subtropical", "conc_A_model": "conc-A-c6bce5631d2b", "conc_B_items_km2": 591.0, "conc_B_lo80": 126.1, "conc_B_hi80": 1985.7, "conc_B_lo95": 78.7, "conc_B_hi95": 3718.0, "conc_B_status": "research_estimate", "conc_B_status_ru": "исследовательская оценка", "conc_B_reasons": "ближайшее полевое измерение в 180 км (> 60 км); месяц 7 вне месяцев обучения [6]; log_dist_coast_km = 1.2 вне диапазона обучения [1.7; 5.0]", "conc_B_model": "conc-B-c6bce5631d2b"}}, {"type": "Feature", "geometry": {"type": "Polygon", "coordinates": [[[39.90965814026509, 43.410017686094946], [39.90965679274492, 43.40992765303559], [39.909533297273455, 43.409928635361915], [39.909530602617565, 43.40974856923266], [39.90977624513841, 43.40965657139827], [39.90977759282277, 43.40974660445895], [39.90990108791602, 43.409745621872084], [39.90990378366917, 43.40992568798289], [39.90965814026509, 43.410017686094946]]]}, "properties": {"zone_id": "sochi-2025-07-18-008", "aoi": "sochi", "date": "2025-07-18", "scene_id": "S2C_MSIL2A_20250718T081631_R121_T37TEJ_20250718T115713", "scene_datetime_utc": "2025-07-18T08:16:31.025000+00:00", "detection_status": "detected", "detection_status_ru": "обнаружено", "lon": 39.90972, "lat": 43.40984, "n_pixels": 2, "zone_area_km2": 0.0008, "cover_m2": 19.6, "p_mean": 0.739, "p_max": 0.871, "cover_m2_km2": 24500.0, "h3": "882d5610cdfffff", "valid_frac_scene": 1.0, "wind_ms": 1.9, "sea": "спокойное", "scene_reliable": true, "field_event_id": "S4:DOORS3:T23", "field_profile": "B", "field_date": "2024-06-10", "field_distance_km": 178.8, "field_date_gap_days": 403, "field_conc_items_km2": 102.37, "conc_A_items_km2": null, "conc_A_lo80": null, "conc_A_hi80": null, "conc_A_lo95": null, "conc_A_hi95": null, "conc_A_status": "unavailable", "conc_A_status_ru": "концентрация недоступна", "conc_A_reasons": "вне бассейна профиля: nw_atlantic_subtropical", "conc_A_model": "conc-A-c6bce5631d2b", "conc_B_items_km2": 591.0, "conc_B_lo80": 126.1, "conc_B_hi80": 1985.7, "conc_B_lo95": 78.7, "conc_B_hi95": 3718.0, "conc_B_status": "research_estimate", "conc_B_status_ru": "исследовательская оценка", "conc_B_reasons": "ближайшее полевое измерение в 179 км (> 60 км); месяц 7 вне месяцев обучения [6]; log_dist_coast_km = 1.2 вне диапазона обучения [1.7; 5.0]", "conc_B_model": "conc-B-c6bce5631d2b"}}, {"type": "Feature", "geometry": {"type": "Polygon", "coordinates": [[[39.919583624559955, 43.404805802136124], [39.919582262585706, 43.40471576924386], [39.91945877804416, 43.40471676219381], [39.919457416259036, 43.40462672929697], [39.91958090061777, 43.40462573635013], [39.91957953865612, 43.40453570345493], [39.91982786931633, 43.40462375005648], [39.91982923164993, 43.404713782944], [39.919705747120965, 43.40471477616059], [39.919707109278036, 43.40480480904975], [39.919583624559955, 43.404805802136124]]]}, "properties": {"zone_id": "sochi-2025-07-18-009", "aoi": "sochi", "date": "2025-07-18", "scene_id": "S2C_MSIL2A_20250718T081631_R121_T37TEJ_20250718T115713", "scene_datetime_utc": "2025-07-18T08:16:31.025000+00:00", "detection_status": "detected", "detection_status_ru": "обнаружено", "lon": 39.91964, "lat": 43.40467, "n_pixels": 1, "zone_area_km2": 0.0005, "cover_m2": 7.8, "p_mean": 0.996, "p_max": 0.996, "cover_m2_km2": 15600.0, "h3": "882d5610c5fffff", "valid_frac_scene": 1.0, "wind_ms": 1.9, "sea": "спокойное", "scene_reliable": true, "field_event_id": "S4:DOORS3:T23", "field_profile": "B", "field_date": "2024-06-10", "field_distance_km": 177.8, "field_date_gap_days": 403, "field_conc_items_km2": 102.37, "conc_A_items_km2": null, "conc_A_lo80": null, "conc_A_hi80": null, "conc_A_lo95": null, "conc_A_hi95": null, "conc_A_status": "unavailable", "conc_A_status_ru": "концентрация недоступна", "conc_A_reasons": "вне бассейна профиля: nw_atlantic_subtropical", "conc_A_model": "conc-A-c6bce5631d2b", "conc_B_items_km2": 591.0, "conc_B_lo80": 126.1, "conc_B_hi80": 1985.7, "conc_B_lo95": 78.7, "conc_B_hi95": 3718.0, "conc_B_status": "research_estimate", "conc_B_status_ru": "исследовательская оценка", "conc_B_reasons": "ближайшее полевое измерение в 178 км (> 60 км); месяц 7 вне месяцев обучения [6]; log_dist_coast_km = 1.2 вне диапазона обучения [1.7; 5.0]", "conc_B_model": "conc-B-c6bce5631d2b"}}, {"type": "Feature", "geometry": {"type": "Polygon", "coordinates": [[[39.9324514381441, 43.39830848449604], [39.932450057426436, 43.39821845182853], [39.932326586529, 43.39821945855308], [39.932325206000485, 43.39812942588096], [39.93244867671516, 43.39812841915956], [39.93244729601027, 43.39803838648914], [39.9325707665358, 43.39803737963761], [39.932569385654524, 43.39794734696888], [39.9328177075677, 43.39803536553471], [39.93282047008044, 43.39821543085522], [39.932696999202165, 43.398216437979606], [39.932698380285345, 43.39830647064081], [39.9324514381441, 43.39830848449604]]]}, "properties": {"zone_id": "sochi-2025-07-18-010", "aoi": "sochi", "date": "2025-07-18", "scene_id": "S2C_MSIL2A_20250718T081631_R121_T37TEJ_20250718T115713", "scene_datetime_utc": "2025-07-18T08:16:31.025000+00:00", "detection_status": "detected", "detection_status_ru": "обнаружено", "lon": 39.93259, "lat": 43.39814, "n_pixels": 3, "zone_area_km2": 0.001, "cover_m2": 15.3, "p_mean": 0.99, "p_max": 0.992, "cover_m2_km2": 15300.0, "h3": "882d5610ebfffff", "valid_frac_scene": 1.0, "wind_ms": 1.9, "sea": "спокойное", "scene_reliable": true, "field_event_id": "S4:DOORS3:T23", "field_profile": "B", "field_date": "2024-06-10", "field_distance_km": 176.5, "field_date_gap_days": 403, "field_conc_items_km2": 102.37, "conc_A_items_km2": null, "conc_A_lo80": null, "conc_A_hi80": null, "conc_A_lo95": null, "conc_A_hi95": null, "conc_A_status": "unavailable", "conc_A_status_ru": "концентрация недоступна", "conc_A_reasons": "вне бассейна профиля: nw_atlantic_subtropical", "conc_A_model": "conc-A-c6bce5631d2b", "conc_B_items_km2": 666.4, "conc_B_lo80": 142.3, "conc_B_hi80": 2238.6, "conc_B_lo95": 88.8, "conc_B_hi95": 4191.5, "conc_B_status": "research_estimate", "conc_B_status_ru": "исследовательская оценка", "conc_B_reasons": "ближайшее полевое измерение в 177 км (> 60 км); месяц 7 вне месяцев обучения [6]; log_dist_coast_km = 0.9 вне диапазона обучения [1.7; 5.0]", "conc_B_model": "conc-B-c6bce5631d2b"}}, {"type": "Feature", "geometry": {"type": "Polygon", "coordinates": [[[39.977595540607474, 43.38739632155245], [39.97759409360068, 43.38730628989722], [39.97747064647855, 43.38730734514982], [39.9774691996611, 43.38721731348986], [39.97759264660058, 43.38721625824056], [39.97759119960717, 43.38712622658243], [39.97783954045948, 43.38721414734226], [39.97784098782488, 43.387304178992345], [39.97771754071612, 43.38730523451141], [39.97771898790557, 43.387395266163324], [39.977595540607474, 43.38739632155245]]]}, "properties": {"zone_id": "sochi-2025-07-18-011", "aoi": "sochi", "date": "2025-07-18", "scene_id": "S2C_MSIL2A_20250718T081631_R121_T37TEJ_20250718T115713", "scene_datetime_utc": "2025-07-18T08:16:31.025000+00:00", "detection_status": "detected", "detection_status_ru": "обнаружено", "lon": 39.97766, "lat": 43.38726, "n_pixels": 1, "zone_area_km2": 0.0005, "cover_m2": 3.9, "p_mean": 0.969, "p_max": 0.969, "cover_m2_km2": 7800.0, "h3": "882d5610a3fffff", "valid_frac_scene": 1.0, "wind_ms": 1.9, "sea": "спокойное", "scene_reliable": true, "field_event_id": "S4:DOORS3:T23", "field_profile": "B", "field_date": "2024-06-10", "field_distance_km": 173.0, "field_date_gap_days": 403, "field_conc_items_km2": 102.37, "conc_A_items_km2": null, "conc_A_lo80": null, "conc_A_hi80": null, "conc_A_lo95": null, "conc_A_hi95": null, "conc_A_status": "unavailable", "conc_A_status_ru": "концентрация недоступна", "conc_A_reasons": "вне бассейна профиля: nw_atlantic_subtropical", "conc_A_model": "conc-A-c6bce5631d2b", "conc_B_items_km2": 666.4, "conc_B_lo80": 142.3, "conc_B_hi80": 2238.6, "conc_B_lo95": 88.8, "conc_B_hi95": 4191.5, "conc_B_status": "research_estimate", "conc_B_status_ru": "исследовательская оценка", "conc_B_reasons": "ближайшее полевое измерение в 173 км (> 60 км); месяц 7 вне месяцев обучения [6]; log_dist_coast_km = 0.9 вне диапазона обучения [1.7; 5.0]", "conc_B_model": "conc-B-c6bce5631d2b"}}, {"type": "Feature", "geometry": {"type": "Polygon", "coordinates": [[[39.98323190526104, 43.384736721580396], [39.98323045004738, 43.38464669003501], [39.9831070085303, 43.384647751319875], [39.983105553505986, 43.38455771976972], [39.983228994840445, 43.38455665848815], [39.98322753964024, 43.384466626939854], [39.98347587748919, 43.38455453552542], [39.98347733306138, 43.38464456706563], [39.98335389155774, 43.38464562861693], [39.98335534695402, 43.384735660158995], [39.98323190526104, 43.384736721580396]]]}, "properties": {"zone_id": "sochi-2025-07-18-012", "aoi": "sochi", "date": "2025-07-18", "scene_id": "S2C_MSIL2A_20250718T081631_R121_T37TEJ_20250718T115713", "scene_datetime_utc": "2025-07-18T08:16:31.025000+00:00", "detection_status": "detected", "detection_status_ru": "обнаружено", "lon": 39.98329, "lat": 43.3846, "n_pixels": 1, "zone_area_km2": 0.0005, "cover_m2": 2.4, "p_mean": 0.914, "p_max": 0.914, "cover_m2_km2": 4800.0, "h3": "882d560249fffff", "valid_frac_scene": 1.0, "wind_ms": 1.9, "sea": "спокойное", "scene_reliable": true, "field_event_id": "S4:DOORS3:T23", "field_profile": "B", "field_date": "2024-06-10", "field_distance_km": 172.4, "field_date_gap_days": 403, "field_conc_items_km2": 102.37, "conc_A_items_km2": null, "conc_A_lo80": null, "conc_A_hi80": null, "conc_A_lo95": null, "conc_A_hi95": null, "conc_A_status": "unavailable", "conc_A_status_ru": "концентрация недоступна", "conc_A_reasons": "вне бассейна профиля: nw_atlantic_subtropical", "conc_A_model": "conc-A-c6bce5631d2b", "conc_B_items_km2": 666.4, "conc_B_lo80": 142.3, "conc_B_hi80": 2238.6, "conc_B_lo95": 88.8, "conc_B_hi95": 4191.5, "conc_B_status": "research_estimate", "conc_B_status_ru": "исследовательская оценка", "conc_B_reasons": "ближайшее полевое измерение в 172 км (> 60 км); месяц 7 вне месяцев обучения [6]; log_dist_coast_km = 0.9 вне диапазона обучения [1.7; 5.0]", "conc_B_model": "conc-B-c6bce5631d2b"}}]}