{"type": "FeatureCollection", "features": [{"type": "Feature", "geometry": {"type": "Polygon", "coordinates": [[[44.68321243483553, 48.8502735762688], [44.6832130023339, 48.85018361913195], [44.68307669341306, 48.85018324453148], [44.68307726115279, 48.85009328739438], [44.68335044575751, 48.85000407929091], [44.683349878508935, 48.8500940364318], [44.68348618719123, 48.85009441070879], [44.683485620184015, 48.85018436784943], [44.68334931125755, 48.85018399357126], [44.68334874400336, 48.8502739507093], [44.68321243483553, 48.8502735762688]]]}, "properties": {"zone_id": "volgograd-2026-08-21-001", "aoi": "volgograd", "date": "2026-08-21", "scene_id": "S2B_MSIL2A_20260821T075609_R035_T38UMV_20260821T101249", "scene_datetime_utc": "2026-08-21T07:56:09.024000+00:00", "detection_status": "detected", "detection_status_ru": "обнаружено", "lon": 44.68328, "lat": 48.85014, "n_pixels": 1, "zone_area_km2": 0.0005, "cover_m2": 10.6, "p_mean": 0.98, "p_max": 0.98, "cover_m2_km2": 21200.0, "h3": "882d48a19bfffff", "valid_frac_scene": 1.0, "wind_ms": 3.8, "sea": "спокойное", "scene_reliable": true, "field_event_id": "S4:DOORS3:T23", "field_profile": "B", "field_date": "2024-06-10", "field_distance_km": 763.6, "field_date_gap_days": 802, "field_conc_items_km2": 102.37, "conc_A_items_km2": null, "conc_A_lo80": null, "conc_A_hi80": null, "conc_A_lo95": null, "conc_A_hi95": null, "conc_A_status": "unavailable", "conc_A_status_ru": "концентрация недоступна", "conc_A_reasons": "вне бассейна профиля: nw_atlantic_subtropical", "conc_A_model": "conc-A-c6bce5631d2b", "conc_B_items_km2": null, "conc_B_lo80": null, "conc_B_hi80": null, "conc_B_lo95": null, "conc_B_hi95": null, "conc_B_status": "unavailable", "conc_B_status_ru": "концентрация недоступна", "conc_B_reasons": "вне бассейна профиля: black_sea", "conc_B_model": "conc-B-c6bce5631d2b"}}, {"type": "Feature", "geometry": {"type": "Polygon", "coordinates": [[[44.51985812796255, 48.62732623595323], [44.51985898137707, 48.627236277104096], [44.51972327662066, 48.627235711296024], [44.51972413027215, 48.627145752447234], [44.519996392471725, 48.62705692504616], [44.51999553930681, 48.62714688389994], [44.52013124383047, 48.62714744938645], [44.52013039090253, 48.62723740824058], [44.51999468613769, 48.627236842752275], [44.51999383296435, 48.62732680160319], [44.51985812796255, 48.62732623595323]]]}, "properties": {"zone_id": "volgograd-2026-08-21-002", "aoi": "volgograd", "date": "2026-08-21", "scene_id": "S2B_MSIL2A_20260821T075609_R035_T38UMV_20260821T101249", "scene_datetime_utc": "2026-08-21T07:56:09.024000+00:00", "detection_status": "detected", "detection_status_ru": "обнаружено", "lon": 44.51993, "lat": 48.62719, "n_pixels": 1, "zone_area_km2": 0.0005, "cover_m2": 6.3, "p_mean": 0.957, "p_max": 0.957, "cover_m2_km2": 12600.0, "h3": "882d4816a3fffff", "valid_frac_scene": 1.0, "wind_ms": 3.8, "sea": "спокойное", "scene_reliable": true, "field_event_id": "S4:DOORS3:T23", "field_profile": "B", "field_date": "2024-06-10", "field_distance_km": 736.3, "field_date_gap_days": 802, "field_conc_items_km2": 102.37, "conc_A_items_km2": null, "conc_A_lo80": null, "conc_A_hi80": null, "conc_A_lo95": null, "conc_A_hi95": null, "conc_A_status": "unavailable", "conc_A_status_ru": "концентрация недоступна", "conc_A_reasons": "вне бассейна профиля: nw_atlantic_subtropical", "conc_A_model": "conc-A-c6bce5631d2b", "conc_B_items_km2": null, "conc_B_lo80": null, "conc_B_hi80": null, "conc_B_lo95": null, "conc_B_hi95": null, "conc_B_status": "unavailable", "conc_B_status_ru": "концентрация недоступна", "conc_B_reasons": "вне бассейна профиля: black_sea", "conc_B_model": "conc-B-c6bce5631d2b"}}]}