{"type": "FeatureCollection", "features": [{"type": "Feature", "geometry": {"type": "Polygon", "coordinates": [[[49.1605427443825, 53.468549514554574], [49.16054662987483, 53.468459673719224], [49.16039606371832, 53.46845735520886], [49.16039994950733, 53.468367514379516], [49.16055051534624, 53.46836983288231], [49.16055440079672, 53.46827999204385], [49.161006097486144, 53.46828694639176], [49.16100221298846, 53.46837678725287], [49.16115277891104, 53.46837910499711], [49.16114889471005, 53.46846894586424], [49.16099832846986, 53.468466628112445], [49.16099444393035, 53.46855646897045], [49.1605427443825, 53.468549514554574]]]}, "properties": {"zone_id": "kuibyshev-2026-06-19-001", "aoi": "kuibyshev", "date": "2026-06-19", "scene_id": "S2B_MSIL2A_20260619T074609_R135_T39UUV_20260619T094705", "scene_datetime_utc": "2026-06-19T07:46:09.024000+00:00", "detection_status": "detected", "detection_status_ru": "обнаружено", "lon": 49.16077, "lat": 53.46842, "n_pixels": 3, "zone_area_km2": 0.0011, "cover_m2": 11.4, "p_mean": 0.902, "p_max": 0.933, "cover_m2_km2": 10363.6, "h3": "88108568a9fffff", "valid_frac_scene": 1.0, "wind_ms": 3.1, "sea": "спокойное", "scene_reliable": true, "field_event_id": "S4:DOORS3:T23", "field_profile": "B", "field_date": "2024-06-10", "field_distance_km": 1359.4, "field_date_gap_days": 739, "field_conc_items_km2": 102.37, "conc_A_items_km2": null, "conc_A_lo80": null, "conc_A_hi80": null, "conc_A_lo95": null, "conc_A_hi95": null, "conc_A_status": "unavailable", "conc_A_status_ru": "концентрация недоступна", "conc_A_reasons": "вне бассейна профиля: nw_atlantic_subtropical", "conc_A_model": "conc-A-c6bce5631d2b", "conc_B_items_km2": null, "conc_B_lo80": null, "conc_B_hi80": null, "conc_B_lo95": null, "conc_B_hi95": null, "conc_B_status": "unavailable", "conc_B_status_ru": "концентрация недоступна", "conc_B_reasons": "вне бассейна профиля: black_sea", "conc_B_model": "conc-B-c6bce5631d2b"}}, {"type": "Feature", "geometry": {"type": "Polygon", "coordinates": [[[49.15979379930157, 53.4684480792711], [49.15979768636099, 53.46835823847197], [49.15964712062673, 53.46835591902098], [49.15965489531798, 53.46817623743318], [49.15995991221607, 53.46809103530393], [49.159956025537035, 53.46818087611527], [49.16010659067796, 53.46818319517186], [49.16009881789231, 53.46836287680501], [49.15979379930157, 53.4684480792711]]]}, "properties": {"zone_id": "kuibyshev-2026-06-19-002", "aoi": "kuibyshev", "date": "2026-06-19", "scene_id": "S2B_MSIL2A_20260619T074609_R135_T39UUV_20260619T094705", "scene_datetime_utc": "2026-06-19T07:46:09.024000+00:00", "detection_status": "detected", "detection_status_ru": "обнаружено", "lon": 49.15988, "lat": 53.46827, "n_pixels": 2, "zone_area_km2": 0.0008, "cover_m2": 7.1, "p_mean": 0.88, "p_max": 0.906, "cover_m2_km2": 8875.0, "h3": "88108568a9fffff", "valid_frac_scene": 1.0, "wind_ms": 3.1, "sea": "спокойное", "scene_reliable": true, "field_event_id": "S4:DOORS3:T23", "field_profile": "B", "field_date": "2024-06-10", "field_distance_km": 1359.4, "field_date_gap_days": 739, "field_conc_items_km2": 102.37, "conc_A_items_km2": null, "conc_A_lo80": null, "conc_A_hi80": null, "conc_A_lo95": null, "conc_A_hi95": null, "conc_A_status": "unavailable", "conc_A_status_ru": "концентрация недоступна", "conc_A_reasons": "вне бассейна профиля: nw_atlantic_subtropical", "conc_A_model": "conc-A-c6bce5631d2b", "conc_B_items_km2": null, "conc_B_lo80": null, "conc_B_hi80": null, "conc_B_lo95": null, "conc_B_hi95": null, "conc_B_status": "unavailable", "conc_B_status_ru": "концентрация недоступна", "conc_B_reasons": "вне бассейна профиля: black_sea", "conc_B_model": "conc-B-c6bce5631d2b"}}, {"type": "Feature", "geometry": {"type": "Polygon", "coordinates": [[[49.167333742021015, 53.46829428687609], [49.16733761313758, 53.46820444569524], [49.16718704731169, 53.46820213574874], [49.16719091872502, 53.46811229457387], [49.167341484233305, 53.46811460451284], [49.16734535530819, 53.46802476332888], [49.167797051005316, 53.46803169198543], [49.16779318088324, 53.46812153319196], [49.16794374647489, 53.46812384237239], [49.16793987664958, 53.468213683584885], [49.16778931074032, 53.46821137439693], [49.167785440576566, 53.46830121560035], [49.167333742021015, 53.46829428687609]]]}, "properties": {"zone_id": "kuibyshev-2026-06-19-003", "aoi": "kuibyshev", "date": "2026-06-19", "scene_id": "S2B_MSIL2A_20260619T074609_R135_T39UUV_20260619T094705", "scene_datetime_utc": "2026-06-19T07:46:09.024000+00:00", "detection_status": "detected", "detection_status_ru": "обнаружено", "lon": 49.16757, "lat": 53.46816, "n_pixels": 3, "zone_area_km2": 0.0011, "cover_m2": 13.3, "p_mean": 0.769, "p_max": 0.89, "cover_m2_km2": 12090.9, "h3": "88108568a9fffff", "valid_frac_scene": 1.0, "wind_ms": 3.1, "sea": "спокойное", "scene_reliable": true, "field_event_id": "S4:DOORS3:T23", "field_profile": "B", "field_date": "2024-06-10", "field_distance_km": 1359.6, "field_date_gap_days": 739, "field_conc_items_km2": 102.37, "conc_A_items_km2": null, "conc_A_lo80": null, "conc_A_hi80": null, "conc_A_lo95": null, "conc_A_hi95": null, "conc_A_status": "unavailable", "conc_A_status_ru": "концентрация недоступна", "conc_A_reasons": "вне бассейна профиля: nw_atlantic_subtropical", "conc_A_model": "conc-A-c6bce5631d2b", "conc_B_items_km2": null, "conc_B_lo80": null, "conc_B_hi80": null, "conc_B_lo95": null, "conc_B_hi95": null, "conc_B_status": "unavailable", "conc_B_status_ru": "концентрация недоступна", "conc_B_reasons": "вне бассейна профиля: black_sea", "conc_B_model": "conc-B-c6bce5631d2b"}}, {"type": "Feature", "geometry": {"type": "Polygon", "coordinates": [[[49.17508588284467, 53.46670485309151], [49.17508973736882, 53.46661501149818], [49.174939176516325, 53.46661271136565], [49.17494303133731, 53.46652286977826], [49.17509359187222, 53.46652516990329], [49.17509744635486, 53.46643532830686], [49.1753985668518, 53.46643992797305], [49.17539471300431, 53.46652976958447], [49.175545273601486, 53.466532069140605], [49.17554142005082, 53.46662191075797], [49.17539085913607, 53.466619611194325], [49.17538700524708, 53.466709452802654], [49.17508588284467, 53.46670485309151]]]}, "properties": {"zone_id": "kuibyshev-2026-06-19-004", "aoi": "kuibyshev", "date": "2026-06-19", "scene_id": "S2B_MSIL2A_20260619T074609_R135_T39UUV_20260619T094705", "scene_datetime_utc": "2026-06-19T07:46:09.024000+00:00", "detection_status": "detected", "detection_status_ru": "обнаружено", "lon": 49.17524, "lat": 53.46657, "n_pixels": 2, "zone_area_km2": 0.0008, "cover_m2": 8.6, "p_mean": 0.782, "p_max": 0.902, "cover_m2_km2": 10750.0, "h3": "88108568a1fffff", "valid_frac_scene": 1.0, "wind_ms": 3.1, "sea": "спокойное", "scene_reliable": true, "field_event_id": "S4:DOORS3:T23", "field_profile": "B", "field_date": "2024-06-10", "field_distance_km": 1359.7, "field_date_gap_days": 739, "field_conc_items_km2": 102.37, "conc_A_items_km2": null, "conc_A_lo80": null, "conc_A_hi80": null, "conc_A_lo95": null, "conc_A_hi95": null, "conc_A_status": "unavailable", "conc_A_status_ru": "концентрация недоступна", "conc_A_reasons": "вне бассейна профиля: nw_atlantic_subtropical", "conc_A_model": "conc-A-c6bce5631d2b", "conc_B_items_km2": null, "conc_B_lo80": null, "conc_B_hi80": null, "conc_B_lo95": null, "conc_B_hi95": null, "conc_B_status": "unavailable", "conc_B_status_ru": "концентрация недоступна", "conc_B_reasons": "вне бассейна профиля: black_sea", "conc_B_model": "conc-B-c6bce5631d2b"}}, {"type": "Feature", "geometry": {"type": "Polygon", "coordinates": [[[49.34449349851523, 53.46108174487318], [49.34449699461027, 53.4609918951171], [49.34434644011556, 53.46098980858558], [49.34434993650936, 53.46089995883478], [49.34450049068649, 53.460902045359504], [49.34450398674388, 53.4608121956004], [49.344654540622244, 53.46081428192869], [49.34465803634324, 53.46072443216126], [49.34495564843545, 53.46081845401637], [49.34494865820734, 53.460998153573854], [49.34479810365617, 53.46099606761125], [49.344794608196295, 53.46108591738093], [49.34449349851523, 53.46108174487318]]]}, "properties": {"zone_id": "kuibyshev-2026-06-19-005", "aoi": "kuibyshev", "date": "2026-06-19", "scene_id": "S2B_MSIL2A_20260619T074609_R135_T39UUV_20260619T094705", "scene_datetime_utc": "2026-06-19T07:46:09.024000+00:00", "detection_status": "detected", "detection_status_ru": "обнаружено", "lon": 49.34468, "lat": 53.46092, "n_pixels": 3, "zone_area_km2": 0.001, "cover_m2": 19.2, "p_mean": 0.707, "p_max": 0.894, "cover_m2_km2": 19200.0, "h3": "881081d2a1fffff", "valid_frac_scene": 1.0, "wind_ms": 3.1, "sea": "спокойное", "scene_reliable": true, "field_event_id": "S4:DOORS3:T23", "field_profile": "B", "field_date": "2024-06-10", "field_distance_km": 1364.4, "field_date_gap_days": 739, "field_conc_items_km2": 102.37, "conc_A_items_km2": null, "conc_A_lo80": null, "conc_A_hi80": null, "conc_A_lo95": null, "conc_A_hi95": null, "conc_A_status": "unavailable", "conc_A_status_ru": "концентрация недоступна", "conc_A_reasons": "вне бассейна профиля: nw_atlantic_subtropical", "conc_A_model": "conc-A-c6bce5631d2b", "conc_B_items_km2": null, "conc_B_lo80": null, "conc_B_hi80": null, "conc_B_lo95": null, "conc_B_hi95": null, "conc_B_status": "unavailable", "conc_B_status_ru": "концентрация недоступна", "conc_B_reasons": "вне бассейна профиля: black_sea", "conc_B_model": "conc-B-c6bce5631d2b"}}, {"type": "Feature", "geometry": {"type": "Polygon", "coordinates": [[[49.343961223109034, 53.459276402716085], [49.34396472009782, 53.45918655295685], [49.3438141720298, 53.45918446580279], [49.343821166586, 53.459004766293354], [49.34412575808542, 53.45891909061407], [49.34412226147067, 53.459008940384656], [49.34427280894124, 53.45901102714587], [49.344265816290346, 53.45919072669609], [49.343961223109034, 53.459276402716085]]]}, "properties": {"zone_id": "kuibyshev-2026-06-19-006", "aoi": "kuibyshev", "date": "2026-06-19", "scene_id": "S2B_MSIL2A_20260619T074609_R135_T39UUV_20260619T094705", "scene_datetime_utc": "2026-06-19T07:46:09.024000+00:00", "detection_status": "detected", "detection_status_ru": "обнаружено", "lon": 49.34404, "lat": 53.4591, "n_pixels": 2, "zone_area_km2": 0.0008, "cover_m2": 15.3, "p_mean": 0.686, "p_max": 0.867, "cover_m2_km2": 19125.0, "h3": "881081d2a1fffff", "valid_frac_scene": 1.0, "wind_ms": 3.1, "sea": "спокойное", "scene_reliable": true, "field_event_id": "S4:DOORS3:T23", "field_profile": "B", "field_date": "2024-06-10", "field_distance_km": 1364.2, "field_date_gap_days": 739, "field_conc_items_km2": 102.37, "conc_A_items_km2": null, "conc_A_lo80": null, "conc_A_hi80": null, "conc_A_lo95": null, "conc_A_hi95": null, "conc_A_status": "unavailable", "conc_A_status_ru": "концентрация недоступна", "conc_A_reasons": "вне бассейна профиля: nw_atlantic_subtropical", "conc_A_model": "conc-A-c6bce5631d2b", "conc_B_items_km2": null, "conc_B_lo80": null, "conc_B_hi80": null, "conc_B_lo95": null, "conc_B_hi95": null, "conc_B_status": "unavailable", "conc_B_status_ru": "концентрация недоступна", "conc_B_reasons": "вне бассейна профиля: black_sea", "conc_B_model": "conc-B-c6bce5631d2b"}}, {"type": "Feature", "geometry": {"type": "Polygon", "coordinates": [[[49.4507371596224, 53.44740414210733], [49.450740429778996, 53.44731428747953], [49.45058991583572, 53.44731233515432], [49.4505931862921, 53.44722248053138], [49.45089748336545, 53.44713653034233], [49.450894213561455, 53.44722638497948], [49.45104472722254, 53.44722833691918], [49.45104145771833, 53.44731819156121], [49.450890943739864, 53.447316239615155], [49.45088767390067, 53.44740609424932], [49.4507371596224, 53.44740414210733]]]}, "properties": {"zone_id": "kuibyshev-2026-06-19-007", "aoi": "kuibyshev", "date": "2026-06-19", "scene_id": "S2B_MSIL2A_20260619T074609_R135_T39UUV_20260619T094705", "scene_datetime_utc": "2026-06-19T07:46:09.024000+00:00", "detection_status": "detected", "detection_status_ru": "обнаружено", "lon": 49.45082, "lat": 53.44727, "n_pixels": 1, "zone_area_km2": 0.0005, "cover_m2": 8.2, "p_mean": 0.702, "p_max": 0.702, "cover_m2_km2": 16400.0, "h3": "881081d0bbfffff", "valid_frac_scene": 1.0, "wind_ms": 3.1, "sea": "спокойное", "scene_reliable": true, "field_event_id": "S4:DOORS3:T23", "field_profile": "B", "field_date": "2024-06-10", "field_distance_km": 1366.4, "field_date_gap_days": 739, "field_conc_items_km2": 102.37, "conc_A_items_km2": null, "conc_A_lo80": null, "conc_A_hi80": null, "conc_A_lo95": null, "conc_A_hi95": null, "conc_A_status": "unavailable", "conc_A_status_ru": "концентрация недоступна", "conc_A_reasons": "вне бассейна профиля: nw_atlantic_subtropical", "conc_A_model": "conc-A-c6bce5631d2b", "conc_B_items_km2": null, "conc_B_lo80": null, "conc_B_hi80": null, "conc_B_lo95": null, "conc_B_hi95": null, "conc_B_status": "unavailable", "conc_B_status_ru": "концентрация недоступна", "conc_B_reasons": "вне бассейна профиля: black_sea", "conc_B_model": "conc-B-c6bce5631d2b"}}, {"type": "Feature", "geometry": {"type": "Polygon", "coordinates": [[[49.30655639185103, 53.44535706855957], [49.306559965990694, 53.445267220306214], [49.3062625488095, 53.44517310407282], [49.30626612354521, 53.4450832558303], [49.30657068829425, 53.44499767553699], [49.30656711421231, 53.44508752379491], [49.30671760957471, 53.44508965749294], [49.30671403579078, 53.44517950575631], [49.30686453148969, 53.44518163927177], [49.30686095800379, 53.44527148754055], [49.30671046198762, 53.445269354018144], [49.30670688816522, 53.445359202278446], [49.30655639185103, 53.44535706855957]]]}, "properties": {"zone_id": "kuibyshev-2026-06-19-008", "aoi": "kuibyshev", "date": "2026-06-19", "scene_id": "S2B_MSIL2A_20260619T074609_R135_T39UUV_20260619T094705", "scene_datetime_utc": "2026-06-19T07:46:09.024000+00:00", "detection_status": "detected", "detection_status_ru": "обнаружено", "lon": 49.30656, "lat": 53.44518, "n_pixels": 2, "zone_area_km2": 0.0008, "cover_m2": 16.5, "p_mean": 0.978, "p_max": 0.996, "cover_m2_km2": 20625.0, "h3": "881081d059fffff", "valid_frac_scene": 1.0, "wind_ms": 3.1, "sea": "спокойное", "scene_reliable": true, "field_event_id": "S4:DOORS3:T23", "field_profile": "B", "field_date": "2024-06-10", "field_distance_km": 1361.6, "field_date_gap_days": 739, "field_conc_items_km2": 102.37, "conc_A_items_km2": null, "conc_A_lo80": null, "conc_A_hi80": null, "conc_A_lo95": null, "conc_A_hi95": null, "conc_A_status": "unavailable", "conc_A_status_ru": "концентрация недоступна", "conc_A_reasons": "вне бассейна профиля: nw_atlantic_subtropical", "conc_A_model": "conc-A-c6bce5631d2b", "conc_B_items_km2": null, "conc_B_lo80": null, "conc_B_hi80": null, "conc_B_lo95": null, "conc_B_hi95": null, "conc_B_status": "unavailable", "conc_B_status_ru": "концентрация недоступна", "conc_B_reasons": "вне бассейна профиля: black_sea", "conc_B_model": "conc-B-c6bce5631d2b"}}, {"type": "Feature", "geometry": {"type": "Polygon", "coordinates": [[[49.36545364976591, 53.444829138228144], [49.3654570995664, 53.44473928728142], [49.365306600956195, 53.444737227586295], [49.3653100510554, 53.44464737664477], [49.36546054934832, 53.444649436333165], [49.365463999111675, 53.4445595853834], [49.36561449710587, 53.44456164487557], [49.36561794653337, 53.44447179391758], [49.36576844422885, 53.4444738532135], [49.36576499511864, 53.444563704178194], [49.366370435196394, 53.444482088501914], [49.366366987355335, 53.44457193949344], [49.36651748546091, 53.44457399784844], [49.36651403791858, 53.444663848845146], [49.366363539495715, 53.44466179048346], [49.36636009161753, 53.444751641471946], [49.365761545989855, 53.444653555141386], [49.36575809684252, 53.44474340610304], [49.365607598195176, 53.444741346786984], [49.365604148711974, 53.444831197740434], [49.36545364976591, 53.444829138228144]]]}, "properties": {"zone_id": "kuibyshev-2026-06-19-009", "aoi": "kuibyshev", "date": "2026-06-19", "scene_id": "S2B_MSIL2A_20260619T074609_R135_T39UUV_20260619T094705", "scene_datetime_utc": "2026-06-19T07:46:09.024000+00:00", "detection_status": "detected", "detection_status_ru": "обнаружено", "lon": 49.36591, "lat": 53.44463, "n_pixels": 4, "zone_area_km2": 0.0016, "cover_m2": 19.2, "p_mean": 0.681, "p_max": 0.761, "cover_m2_km2": 12000.0, "h3": "881081d013fffff", "valid_frac_scene": 1.0, "wind_ms": 3.1, "sea": "спокойное", "scene_reliable": true, "field_event_id": "S4:DOORS3:T23", "field_profile": "B", "field_date": "2024-06-10", "field_distance_km": 1363.4, "field_date_gap_days": 739, "field_conc_items_km2": 102.37, "conc_A_items_km2": null, "conc_A_lo80": null, "conc_A_hi80": null, "conc_A_lo95": null, "conc_A_hi95": null, "conc_A_status": "unavailable", "conc_A_status_ru": "концентрация недоступна", "conc_A_reasons": "вне бассейна профиля: nw_atlantic_subtropical", "conc_A_model": "conc-A-c6bce5631d2b", "conc_B_items_km2": null, "conc_B_lo80": null, "conc_B_hi80": null, "conc_B_lo95": null, "conc_B_hi95": null, "conc_B_status": "unavailable", "conc_B_status_ru": "концентрация недоступна", "conc_B_reasons": "вне бассейна профиля: black_sea", "conc_B_model": "conc-B-c6bce5631d2b"}}, {"type": "Feature", "geometry": {"type": "Polygon", "coordinates": [[[49.60486941479839, 53.44480903442079], [49.604872359404666, 53.44471917353597], [49.60472184421863, 53.444717415451116], [49.60473362375496, 53.44435797192002], [49.60503759581306, 53.44427162695642], [49.605034651603454, 53.44436148785433], [49.60518516555148, 53.44436324553711], [49.60517338982429, 53.44472268913694], [49.60486941479839, 53.44480903442079]]]}, "properties": {"zone_id": "kuibyshev-2026-06-19-010", "aoi": "kuibyshev", "date": "2026-06-19", "scene_id": "S2B_MSIL2A_20260619T074609_R135_T39UUV_20260619T094705", "scene_datetime_utc": "2026-06-19T07:46:09.024000+00:00", "detection_status": "detected", "detection_status_ru": "обнаружено", "lon": 49.60495, "lat": 53.44454, "n_pixels": 4, "zone_area_km2": 0.0014, "cover_m2": 14.9, "p_mean": 0.837, "p_max": 0.929, "cover_m2_km2": 10642.9, "h3": "881081c283fffff", "valid_frac_scene": 1.0, "wind_ms": 3.1, "sea": "спокойное", "scene_reliable": true, "field_event_id": "S4:DOORS3:T23", "field_profile": "B", "field_date": "2024-06-10", "field_distance_km": 1371.0, "field_date_gap_days": 739, "field_conc_items_km2": 102.37, "conc_A_items_km2": null, "conc_A_lo80": null, "conc_A_hi80": null, "conc_A_lo95": null, "conc_A_hi95": null, "conc_A_status": "unavailable", "conc_A_status_ru": "концентрация недоступна", "conc_A_reasons": "вне бассейна профиля: nw_atlantic_subtropical", "conc_A_model": "conc-A-c6bce5631d2b", "conc_B_items_km2": null, "conc_B_lo80": null, "conc_B_hi80": null, "conc_B_lo95": null, "conc_B_hi95": null, "conc_B_status": "unavailable", "conc_B_status_ru": "концентрация недоступна", "conc_B_reasons": "вне бассейна профиля: black_sea", "conc_B_model": "conc-B-c6bce5631d2b"}}, {"type": "Feature", "geometry": {"type": "Polygon", "coordinates": [[[49.60398989365827, 53.444079596188686], [49.603992840042245, 53.44398973532645], [49.603842327490746, 53.443987976149934], [49.60384822084595, 53.44380825443252], [49.60415219071414, 53.443721911700685], [49.60414924469515, 53.44381177257307], [49.60429975664355, 53.443813531358956], [49.60429386519283, 53.44399325311076], [49.60398989365827, 53.444079596188686]]]}, "properties": {"zone_id": "kuibyshev-2026-06-19-011", "aoi": "kuibyshev", "date": "2026-06-19", "scene_id": "S2B_MSIL2A_20260619T074609_R135_T39UUV_20260619T094705", "scene_datetime_utc": "2026-06-19T07:46:09.024000+00:00", "detection_status": "detected", "detection_status_ru": "обнаружено", "lon": 49.60407, "lat": 53.4439, "n_pixels": 2, "zone_area_km2": 0.0008, "cover_m2": 6.3, "p_mean": 0.88, "p_max": 0.961, "cover_m2_km2": 7875.0, "h3": "881081c283fffff", "valid_frac_scene": 1.0, "wind_ms": 3.1, "sea": "спокойное", "scene_reliable": true, "field_event_id": "S4:DOORS3:T23", "field_profile": "B", "field_date": "2024-06-10", "field_distance_km": 1370.9, "field_date_gap_days": 739, "field_conc_items_km2": 102.37, "conc_A_items_km2": null, "conc_A_lo80": null, "conc_A_hi80": null, "conc_A_lo95": null, "conc_A_hi95": null, "conc_A_status": "unavailable", "conc_A_status_ru": "концентрация недоступна", "conc_A_reasons": "вне бассейна профиля: nw_atlantic_subtropical", "conc_A_model": "conc-A-c6bce5631d2b", "conc_B_items_km2": null, "conc_B_lo80": null, "conc_B_hi80": null, "conc_B_lo95": null, "conc_B_hi95": null, "conc_B_status": "unavailable", "conc_B_status_ru": "концентрация недоступна", "conc_B_reasons": "вне бассейна профиля: black_sea", "conc_B_model": "conc-B-c6bce5631d2b"}}, {"type": "Feature", "geometry": {"type": "Polygon", "coordinates": [[[49.45045888846588, 53.43850071874017], [49.45046215814921, 53.43841086398946], [49.45031167568978, 53.438408911535774], [49.45031494567272, 53.438319056789915], [49.450619179305626, 53.438233106734984], [49.45061590997472, 53.43832296149507], [49.45076639215212, 53.43832491356338], [49.45076312312084, 53.438414768328315], [49.450612640626225, 53.43841281625364], [49.45060937126013, 53.43850267101072], [49.45045888846588, 53.43850071874017]]]}, "properties": {"zone_id": "kuibyshev-2026-06-19-012", "aoi": "kuibyshev", "date": "2026-06-19", "scene_id": "S2B_MSIL2A_20260619T074609_R135_T39UUV_20260619T094705", "scene_datetime_utc": "2026-06-19T07:46:09.024000+00:00", "detection_status": "detected", "detection_status_ru": "обнаружено", "lon": 49.45054, "lat": 53.43837, "n_pixels": 1, "zone_area_km2": 0.0005, "cover_m2": 7.8, "p_mean": 0.553, "p_max": 0.553, "cover_m2_km2": 15600.0, "h3": "881081d0b1fffff", "valid_frac_scene": 1.0, "wind_ms": 3.1, "sea": "спокойное", "scene_reliable": true, "field_event_id": "S4:DOORS3:T23", "field_profile": "B", "field_date": "2024-06-10", "field_distance_km": 1365.5, "field_date_gap_days": 739, "field_conc_items_km2": 102.37, "conc_A_items_km2": null, "conc_A_lo80": null, "conc_A_hi80": null, "conc_A_lo95": null, "conc_A_hi95": null, "conc_A_status": "unavailable", "conc_A_status_ru": "концентрация недоступна", "conc_A_reasons": "вне бассейна профиля: nw_atlantic_subtropical", "conc_A_model": "conc-A-c6bce5631d2b", "conc_B_items_km2": null, "conc_B_lo80": null, "conc_B_hi80": null, "conc_B_lo95": null, "conc_B_hi95": null, "conc_B_status": "unavailable", "conc_B_status_ru": "концентрация недоступна", "conc_B_reasons": "вне бассейна профиля: black_sea", "conc_B_model": "conc-B-c6bce5631d2b"}}, {"type": "Feature", "geometry": {"type": "Polygon", "coordinates": [[[49.44985695746491, 53.438492907762935], [49.44986022841712, 53.43840305303765], [49.44970974602811, 53.438401099825946], [49.44971301727994, 53.43831124510553], [49.450017252040915, 53.438225296592094], [49.450013981441124, 53.43831515132674], [49.45016446354813, 53.43831710415308], [49.450161193247965, 53.43840695889258], [49.45001071082374, 53.438405006059874], [49.45000744018875, 53.4384948607915], [49.44985695746491, 53.438492907762935]]]}, "properties": {"zone_id": "kuibyshev-2026-06-19-013", "aoi": "kuibyshev", "date": "2026-06-19", "scene_id": "S2B_MSIL2A_20260619T074609_R135_T39UUV_20260619T094705", "scene_datetime_utc": "2026-06-19T07:46:09.024000+00:00", "detection_status": "detected", "detection_status_ru": "обнаружено", "lon": 49.44994, "lat": 53.43836, "n_pixels": 1, "zone_area_km2": 0.0005, "cover_m2": 8.2, "p_mean": 0.6, "p_max": 0.6, "cover_m2_km2": 16400.0, "h3": "881081d0b1fffff", "valid_frac_scene": 1.0, "wind_ms": 3.1, "sea": "спокойное", "scene_reliable": true, "field_event_id": "S4:DOORS3:T23", "field_profile": "B", "field_date": "2024-06-10", "field_distance_km": 1365.5, "field_date_gap_days": 739, "field_conc_items_km2": 102.37, "conc_A_items_km2": null, "conc_A_lo80": null, "conc_A_hi80": null, "conc_A_lo95": null, "conc_A_hi95": null, "conc_A_status": "unavailable", "conc_A_status_ru": "концентрация недоступна", "conc_A_reasons": "вне бассейна профиля: nw_atlantic_subtropical", "conc_A_model": "conc-A-c6bce5631d2b", "conc_B_items_km2": null, "conc_B_lo80": null, "conc_B_hi80": null, "conc_B_lo95": null, "conc_B_hi95": null, "conc_B_status": "unavailable", "conc_B_status_ru": "концентрация недоступна", "conc_B_reasons": "вне бассейна профиля: black_sea", "conc_B_model": "conc-B-c6bce5631d2b"}}]}