{"type": "FeatureCollection", "features": [{"type": "Feature", "geometry": {"type": "Polygon", "coordinates": [[[36.6464932083312, 45.12760084680227], [36.64649690896341, 45.12751090560814], [36.64636985512776, 45.1275082858726], [36.64637355594187, 45.12741834468498], [36.64650060957819, 45.127420964412345], [36.64650431017556, 45.1273310232149], [36.646631363629965, 45.12733364279287], [36.64663506401059, 45.127243701585584], [36.64688547059101, 45.12733888152513], [36.64688177059162, 45.127428822747085], [36.647008824297586, 45.127431441909536], [36.64700512448012, 45.12752138313801], [36.64687807057482, 45.12751876396739], [36.64687437054061, 45.12760870518601], [36.6464932083312, 45.12760084680227]]]}, "properties": {"zone_id": "kerch-2025-05-24-001", "aoi": "kerch", "date": "2025-05-24", "scene_id": "S2A_MSIL2A_20250524T083531_R021_T37TCK_20250524T104812", "scene_datetime_utc": "2025-05-24T08:35:31.024000+00:00", "detection_status": "detected", "detection_status_ru": "обнаружено", "lon": 36.64669, "lat": 45.12745, "n_pixels": 4, "zone_area_km2": 0.0012, "cover_m2": 21.6, "p_mean": 0.762, "p_max": 0.969, "cover_m2_km2": 18000.0, "h3": "882d76a855fffff", "valid_frac_scene": 0.465, "wind_ms": 4.0, "sea": "спокойное", "scene_reliable": true, "field_event_id": "S4:DOORS3:T11", "field_profile": "B", "field_date": "2024-06-04", "field_distance_km": 293.0, "field_date_gap_days": 354, "field_conc_items_km2": 62.52, "conc_A_items_km2": null, "conc_A_lo80": null, "conc_A_hi80": null, "conc_A_lo95": null, "conc_A_hi95": null, "conc_A_status": "unavailable", "conc_A_status_ru": "концентрация недоступна", "conc_A_reasons": "вне бассейна профиля: nw_atlantic_subtropical", "conc_A_model": "conc-A-c6bce5631d2b", "conc_B_items_km2": 621.6, "conc_B_lo80": 132.7, "conc_B_hi80": 2088.3, "conc_B_lo95": 82.8, "conc_B_hi95": 3910.2, "conc_B_status": "research_estimate", "conc_B_status_ru": "исследовательская оценка", "conc_B_reasons": "ближайшее полевое измерение в 293 км (> 60 км); месяц 5 вне месяцев обучения [6]; log_dist_coast_km = 1.0 вне диапазона обучения [1.7; 5.0]", "conc_B_model": "conc-B-c6bce5631d2b"}}, {"type": "Feature", "geometry": {"type": "Polygon", "coordinates": [[[36.66832236038121, 45.125528353068404], [36.668326026443616, 45.12543841043736], [36.66819897522502, 45.12543581507875], [36.66820264146949, 45.12534587245413], [36.66832969248877, 45.125348467804656], [36.66833335851667, 45.12525852517028], [36.668587460208336, 45.12526371543146], [36.66858379457908, 45.12535365808202], [36.6687108456501, 45.125356253008874], [36.66870718020291, 45.12544619566586], [36.66858012893256, 45.12544360073091], [36.66857646326879, 45.125533543378154], [36.66832236038121, 45.125528353068404]]]}, "properties": {"zone_id": "kerch-2025-05-24-002", "aoi": "kerch", "date": "2025-05-24", "scene_id": "S2A_MSIL2A_20250524T083531_R021_T37TCK_20250524T104812", "scene_datetime_utc": "2025-05-24T08:35:31.024000+00:00", "detection_status": "detected", "detection_status_ru": "обнаружено", "lon": 36.66845, "lat": 45.1254, "n_pixels": 2, "zone_area_km2": 0.0008, "cover_m2": 16.1, "p_mean": 0.973, "p_max": 0.988, "cover_m2_km2": 20125.0, "h3": "882d76a81dfffff", "valid_frac_scene": 0.465, "wind_ms": 4.0, "sea": "спокойное", "scene_reliable": true, "field_event_id": "S4:DOORS3:T11", "field_profile": "B", "field_date": "2024-06-04", "field_distance_km": 292.7, "field_date_gap_days": 354, "field_conc_items_km2": 62.52, "conc_A_items_km2": null, "conc_A_lo80": null, "conc_A_hi80": null, "conc_A_lo95": null, "conc_A_hi95": null, "conc_A_status": "unavailable", "conc_A_status_ru": "концентрация недоступна", "conc_A_reasons": "вне бассейна профиля: nw_atlantic_subtropical", "conc_A_model": "conc-A-c6bce5631d2b", "conc_B_items_km2": 621.6, "conc_B_lo80": 132.7, "conc_B_hi80": 2088.3, "conc_B_lo95": 82.8, "conc_B_hi95": 3910.2, "conc_B_status": "research_estimate", "conc_B_status_ru": "исследовательская оценка", "conc_B_reasons": "ближайшее полевое измерение в 293 км (> 60 км); месяц 5 вне месяцев обучения [6]; log_dist_coast_km = 1.0 вне диапазона обучения [1.7; 5.0]", "conc_B_model": "conc-B-c6bce5631d2b"}}, {"type": "Feature", "geometry": {"type": "Polygon", "coordinates": [[[36.590055654411714, 45.108959794433034], [36.59005944127357, 45.1088698566352], [36.589809214011744, 45.10877455539347], [36.58981678844277, 45.10859467982292], [36.58994379508859, 45.10859736159788], [36.589947582078274, 45.10850742380173], [36.59019780843368, 45.10860272472444], [36.590194021824374, 45.10869266253564], [36.59032102872274, 45.10869534389562], [36.590313455848886, 45.10887521952972], [36.590055654411714, 45.108959794433034]]]}, "properties": {"zone_id": "kerch-2025-05-24-003", "aoi": "kerch", "date": "2025-05-24", "scene_id": "S2A_MSIL2A_20250524T083531_R021_T37TCK_20250524T104812", "scene_datetime_utc": "2025-05-24T08:35:31.024000+00:00", "detection_status": "detected", "detection_status_ru": "обнаружено", "lon": 36.59007, "lat": 45.10873, "n_pixels": 4, "zone_area_km2": 0.0012, "cover_m2": 10.6, "p_mean": 0.844, "p_max": 0.996, "cover_m2_km2": 8833.3, "h3": "882d76ab53fffff", "valid_frac_scene": 0.465, "wind_ms": 4.0, "sea": "спокойное", "scene_reliable": true, "field_event_id": "S4:DOORS3:T11", "field_profile": "B", "field_date": "2024-06-04", "field_distance_km": 291.0, "field_date_gap_days": 354, "field_conc_items_km2": 62.52, "conc_A_items_km2": null, "conc_A_lo80": null, "conc_A_hi80": null, "conc_A_lo95": null, "conc_A_hi95": null, "conc_A_status": "unavailable", "conc_A_status_ru": "концентрация недоступна", "conc_A_reasons": "вне бассейна профиля: nw_atlantic_subtropical", "conc_A_model": "conc-A-c6bce5631d2b", "conc_B_items_km2": 466.8, "conc_B_lo80": 99.4, "conc_B_hi80": 1568.9, "conc_B_lo95": 61.9, "conc_B_hi95": 2937.9, "conc_B_status": "research_estimate", "conc_B_status_ru": "исследовательская оценка", "conc_B_reasons": "ближайшее полевое измерение в 291 км (> 60 км); месяц 5 вне месяцев обучения [6]", "conc_B_model": "conc-B-c6bce5631d2b"}}, {"type": "Feature", "geometry": {"type": "Polygon", "coordinates": [[[36.636982027612866, 45.108500642001076], [36.636985740719645, 45.10841070112092], [36.636858730134314, 45.108408071668826], [36.63686615669371, 45.108228189919934], [36.63699316688079, 45.108230819355626], [36.63699687993517, 45.108140878470486], [36.637123889940604, 45.10814350775684], [36.637127602778385, 45.108053566861855], [36.63737791000387, 45.108148765906186], [36.637370485072395, 45.108328647724], [36.63711275132245, 45.10841333043187], [36.63710903841479, 45.108503271320224], [36.636982027612866, 45.108500642001076]]]}, "properties": {"zone_id": "kerch-2025-05-24-004", "aoi": "kerch", "date": "2025-05-24", "scene_id": "S2A_MSIL2A_20250524T083531_R021_T37TCK_20250524T104812", "scene_datetime_utc": "2025-05-24T08:35:31.024000+00:00", "detection_status": "detected", "detection_status_ru": "обнаружено", "lon": 36.63712, "lat": 45.10828, "n_pixels": 4, "zone_area_km2": 0.0012, "cover_m2": 39.2, "p_mean": 0.981, "p_max": 0.996, "cover_m2_km2": 32666.7, "h3": "882d76a86bfffff", "valid_frac_scene": 0.465, "wind_ms": 4.0, "sea": "спокойное", "scene_reliable": true, "field_event_id": "S4:DOORS3:T11", "field_profile": "B", "field_date": "2024-06-04", "field_distance_km": 290.8, "field_date_gap_days": 354, "field_conc_items_km2": 62.52, "conc_A_items_km2": null, "conc_A_lo80": null, "conc_A_hi80": null, "conc_A_lo95": null, "conc_A_hi95": null, "conc_A_status": "unavailable", "conc_A_status_ru": "концентрация недоступна", "conc_A_reasons": "вне бассейна профиля: nw_atlantic_subtropical", "conc_A_model": "conc-A-c6bce5631d2b", "conc_B_items_km2": 520.5, "conc_B_lo80": 111.0, "conc_B_hi80": 1749.2, "conc_B_lo95": 69.2, "conc_B_hi95": 3275.4, "conc_B_status": "research_estimate", "conc_B_status_ru": "исследовательская оценка", "conc_B_reasons": "ближайшее полевое измерение в 291 км (> 60 км); месяц 5 вне месяцев обучения [6]", "conc_B_model": "conc-B-c6bce5631d2b"}}, {"type": "Feature", "geometry": {"type": "Polygon", "coordinates": [[[36.57499209841426, 45.03239529015405], [36.57499589877883, 45.03230535214598], [36.574869062384884, 45.0323026572939], [36.574876663457026, 45.03212278128957], [36.57513413558229, 45.03203823279789], [36.5751303354696, 45.03212817081939], [36.57525717150269, 45.03213086537319], [36.575249571620326, 45.03231074142795], [36.57499209841426, 45.03239529015405]]]}, "properties": {"zone_id": "kerch-2025-05-24-005", "aoi": "kerch", "date": "2025-05-24", "scene_id": "S2A_MSIL2A_20250524T083531_R021_T37TCK_20250524T104812", "scene_datetime_utc": "2025-05-24T08:35:31.024000+00:00", "detection_status": "detected", "detection_status_ru": "обнаружено", "lon": 36.57506, "lat": 45.03222, "n_pixels": 2, "zone_area_km2": 0.0008, "cover_m2": 20.8, "p_mean": 0.616, "p_max": 0.659, "cover_m2_km2": 26000.0, "h3": "882d761489fffff", "valid_frac_scene": 0.465, "wind_ms": 4.0, "sea": "спокойное", "scene_reliable": true, "field_event_id": "S4:DOORS3:T11", "field_profile": "B", "field_date": "2024-06-04", "field_distance_km": 282.5, "field_date_gap_days": 354, "field_conc_items_km2": 62.52, "conc_A_items_km2": null, "conc_A_lo80": null, "conc_A_hi80": null, "conc_A_lo95": null, "conc_A_hi95": null, "conc_A_status": "unavailable", "conc_A_status_ru": "концентрация недоступна", "conc_A_reasons": "вне бассейна профиля: nw_atlantic_subtropical", "conc_A_model": "conc-A-c6bce5631d2b", "conc_B_items_km2": 364.5, "conc_B_lo80": 77.5, "conc_B_hi80": 1225.6, "conc_B_lo95": 48.2, "conc_B_hi95": 2295.2, "conc_B_status": "research_estimate", "conc_B_status_ru": "исследовательская оценка", "conc_B_reasons": "ближайшее полевое измерение в 282 км (> 60 км); месяц 5 вне месяцев обучения [6]", "conc_B_model": "conc-B-c6bce5631d2b"}}, {"type": "Feature", "geometry": {"type": "Polygon", "coordinates": [[[37.26954133926314, 44.94799593811651], [37.26954404359092, 44.94790595914466], [37.26941733739747, 44.947904038631165], [37.26942274641047, 44.94772408069476], [37.269678862110894, 44.94763794257476], [37.26967615801899, 44.94772792155726], [37.269802863842315, 44.94772984177775], [37.269797456015944, 44.94790979975011], [37.26954133926314, 44.94799593811651]]]}, "properties": {"zone_id": "kerch-2025-05-24-006", "aoi": "kerch", "date": "2025-05-24", "scene_id": "S2A_MSIL2A_20250524T083531_R021_T37TCK_20250524T104812", "scene_datetime_utc": "2025-05-24T08:35:31.024000+00:00", "detection_status": "detected", "detection_status_ru": "обнаружено", "lon": 37.26961, "lat": 44.94782, "n_pixels": 2, "zone_area_km2": 0.0008, "cover_m2": 11.4, "p_mean": 0.645, "p_max": 0.769, "cover_m2_km2": 14250.0, "h3": "882d762893fffff", "valid_frac_scene": 0.465, "wind_ms": 4.0, "sea": "спокойное", "scene_reliable": true, "field_event_id": "S4:DOORS3:T11", "field_profile": "B", "field_date": "2024-06-04", "field_distance_km": 277.1, "field_date_gap_days": 354, "field_conc_items_km2": 62.52, "conc_A_items_km2": null, "conc_A_lo80": null, "conc_A_hi80": null, "conc_A_lo95": null, "conc_A_hi95": null, "conc_A_status": "unavailable", "conc_A_status_ru": "концентрация недоступна", "conc_A_reasons": "вне бассейна профиля: nw_atlantic_subtropical", "conc_A_model": "conc-A-c6bce5631d2b", "conc_B_items_km2": 592.2, "conc_B_lo80": 126.4, "conc_B_hi80": 1989.7, "conc_B_lo95": 78.8, "conc_B_hi95": 3725.6, "conc_B_status": "research_estimate", "conc_B_status_ru": "исследовательская оценка", "conc_B_reasons": "ближайшее полевое измерение в 277 км (> 60 км); месяц 5 вне месяцев обучения [6]; log_dist_coast_km = 1.2 вне диапазона обучения [1.7; 5.0]", "conc_B_model": "conc-B-c6bce5631d2b"}}, {"type": "Feature", "geometry": {"type": "Polygon", "coordinates": [[[37.2698819845389, 44.93665857544164], [37.269884687266476, 44.93656859627426], [37.26975800598505, 44.93656667651557], [37.269760708897586, 44.93647669735263], [37.270016773582356, 44.93639055754111], [37.270014071077824, 44.93648053671759], [37.27014075218698, 44.9364824561894], [37.27013804986742, 44.9365724353703], [37.270011368560596, 44.93657051589251], [37.27000866603068, 44.93666049506588], [37.2698819845389, 44.93665857544164]]]}, "properties": {"zone_id": "kerch-2025-05-24-007", "aoi": "kerch", "date": "2025-05-24", "scene_id": "S2A_MSIL2A_20250524T083531_R021_T37TCK_20250524T104812", "scene_datetime_utc": "2025-05-24T08:35:31.024000+00:00", "detection_status": "detected", "detection_status_ru": "обнаружено", "lon": 37.26995, "lat": 44.93652, "n_pixels": 1, "zone_area_km2": 0.0005, "cover_m2": 2.0, "p_mean": 0.992, "p_max": 0.992, "cover_m2_km2": 4000.0, "h3": "882d7628bbfffff", "valid_frac_scene": 0.465, "wind_ms": 4.0, "sea": "спокойное", "scene_reliable": true, "field_event_id": "S4:DOORS3:T11", "field_profile": "B", "field_date": "2024-06-04", "field_distance_km": 275.9, "field_date_gap_days": 354, "field_conc_items_km2": 62.52, "conc_A_items_km2": null, "conc_A_lo80": null, "conc_A_hi80": null, "conc_A_lo95": null, "conc_A_hi95": null, "conc_A_status": "unavailable", "conc_A_status_ru": "концентрация недоступна", "conc_A_reasons": "вне бассейна профиля: nw_atlantic_subtropical", "conc_A_model": "conc-A-c6bce5631d2b", "conc_B_items_km2": 592.2, "conc_B_lo80": 126.4, "conc_B_hi80": 1989.7, "conc_B_lo95": 78.8, "conc_B_hi95": 3725.6, "conc_B_status": "research_estimate", "conc_B_status_ru": "исследовательская оценка", "conc_B_reasons": "ближайшее полевое измерение в 276 км (> 60 км); месяц 5 вне месяцев обучения [6]; log_dist_coast_km = 1.2 вне диапазона обучения [1.7; 5.0]", "conc_B_model": "conc-B-c6bce5631d2b"}}, {"type": "Feature", "geometry": {"type": "Polygon", "coordinates": [[[37.31106142863943, 44.90243728179293], [37.311064063912184, 44.902347300150836], [37.31093745508505, 44.90234542718123], [37.31094009054275, 44.90225544554344], [37.31119594286543, 44.90216920967964], [37.31119330781474, 44.902259191330664], [37.3113199164693, 44.902261064013835], [37.311317281603564, 44.90235104566915], [37.311190672751685, 44.90234917298014], [37.31118803767625, 44.902439154628084], [37.31106142863943, 44.90243728179293]]]}, "properties": {"zone_id": "kerch-2025-05-24-008", "aoi": "kerch", "date": "2025-05-24", "scene_id": "S2A_MSIL2A_20250524T083531_R021_T37TCK_20250524T104812", "scene_datetime_utc": "2025-05-24T08:35:31.024000+00:00", "detection_status": "detected", "detection_status_ru": "обнаружено", "lon": 37.31113, "lat": 44.9023, "n_pixels": 1, "zone_area_km2": 0.0005, "cover_m2": 1.2, "p_mean": 0.537, "p_max": 0.537, "cover_m2_km2": 2400.0, "h3": "882d729201fffff", "valid_frac_scene": 0.465, "wind_ms": 4.0, "sea": "спокойное", "scene_reliable": true, "field_event_id": "S4:DOORS3:T11", "field_profile": "B", "field_date": "2024-06-04", "field_distance_km": 272.7, "field_date_gap_days": 354, "field_conc_items_km2": 62.52, "conc_A_items_km2": null, "conc_A_lo80": null, "conc_A_hi80": null, "conc_A_lo95": null, "conc_A_hi95": null, "conc_A_status": "unavailable", "conc_A_status_ru": "концентрация недоступна", "conc_A_reasons": "вне бассейна профиля: nw_atlantic_subtropical", "conc_A_model": "conc-A-c6bce5631d2b", "conc_B_items_km2": 669.7, "conc_B_lo80": 143.0, "conc_B_hi80": 2249.6, "conc_B_lo95": 89.2, "conc_B_hi95": 4212.2, "conc_B_status": "research_estimate", "conc_B_status_ru": "исследовательская оценка", "conc_B_reasons": "ближайшее полевое измерение в 273 км (> 60 км); месяц 5 вне месяцев обучения [6]; log_dist_coast_km = 0.8 вне диапазона обучения [1.7; 5.0]", "conc_B_model": "conc-B-c6bce5631d2b"}}, {"type": "Feature", "geometry": {"type": "Polygon", "coordinates": [[[37.28384612995924, 44.90185140381061], [37.28384880762916, 44.90176142343183], [37.28372220187855, 44.901759520310854], [37.28372487973321, 44.901669539936435], [37.28398076829989, 44.9015833656384], [37.283978090852415, 44.90167334602623], [37.284104696430866, 44.9016752488607], [37.28410201916812, 44.90176522925291], [37.283975413392355, 44.90176332641252], [37.28397273591972, 44.90185330679724], [37.28384612995924, 44.90185140381061]]]}, "properties": {"zone_id": "kerch-2025-05-24-009", "aoi": "kerch", "date": "2025-05-24", "scene_id": "S2A_MSIL2A_20250524T083531_R021_T37TCK_20250524T104812", "scene_datetime_utc": "2025-05-24T08:35:31.024000+00:00", "detection_status": "detected", "detection_status_ru": "обнаружено", "lon": 37.28391, "lat": 44.90172, "n_pixels": 1, "zone_area_km2": 0.0005, "cover_m2": 13.3, "p_mean": 0.698, "p_max": 0.698, "cover_m2_km2": 26600.0, "h3": "882d729241fffff", "valid_frac_scene": 0.465, "wind_ms": 4.0, "sea": "спокойное", "scene_reliable": true, "field_event_id": "S4:DOORS3:T11", "field_profile": "B", "field_date": "2024-06-04", "field_distance_km": 272.3, "field_date_gap_days": 354, "field_conc_items_km2": 62.52, "conc_A_items_km2": null, "conc_A_lo80": null, "conc_A_hi80": null, "conc_A_lo95": null, "conc_A_hi95": null, "conc_A_status": "unavailable", "conc_A_status_ru": "концентрация недоступна", "conc_A_reasons": "вне бассейна профиля: nw_atlantic_subtropical", "conc_A_model": "conc-A-c6bce5631d2b", "conc_B_items_km2": 541.4, "conc_B_lo80": 115.4, "conc_B_hi80": 1819.1, "conc_B_lo95": 72.0, "conc_B_hi95": 3406.3, "conc_B_status": "research_estimate", "conc_B_status_ru": "исследовательская оценка", "conc_B_reasons": "ближайшее полевое измерение в 272 км (> 60 км); месяц 5 вне месяцев обучения [6]", "conc_B_model": "conc-B-c6bce5631d2b"}}, {"type": "Feature", "geometry": {"type": "Polygon", "coordinates": [[[37.2890427009438, 44.89319738995172], [37.2890453697031, 44.89310740919149], [37.28891878259715, 44.89310551211601], [37.288921451541135, 44.89301553136014], [37.289177293908175, 44.892929344589746], [37.289174625371146, 44.89301932535901], [37.289301212304935, 44.89302122214807], [37.2892985439526, 44.893111202921695], [37.28917195682158, 44.89310930612671], [37.289169288259494, 44.89319928689287], [37.2890427009438, 44.89319738995172]]]}, "properties": {"zone_id": "kerch-2025-05-24-010", "aoi": "kerch", "date": "2025-05-24", "scene_id": "S2A_MSIL2A_20250524T083531_R021_T37TCK_20250524T104812", "scene_datetime_utc": "2025-05-24T08:35:31.024000+00:00", "detection_status": "detected", "detection_status_ru": "обнаружено", "lon": 37.28911, "lat": 44.89306, "n_pixels": 1, "zone_area_km2": 0.0005, "cover_m2": 10.2, "p_mean": 0.831, "p_max": 0.831, "cover_m2_km2": 20400.0, "h3": "882d72926bfffff", "valid_frac_scene": 0.465, "wind_ms": 4.0, "sea": "спокойное", "scene_reliable": true, "field_event_id": "S4:DOORS3:T11", "field_profile": "B", "field_date": "2024-06-04", "field_distance_km": 271.4, "field_date_gap_days": 354, "field_conc_items_km2": 62.52, "conc_A_items_km2": null, "conc_A_lo80": null, "conc_A_hi80": null, "conc_A_lo95": null, "conc_A_hi95": null, "conc_A_status": "unavailable", "conc_A_status_ru": "концентрация недоступна", "conc_A_reasons": "вне бассейна профиля: nw_atlantic_subtropical", "conc_A_model": "conc-A-c6bce5631d2b", "conc_B_items_km2": 592.2, "conc_B_lo80": 126.4, "conc_B_hi80": 1989.7, "conc_B_lo95": 78.8, "conc_B_hi95": 3725.6, "conc_B_status": "research_estimate", "conc_B_status_ru": "исследовательская оценка", "conc_B_reasons": "ближайшее полевое измерение в 271 км (> 60 км); месяц 5 вне месяцев обучения [6]; log_dist_coast_km = 1.2 вне диапазона обучения [1.7; 5.0]", "conc_B_model": "conc-B-c6bce5631d2b"}}, {"type": "Feature", "geometry": {"type": "MultiPolygon", "coordinates": [[[[37.30969739686336, 44.87117986068684], [37.309694762321804, 44.871269842758515], [37.3099504776749, 44.871183607209396], [37.309955745932925, 44.87100364303801], [37.30982920591497, 44.87100176985849], [37.309831840222444, 44.87091178777633], [37.30957612591616, 44.87099802307901], [37.30957085647614, 44.87117798721535], [37.30969739686336, 44.87117986068684]]], [[[37.30944431610129, 44.871176113603696], [37.30944695102448, 44.871086131542164], [37.309320410859, 44.87108425779621], [37.309317775738805, 44.871174239851904], [37.309191235388695, 44.87117236595997], [37.30918860005914, 44.871262348008266], [37.309439046217804, 44.87135607772214], [37.30944168116573, 44.87126609566368], [37.309568221737585, 44.87126796928117], [37.30957085647614, 44.87117798721535], [37.30944431610129, 44.871176113603696]]]]}, "properties": {"zone_id": "kerch-2025-05-24-011", "aoi": "kerch", "date": "2025-05-24", "scene_id": "S2A_MSIL2A_20250524T083531_R021_T37TCK_20250524T104812", "scene_datetime_utc": "2025-05-24T08:35:31.024000+00:00", "detection_status": "detected", "detection_status_ru": "обнаружено", "lon": 37.30964, "lat": 44.87113, "n_pixels": 3, "zone_area_km2": 0.0013, "cover_m2": 11.4, "p_mean": 0.931, "p_max": 0.992, "cover_m2_km2": 8769.2, "h3": "882d72935bfffff", "valid_frac_scene": 0.465, "wind_ms": 4.0, "sea": "спокойное", "scene_reliable": true, "field_event_id": "S4:DOORS3:T11", "field_profile": "B", "field_date": "2024-06-04", "field_distance_km": 269.3, "field_date_gap_days": 354, "field_conc_items_km2": 62.52, "conc_A_items_km2": null, "conc_A_lo80": null, "conc_A_hi80": null, "conc_A_lo95": null, "conc_A_hi95": null, "conc_A_status": "unavailable", "conc_A_status_ru": "концентрация недоступна", "conc_A_reasons": "вне бассейна профиля: nw_atlantic_subtropical", "conc_A_model": "conc-A-c6bce5631d2b", "conc_B_items_km2": 901.4, "conc_B_lo80": 192.7, "conc_B_hi80": 3027.3, "conc_B_lo95": 120.4, "conc_B_hi95": 5668.0, "conc_B_status": "research_estimate", "conc_B_status_ru": "исследовательская оценка", "conc_B_reasons": "ближайшее полевое измерение в 269 км (> 60 км); месяц 5 вне месяцев обучения [6]; log_dist_coast_km = 0.0 вне диапазона обучения [1.7; 5.0]", "conc_B_model": "conc-B-c6bce5631d2b"}}]}