{"type": "FeatureCollection", "features": [{"type": "Feature", "geometry": {"type": "Polygon", "coordinates": [[[49.45584984862689, 53.46005591110732], [49.455853109496815, 53.45996605645424], [49.45570255045104, 53.459964110255605], [49.45570907277348, 53.45978440095765], [49.456013450111655, 53.459698438475996], [49.45601018961204, 53.45978829313989], [49.456160748057655, 53.45979023894653], [49.45615422764102, 53.45996994828254], [49.45584984862689, 53.46005591110732]]]}, "properties": {"zone_id": "kuibyshev-2025-04-22-001", "aoi": "kuibyshev", "date": "2025-04-22", "scene_id": "S2A_MSIL2A_20250422T075021_R135_T39UUV_20250422T113915", "scene_datetime_utc": "2025-04-22T07:50:21.024000+00:00", "detection_status": "detected", "detection_status_ru": "обнаружено", "lon": 49.45593, "lat": 53.45988, "n_pixels": 2, "zone_area_km2": 0.0008, "cover_m2": 4.7, "p_mean": 0.837, "p_max": 0.875, "cover_m2_km2": 5875.0, "h3": "881081d097fffff", "valid_frac_scene": 1.0, "wind_ms": 4.4, "sea": "спокойное", "scene_reliable": true, "field_event_id": "S4:DOORS3:T23", "field_profile": "B", "field_date": "2024-06-10", "field_distance_km": 1367.8, "field_date_gap_days": 316, "field_conc_items_km2": 102.37, "conc_A_items_km2": null, "conc_A_lo80": null, "conc_A_hi80": null, "conc_A_lo95": null, "conc_A_hi95": null, "conc_A_status": "unavailable", "conc_A_status_ru": "концентрация недоступна", "conc_A_reasons": "вне бассейна профиля: nw_atlantic_subtropical", "conc_A_model": "conc-A-c6bce5631d2b", "conc_B_items_km2": null, "conc_B_lo80": null, "conc_B_hi80": null, "conc_B_lo95": null, "conc_B_hi95": null, "conc_B_status": "unavailable", "conc_B_status_ru": "концентрация недоступна", "conc_B_reasons": "вне бассейна профиля: black_sea", "conc_B_model": "conc-B-c6bce5631d2b"}}]}