{"type": "FeatureCollection", "features": [{"type": "Feature", "geometry": {"type": "Polygon", "coordinates": [[[37.43511794900186, 42.55448778618388], [37.435120198691116, 42.55439776189926], [37.43499843392963, 42.55439609857673], [37.43500068378346, 42.554306074295795], [37.43524646246075, 42.55421937650821], [37.43524421296699, 42.55430940080108], [37.435365977574236, 42.55431106385972], [37.43536372824504, 42.554401088156276], [37.43524196346292, 42.554399425092434], [37.43523971394853, 42.554489449382274], [37.43511794900186, 42.55448778618388]]]}, "properties": {"zone_id": "s4_sinop-2024-06-03-001", "aoi": "s4_sinop", "date": "2024-06-03", "scene_id": "S2A_MSIL2A_20240603T081611_R121_T37TCH_20240603T140743", "scene_datetime_utc": "2024-06-03T08:16:11.024000+00:00", "detection_status": "detected", "detection_status_ru": "обнаружено", "lon": 37.43518, "lat": 42.55435, "n_pixels": 1, "zone_area_km2": 0.0005, "cover_m2": 1.6, "p_mean": 0.502, "p_max": 0.502, "cover_m2_km2": 3200.0, "h3": "882d08cc2bfffff", "valid_frac_scene": 1.0, "wind_ms": 4.3, "sea": "спокойное", "scene_reliable": true, "field_event_id": "S4:DOORS3:T13", "field_profile": "B", "field_date": "2024-06-04", "field_distance_km": 20.2, "field_date_gap_days": 1, "field_conc_items_km2": 263.57, "conc_A_items_km2": null, "conc_A_lo80": null, "conc_A_hi80": null, "conc_A_lo95": null, "conc_A_hi95": null, "conc_A_status": "unavailable", "conc_A_status_ru": "концентрация недоступна", "conc_A_reasons": "вне бассейна профиля: nw_atlantic_subtropical", "conc_A_model": "conc-A-c6bce5631d2b", "conc_B_items_km2": 154.8, "conc_B_lo80": 32.4, "conc_B_hi80": 521.8, "conc_B_lo95": 20.0, "conc_B_hi95": 977.6, "conc_B_status": "model_estimate", "conc_B_status_ru": "модельная оценка", "conc_B_reasons": "", "conc_B_model": "conc-B-c6bce5631d2b"}}, {"type": "Feature", "geometry": {"type": "Polygon", "coordinates": [[[37.5033621056873, 42.53783884191373], [37.50336425603824, 42.53774881449547], [37.50324251974579, 42.53774722418943], [37.50324467026162, 42.53765719677466], [37.50349029266336, 42.53757034982126], [37.50348814250689, 42.537660377247505], [37.503609878644305, 42.53766196729002], [37.50360772865272, 42.53775199471975], [37.50348599234055, 42.53775040467225], [37.50348384216436, 42.537840432095486], [37.5033621056873, 42.53783884191373]]]}, "properties": {"zone_id": "s4_sinop-2024-06-03-002", "aoi": "s4_sinop", "date": "2024-06-03", "scene_id": "S2A_MSIL2A_20240603T081611_R121_T37TCH_20240603T140743", "scene_datetime_utc": "2024-06-03T08:16:11.024000+00:00", "detection_status": "detected", "detection_status_ru": "обнаружено", "lon": 37.50343, "lat": 42.5377, "n_pixels": 1, "zone_area_km2": 0.0005, "cover_m2": 6.3, "p_mean": 0.875, "p_max": 0.875, "cover_m2_km2": 12600.0, "h3": "882d08cd87fffff", "valid_frac_scene": 1.0, "wind_ms": 4.3, "sea": "спокойное", "scene_reliable": true, "field_event_id": "S4:DOORS3:T13", "field_profile": "B", "field_date": "2024-06-04", "field_distance_km": 21.7, "field_date_gap_days": 1, "field_conc_items_km2": 263.57, "conc_A_items_km2": null, "conc_A_lo80": null, "conc_A_hi80": null, "conc_A_lo95": null, "conc_A_hi95": null, "conc_A_status": "unavailable", "conc_A_status_ru": "концентрация недоступна", "conc_A_reasons": "вне бассейна профиля: nw_atlantic_subtropical", "conc_A_model": "conc-A-c6bce5631d2b", "conc_B_items_km2": 154.7, "conc_B_lo80": 32.4, "conc_B_hi80": 521.4, "conc_B_lo95": 19.9, "conc_B_hi95": 976.9, "conc_B_status": "model_estimate", "conc_B_status_ru": "модельная оценка", "conc_B_reasons": "", "conc_B_model": "conc-B-c6bce5631d2b"}}, {"type": "Feature", "geometry": {"type": "Polygon", "coordinates": [[[36.948762091800205, 42.40146417567919], [36.94876502467471, 42.401374173151375], [36.948643588841335, 42.40137199938355], [36.94864652187574, 42.40128199686099], [36.94889232588354, 42.40119634171667], [36.948889393209235, 42.401286344254444], [36.94901082889613, 42.40128851775838], [36.94900789638172, 42.401378520301385], [36.94888646052149, 42.401376346790656], [36.948883527820335, 42.40146634932528], [36.948762091800205, 42.40146417567919]]]}, "properties": {"zone_id": "s4_sinop-2024-06-03-003", "aoi": "s4_sinop", "date": "2024-06-03", "scene_id": "S2A_MSIL2A_20240603T081611_R121_T37TCH_20240603T140743", "scene_datetime_utc": "2024-06-03T08:16:11.024000+00:00", "detection_status": "detected", "detection_status_ru": "обнаружено", "lon": 36.94883, "lat": 42.40133, "n_pixels": 1, "zone_area_km2": 0.0005, "cover_m2": 2.4, "p_mean": 0.863, "p_max": 0.863, "cover_m2_km2": 4800.0, "h3": "882d0eaea5fffff", "valid_frac_scene": 1.0, "wind_ms": 4.3, "sea": "спокойное", "scene_reliable": true, "field_event_id": "S4:DOORS3:T12", "field_profile": "B", "field_date": "2024-06-04", "field_distance_km": 8.3, "field_date_gap_days": 1, "field_conc_items_km2": 48.97, "conc_A_items_km2": null, "conc_A_lo80": null, "conc_A_hi80": null, "conc_A_lo95": null, "conc_A_hi95": null, "conc_A_status": "unavailable", "conc_A_status_ru": "концентрация недоступна", "conc_A_reasons": "вне бассейна профиля: nw_atlantic_subtropical", "conc_A_model": "conc-A-c6bce5631d2b", "conc_B_items_km2": 170.7, "conc_B_lo80": 35.9, "conc_B_hi80": 575.3, "conc_B_lo95": 22.1, "conc_B_hi95": 1077.8, "conc_B_status": "model_estimate", "conc_B_status_ru": "модельная оценка", "conc_B_reasons": "", "conc_B_model": "conc-B-c6bce5631d2b"}}, {"type": "Feature", "geometry": {"type": "Polygon", "coordinates": [[[37.67575813045712, 42.331747901534385], [37.67576001948754, 42.331657864184784], [37.67563867239895, 42.33165646249737], [37.675640561593696, 42.3315664251507], [37.67588514427371, 42.3314791910314], [37.67588325543356, 42.331569228388354], [37.67600460236646, 42.33157062981462], [37.67600271369065, 42.33166066717448], [37.675881366584775, 42.33165926574382], [37.675879477727335, 42.33174930309781], [37.67575813045712, 42.331747901534385]]]}, "properties": {"zone_id": "s4_sinop-2024-06-03-004", "aoi": "s4_sinop", "date": "2024-06-03", "scene_id": "S2A_MSIL2A_20240603T081611_R121_T37TCH_20240603T140743", "scene_datetime_utc": "2024-06-03T08:16:11.024000+00:00", "detection_status": "detected", "detection_status_ru": "обнаружено", "lon": 37.67582, "lat": 42.33161, "n_pixels": 1, "zone_area_km2": 0.0005, "cover_m2": 3.1, "p_mean": 0.51, "p_max": 0.51, "cover_m2_km2": 6200.0, "h3": "882d084141fffff", "valid_frac_scene": 1.0, "wind_ms": 4.3, "sea": "спокойное", "scene_reliable": true, "field_event_id": "S4:DOORS3:T14", "field_profile": "B", "field_date": "2024-06-04", "field_distance_km": 1.1, "field_date_gap_days": 1, "field_conc_items_km2": 89.39, "conc_A_items_km2": null, "conc_A_lo80": null, "conc_A_hi80": null, "conc_A_lo95": null, "conc_A_hi95": null, "conc_A_status": "unavailable", "conc_A_status_ru": "концентрация недоступна", "conc_A_reasons": "вне бассейна профиля: nw_atlantic_subtropical", "conc_A_model": "conc-A-c6bce5631d2b", "conc_B_items_km2": 160.5, "conc_B_lo80": 33.7, "conc_B_hi80": 540.8, "conc_B_lo95": 20.7, "conc_B_hi95": 1013.3, "conc_B_status": "model_estimate", "conc_B_status_ru": "модельная оценка", "conc_B_reasons": "", "conc_B_model": "conc-B-c6bce5631d2b"}}, {"type": "Feature", "geometry": {"type": "Polygon", "coordinates": [[[37.66852724856564, 42.312031227352776], [37.668529146598765, 42.31194118995645], [37.66840783774633, 42.31193978114462], [37.66840973594357, 42.31184974375123], [37.66865425115446, 42.31176252383405], [37.66865235331151, 42.31185256123777], [37.66877366200851, 42.31185396978859], [37.668771764329676, 42.31194400719524], [37.66865045545988, 42.31194259863999], [37.66864855759955, 42.312032636040726], [37.66852724856564, 42.312031227352776]]]}, "properties": {"zone_id": "s4_sinop-2024-06-03-005", "aoi": "s4_sinop", "date": "2024-06-03", "scene_id": "S2A_MSIL2A_20240603T081611_R121_T37TCH_20240603T140743", "scene_datetime_utc": "2024-06-03T08:16:11.024000+00:00", "detection_status": "detected", "detection_status_ru": "обнаружено", "lon": 37.66859, "lat": 42.3119, "n_pixels": 1, "zone_area_km2": 0.0005, "cover_m2": 2.7, "p_mean": 0.933, "p_max": 0.933, "cover_m2_km2": 5400.0, "h3": "882d085897fffff", "valid_frac_scene": 1.0, "wind_ms": 4.3, "sea": "спокойное", "scene_reliable": true, "field_event_id": "S4:DOORS3:T14", "field_profile": "B", "field_date": "2024-06-04", "field_distance_km": 3.0, "field_date_gap_days": 1, "field_conc_items_km2": 89.39, "conc_A_items_km2": null, "conc_A_lo80": null, "conc_A_hi80": null, "conc_A_lo95": null, "conc_A_hi95": null, "conc_A_status": "unavailable", "conc_A_status_ru": "концентрация недоступна", "conc_A_reasons": "вне бассейна профиля: nw_atlantic_subtropical", "conc_A_model": "conc-A-c6bce5631d2b", "conc_B_items_km2": 161.2, "conc_B_lo80": 33.8, "conc_B_hi80": 543.2, "conc_B_lo95": 20.8, "conc_B_hi95": 1017.7, "conc_B_status": "model_estimate", "conc_B_status_ru": "модельная оценка", "conc_B_reasons": "", "conc_B_model": "conc-B-c6bce5631d2b"}}, {"type": "Feature", "geometry": {"type": "Polygon", "coordinates": [[[37.533647342197966, 42.29426493722335], [37.53364943116499, 42.29417490473354], [37.53352816339938, 42.294173353767064], [37.53353025252946, 42.2940833212806], [37.53377487650032, 42.29399639057794], [37.53377278772502, 42.29408642307563], [37.53389405533713, 42.294087973780876], [37.53389196672488, 42.29417800628194], [37.53377069894016, 42.29417645557184], [37.533768610145735, 42.294266488066505], [37.533647342197966, 42.29426493722335]]]}, "properties": {"zone_id": "s4_sinop-2024-06-03-006", "aoi": "s4_sinop", "date": "2024-06-03", "scene_id": "S2A_MSIL2A_20240603T081611_R121_T37TCH_20240603T140743", "scene_datetime_utc": "2024-06-03T08:16:11.024000+00:00", "detection_status": "detected", "detection_status_ru": "обнаружено", "lon": 37.53371, "lat": 42.29413, "n_pixels": 1, "zone_area_km2": 0.0005, "cover_m2": 3.5, "p_mean": 0.518, "p_max": 0.518, "cover_m2_km2": 7000.0, "h3": "882d085a31fffff", "valid_frac_scene": 1.0, "wind_ms": 4.3, "sea": "спокойное", "scene_reliable": true, "field_event_id": "S4:DOORS3:T14", "field_profile": "B", "field_date": "2024-06-04", "field_distance_km": 11.9, "field_date_gap_days": 1, "field_conc_items_km2": 89.39, "conc_A_items_km2": null, "conc_A_lo80": null, "conc_A_hi80": null, "conc_A_lo95": null, "conc_A_hi95": null, "conc_A_status": "unavailable", "conc_A_status_ru": "концентрация недоступна", "conc_A_reasons": "вне бассейна профиля: nw_atlantic_subtropical", "conc_A_model": "conc-A-c6bce5631d2b", "conc_B_items_km2": 164.4, "conc_B_lo80": 34.5, "conc_B_hi80": 553.9, "conc_B_lo95": 21.2, "conc_B_hi95": 1037.8, "conc_B_status": "model_estimate", "conc_B_status_ru": "модельная оценка", "conc_B_reasons": "", "conc_B_model": "conc-B-c6bce5631d2b"}}]}