{"type": "FeatureCollection", "features": [{"type": "Feature", "geometry": {"type": "Polygon", "coordinates": [[[39.7165318510325, 43.57067653289529], [39.71653078361505, 43.57058649806032], [39.71640695443614, 43.57058727409898], [39.716405887208055, 43.57049723926014], [39.71652971620254, 43.5704964632239], [39.71652864879498, 43.57040642838606], [39.71677737417667, 43.570494910749105], [39.71677844195804, 43.57058494558068], [39.716654612789014, 43.57058572188755], [39.71665568039089, 43.570675756720085], [39.7165318510325, 43.57067653289529]]]}, "properties": {"zone_id": "sochi-2025-12-20-001", "aoi": "sochi", "date": "2025-12-20", "scene_id": "S2B_MSIL2A_20251220T082249_R121_T37TEJ_20251220T090911", "scene_datetime_utc": "2025-12-20T08:22:49.024000+00:00", "detection_status": "detected", "detection_status_ru": "обнаружено", "lon": 39.71659, "lat": 43.57054, "n_pixels": 1, "zone_area_km2": 0.0005, "cover_m2": 6.7, "p_mean": 0.996, "p_max": 0.996, "cover_m2_km2": 13400.0, "h3": "882d568e4bfffff", "valid_frac_scene": 1.0, "wind_ms": 3.2, "sea": "спокойное", "scene_reliable": true, "field_event_id": "S4:DOORS3:T17", "field_profile": "B", "field_date": "2024-06-04", "field_distance_km": 184.0, "field_date_gap_days": 564, "field_conc_items_km2": 89.61, "conc_A_items_km2": null, "conc_A_lo80": null, "conc_A_hi80": null, "conc_A_lo95": null, "conc_A_hi95": null, "conc_A_status": "unavailable", "conc_A_status_ru": "концентрация недоступна", "conc_A_reasons": "вне бассейна профиля: nw_atlantic_subtropical", "conc_A_model": "conc-A-c6bce5631d2b", "conc_B_items_km2": 591.0, "conc_B_lo80": 126.1, "conc_B_hi80": 1985.7, "conc_B_lo95": 78.7, "conc_B_hi95": 3718.1, "conc_B_status": "research_estimate", "conc_B_status_ru": "исследовательская оценка", "conc_B_reasons": "ближайшее полевое измерение в 184 км (> 60 км); месяц 12 вне месяцев обучения [6]; log_dist_coast_km = 1.2 вне диапазона обучения [1.7; 5.0]", "conc_B_model": "conc-B-c6bce5631d2b"}}, {"type": "Feature", "geometry": {"type": "Polygon", "coordinates": [[[39.71675815495767, 43.56887428353399], [39.716757087270246, 43.56878424867498], [39.716633261789646, 43.568785024933334], [39.71663112679847, 43.568604955206126], [39.71675495191025, 43.56860417895263], [39.71675388423767, 43.56851414408929], [39.71700260211897, 43.56860262604334], [39.71700367016532, 43.568692660900375], [39.717127495446675, 43.568691884242156], [39.71712856368238, 43.568781919095336], [39.717004738216616, 43.56878269575598], [39.71700580627286, 43.56887273061013], [39.71675815495767, 43.56887428353399]]]}, "properties": {"zone_id": "sochi-2025-12-20-002", "aoi": "sochi", "date": "2025-12-20", "scene_id": "S2B_MSIL2A_20251220T082249_R121_T37TEJ_20251220T090911", "scene_datetime_utc": "2025-12-20T08:22:49.024000+00:00", "detection_status": "detected", "detection_status_ru": "обнаружено", "lon": 39.71686, "lat": 43.56871, "n_pixels": 3, "zone_area_km2": 0.001, "cover_m2": 22.7, "p_mean": 0.88, "p_max": 0.976, "cover_m2_km2": 22700.0, "h3": "882d568e4bfffff", "valid_frac_scene": 1.0, "wind_ms": 3.2, "sea": "спокойное", "scene_reliable": true, "field_event_id": "S4:DOORS3:T17", "field_profile": "B", "field_date": "2024-06-04", "field_distance_km": 183.8, "field_date_gap_days": 564, "field_conc_items_km2": 89.61, "conc_A_items_km2": null, "conc_A_lo80": null, "conc_A_hi80": null, "conc_A_lo95": null, "conc_A_hi95": null, "conc_A_status": "unavailable", "conc_A_status_ru": "концентрация недоступна", "conc_A_reasons": "вне бассейна профиля: nw_atlantic_subtropical", "conc_A_model": "conc-A-c6bce5631d2b", "conc_B_items_km2": 591.0, "conc_B_lo80": 126.1, "conc_B_hi80": 1985.7, "conc_B_lo95": 78.7, "conc_B_hi95": 3718.1, "conc_B_status": "research_estimate", "conc_B_status_ru": "исследовательская оценка", "conc_B_reasons": "ближайшее полевое измерение в 184 км (> 60 км); месяц 12 вне месяцев обучения [6]; log_dist_coast_km = 1.2 вне диапазона обучения [1.7; 5.0]", "conc_B_model": "conc-B-c6bce5631d2b"}}, {"type": "Feature", "geometry": {"type": "Polygon", "coordinates": [[[39.726530007678996, 43.55764743889393], [39.726528925859995, 43.55755740405121], [39.726405123637974, 43.55755819073243], [39.72640404200829, 43.55746815588581], [39.726527844046004, 43.55746736920703], [39.72652676223703, 43.55737733436144], [39.72677544810642, 43.557465795447385], [39.726776530289015, 43.55755583028663], [39.72665272807701, 43.55755661723594], [39.726653810080315, 43.55764665207621], [39.726530007678996, 43.55764743889393]]]}, "properties": {"zone_id": "sochi-2025-12-20-003", "aoi": "sochi", "date": "2025-12-20", "scene_id": "S2B_MSIL2A_20251220T082249_R121_T37TEJ_20251220T090911", "scene_datetime_utc": "2025-12-20T08:22:49.024000+00:00", "detection_status": "detected", "detection_status_ru": "обнаружено", "lon": 39.72659, "lat": 43.55751, "n_pixels": 1, "zone_area_km2": 0.0005, "cover_m2": 3.9, "p_mean": 0.855, "p_max": 0.855, "cover_m2_km2": 7800.0, "h3": "882d568e47fffff", "valid_frac_scene": 1.0, "wind_ms": 3.2, "sea": "спокойное", "scene_reliable": true, "field_event_id": "S4:DOORS3:T17", "field_profile": "B", "field_date": "2024-06-04", "field_distance_km": 183.3, "field_date_gap_days": 564, "field_conc_items_km2": 89.61, "conc_A_items_km2": null, "conc_A_lo80": null, "conc_A_hi80": null, "conc_A_lo95": null, "conc_A_hi95": null, "conc_A_status": "unavailable", "conc_A_status_ru": "концентрация недоступна", "conc_A_reasons": "вне бассейна профиля: nw_atlantic_subtropical", "conc_A_model": "conc-A-c6bce5631d2b", "conc_B_items_km2": 666.4, "conc_B_lo80": 142.3, "conc_B_hi80": 2238.6, "conc_B_lo95": 88.8, "conc_B_hi95": 4191.6, "conc_B_status": "research_estimate", "conc_B_status_ru": "исследовательская оценка", "conc_B_reasons": "ближайшее полевое измерение в 183 км (> 60 км); месяц 12 вне месяцев обучения [6]; log_dist_coast_km = 0.9 вне диапазона обучения [1.7; 5.0]", "conc_B_model": "conc-B-c6bce5631d2b"}}, {"type": "Feature", "geometry": {"type": "Polygon", "coordinates": [[[39.76318997602274, 43.53895001637833], [39.76318884036055, 43.53885998199038], [39.76306507743183, 43.53886080808694], [39.76306394195901, 43.53877077369495], [39.7631877047036, 43.53876994760098], [39.76318656905192, 43.53867991321014], [39.76343523017701, 43.53876829501119], [39.76343636620219, 43.538858329395424], [39.763312603284, 43.53885915575987], [39.76331373913032, 43.53894919014524], [39.76318997602274, 43.53895001637833]]]}, "properties": {"zone_id": "sochi-2025-12-20-004", "aoi": "sochi", "date": "2025-12-20", "scene_id": "S2B_MSIL2A_20251220T082249_R121_T37TEJ_20251220T090911", "scene_datetime_utc": "2025-12-20T08:22:49.024000+00:00", "detection_status": "detected", "detection_status_ru": "обнаружено", "lon": 39.76325, "lat": 43.53881, "n_pixels": 1, "zone_area_km2": 0.0005, "cover_m2": 5.1, "p_mean": 0.757, "p_max": 0.757, "cover_m2_km2": 10200.0, "h3": "882d568e23fffff", "valid_frac_scene": 1.0, "wind_ms": 3.2, "sea": "спокойное", "scene_reliable": true, "field_event_id": "S4:DOORS3:T17", "field_profile": "B", "field_date": "2024-06-04", "field_distance_km": 183.4, "field_date_gap_days": 564, "field_conc_items_km2": 89.61, "conc_A_items_km2": null, "conc_A_lo80": null, "conc_A_hi80": null, "conc_A_lo95": null, "conc_A_hi95": null, "conc_A_status": "unavailable", "conc_A_status_ru": "концентрация недоступна", "conc_A_reasons": "вне бассейна профиля: nw_atlantic_subtropical", "conc_A_model": "conc-A-c6bce5631d2b", "conc_B_items_km2": 666.4, "conc_B_lo80": 142.3, "conc_B_hi80": 2238.6, "conc_B_lo95": 88.8, "conc_B_hi95": 4191.6, "conc_B_status": "research_estimate", "conc_B_status_ru": "исследовательская оценка", "conc_B_reasons": "ближайшее полевое измерение в 183 км (> 60 км); месяц 12 вне месяцев обучения [6]; log_dist_coast_km = 0.9 вне диапазона обучения [1.7; 5.0]", "conc_B_model": "conc-B-c6bce5631d2b"}}, {"type": "Feature", "geometry": {"type": "Polygon", "coordinates": [[[39.818209010823296, 43.46122298695538], [39.818207796593455, 43.46113295253424], [39.81808419396829, 43.46113383693273], [39.81808176589222, 43.4609537680806], [39.81832775600706, 43.46086196473836], [39.81832897040342, 43.46095199916109], [39.81845257265061, 43.46095111450095], [39.81845500182694, 43.4611311833365], [39.818209010823296, 43.46122298695538]]]}, "properties": {"zone_id": "sochi-2025-12-20-005", "aoi": "sochi", "date": "2025-12-20", "scene_id": "S2B_MSIL2A_20251220T082249_R121_T37TEJ_20251220T090911", "scene_datetime_utc": "2025-12-20T08:22:49.024000+00:00", "detection_status": "detected", "detection_status_ru": "обнаружено", "lon": 39.81827, "lat": 43.46104, "n_pixels": 2, "zone_area_km2": 0.0008, "cover_m2": 5.1, "p_mean": 0.72, "p_max": 0.871, "cover_m2_km2": 6375.0, "h3": "882d568d05fffff", "valid_frac_scene": 1.0, "wind_ms": 3.2, "sea": "спокойное", "scene_reliable": true, "field_event_id": "S4:DOORS3:T17", "field_profile": "B", "field_date": "2024-06-04", "field_distance_km": 179.4, "field_date_gap_days": 564, "field_conc_items_km2": 89.61, "conc_A_items_km2": null, "conc_A_lo80": null, "conc_A_hi80": null, "conc_A_lo95": null, "conc_A_hi95": null, "conc_A_status": "unavailable", "conc_A_status_ru": "концентрация недоступна", "conc_A_reasons": "вне бассейна профиля: nw_atlantic_subtropical", "conc_A_model": "conc-A-c6bce5631d2b", "conc_B_items_km2": 440.6, "conc_B_lo80": 93.8, "conc_B_hi80": 1480.9, "conc_B_lo95": 58.4, "conc_B_hi95": 2773.2, "conc_B_status": "research_estimate", "conc_B_status_ru": "исследовательская оценка", "conc_B_reasons": "ближайшее полевое измерение в 179 км (> 60 км); месяц 12 вне месяцев обучения [6]", "conc_B_model": "conc-B-c6bce5631d2b"}}, {"type": "Feature", "geometry": {"type": "Polygon", "coordinates": [[[39.81697055769871, 43.461051756057465], [39.81696934531387, 43.460961721605806], [39.816845742999334, 43.460962604662896], [39.81684453080348, 43.46087257020702], [39.81696813293463, 43.4608716871527], [39.816966920561015, 43.46078165269814], [39.81721533718013, 43.46086992064329], [39.817216549926115, 43.46095995509088], [39.8170929476228, 43.46096083841513], [39.81709416019102, 43.46105087286404], [39.81697055769871, 43.461051756057465]]]}, "properties": {"zone_id": "sochi-2025-12-20-006", "aoi": "sochi", "date": "2025-12-20", "scene_id": "S2B_MSIL2A_20251220T082249_R121_T37TEJ_20251220T090911", "scene_datetime_utc": "2025-12-20T08:22:49.024000+00:00", "detection_status": "detected", "detection_status_ru": "обнаружено", "lon": 39.81703, "lat": 43.46092, "n_pixels": 1, "zone_area_km2": 0.0005, "cover_m2": 2.7, "p_mean": 0.859, "p_max": 0.859, "cover_m2_km2": 5400.0, "h3": "882d568d05fffff", "valid_frac_scene": 1.0, "wind_ms": 3.2, "sea": "спокойное", "scene_reliable": true, "field_event_id": "S4:DOORS3:T17", "field_profile": "B", "field_date": "2024-06-04", "field_distance_km": 179.3, "field_date_gap_days": 564, "field_conc_items_km2": 89.61, "conc_A_items_km2": null, "conc_A_lo80": null, "conc_A_hi80": null, "conc_A_lo95": null, "conc_A_hi95": null, "conc_A_status": "unavailable", "conc_A_status_ru": "концентрация недоступна", "conc_A_reasons": "вне бассейна профиля: nw_atlantic_subtropical", "conc_A_model": "conc-A-c6bce5631d2b", "conc_B_items_km2": 440.6, "conc_B_lo80": 93.8, "conc_B_hi80": 1480.9, "conc_B_lo95": 58.4, "conc_B_hi95": 2773.2, "conc_B_status": "research_estimate", "conc_B_status_ru": "исследовательская оценка", "conc_B_reasons": "ближайшее полевое измерение в 179 км (> 60 км); месяц 12 вне месяцев обучения [6]", "conc_B_model": "conc-B-c6bce5631d2b"}}, {"type": "Feature", "geometry": {"type": "Polygon", "coordinates": [[[39.89754790606494, 43.42632124087558], [39.897546575726004, 43.426231207773164], [39.8974230467034, 43.42623217731073], [39.89742171655365, 43.42614214420383], [39.89754524539322, 43.42614117466928], [39.89754391506659, 43.42605114156397], [39.89779230305391, 43.42613923519997], [39.897793633752755, 43.426229268297774], [39.89767010474246, 43.42623023810217], [39.89767143526443, 43.42632027120157], [39.89754790606494, 43.42632124087558]]]}, "properties": {"zone_id": "sochi-2025-12-20-007", "aoi": "sochi", "date": "2025-12-20", "scene_id": "S2B_MSIL2A_20251220T082249_R121_T37TEJ_20251220T090911", "scene_datetime_utc": "2025-12-20T08:22:49.024000+00:00", "detection_status": "detected", "detection_status_ru": "обнаружено", "lon": 39.89761, "lat": 43.42619, "n_pixels": 1, "zone_area_km2": 0.0005, "cover_m2": 3.1, "p_mean": 0.914, "p_max": 0.914, "cover_m2_km2": 6200.0, "h3": "882d5612bdfffff", "valid_frac_scene": 1.0, "wind_ms": 3.2, "sea": "спокойное", "scene_reliable": true, "field_event_id": "S4:DOORS3:T17", "field_profile": "B", "field_date": "2024-06-04", "field_distance_km": 180.7, "field_date_gap_days": 564, "field_conc_items_km2": 89.61, "conc_A_items_km2": null, "conc_A_lo80": null, "conc_A_hi80": null, "conc_A_lo95": null, "conc_A_hi95": null, "conc_A_status": "unavailable", "conc_A_status_ru": "концентрация недоступна", "conc_A_reasons": "вне бассейна профиля: nw_atlantic_subtropical", "conc_A_model": "conc-A-c6bce5631d2b", "conc_B_items_km2": 666.4, "conc_B_lo80": 142.3, "conc_B_hi80": 2238.6, "conc_B_lo95": 88.8, "conc_B_hi95": 4191.6, "conc_B_status": "research_estimate", "conc_B_status_ru": "исследовательская оценка", "conc_B_reasons": "ближайшее полевое измерение в 181 км (> 60 км); месяц 12 вне месяцев обучения [6]; log_dist_coast_km = 0.9 вне диапазона обучения [1.7; 5.0]", "conc_B_model": "conc-B-c6bce5631d2b"}}, {"type": "Feature", "geometry": {"type": "Polygon", "coordinates": [[[39.898521489991964, 43.42532311580799], [39.8985201582565, 43.42523308271383], [39.89839663129645, 43.425234053285365], [39.89839529975017, 43.42514402018671], [39.898518826527194, 43.4251430496182], [39.898517494804054, 43.425053016521126], [39.89876588006277, 43.42514110808097], [39.89876721215813, 43.42523114117052], [39.898643685210395, 43.425232112008885], [39.89864501712888, 43.42532214510001], [39.898521489991964, 43.42532311580799]]]}, "properties": {"zone_id": "sochi-2025-12-20-008", "aoi": "sochi", "date": "2025-12-20", "scene_id": "S2B_MSIL2A_20251220T082249_R121_T37TEJ_20251220T090911", "scene_datetime_utc": "2025-12-20T08:22:49.024000+00:00", "detection_status": "detected", "detection_status_ru": "обнаружено", "lon": 39.89858, "lat": 43.42519, "n_pixels": 1, "zone_area_km2": 0.0005, "cover_m2": 7.8, "p_mean": 0.851, "p_max": 0.851, "cover_m2_km2": 15600.0, "h3": "882d5612bdfffff", "valid_frac_scene": 1.0, "wind_ms": 3.2, "sea": "спокойное", "scene_reliable": true, "field_event_id": "S4:DOORS3:T23", "field_profile": "B", "field_date": "2024-06-10", "field_distance_km": 180.6, "field_date_gap_days": 558, "field_conc_items_km2": 102.37, "conc_A_items_km2": null, "conc_A_lo80": null, "conc_A_hi80": null, "conc_A_lo95": null, "conc_A_hi95": null, "conc_A_status": "unavailable", "conc_A_status_ru": "концентрация недоступна", "conc_A_reasons": "вне бассейна профиля: nw_atlantic_subtropical", "conc_A_model": "conc-A-c6bce5631d2b", "conc_B_items_km2": 666.4, "conc_B_lo80": 142.3, "conc_B_hi80": 2238.6, "conc_B_lo95": 88.8, "conc_B_hi95": 4191.6, "conc_B_status": "research_estimate", "conc_B_status_ru": "исследовательская оценка", "conc_B_reasons": "ближайшее полевое измерение в 181 км (> 60 км); месяц 12 вне месяцев обучения [6]; log_dist_coast_km = 0.9 вне диапазона обучения [1.7; 5.0]", "conc_B_model": "conc-B-c6bce5631d2b"}}, {"type": "Feature", "geometry": {"type": "Polygon", "coordinates": [[[39.93209684767155, 43.391287944882585], [39.932095467817064, 43.39119791209506], [39.93197201115985, 43.39119891830761], [39.93197063149444, 43.39110888551547], [39.93209408796895, 43.39110787930606], [39.932092708127215, 43.39101784651561], [39.93234100089884, 43.3911058664875], [39.93234238111235, 43.3911958992702], [39.9322189244679, 43.39119690574925], [39.93222030450508, 43.39128693853364], [39.93209684767155, 43.391287944882585]]]}, "properties": {"zone_id": "sochi-2025-12-20-009", "aoi": "sochi", "date": "2025-12-20", "scene_id": "S2B_MSIL2A_20251220T082249_R121_T37TEJ_20251220T090911", "scene_datetime_utc": "2025-12-20T08:22:49.024000+00:00", "detection_status": "detected", "detection_status_ru": "обнаружено", "lon": 39.93216, "lat": 43.39115, "n_pixels": 1, "zone_area_km2": 0.0005, "cover_m2": 8.6, "p_mean": 0.561, "p_max": 0.561, "cover_m2_km2": 17200.0, "h3": "882d5610e1fffff", "valid_frac_scene": 1.0, "wind_ms": 3.2, "sea": "спокойное", "scene_reliable": true, "field_event_id": "S4:DOORS3:T23", "field_profile": "B", "field_date": "2024-06-10", "field_distance_km": 176.0, "field_date_gap_days": 558, "field_conc_items_km2": 102.37, "conc_A_items_km2": null, "conc_A_lo80": null, "conc_A_hi80": null, "conc_A_lo95": null, "conc_A_hi95": null, "conc_A_status": "unavailable", "conc_A_status_ru": "концентрация недоступна", "conc_A_reasons": "вне бассейна профиля: nw_atlantic_subtropical", "conc_A_model": "conc-A-c6bce5631d2b", "conc_B_items_km2": 621.6, "conc_B_lo80": 132.7, "conc_B_hi80": 2088.3, "conc_B_lo95": 82.8, "conc_B_hi95": 3910.2, "conc_B_status": "research_estimate", "conc_B_status_ru": "исследовательская оценка", "conc_B_reasons": "ближайшее полевое измерение в 176 км (> 60 км); месяц 12 вне месяцев обучения [6]; log_dist_coast_km = 1.0 вне диапазона обучения [1.7; 5.0]", "conc_B_model": "conc-B-c6bce5631d2b"}}]}