{"type": "FeatureCollection", "features": [{"type": "Feature", "geometry": {"type": "Polygon", "coordinates": [[[37.82618130845375, 44.71651763708924], [37.826183128285614, 44.71642763225406], [37.82605689713243, 44.716426334618106], [37.82606053716176, 44.716246324951385], [37.82618676792375, 44.716247622579246], [37.82618858773003, 44.71615761773961], [37.82644104888842, 44.71616021256876], [37.82643922947333, 44.71625021741649], [37.8265654602609, 44.716251514625874], [37.82656182179632, 44.716431524324975], [37.82643559061756, 44.7164302271075], [37.82643377117688, 44.71652023195077], [37.82618130845375, 44.71651763708924]]]}, "properties": {"zone_id": "novorossiysk-2025-08-05-001", "aoi": "novorossiysk", "date": "2025-08-05", "scene_id": "S2B_MSIL2A_20250805T082559_R021_T37TCK_20250805T110641", "scene_datetime_utc": "2025-08-05T08:25:59.024000+00:00", "detection_status": "detected", "detection_status_ru": "обнаружено", "lon": 37.82631, "lat": 44.71634, "n_pixels": 4, "zone_area_km2": 0.0012, "cover_m2": 39.2, "p_mean": 0.989, "p_max": 0.996, "cover_m2_km2": 32666.7, "h3": "882d728d25fffff", "valid_frac_scene": 1.0, "wind_ms": 6.7, "sea": "волнение", "scene_reliable": false, "field_event_id": "S4:DOORS3:T12", "field_profile": "B", "field_date": "2024-06-04", "field_distance_km": 261.3, "field_date_gap_days": 427, "field_conc_items_km2": 48.97, "conc_A_items_km2": null, "conc_A_lo80": null, "conc_A_hi80": null, "conc_A_lo95": null, "conc_A_hi95": null, "conc_A_status": "unavailable", "conc_A_status_ru": "концентрация недоступна", "conc_A_reasons": "вне бассейна профиля: nw_atlantic_subtropical", "conc_A_model": "conc-A-c6bce5631d2b", "conc_B_items_km2": 669.1, "conc_B_lo80": 142.9, "conc_B_hi80": 2247.7, "conc_B_lo95": 89.2, "conc_B_hi95": 4208.6, "conc_B_status": "research_estimate", "conc_B_status_ru": "исследовательская оценка", "conc_B_reasons": "ближайшее полевое измерение в 261 км (> 60 км); месяц 8 вне месяцев обучения [6]; log_dist_coast_km = 0.8 вне диапазона обучения [1.7; 5.0]", "conc_B_model": "conc-B-c6bce5631d2b"}}, {"type": "Feature", "geometry": {"type": "Polygon", "coordinates": [[[37.65905455174804, 44.621862404310356], [37.65905662379457, 44.62177240374969], [37.65867857044566, 44.62176796363424], [37.658680643066226, 44.621677963085936], [37.658050555318354, 44.6216705601365], [37.65805262890213, 44.621580559609804], [37.657674576953625, 44.62157611618594], [37.657676651111416, 44.62148611567161], [37.657550634009255, 44.62148463425694], [37.65755270835192, 44.62139463374572], [37.65767872525951, 44.62139611515577], [37.65768079939788, 44.62130611463844], [37.65793490659255, 44.6212190765042], [37.657932832853035, 44.62130907703227], [37.65831088310857, 44.62131351958052], [37.65830880994309, 44.62140352012096], [37.658560843884466, 44.621406481134], [37.65855877109843, 44.6214964816822], [37.659062839875936, 44.6215024020587], [37.65906076785851, 44.62159240262386], [37.65943882012724, 44.621596841460544], [37.65943674868386, 44.62168684203805], [37.65956276632074, 44.621688321376894], [37.659560695062254, 44.62177832195753], [37.659434677230784, 44.62177684261409], [37.659432605768004, 44.6218668431886], [37.65905455174804, 44.621862404310356]]]}, "properties": {"zone_id": "novorossiysk-2025-08-05-002", "aoi": "novorossiysk", "date": "2025-08-05", "scene_id": "S2B_MSIL2A_20250805T082559_R021_T37TCK_20250805T110641", "scene_datetime_utc": "2025-08-05T08:25:59.024000+00:00", "detection_status": "detected", "detection_status_ru": "обнаружено", "lon": 37.65846, "lat": 44.62155, "n_pixels": 16, "zone_area_km2": 0.0046, "cover_m2": 131.8, "p_mean": 0.926, "p_max": 1.0, "cover_m2_km2": 28652.2, "h3": "882d72896bfffff", "valid_frac_scene": 1.0, "wind_ms": 6.7, "sea": "волнение", "scene_reliable": false, "field_event_id": "S4:DOORS3:T12", "field_profile": "B", "field_date": "2024-06-04", "field_distance_km": 248.0, "field_date_gap_days": 427, "field_conc_items_km2": 48.97, "conc_A_items_km2": null, "conc_A_lo80": null, "conc_A_hi80": null, "conc_A_lo95": null, "conc_A_hi95": null, "conc_A_status": "unavailable", "conc_A_status_ru": "концентрация недоступна", "conc_A_reasons": "вне бассейна профиля: nw_atlantic_subtropical", "conc_A_model": "conc-A-c6bce5631d2b", "conc_B_items_km2": 520.5, "conc_B_lo80": 111.0, "conc_B_hi80": 1749.2, "conc_B_lo95": 69.2, "conc_B_hi95": 3275.4, "conc_B_status": "research_estimate", "conc_B_status_ru": "исследовательская оценка", "conc_B_reasons": "ближайшее полевое измерение в 248 км (> 60 км); месяц 8 вне месяцев обучения [6]", "conc_B_model": "conc-B-c6bce5631d2b"}}]}