{"type": "FeatureCollection", "features": [{"type": "Feature", "geometry": {"type": "Polygon", "coordinates": [[[7.783615986320211, 54.449533073588846], [7.78361864996046, 54.44944322142984], [7.783464462379476, 54.449441669110755], [7.783467126342512, 54.449351816955435], [7.783778164117776, 54.4492650692197], [7.783775500844259, 54.44935492138667], [7.7839296881171025, 54.44935647330724], [7.783927025166375, 54.4494463254779], [7.783772837556094, 54.44944477355222], [7.783770174253283, 54.44953462571634], [7.783615986320211, 54.449533073588846]]]}, "properties": {"zone_id": "s3_helgoland-2016-04-08-001", "aoi": "s3_helgoland", "date": "2016-04-08", "scene_id": "S2A_MSIL2A_20160408T104022_R008_T32UMF_20210211T022918", "scene_datetime_utc": "2016-04-08T10:40:22.030000+00:00", "detection_status": "detected", "detection_status_ru": "обнаружено", "lon": 7.7837, "lat": 54.4494, "n_pixels": 1, "zone_area_km2": 0.0005, "cover_m2": 3.9, "p_mean": 0.945, "p_max": 0.945, "cover_m2_km2": 7800.0, "h3": "881f306c43fffff", "valid_frac_scene": 1.0, "wind_ms": 6.2, "sea": "волнение", "scene_reliable": true, "field_event_id": "S3:HE419_MarLitter_transect31", "field_profile": "B", "field_date": "2014-04-11", "field_distance_km": 4.5, "field_date_gap_days": 728, "field_conc_items_km2": 6.06, "conc_A_items_km2": null, "conc_A_lo80": null, "conc_A_hi80": null, "conc_A_lo95": null, "conc_A_hi95": null, "conc_A_status": "unavailable", "conc_A_status_ru": "концентрация недоступна", "conc_A_reasons": "вне бассейна профиля: nw_atlantic_subtropical", "conc_A_model": "conc-A-c6bce5631d2b", "conc_B_items_km2": null, "conc_B_lo80": null, "conc_B_hi80": null, "conc_B_lo95": null, "conc_B_hi95": null, "conc_B_status": "unavailable", "conc_B_status_ru": "концентрация недоступна", "conc_B_reasons": "вне бассейна профиля: black_sea", "conc_B_model": "conc-B-c6bce5631d2b"}}, {"type": "Feature", "geometry": {"type": "MultiPolygon", "coordinates": [[[[7.622326965729534, 54.425331403257765], [7.622481052972081, 54.42533316064507], [7.6224840667144464, 54.42524331384913], [7.622329979808751, 54.42524155646763], [7.622332993871403, 54.42515170967603], [7.622021806047065, 54.425238041115165], [7.622018791294142, 54.42532788789373], [7.622172878503553, 54.425329645674005], [7.622169864070915, 54.42541949245688], [7.622323951633749, 54.42542125004645], [7.622326965729534, 54.425331403257765]]], [[[7.6223209375213985, 54.425511096833674], [7.622166849621706, 54.42550933923831], [7.622163835155931, 54.425599186018296], [7.622468997836973, 54.425692547814194], [7.622472011645597, 54.4256027010241], [7.622626099915279, 54.42560445823226], [7.622629113370482, 54.42551461143491], [7.622475025437658, 54.425512854232544], [7.622478039213151, 54.42542300743954], [7.622323951633749, 54.42542125004645], [7.6223209375213985, 54.425511096833674]]]]}, "properties": {"zone_id": "s3_helgoland-2016-04-08-002", "aoi": "s3_helgoland", "date": "2016-04-08", "scene_id": "S2A_MSIL2A_20160408T104022_R008_T32UMF_20210211T022918", "scene_datetime_utc": "2016-04-08T10:40:22.030000+00:00", "detection_status": "detected", "detection_status_ru": "обнаружено", "lon": 7.62232, "lat": 54.42542, "n_pixels": 2, "zone_area_km2": 0.001, "cover_m2": 8.2, "p_mean": 0.845, "p_max": 0.953, "cover_m2_km2": 8200.0, "h3": "881f3068cbfffff", "valid_frac_scene": 1.0, "wind_ms": 6.2, "sea": "волнение", "scene_reliable": true, "field_event_id": "S3:HE419_MarLitter_transect31", "field_profile": "B", "field_date": "2014-04-11", "field_distance_km": 11.5, "field_date_gap_days": 728, "field_conc_items_km2": 6.06, "conc_A_items_km2": null, "conc_A_lo80": null, "conc_A_hi80": null, "conc_A_lo95": null, "conc_A_hi95": null, "conc_A_status": "unavailable", "conc_A_status_ru": "концентрация недоступна", "conc_A_reasons": "вне бассейна профиля: nw_atlantic_subtropical", "conc_A_model": "conc-A-c6bce5631d2b", "conc_B_items_km2": null, "conc_B_lo80": null, "conc_B_hi80": null, "conc_B_lo95": null, "conc_B_hi95": null, "conc_B_status": "unavailable", "conc_B_status_ru": "концентрация недоступна", "conc_B_reasons": "вне бассейна профиля: black_sea", "conc_B_model": "conc-B-c6bce5631d2b"}}, {"type": "Feature", "geometry": {"type": "Polygon", "coordinates": [[[7.775233544656796, 54.42032751120361], [7.775236223766564, 54.42023765888782], [7.775082146298159, 54.4202360964356], [7.7750848257300325, 54.420146244123515], [7.775238902861608, 54.420147806570604], [7.775241581941927, 54.420057954251945], [7.7753956587514015, 54.42005951649737], [7.775398337480169, 54.419969664172136], [7.775703812414514, 54.4200626403988], [7.775698456260126, 54.42024234506557], [7.77554437874755, 54.4202407832028], [7.775541700311446, 54.42033063552889], [7.775233544656796, 54.42032751120361]]]}, "properties": {"zone_id": "s3_helgoland-2016-04-08-003", "aoi": "s3_helgoland", "date": "2016-04-08", "scene_id": "S2A_MSIL2A_20160408T104022_R008_T32UMF_20210211T022918", "scene_datetime_utc": "2016-04-08T10:40:22.030000+00:00", "detection_status": "detected", "detection_status_ru": "обнаружено", "lon": 7.77542, "lat": 54.42016, "n_pixels": 3, "zone_area_km2": 0.001, "cover_m2": 18.4, "p_mean": 0.841, "p_max": 0.961, "cover_m2_km2": 18400.0, "h3": "881f306c21fffff", "valid_frac_scene": 1.0, "wind_ms": 6.2, "sea": "волнение", "scene_reliable": true, "field_event_id": "S3:HE419_MarLitter_transect31", "field_profile": "B", "field_date": "2014-04-11", "field_distance_km": 1.8, "field_date_gap_days": 728, "field_conc_items_km2": 6.06, "conc_A_items_km2": null, "conc_A_lo80": null, "conc_A_hi80": null, "conc_A_lo95": null, "conc_A_hi95": null, "conc_A_status": "unavailable", "conc_A_status_ru": "концентрация недоступна", "conc_A_reasons": "вне бассейна профиля: nw_atlantic_subtropical", "conc_A_model": "conc-A-c6bce5631d2b", "conc_B_items_km2": null, "conc_B_lo80": null, "conc_B_hi80": null, "conc_B_lo95": null, "conc_B_hi95": null, "conc_B_status": "unavailable", "conc_B_status_ru": "концентрация недоступна", "conc_B_reasons": "вне бассейна профиля: black_sea", "conc_B_model": "conc-B-c6bce5631d2b"}}, {"type": "Feature", "geometry": {"type": "Polygon", "coordinates": [[[7.599788736600055, 54.41725254239055], [7.5997917990675, 54.41716269633709], [7.599637743948117, 54.41716091019082], [7.599640806735405, 54.41707106414178], [7.599951978414777, 54.41698479016382], [7.599948916317659, 54.4170746362261], [7.600102971134026, 54.417076421973626], [7.600099909356753, 54.417166268040326], [7.599945854203713, 54.41716448228692], [7.599942792072941, 54.41725432834627], [7.599788736600055, 54.41725254239055]]]}, "properties": {"zone_id": "s3_helgoland-2016-04-08-004", "aoi": "s3_helgoland", "date": "2016-04-08", "scene_id": "S2A_MSIL2A_20160408T104022_R008_T32UMF_20210211T022918", "scene_datetime_utc": "2016-04-08T10:40:22.030000+00:00", "detection_status": "detected", "detection_status_ru": "обнаружено", "lon": 7.59987, "lat": 54.41712, "n_pixels": 1, "zone_area_km2": 0.0005, "cover_m2": 4.3, "p_mean": 0.596, "p_max": 0.596, "cover_m2_km2": 8600.0, "h3": "881f306813fffff", "valid_frac_scene": 1.0, "wind_ms": 6.2, "sea": "волнение", "scene_reliable": true, "field_event_id": "S3:HE419_MarLitter_transect31", "field_profile": "B", "field_date": "2014-04-11", "field_distance_km": 12.8, "field_date_gap_days": 728, "field_conc_items_km2": 6.06, "conc_A_items_km2": null, "conc_A_lo80": null, "conc_A_hi80": null, "conc_A_lo95": null, "conc_A_hi95": null, "conc_A_status": "unavailable", "conc_A_status_ru": "концентрация недоступна", "conc_A_reasons": "вне бассейна профиля: nw_atlantic_subtropical", "conc_A_model": "conc-A-c6bce5631d2b", "conc_B_items_km2": null, "conc_B_lo80": null, "conc_B_hi80": null, "conc_B_lo95": null, "conc_B_hi95": null, "conc_B_status": "unavailable", "conc_B_status_ru": "концентрация недоступна", "conc_B_reasons": "вне бассейна профиля: black_sea", "conc_B_model": "conc-B-c6bce5631d2b"}}, {"type": "Feature", "geometry": {"type": "Polygon", "coordinates": [[[7.604453139713335, 54.41604818826712], [7.604456191845696, 54.415958342016985], [7.604302140935524, 54.41595656184568], [7.604305193387762, 54.41586671559997], [7.604616346313747, 54.415780429475554], [7.604613294551578, 54.41587027573444], [7.604767345158643, 54.41587205550705], [7.604764293716354, 54.41596190177035], [7.60461024277264, 54.41596012199189], [7.604607190976932, 54.41604996824786], [7.604453139713335, 54.41604818826712]]]}, "properties": {"zone_id": "s3_helgoland-2016-04-08-005", "aoi": "s3_helgoland", "date": "2016-04-08", "scene_id": "S2A_MSIL2A_20160408T104022_R008_T32UMF_20210211T022918", "scene_datetime_utc": "2016-04-08T10:40:22.030000+00:00", "detection_status": "detected", "detection_status_ru": "обнаружено", "lon": 7.60453, "lat": 54.41591, "n_pixels": 1, "zone_area_km2": 0.0005, "cover_m2": 17.3, "p_mean": 0.949, "p_max": 0.949, "cover_m2_km2": 34600.0, "h3": "881f3068c5fffff", "valid_frac_scene": 1.0, "wind_ms": 6.2, "sea": "волнение", "scene_reliable": true, "field_event_id": "S3:HE419_MarLitter_transect31", "field_profile": "B", "field_date": "2014-04-11", "field_distance_km": 12.5, "field_date_gap_days": 728, "field_conc_items_km2": 6.06, "conc_A_items_km2": null, "conc_A_lo80": null, "conc_A_hi80": null, "conc_A_lo95": null, "conc_A_hi95": null, "conc_A_status": "unavailable", "conc_A_status_ru": "концентрация недоступна", "conc_A_reasons": "вне бассейна профиля: nw_atlantic_subtropical", "conc_A_model": "conc-A-c6bce5631d2b", "conc_B_items_km2": null, "conc_B_lo80": null, "conc_B_hi80": null, "conc_B_lo95": null, "conc_B_hi95": null, "conc_B_status": "unavailable", "conc_B_status_ru": "концентрация недоступна", "conc_B_reasons": "вне бассейна профиля: black_sea", "conc_B_model": "conc-B-c6bce5631d2b"}}, {"type": "Feature", "geometry": {"type": "Polygon", "coordinates": [[[7.628728253715647, 54.40904586607512], [7.6287312519940835, 54.4089560188002], [7.628577225753994, 54.408954269737706], [7.628580224352477, 54.408864422467076], [7.6287342502560485, 54.4088661715238], [7.628737248501537, 54.408776324245956], [7.629045299685063, 54.40877982175876], [7.629042302112608, 54.40886966904812], [7.629196328065594, 54.408871417515726], [7.629193330813188, 54.4089612648094], [7.629039304523682, 54.40895951633603], [7.629036306918288, 54.40904936362248], [7.628728253715647, 54.40904586607512]]]}, "properties": {"zone_id": "s3_helgoland-2016-04-08-006", "aoi": "s3_helgoland", "date": "2016-04-08", "scene_id": "S2A_MSIL2A_20160408T104022_R008_T32UMF_20210211T022918", "scene_datetime_utc": "2016-04-08T10:40:22.030000+00:00", "detection_status": "detected", "detection_status_ru": "обнаружено", "lon": 7.62889, "lat": 54.40891, "n_pixels": 2, "zone_area_km2": 0.0008, "cover_m2": 12.5, "p_mean": 0.627, "p_max": 0.745, "cover_m2_km2": 15625.0, "h3": "881f30688dfffff", "valid_frac_scene": 1.0, "wind_ms": 6.2, "sea": "волнение", "scene_reliable": true, "field_event_id": "S3:HE419_MarLitter_transect31", "field_profile": "B", "field_date": "2014-04-11", "field_distance_km": 10.9, "field_date_gap_days": 728, "field_conc_items_km2": 6.06, "conc_A_items_km2": null, "conc_A_lo80": null, "conc_A_hi80": null, "conc_A_lo95": null, "conc_A_hi95": null, "conc_A_status": "unavailable", "conc_A_status_ru": "концентрация недоступна", "conc_A_reasons": "вне бассейна профиля: nw_atlantic_subtropical", "conc_A_model": "conc-A-c6bce5631d2b", "conc_B_items_km2": null, "conc_B_lo80": null, "conc_B_hi80": null, "conc_B_lo95": null, "conc_B_hi95": null, "conc_B_status": "unavailable", "conc_B_status_ru": "концентрация недоступна", "conc_B_reasons": "вне бассейна профиля: black_sea", "conc_B_model": "conc-B-c6bce5631d2b"}}, {"type": "Feature", "geometry": {"type": "Polygon", "coordinates": [[[7.487479313071281, 54.399359725113115], [7.487482618942317, 54.399269883272645], [7.487328638554888, 54.39926795432686], [7.487331944744001, 54.39917811249128], [7.487643210363033, 54.399092128324085], [7.487639904864548, 54.399181970173856], [7.487793884952057, 54.39918389872075], [7.487790579771653, 54.39927374057538], [7.4876365993479075, 54.39927181202215], [7.487633293813109, 54.39936165386897], [7.487479313071281, 54.399359725113115]]]}, "properties": {"zone_id": "s3_helgoland-2016-04-08-007", "aoi": "s3_helgoland", "date": "2016-04-08", "scene_id": "S2A_MSIL2A_20160408T104022_R008_T32UMF_20210211T022918", "scene_datetime_utc": "2016-04-08T10:40:22.030000+00:00", "detection_status": "detected", "detection_status_ru": "обнаружено", "lon": 7.48756, "lat": 54.39923, "n_pixels": 1, "zone_area_km2": 0.0005, "cover_m2": 5.5, "p_mean": 0.871, "p_max": 0.871, "cover_m2_km2": 11000.0, "h3": "881f306b33fffff", "valid_frac_scene": 1.0, "wind_ms": 6.2, "sea": "волнение", "scene_reliable": true, "field_event_id": "S3:HE460_MarLitter_transect02", "field_profile": "B", "field_date": "2016-04-09", "field_distance_km": 8.9, "field_date_gap_days": 1, "field_conc_items_km2": 32.26, "conc_A_items_km2": null, "conc_A_lo80": null, "conc_A_hi80": null, "conc_A_lo95": null, "conc_A_hi95": null, "conc_A_status": "unavailable", "conc_A_status_ru": "концентрация недоступна", "conc_A_reasons": "вне бассейна профиля: nw_atlantic_subtropical", "conc_A_model": "conc-A-c6bce5631d2b", "conc_B_items_km2": null, "conc_B_lo80": null, "conc_B_hi80": null, "conc_B_lo95": null, "conc_B_hi95": null, "conc_B_status": "unavailable", "conc_B_status_ru": "концентрация недоступна", "conc_B_reasons": "вне бассейна профиля: black_sea", "conc_B_model": "conc-B-c6bce5631d2b"}}, {"type": "Feature", "geometry": {"type": "Polygon", "coordinates": [[[7.52424741457219, 54.39217466303331], [7.524250639245115, 54.3920848195803], [7.524096683181808, 54.39208293767944], [7.524099908173134, 54.391993094231154], [7.524411043946629, 54.39190701436207], [7.524407819645234, 54.391996857824225], [7.52456177540785, 54.39199873932642], [7.524558551424857, 54.39208858279329], [7.524404595326131, 54.39208670128491], [7.524401370989319, 54.39217654474412], [7.52424741457219, 54.39217466303331]]]}, "properties": {"zone_id": "s3_helgoland-2016-04-08-008", "aoi": "s3_helgoland", "date": "2016-04-08", "scene_id": "S2A_MSIL2A_20160408T104022_R008_T32UMF_20210211T022918", "scene_datetime_utc": "2016-04-08T10:40:22.030000+00:00", "detection_status": "detected", "detection_status_ru": "обнаружено", "lon": 7.52433, "lat": 54.39204, "n_pixels": 1, "zone_area_km2": 0.0005, "cover_m2": 12.2, "p_mean": 0.639, "p_max": 0.639, "cover_m2_km2": 24400.0, "h3": "881f30682dfffff", "valid_frac_scene": 1.0, "wind_ms": 6.2, "sea": "волнение", "scene_reliable": true, "field_event_id": "S3:HE460_MarLitter_transect02", "field_profile": "B", "field_date": "2016-04-09", "field_distance_km": 11.4, "field_date_gap_days": 1, "field_conc_items_km2": 32.26, "conc_A_items_km2": null, "conc_A_lo80": null, "conc_A_hi80": null, "conc_A_lo95": null, "conc_A_hi95": null, "conc_A_status": "unavailable", "conc_A_status_ru": "концентрация недоступна", "conc_A_reasons": "вне бассейна профиля: nw_atlantic_subtropical", "conc_A_model": "conc-A-c6bce5631d2b", "conc_B_items_km2": null, "conc_B_lo80": null, "conc_B_hi80": null, "conc_B_lo95": null, "conc_B_hi95": null, "conc_B_status": "unavailable", "conc_B_status_ru": "концентрация недоступна", "conc_B_reasons": "вне бассейна профиля: black_sea", "conc_B_model": "conc-B-c6bce5631d2b"}}, {"type": "Feature", "geometry": {"type": "Polygon", "coordinates": [[[7.435735422587109, 54.38270109039805], [7.4357388394295345, 54.38261125048889], [7.435584925135797, 54.38260925598246], [7.435591759436083, 54.3824295761728], [7.43590300314916, 54.38234372504305], [7.435899586698876, 54.38243356496326], [7.436053500358413, 54.38243555906428], [7.436046668073291, 54.382615238913324], [7.435735422587109, 54.38270109039805]]]}, "properties": {"zone_id": "s3_helgoland-2016-04-08-009", "aoi": "s3_helgoland", "date": "2016-04-08", "scene_id": "S2A_MSIL2A_20160408T104022_R008_T32UMF_20210211T022918", "scene_datetime_utc": "2016-04-08T10:40:22.030000+00:00", "detection_status": "detected", "detection_status_ru": "обнаружено", "lon": 7.43582, "lat": 54.38252, "n_pixels": 2, "zone_area_km2": 0.0008, "cover_m2": 10.2, "p_mean": 0.68, "p_max": 0.702, "cover_m2_km2": 12750.0, "h3": "881f32b493fffff", "valid_frac_scene": 1.0, "wind_ms": 6.2, "sea": "волнение", "scene_reliable": true, "field_event_id": "S3:HE460_MarLitter_transect02", "field_profile": "B", "field_date": "2016-04-09", "field_distance_km": 6.5, "field_date_gap_days": 1, "field_conc_items_km2": 32.26, "conc_A_items_km2": null, "conc_A_lo80": null, "conc_A_hi80": null, "conc_A_lo95": null, "conc_A_hi95": null, "conc_A_status": "unavailable", "conc_A_status_ru": "концентрация недоступна", "conc_A_reasons": "вне бассейна профиля: nw_atlantic_subtropical", "conc_A_model": "conc-A-c6bce5631d2b", "conc_B_items_km2": null, "conc_B_lo80": null, "conc_B_hi80": null, "conc_B_lo95": null, "conc_B_hi95": null, "conc_B_status": "unavailable", "conc_B_status_ru": "концентрация недоступна", "conc_B_reasons": "вне бассейна профиля: black_sea", "conc_B_model": "conc-B-c6bce5631d2b"}}, {"type": "Feature", "geometry": {"type": "Polygon", "coordinates": [[[7.451837332671084, 54.38039191176752], [7.451840714063058, 54.38030207113733], [7.451686807231846, 54.38030009721176], [7.451690188941081, 54.38021025658657], [7.452001382969439, 54.38012436358892], [7.451998001950418, 54.38021420422859], [7.452151908482935, 54.38021617775539], [7.452148527781176, 54.38030601840006], [7.451994620912836, 54.380304044866755], [7.451991239856687, 54.38039388550346], [7.451837332671084, 54.38039191176752]]]}, "properties": {"zone_id": "s3_helgoland-2016-04-08-010", "aoi": "s3_helgoland", "date": "2016-04-08", "scene_id": "S2A_MSIL2A_20160408T104022_R008_T32UMF_20210211T022918", "scene_datetime_utc": "2016-04-08T10:40:22.030000+00:00", "detection_status": "detected", "detection_status_ru": "обнаружено", "lon": 7.45192, "lat": 54.38026, "n_pixels": 1, "zone_area_km2": 0.0005, "cover_m2": 3.1, "p_mean": 0.773, "p_max": 0.773, "cover_m2_km2": 6200.0, "h3": "881f306945fffff", "valid_frac_scene": 1.0, "wind_ms": 6.2, "sea": "волнение", "scene_reliable": true, "field_event_id": "S3:HE460_MarLitter_transect02", "field_profile": "B", "field_date": "2016-04-09", "field_distance_km": 7.5, "field_date_gap_days": 1, "field_conc_items_km2": 32.26, "conc_A_items_km2": null, "conc_A_lo80": null, "conc_A_hi80": null, "conc_A_lo95": null, "conc_A_hi95": null, "conc_A_status": "unavailable", "conc_A_status_ru": "концентрация недоступна", "conc_A_reasons": "вне бассейна профиля: nw_atlantic_subtropical", "conc_A_model": "conc-A-c6bce5631d2b", "conc_B_items_km2": null, "conc_B_lo80": null, "conc_B_hi80": null, "conc_B_lo95": null, "conc_B_hi95": null, "conc_B_status": "unavailable", "conc_B_status_ru": "концентрация недоступна", "conc_B_reasons": "вне бассейна профиля: black_sea", "conc_B_model": "conc-B-c6bce5631d2b"}}, {"type": "Feature", "geometry": {"type": "Polygon", "coordinates": [[[7.453400051208721, 54.379782755403824], [7.453403429112596, 54.37969291469827], [7.4532495244465515, 54.379690942779426], [7.453252902667692, 54.379601102078865], [7.453564088877674, 54.379515204992416], [7.453560711346703, 54.37960504570744], [7.453714615714026, 54.37960701722754], [7.453711238500323, 54.37969685794757], [7.453557333797187, 54.379694886420985], [7.4535539562291255, 54.379784727133035], [7.453400051208721, 54.379782755403824]]]}, "properties": {"zone_id": "s3_helgoland-2016-04-08-011", "aoi": "s3_helgoland", "date": "2016-04-08", "scene_id": "S2A_MSIL2A_20160408T104022_R008_T32UMF_20210211T022918", "scene_datetime_utc": "2016-04-08T10:40:22.030000+00:00", "detection_status": "detected", "detection_status_ru": "обнаружено", "lon": 7.45348, "lat": 54.37965, "n_pixels": 1, "zone_area_km2": 0.0005, "cover_m2": 5.5, "p_mean": 0.89, "p_max": 0.89, "cover_m2_km2": 11000.0, "h3": "881f306945fffff", "valid_frac_scene": 1.0, "wind_ms": 6.2, "sea": "волнение", "scene_reliable": true, "field_event_id": "S3:HE460_MarLitter_transect02", "field_profile": "B", "field_date": "2016-04-09", "field_distance_km": 7.7, "field_date_gap_days": 1, "field_conc_items_km2": 32.26, "conc_A_items_km2": null, "conc_A_lo80": null, "conc_A_hi80": null, "conc_A_lo95": null, "conc_A_hi95": null, "conc_A_status": "unavailable", "conc_A_status_ru": "концентрация недоступна", "conc_A_reasons": "вне бассейна профиля: nw_atlantic_subtropical", "conc_A_model": "conc-A-c6bce5631d2b", "conc_B_items_km2": null, "conc_B_lo80": null, "conc_B_hi80": null, "conc_B_lo95": null, "conc_B_hi95": null, "conc_B_status": "unavailable", "conc_B_status_ru": "концентрация недоступна", "conc_B_reasons": "вне бассейна профиля: black_sea", "conc_B_model": "conc-B-c6bce5631d2b"}}, {"type": "Feature", "geometry": {"type": "Polygon", "coordinates": [[[7.796375488452812, 54.366792018000986], [7.796378116138487, 54.36670216418033], [7.796224237917426, 54.36670062970699], [7.796229493916978, 54.366520922071466], [7.796539876337235, 54.36643413697184], [7.79653724903057, 54.366523990801845], [7.796691126609002, 54.36652552487288], [7.7966858726238835, 54.3667052325387], [7.796375488452812, 54.366792018000986]]]}, "properties": {"zone_id": "s3_helgoland-2016-04-08-012", "aoi": "s3_helgoland", "date": "2016-04-08", "scene_id": "S2A_MSIL2A_20160408T104022_R008_T32UMF_20210211T022918", "scene_datetime_utc": "2016-04-08T10:40:22.030000+00:00", "detection_status": "detected", "detection_status_ru": "обнаружено", "lon": 7.79646, "lat": 54.36661, "n_pixels": 2, "zone_area_km2": 0.0008, "cover_m2": 9.8, "p_mean": 0.727, "p_max": 0.729, "cover_m2_km2": 12250.0, "h3": "881f306da5fffff", "valid_frac_scene": 1.0, "wind_ms": 6.2, "sea": "волнение", "scene_reliable": true, "field_event_id": "S3:HE419_MarLitter_transect31", "field_profile": "B", "field_date": "2014-04-11", "field_distance_km": 4.8, "field_date_gap_days": 728, "field_conc_items_km2": 6.06, "conc_A_items_km2": null, "conc_A_lo80": null, "conc_A_hi80": null, "conc_A_lo95": null, "conc_A_hi95": null, "conc_A_status": "unavailable", "conc_A_status_ru": "концентрация недоступна", "conc_A_reasons": "вне бассейна профиля: nw_atlantic_subtropical", "conc_A_model": "conc-A-c6bce5631d2b", "conc_B_items_km2": null, "conc_B_lo80": null, "conc_B_hi80": null, "conc_B_lo95": null, "conc_B_hi95": null, "conc_B_status": "unavailable", "conc_B_status_ru": "концентрация недоступна", "conc_B_reasons": "вне бассейна профиля: black_sea", "conc_B_model": "conc-B-c6bce5631d2b"}}, {"type": "Feature", "geometry": {"type": "Polygon", "coordinates": [[[7.407676155662383, 54.359683283724706], [7.407679630834052, 54.35959344468407], [7.407525804672381, 54.359591414988444], [7.407529280160348, 54.359501575953004], [7.407683105986647, 54.35950360564195], [7.4076865811201715, 54.35941376659832], [7.407994232159243, 54.35941782537495], [7.407990757696458, 54.35950766443194], [7.4081445835799675, 54.359509693532985], [7.408141109433487, 54.359599532595134], [7.407987283214605, 54.35959750348743], [7.407983808713685, 54.35968734254141], [7.407676155662383, 54.359683283724706]]]}, "properties": {"zone_id": "s3_helgoland-2016-04-08-013", "aoi": "s3_helgoland", "date": "2016-04-08", "scene_id": "S2A_MSIL2A_20160408T104022_R008_T32UMF_20210211T022918", "scene_datetime_utc": "2016-04-08T10:40:22.030000+00:00", "detection_status": "detected", "detection_status_ru": "обнаружено", "lon": 7.40784, "lat": 54.35955, "n_pixels": 2, "zone_area_km2": 0.0008, "cover_m2": 5.1, "p_mean": 0.759, "p_max": 0.847, "cover_m2_km2": 6375.0, "h3": "881f32b4b5fffff", "valid_frac_scene": 1.0, "wind_ms": 6.2, "sea": "волнение", "scene_reliable": true, "field_event_id": "S3:HE460_MarLitter_transect02", "field_profile": "B", "field_date": "2016-04-09", "field_distance_km": 7.3, "field_date_gap_days": 1, "field_conc_items_km2": 32.26, "conc_A_items_km2": null, "conc_A_lo80": null, "conc_A_hi80": null, "conc_A_lo95": null, "conc_A_hi95": null, "conc_A_status": "unavailable", "conc_A_status_ru": "концентрация недоступна", "conc_A_reasons": "вне бассейна профиля: nw_atlantic_subtropical", "conc_A_model": "conc-A-c6bce5631d2b", "conc_B_items_km2": null, "conc_B_lo80": null, "conc_B_hi80": null, "conc_B_lo95": null, "conc_B_hi95": null, "conc_B_status": "unavailable", "conc_B_status_ru": "концентрация недоступна", "conc_B_reasons": "вне бассейна профиля: black_sea", "conc_B_model": "conc-B-c6bce5631d2b"}}, {"type": "Feature", "geometry": {"type": "Polygon", "coordinates": [[[7.703353089417579, 54.314686068758085], [7.703355914729608, 54.31459621734269], [7.70305138410893, 54.31450306179223], [7.7030542100592205, 54.31441321038481], [7.70336439057274, 54.314326663087805], [7.703361565307188, 54.31441651450754], [7.70351524295441, 54.314418166275345], [7.70351241800799, 54.31450801769907], [7.703666096005326, 54.31450966927659], [7.703663271378041, 54.31459952070431], [7.703509593046078, 54.31459786912135], [7.703506768068677, 54.314687720542196], [7.703353089417579, 54.314686068758085]]]}, "properties": {"zone_id": "s3_helgoland-2016-04-08-014", "aoi": "s3_helgoland", "date": "2016-04-08", "scene_id": "S2A_MSIL2A_20160408T104022_R008_T32UMF_20210211T022918", "scene_datetime_utc": "2016-04-08T10:40:22.030000+00:00", "detection_status": "detected", "detection_status_ru": "обнаружено", "lon": 7.70336, "lat": 54.31451, "n_pixels": 2, "zone_area_km2": 0.0008, "cover_m2": 5.9, "p_mean": 0.714, "p_max": 0.886, "cover_m2_km2": 7375.0, "h3": "881f33d00bfffff", "valid_frac_scene": 1.0, "wind_ms": 6.2, "sea": "волнение", "scene_reliable": true, "field_event_id": "S3:HE419_MarLitter_transect31", "field_profile": "B", "field_date": "2014-04-11", "field_distance_km": 12.3, "field_date_gap_days": 728, "field_conc_items_km2": 6.06, "conc_A_items_km2": null, "conc_A_lo80": null, "conc_A_hi80": null, "conc_A_lo95": null, "conc_A_hi95": null, "conc_A_status": "unavailable", "conc_A_status_ru": "концентрация недоступна", "conc_A_reasons": "вне бассейна профиля: nw_atlantic_subtropical", "conc_A_model": "conc-A-c6bce5631d2b", "conc_B_items_km2": null, "conc_B_lo80": null, "conc_B_hi80": null, "conc_B_lo95": null, "conc_B_hi95": null, "conc_B_status": "unavailable", "conc_B_status_ru": "концентрация недоступна", "conc_B_reasons": "вне бассейна профиля: black_sea", "conc_B_model": "conc-B-c6bce5631d2b"}}, {"type": "Feature", "geometry": {"type": "Polygon", "coordinates": [[[7.4001938165144, 54.29477692212403], [7.400197299685089, 54.29468708243816], [7.4000437160868655, 54.29468504484363], [7.400047199572506, 54.29459520516298], [7.400200782836689, 54.294597242750804], [7.4002042659692, 54.294507403061935], [7.400511431886752, 54.29451147763769], [7.400507949422318, 54.29460131733995], [7.4006615327437615, 54.29460335434126], [7.400658050594285, 54.29469319404872], [7.4005044669388, 54.29469115704071], [7.400500984436196, 54.29478099673997], [7.4001938165144, 54.29477692212403]]]}, "properties": {"zone_id": "s3_helgoland-2016-04-08-015", "aoi": "s3_helgoland", "date": "2016-04-08", "scene_id": "S2A_MSIL2A_20160408T104022_R008_T32UMF_20210211T022918", "scene_datetime_utc": "2016-04-08T10:40:22.030000+00:00", "detection_status": "detected", "detection_status_ru": "обнаружено", "lon": 7.40035, "lat": 54.29464, "n_pixels": 2, "zone_area_km2": 0.0008, "cover_m2": 5.9, "p_mean": 0.806, "p_max": 0.973, "cover_m2_km2": 7375.0, "h3": "881f32a713fffff", "valid_frac_scene": 1.0, "wind_ms": 6.2, "sea": "волнение", "scene_reliable": true, "field_event_id": "S3:HE460_MarLitter_transect02", "field_profile": "B", "field_date": "2016-04-09", "field_distance_km": 13.9, "field_date_gap_days": 1, "field_conc_items_km2": 32.26, "conc_A_items_km2": null, "conc_A_lo80": null, "conc_A_hi80": null, "conc_A_lo95": null, "conc_A_hi95": null, "conc_A_status": "unavailable", "conc_A_status_ru": "концентрация недоступна", "conc_A_reasons": "вне бассейна профиля: nw_atlantic_subtropical", "conc_A_model": "conc-A-c6bce5631d2b", "conc_B_items_km2": null, "conc_B_lo80": null, "conc_B_hi80": null, "conc_B_lo95": null, "conc_B_hi95": null, "conc_B_status": "unavailable", "conc_B_status_ru": "концентрация недоступна", "conc_B_reasons": "вне бассейна профиля: black_sea", "conc_B_model": "conc-B-c6bce5631d2b"}}, {"type": "Feature", "geometry": {"type": "Polygon", "coordinates": [[[7.960196439412108, 54.24904456262945], [7.960198699685915, 54.24895470200939], [7.960045251444349, 54.248953378279495], [7.960049772621651, 54.248773657043834], [7.960358927686788, 54.24868644366231], [7.960356667783521, 54.248776304290956], [7.960510115383019, 54.24877762762157], [7.960505596206177, 54.24895734888334], [7.960196439412108, 54.24904456262945]]]}, "properties": {"zone_id": "s3_helgoland-2016-04-08-016", "aoi": "s3_helgoland", "date": "2016-04-08", "scene_id": "S2A_MSIL2A_20160408T104022_R008_T32UMF_20210211T022918", "scene_datetime_utc": "2016-04-08T10:40:22.030000+00:00", "detection_status": "detected", "detection_status_ru": "обнаружено", "lon": 7.96028, "lat": 54.24887, "n_pixels": 2, "zone_area_km2": 0.0008, "cover_m2": 5.5, "p_mean": 0.688, "p_max": 0.875, "cover_m2_km2": 6875.0, "h3": "881f33c745fffff", "valid_frac_scene": 1.0, "wind_ms": 6.2, "sea": "волнение", "scene_reliable": true, "field_event_id": "S3:HE460_MarLitter_transect01", "field_profile": "B", "field_date": "2016-04-08", "field_distance_km": 2.9, "field_date_gap_days": 0, "field_conc_items_km2": 19.87, "conc_A_items_km2": null, "conc_A_lo80": null, "conc_A_hi80": null, "conc_A_lo95": null, "conc_A_hi95": null, "conc_A_status": "unavailable", "conc_A_status_ru": "концентрация недоступна", "conc_A_reasons": "вне бассейна профиля: nw_atlantic_subtropical", "conc_A_model": "conc-A-c6bce5631d2b", "conc_B_items_km2": null, "conc_B_lo80": null, "conc_B_hi80": null, "conc_B_lo95": null, "conc_B_hi95": null, "conc_B_status": "unavailable", "conc_B_status_ru": "концентрация недоступна", "conc_B_reasons": "вне бассейна профиля: black_sea", "conc_B_model": "conc-B-c6bce5631d2b"}}, {"type": "Feature", "geometry": {"type": "Polygon", "coordinates": [[[7.2919986605501235, 54.22830402107881], [7.292002370145664, 54.22821418529857], [7.291849041765259, 54.228212011738606], [7.291852751673119, 54.22812217596398], [7.292163117011328, 54.2280366870842], [7.292159407789, 54.22812652287462], [7.2923127358773865, 54.228128696037444], [7.292309026967379, 54.228218531833484], [7.292155698546373, 54.22821635866353], [7.292151989283449, 54.22830619445091], [7.2919986605501235, 54.22830402107881]]]}, "properties": {"zone_id": "s3_helgoland-2016-04-08-017", "aoi": "s3_helgoland", "date": "2016-04-08", "scene_id": "S2A_MSIL2A_20160408T104022_R008_T32UMF_20210211T022918", "scene_datetime_utc": "2016-04-08T10:40:22.030000+00:00", "detection_status": "detected", "detection_status_ru": "обнаружено", "lon": 7.29208, "lat": 54.22817, "n_pixels": 1, "zone_area_km2": 0.0005, "cover_m2": 7.1, "p_mean": 0.933, "p_max": 0.933, "cover_m2_km2": 14200.0, "h3": "881f32a0a3fffff", "valid_frac_scene": 1.0, "wind_ms": 6.2, "sea": "волнение", "scene_reliable": true, "field_event_id": "S3:HE460_MarLitter_transect02", "field_profile": "B", "field_date": "2016-04-09", "field_distance_km": 21.4, "field_date_gap_days": 1, "field_conc_items_km2": 32.26, "conc_A_items_km2": null, "conc_A_lo80": null, "conc_A_hi80": null, "conc_A_lo95": null, "conc_A_hi95": null, "conc_A_status": "unavailable", "conc_A_status_ru": "концентрация недоступна", "conc_A_reasons": "вне бассейна профиля: nw_atlantic_subtropical", "conc_A_model": "conc-A-c6bce5631d2b", "conc_B_items_km2": null, "conc_B_lo80": null, "conc_B_hi80": null, "conc_B_lo95": null, "conc_B_hi95": null, "conc_B_status": "unavailable", "conc_B_status_ru": "концентрация недоступна", "conc_B_reasons": "вне бассейна профиля: black_sea", "conc_B_model": "conc-B-c6bce5631d2b"}}, {"type": "Feature", "geometry": {"type": "Polygon", "coordinates": [[[7.806248592945025, 54.196026011397876], [7.806251182768089, 54.19593615469265], [7.8060979390228535, 54.19593463601889], [7.806100529164018, 54.1958447793172], [7.806409605466589, 54.195757959746764], [7.80640701600412, 54.195847816459846], [7.806560259445417, 54.19584933473886], [7.806557670301052, 54.1959391914555], [7.806404426527489, 54.19593767317152], [7.806401837036693, 54.19602752988174], [7.806248592945025, 54.196026011397876]]]}, "properties": {"zone_id": "s3_helgoland-2016-04-08-018", "aoi": "s3_helgoland", "date": "2016-04-08", "scene_id": "S2A_MSIL2A_20160408T104022_R008_T32UMF_20210211T022918", "scene_datetime_utc": "2016-04-08T10:40:22.030000+00:00", "detection_status": "detected", "detection_status_ru": "обнаружено", "lon": 7.80633, "lat": 54.19589, "n_pixels": 1, "zone_area_km2": 0.0005, "cover_m2": 7.1, "p_mean": 0.8, "p_max": 0.8, "cover_m2_km2": 14200.0, "h3": "881f33c02dfffff", "valid_frac_scene": 1.0, "wind_ms": 6.2, "sea": "волнение", "scene_reliable": true, "field_event_id": "S3:HE460_MarLitter_transect01", "field_profile": "B", "field_date": "2016-04-08", "field_distance_km": 8.7, "field_date_gap_days": 0, "field_conc_items_km2": 19.87, "conc_A_items_km2": null, "conc_A_lo80": null, "conc_A_hi80": null, "conc_A_lo95": null, "conc_A_hi95": null, "conc_A_status": "unavailable", "conc_A_status_ru": "концентрация недоступна", "conc_A_reasons": "вне бассейна профиля: nw_atlantic_subtropical", "conc_A_model": "conc-A-c6bce5631d2b", "conc_B_items_km2": null, "conc_B_lo80": null, "conc_B_hi80": null, "conc_B_lo95": null, "conc_B_hi95": null, "conc_B_status": "unavailable", "conc_B_status_ru": "концентрация недоступна", "conc_B_reasons": "вне бассейна профиля: black_sea", "conc_B_model": "conc-B-c6bce5631d2b"}}, {"type": "Feature", "geometry": {"type": "Polygon", "coordinates": [[[7.861338228216103, 54.193862868937984], [7.861340698342969, 54.19377301044012], [7.861187459597423, 54.19377156187561], [7.861189930043028, 54.19368170338107], [7.861343168456326, 54.1936831519408], [7.8613456385561715, 54.193593293440074], [7.861498876650733, 54.193594741800176], [7.8615013464048245, 54.193504883293244], [7.8618053528803795, 54.19359763793574], [7.8618028837772735, 54.19368749645074], [7.861649645323451, 54.19368604847564], [7.861647175874591, 54.193775906984456], [7.861338228216103, 54.193862868937984]]]}, "properties": {"zone_id": "s3_helgoland-2016-04-08-019", "aoi": "s3_helgoland", "date": "2016-04-08", "scene_id": "S2A_MSIL2A_20160408T104022_R008_T32UMF_20210211T022918", "scene_datetime_utc": "2016-04-08T10:40:22.030000+00:00", "detection_status": "detected", "detection_status_ru": "обнаружено", "lon": 7.8615, "lat": 54.19368, "n_pixels": 2, "zone_area_km2": 0.0008, "cover_m2": 23.1, "p_mean": 0.812, "p_max": 0.871, "cover_m2_km2": 28875.0, "h3": "881f33c033fffff", "valid_frac_scene": 1.0, "wind_ms": 6.2, "sea": "волнение", "scene_reliable": true, "field_event_id": "S3:HE460_MarLitter_transect01", "field_profile": "B", "field_date": "2016-04-08", "field_distance_km": 6.2, "field_date_gap_days": 0, "field_conc_items_km2": 19.87, "conc_A_items_km2": null, "conc_A_lo80": null, "conc_A_hi80": null, "conc_A_lo95": null, "conc_A_hi95": null, "conc_A_status": "unavailable", "conc_A_status_ru": "концентрация недоступна", "conc_A_reasons": "вне бассейна профиля: nw_atlantic_subtropical", "conc_A_model": "conc-A-c6bce5631d2b", "conc_B_items_km2": null, "conc_B_lo80": null, "conc_B_hi80": null, "conc_B_lo95": null, "conc_B_hi95": null, "conc_B_status": "unavailable", "conc_B_status_ru": "концентрация недоступна", "conc_B_reasons": "вне бассейна профиля: black_sea", "conc_B_model": "conc-B-c6bce5631d2b"}}, {"type": "Feature", "geometry": {"type": "Polygon", "coordinates": [[[7.865183980268653, 54.19335986811166], [7.865186442008445, 54.19327000948646], [7.8650332049191665, 54.193268565822436], [7.865035666977735, 54.19317870720055], [7.865188903734774, 54.19318015085983], [7.865191365447639, 54.193090292231766], [7.865344601885903, 54.193091735691425], [7.865347063253067, 54.1930018770572], [7.865651074802817, 54.1930946220261], [7.865648614086666, 54.193184480668386], [7.865495377289241, 54.19318303759375], [7.865492916227392, 54.19327289622985], [7.865183980268653, 54.19335986811166]]]}, "properties": {"zone_id": "s3_helgoland-2016-04-08-020", "aoi": "s3_helgoland", "date": "2016-04-08", "scene_id": "S2A_MSIL2A_20160408T104022_R008_T32UMF_20210211T022918", "scene_datetime_utc": "2016-04-08T10:40:22.030000+00:00", "detection_status": "detected", "detection_status_ru": "обнаружено", "lon": 7.86534, "lat": 54.19318, "n_pixels": 2, "zone_area_km2": 0.0008, "cover_m2": 48.2, "p_mean": 0.798, "p_max": 0.933, "cover_m2_km2": 60250.0, "h3": "881f33c033fffff", "valid_frac_scene": 1.0, "wind_ms": 6.2, "sea": "волнение", "scene_reliable": true, "field_event_id": "S3:HE460_MarLitter_transect01", "field_profile": "B", "field_date": "2016-04-08", "field_distance_km": 6.1, "field_date_gap_days": 0, "field_conc_items_km2": 19.87, "conc_A_items_km2": null, "conc_A_lo80": null, "conc_A_hi80": null, "conc_A_lo95": null, "conc_A_hi95": null, "conc_A_status": "unavailable", "conc_A_status_ru": "концентрация недоступна", "conc_A_reasons": "вне бассейна профиля: nw_atlantic_subtropical", "conc_A_model": "conc-A-c6bce5631d2b", "conc_B_items_km2": null, "conc_B_lo80": null, "conc_B_hi80": null, "conc_B_lo95": null, "conc_B_hi95": null, "conc_B_status": "unavailable", "conc_B_status_ru": "концентрация недоступна", "conc_B_reasons": "вне бассейна профиля: black_sea", "conc_B_model": "conc-B-c6bce5631d2b"}}, {"type": "Feature", "geometry": {"type": "MultiPolygon", "coordinates": [[[[7.863686116303663, 54.19208740243642], [7.863688581177125, 54.191997543838724], [7.863841813493963, 54.19199898919016], [7.8638442780217295, 54.19190913058629], [7.863691046037105, 54.191907685239606], [7.863693510883607, 54.19181782663905], [7.863384582108302, 54.19190479396163], [7.863382116583894, 54.19199465255126], [7.863535348873769, 54.191996098292435], [7.863532883668092, 54.19208595688537], [7.863686116303663, 54.19208740243642]]], [[[7.863379651046002, 54.192084511139456], [7.863377185494625, 54.19217436972623], [7.863068253397168, 54.192261336216156], [7.863065787154381, 54.19235119479056], [7.862912553576096, 54.19234974844578], [7.862910086987598, 54.19243960701403], [7.86321408888456, 54.19253235809454], [7.863216554822102, 54.192442499518215], [7.863369788759584, 54.192443945478004], [7.8633722543514155, 54.19235408689552], [7.863681186516296, 54.19226711962756], [7.8636836514167205, 54.1921772610327], [7.863379651046002, 54.192084511139456]]]]}, "properties": {"zone_id": "s3_helgoland-2016-04-08-021", "aoi": "s3_helgoland", "date": "2016-04-08", "scene_id": "S2A_MSIL2A_20160408T104022_R008_T32UMF_20210211T022918", "scene_datetime_utc": "2016-04-08T10:40:22.030000+00:00", "detection_status": "detected", "detection_status_ru": "обнаружено", "lon": 7.86338, "lat": 54.19222, "n_pixels": 4, "zone_area_km2": 0.0016, "cover_m2": 62.7, "p_mean": 0.769, "p_max": 0.984, "cover_m2_km2": 39187.5, "h3": "881f33c033fffff", "valid_frac_scene": 1.0, "wind_ms": 6.2, "sea": "волнение", "scene_reliable": true, "field_event_id": "S3:HE460_MarLitter_transect01", "field_profile": "B", "field_date": "2016-04-08", "field_distance_km": 6.3, "field_date_gap_days": 0, "field_conc_items_km2": 19.87, "conc_A_items_km2": null, "conc_A_lo80": null, "conc_A_hi80": null, "conc_A_lo95": null, "conc_A_hi95": null, "conc_A_status": "unavailable", "conc_A_status_ru": "концентрация недоступна", "conc_A_reasons": "вне бассейна профиля: nw_atlantic_subtropical", "conc_A_model": "conc-A-c6bce5631d2b", "conc_B_items_km2": null, "conc_B_lo80": null, "conc_B_hi80": null, "conc_B_lo95": null, "conc_B_hi95": null, "conc_B_status": "unavailable", "conc_B_status_ru": "концентрация недоступна", "conc_B_reasons": "вне бассейна профиля: black_sea", "conc_B_model": "conc-B-c6bce5631d2b"}}, {"type": "Feature", "geometry": {"type": "Polygon", "coordinates": [[[7.806219660344798, 54.19171136949049], [7.8062222498202285, 54.19162151272143], [7.806069022035881, 54.1916199940923], [7.806071611829328, 54.1915301373268], [7.8063806558627595, 54.19144331760336], [7.80637806674783, 54.19153317438026], [7.806531294228321, 54.19153469261471], [7.806528705431411, 54.19162454939516], [7.80637547761874, 54.19162303115573], [7.80637288847549, 54.19171288792977], [7.806219660344798, 54.19171136949049]]]}, "properties": {"zone_id": "s3_helgoland-2016-04-08-022", "aoi": "s3_helgoland", "date": "2016-04-08", "scene_id": "S2A_MSIL2A_20160408T104022_R008_T32UMF_20210211T022918", "scene_datetime_utc": "2016-04-08T10:40:22.030000+00:00", "detection_status": "detected", "detection_status_ru": "обнаружено", "lon": 7.8063, "lat": 54.19158, "n_pixels": 1, "zone_area_km2": 0.0005, "cover_m2": 10.2, "p_mean": 0.612, "p_max": 0.612, "cover_m2_km2": 20400.0, "h3": "881f33c02dfffff", "valid_frac_scene": 1.0, "wind_ms": 6.2, "sea": "волнение", "scene_reliable": true, "field_event_id": "S3:HE460_MarLitter_transect01", "field_profile": "B", "field_date": "2016-04-08", "field_distance_km": 9.0, "field_date_gap_days": 0, "field_conc_items_km2": 19.87, "conc_A_items_km2": null, "conc_A_lo80": null, "conc_A_hi80": null, "conc_A_lo95": null, "conc_A_hi95": null, "conc_A_status": "unavailable", "conc_A_status_ru": "концентрация недоступна", "conc_A_reasons": "вне бассейна профиля: nw_atlantic_subtropical", "conc_A_model": "conc-A-c6bce5631d2b", "conc_B_items_km2": null, "conc_B_lo80": null, "conc_B_hi80": null, "conc_B_lo95": null, "conc_B_hi95": null, "conc_B_status": "unavailable", "conc_B_status_ru": "концентрация недоступна", "conc_B_reasons": "вне бассейна профиля: black_sea", "conc_B_model": "conc-B-c6bce5631d2b"}}, {"type": "Feature", "geometry": {"type": "Polygon", "coordinates": [[[7.866019044692776, 54.19085104082416], [7.866021504394652, 54.19076118213533], [7.865868276540117, 54.19075973957841], [7.865870736560731, 54.190669880892926], [7.866179650961659, 54.19058290710602], [7.866177191618873, 54.19067276580242], [7.866330419168121, 54.19067420796489], [7.866327960144077, 54.1907640666646], [7.86617473226264, 54.1907626244974], [7.866172272892953, 54.19085248319096], [7.866019044692776, 54.19085104082416]]]}, "properties": {"zone_id": "s3_helgoland-2016-04-08-023", "aoi": "s3_helgoland", "date": "2016-04-08", "scene_id": "S2A_MSIL2A_20160408T104022_R008_T32UMF_20210211T022918", "scene_datetime_utc": "2016-04-08T10:40:22.030000+00:00", "detection_status": "detected", "detection_status_ru": "обнаружено", "lon": 7.8661, "lat": 54.19072, "n_pixels": 1, "zone_area_km2": 0.0005, "cover_m2": 12.9, "p_mean": 0.522, "p_max": 0.522, "cover_m2_km2": 25800.0, "h3": "881f33c033fffff", "valid_frac_scene": 1.0, "wind_ms": 6.2, "sea": "волнение", "scene_reliable": true, "field_event_id": "S3:HE460_MarLitter_transect01", "field_profile": "B", "field_date": "2016-04-08", "field_distance_km": 6.3, "field_date_gap_days": 0, "field_conc_items_km2": 19.87, "conc_A_items_km2": null, "conc_A_lo80": null, "conc_A_hi80": null, "conc_A_lo95": null, "conc_A_hi95": null, "conc_A_status": "unavailable", "conc_A_status_ru": "концентрация недоступна", "conc_A_reasons": "вне бассейна профиля: nw_atlantic_subtropical", "conc_A_model": "conc-A-c6bce5631d2b", "conc_B_items_km2": null, "conc_B_lo80": null, "conc_B_hi80": null, "conc_B_lo95": null, "conc_B_hi95": null, "conc_B_status": "unavailable", "conc_B_status_ru": "концентрация недоступна", "conc_B_reasons": "вне бассейна профиля: black_sea", "conc_B_model": "conc-B-c6bce5631d2b"}}, {"type": "Feature", "geometry": {"type": "Polygon", "coordinates": [[[7.80195526556682, 54.19077020772383], [7.801957864201145, 54.19068035108039], [7.801804640135748, 54.19067882704538], [7.801807239088019, 54.19058897040551], [7.802116284842456, 54.19050216161933], [7.802113686568711, 54.19059201827064], [7.802266910330373, 54.190593541910935], [7.802264312374574, 54.19068339856584], [7.802111088280755, 54.190681874920536], [7.80210848997859, 54.19077173156899], [7.80195526556682, 54.19077020772383]]]}, "properties": {"zone_id": "s3_helgoland-2016-04-08-024", "aoi": "s3_helgoland", "date": "2016-04-08", "scene_id": "S2A_MSIL2A_20160408T104022_R008_T32UMF_20210211T022918", "scene_datetime_utc": "2016-04-08T10:40:22.030000+00:00", "detection_status": "detected", "detection_status_ru": "обнаружено", "lon": 7.80204, "lat": 54.19064, "n_pixels": 1, "zone_area_km2": 0.0005, "cover_m2": 5.5, "p_mean": 0.686, "p_max": 0.686, "cover_m2_km2": 11000.0, "h3": "881f33c02dfffff", "valid_frac_scene": 1.0, "wind_ms": 6.2, "sea": "волнение", "scene_reliable": true, "field_event_id": "S3:HE460_MarLitter_transect01", "field_profile": "B", "field_date": "2016-04-08", "field_distance_km": 9.3, "field_date_gap_days": 0, "field_conc_items_km2": 19.87, "conc_A_items_km2": null, "conc_A_lo80": null, "conc_A_hi80": null, "conc_A_lo95": null, "conc_A_hi95": null, "conc_A_status": "unavailable", "conc_A_status_ru": "концентрация недоступна", "conc_A_reasons": "вне бассейна профиля: nw_atlantic_subtropical", "conc_A_model": "conc-A-c6bce5631d2b", "conc_B_items_km2": null, "conc_B_lo80": null, "conc_B_hi80": null, "conc_B_lo95": null, "conc_B_hi95": null, "conc_B_status": "unavailable", "conc_B_status_ru": "концентрация недоступна", "conc_B_reasons": "вне бассейна профиля: black_sea", "conc_B_model": "conc-B-c6bce5631d2b"}}, {"type": "Feature", "geometry": {"type": "MultiPolygon", "coordinates": [[[[7.865724890029515, 54.19039886209506], [7.865722429717079, 54.19048872078008], [7.866031343067636, 54.19040174736584], [7.866036262323417, 54.19022202997255], [7.866345173029974, 54.19013505573667], [7.86635009087634, 54.189955338315876], [7.866658998938934, 54.18986836325841], [7.866663915375929, 54.18968864581012], [7.866972820794601, 54.1896016699311], [7.866977735822272, 54.18942195245529], [7.86713095878827, 54.18942339357717], [7.8671358730978564, 54.18924367608621], [7.8668318863069, 54.189150934928385], [7.8668294285079465, 54.189240793666535], [7.866676206233154, 54.18923935216442], [7.866671289930594, 54.18941906962697], [7.8663623852569176, 54.18950604473892], [7.866359926407697, 54.18959590345716], [7.866206702844585, 54.18959446135155], [7.866201784441464, 54.18977417877428], [7.866048560227463, 54.18977273646435], [7.866043641106199, 54.1899524538719], [7.8657347311447054, 54.190039427340665], [7.86572981061402, 54.190219144720714], [7.865576584779504, 54.19021770180251], [7.865571663530637, 54.19039741916737], [7.865724890029515, 54.19039886209506]]], [[[7.865418437045215, 54.19039597604484], [7.865415976068412, 54.190485834720384], [7.865107060818947, 54.19057280654591], [7.86510459915085, 54.190662665209125], [7.864951371709256, 54.190661221487794], [7.864948909695507, 54.19075108014483], [7.86510213746929, 54.19075252387091], [7.865099675774266, 54.190842382531294], [7.865406132026602, 54.19084526940835], [7.865408593057243, 54.1907554107385], [7.865561820871411, 54.19075685387999], [7.865566742227939, 54.190577136526535], [7.865719969391187, 54.190578579463704], [7.865722429717079, 54.19048872078008], [7.865418437045215, 54.19039597604484]]]]}, "properties": {"zone_id": "s3_helgoland-2016-04-08-025", "aoi": "s3_helgoland", "date": "2016-04-08", "scene_id": "S2A_MSIL2A_20160408T104022_R008_T32UMF_20210211T022918", "scene_datetime_utc": "2016-04-08T10:40:22.030000+00:00", "detection_status": "detected", "detection_status_ru": "обнаружено", "lon": 7.86614, "lat": 54.18999, "n_pixels": 20, "zone_area_km2": 0.0058, "cover_m2": 306.7, "p_mean": 0.943, "p_max": 0.996, "cover_m2_km2": 52879.3, "h3": "881f33c1d9fffff", "valid_frac_scene": 1.0, "wind_ms": 6.2, "sea": "волнение", "scene_reliable": true, "field_event_id": "S3:HE460_MarLitter_transect01", "field_profile": "B", "field_date": "2016-04-08", "field_distance_km": 6.4, "field_date_gap_days": 0, "field_conc_items_km2": 19.87, "conc_A_items_km2": null, "conc_A_lo80": null, "conc_A_hi80": null, "conc_A_lo95": null, "conc_A_hi95": null, "conc_A_status": "unavailable", "conc_A_status_ru": "концентрация недоступна", "conc_A_reasons": "вне бассейна профиля: nw_atlantic_subtropical", "conc_A_model": "conc-A-c6bce5631d2b", "conc_B_items_km2": null, "conc_B_lo80": null, "conc_B_hi80": null, "conc_B_lo95": null, "conc_B_hi95": null, "conc_B_status": "unavailable", "conc_B_status_ru": "концентрация недоступна", "conc_B_reasons": "вне бассейна профиля: black_sea", "conc_B_model": "conc-B-c6bce5631d2b"}}, {"type": "Feature", "geometry": {"type": "Polygon", "coordinates": [[[7.8993152387435455, 54.189452133022755], [7.899317626109459, 54.18936227329366], [7.8991644016900215, 54.189360873109614], [7.899166789375054, 54.18927101338372], [7.899320013462317, 54.18927241356315], [7.899322400802118, 54.18918255383123], [7.899475624570263, 54.18918395381123], [7.899478011564834, 54.18909409407329], [7.899782072145712, 54.18918675318667], [7.899777299446107, 54.18936647267668], [7.8996240749875035, 54.1893650730772], [7.899621688285947, 54.18945493281549], [7.8993152387435455, 54.189452133022755]]]}, "properties": {"zone_id": "s3_helgoland-2016-04-08-026", "aoi": "s3_helgoland", "date": "2016-04-08", "scene_id": "S2A_MSIL2A_20160408T104022_R008_T32UMF_20210211T022918", "scene_datetime_utc": "2016-04-08T10:40:22.030000+00:00", "detection_status": "detected", "detection_status_ru": "обнаружено", "lon": 7.8995, "lat": 54.18929, "n_pixels": 3, "zone_area_km2": 0.001, "cover_m2": 18.0, "p_mean": 0.888, "p_max": 1.0, "cover_m2_km2": 18000.0, "h3": "881f33c0a9fffff", "valid_frac_scene": 1.0, "wind_ms": 6.2, "sea": "волнение", "scene_reliable": true, "field_event_id": "S3:HE460_MarLitter_transect01", "field_profile": "B", "field_date": "2016-04-08", "field_distance_km": 5.6, "field_date_gap_days": 0, "field_conc_items_km2": 19.87, "conc_A_items_km2": null, "conc_A_lo80": null, "conc_A_hi80": null, "conc_A_lo95": null, "conc_A_hi95": null, "conc_A_status": "unavailable", "conc_A_status_ru": "концентрация недоступна", "conc_A_reasons": "вне бассейна профиля: nw_atlantic_subtropical", "conc_A_model": "conc-A-c6bce5631d2b", "conc_B_items_km2": null, "conc_B_lo80": null, "conc_B_hi80": null, "conc_B_lo95": null, "conc_B_hi95": null, "conc_B_status": "unavailable", "conc_B_status_ru": "концентрация недоступна", "conc_B_reasons": "вне бассейна профиля: black_sea", "conc_B_model": "conc-B-c6bce5631d2b"}}]}