{"type": "FeatureCollection", "features": [{"type": "Feature", "geometry": {"type": "Polygon", "coordinates": [[[38.44671474791102, 42.33598888733659], [38.446715537346996, 42.33589883015951], [38.446594155288786, 42.33589824438916], [38.446594944894315, 42.33580818721247], [38.44671632677936, 42.33580877298098], [38.44671711620811, 42.33571871580103], [38.4469598796427, 42.335719886948915], [38.446959090560284, 42.335809944132556], [38.447080472456165, 42.335810529515605], [38.4470796835433, 42.33590058669964], [38.446958301474254, 42.33590000131475], [38.446957512384614, 42.335990058495504], [38.44671474791102, 42.33598888733659]]]}, "properties": {"zone_id": "s4_ordu-2024-06-03-001", "aoi": "s4_ordu", "date": "2024-06-03", "scene_id": "S2A_MSIL2A_20240603T081611_R121_T37TDG_20240603T140746", "scene_datetime_utc": "2024-06-03T08:16:11.024000+00:00", "detection_status": "detected", "detection_status_ru": "обнаружено", "lon": 38.44684, "lat": 42.33585, "n_pixels": 2, "zone_area_km2": 0.0008, "cover_m2": 6.7, "p_mean": 0.782, "p_max": 0.784, "cover_m2_km2": 8375.0, "h3": "882d0bd16bfffff", "valid_frac_scene": 1.0, "wind_ms": 3.7, "sea": "спокойное", "scene_reliable": true, "field_event_id": "S4:DOORS3:T17", "field_profile": "B", "field_date": "2024-06-04", "field_distance_km": 13.3, "field_date_gap_days": 1, "field_conc_items_km2": 89.61, "conc_A_items_km2": null, "conc_A_lo80": null, "conc_A_hi80": null, "conc_A_lo95": null, "conc_A_hi95": null, "conc_A_status": "unavailable", "conc_A_status_ru": "концентрация недоступна", "conc_A_reasons": "вне бассейна профиля: nw_atlantic_subtropical", "conc_A_model": "conc-A-c6bce5631d2b", "conc_B_items_km2": 152.7, "conc_B_lo80": 32.0, "conc_B_hi80": 514.9, "conc_B_lo95": 19.7, "conc_B_hi95": 964.7, "conc_B_status": "model_estimate", "conc_B_status_ru": "модельная оценка", "conc_B_reasons": "", "conc_B_model": "conc-B-c6bce5631d2b"}}, {"type": "Feature", "geometry": {"type": "Polygon", "coordinates": [[[38.101375062120184, 42.250225803952596], [38.101376340416394, 42.25013575231549], [38.10125513220166, 42.25013480254353], [38.101257689121255, 42.2499546992709], [38.101501382973446, 42.24986654703037], [38.10150010486714, 42.24995659867482], [38.10162131274886, 42.24995754818468], [38.101618756863424, 42.25013765147517], [38.101375062120184, 42.250225803952596]]]}, "properties": {"zone_id": "s4_ordu-2024-06-03-002", "aoi": "s4_ordu", "date": "2024-06-03", "scene_id": "S2A_MSIL2A_20240603T081611_R121_T37TDG_20240603T140746", "scene_datetime_utc": "2024-06-03T08:16:11.024000+00:00", "detection_status": "detected", "detection_status_ru": "обнаружено", "lon": 38.10144, "lat": 42.25005, "n_pixels": 2, "zone_area_km2": 0.0008, "cover_m2": 0.8, "p_mean": 0.9, "p_max": 0.922, "cover_m2_km2": 1000.0, "h3": "882d0ab56bfffff", "valid_frac_scene": 1.0, "wind_ms": 3.7, "sea": "спокойное", "scene_reliable": true, "field_event_id": "S4:DOORS3:T16", "field_profile": "B", "field_date": "2024-06-04", "field_distance_km": 3.2, "field_date_gap_days": 1, "field_conc_items_km2": 64.91, "conc_A_items_km2": null, "conc_A_lo80": null, "conc_A_hi80": null, "conc_A_lo95": null, "conc_A_hi95": null, "conc_A_status": "unavailable", "conc_A_status_ru": "концентрация недоступна", "conc_A_reasons": "вне бассейна профиля: nw_atlantic_subtropical", "conc_A_model": "conc-A-c6bce5631d2b", "conc_B_items_km2": 159.7, "conc_B_lo80": 33.5, "conc_B_hi80": 538.2, "conc_B_lo95": 20.6, "conc_B_hi95": 1008.3, "conc_B_status": "model_estimate", "conc_B_status_ru": "модельная оценка", "conc_B_reasons": "", "conc_B_model": "conc-B-c6bce5631d2b"}}, {"type": "Feature", "geometry": {"type": "Polygon", "coordinates": [[[38.11132807516015, 42.24931267890844], [38.1113293392589, 42.249222627012436], [38.11120813246318, 42.24922168777478], [38.11121066098804, 42.24904158398431], [38.11145433780489, 42.24895341041649], [38.11145307389584, 42.24904346231978], [38.11157428035841, 42.24904440129542], [38.11157175286768, 42.24922450510357], [38.11132807516015, 42.24931267890844]]]}, "properties": {"zone_id": "s4_ordu-2024-06-03-003", "aoi": "s4_ordu", "date": "2024-06-03", "scene_id": "S2A_MSIL2A_20240603T081611_R121_T37TDG_20240603T140746", "scene_datetime_utc": "2024-06-03T08:16:11.024000+00:00", "detection_status": "detected", "detection_status_ru": "обнаружено", "lon": 38.11139, "lat": 42.24913, "n_pixels": 2, "zone_area_km2": 0.0008, "cover_m2": 1.6, "p_mean": 0.916, "p_max": 0.929, "cover_m2_km2": 2000.0, "h3": "882d0ab563fffff", "valid_frac_scene": 1.0, "wind_ms": 3.7, "sea": "спокойное", "scene_reliable": true, "field_event_id": "S4:DOORS3:T16", "field_profile": "B", "field_date": "2024-06-04", "field_distance_km": 2.5, "field_date_gap_days": 1, "field_conc_items_km2": 64.91, "conc_A_items_km2": null, "conc_A_lo80": null, "conc_A_hi80": null, "conc_A_lo95": null, "conc_A_hi95": null, "conc_A_status": "unavailable", "conc_A_status_ru": "концентрация недоступна", "conc_A_reasons": "вне бассейна профиля: nw_atlantic_subtropical", "conc_A_model": "conc-A-c6bce5631d2b", "conc_B_items_km2": 159.5, "conc_B_lo80": 33.5, "conc_B_hi80": 537.7, "conc_B_lo95": 20.6, "conc_B_hi95": 1007.4, "conc_B_status": "model_estimate", "conc_B_status_ru": "модельная оценка", "conc_B_reasons": "", "conc_B_model": "conc-B-c6bce5631d2b"}}, {"type": "Feature", "geometry": {"type": "Polygon", "coordinates": [[[38.091088200015875, 42.24059820091466], [38.09108949250823, 42.24050814938143], [38.090968303065075, 42.24050718891487], [38.0909695957238, 42.24041713738317], [38.09109078499468, 42.24041809784672], [38.09109207747521, 42.24032804631059], [38.09133445569016, 42.24032996684759], [38.091333163554175, 42.24042001838974], [38.091454352842796, 42.24042097846923], [38.09145306087317, 42.24051103001297], [38.09133187141228, 42.24051006993048], [38.09133057926447, 42.24060012146974], [38.091088200015875, 42.24059820091466]]]}, "properties": {"zone_id": "s4_ordu-2024-06-03-004", "aoi": "s4_ordu", "date": "2024-06-03", "scene_id": "S2A_MSIL2A_20240603T081611_R121_T37TDG_20240603T140746", "scene_datetime_utc": "2024-06-03T08:16:11.024000+00:00", "detection_status": "detected", "detection_status_ru": "обнаружено", "lon": 38.09121, "lat": 42.24046, "n_pixels": 2, "zone_area_km2": 0.0008, "cover_m2": 1.2, "p_mean": 0.765, "p_max": 0.878, "cover_m2_km2": 1500.0, "h3": "882d0ab56dfffff", "valid_frac_scene": 1.0, "wind_ms": 3.7, "sea": "спокойное", "scene_reliable": true, "field_event_id": "S4:DOORS3:T16", "field_profile": "B", "field_date": "2024-06-04", "field_distance_km": 4.5, "field_date_gap_days": 1, "field_conc_items_km2": 64.91, "conc_A_items_km2": null, "conc_A_lo80": null, "conc_A_hi80": null, "conc_A_lo95": null, "conc_A_hi95": null, "conc_A_status": "unavailable", "conc_A_status_ru": "концентрация недоступна", "conc_A_reasons": "вне бассейна профиля: nw_atlantic_subtropical", "conc_A_model": "conc-A-c6bce5631d2b", "conc_B_items_km2": 160.4, "conc_B_lo80": 33.7, "conc_B_hi80": 540.8, "conc_B_lo95": 20.7, "conc_B_hi95": 1013.2, "conc_B_status": "model_estimate", "conc_B_status_ru": "модельная оценка", "conc_B_reasons": "", "conc_B_model": "conc-B-c6bce5631d2b"}}, {"type": "Feature", "geometry": {"type": "Polygon", "coordinates": [[[38.1261172142587, 42.24051020201233], [38.126118456939125, 42.24042014961935], [38.12599726650912, 42.24041922616486], [38.12599850935614, 42.24032917377333], [38.12611969961387, 42.24033009722494], [38.12612094228292, 42.240240044829065], [38.12636332247087, 42.24024189134237], [38.12636208014638, 42.240331943744025], [38.12648327042116, 42.24033286681153], [38.12648202826326, 42.24042291921463], [38.12636083781619, 42.240421996144235], [38.12635959548034, 42.240512048543], [38.1261172142587, 42.24051020201233]]]}, "properties": {"zone_id": "s4_ordu-2024-06-03-005", "aoi": "s4_ordu", "date": "2024-06-03", "scene_id": "S2A_MSIL2A_20240603T081611_R121_T37TDG_20240603T140746", "scene_datetime_utc": "2024-06-03T08:16:11.024000+00:00", "detection_status": "detected", "detection_status_ru": "обнаружено", "lon": 38.12624, "lat": 42.24038, "n_pixels": 2, "zone_area_km2": 0.0008, "cover_m2": 0.0, "p_mean": 0.882, "p_max": 0.988, "cover_m2_km2": 0.0, "h3": "882d0ab52dfffff", "valid_frac_scene": 1.0, "wind_ms": 3.7, "sea": "спокойное", "scene_reliable": true, "field_event_id": "S4:DOORS3:T16", "field_profile": "B", "field_date": "2024-06-04", "field_distance_km": 2.5, "field_date_gap_days": 1, "field_conc_items_km2": 64.91, "conc_A_items_km2": null, "conc_A_lo80": null, "conc_A_hi80": null, "conc_A_lo95": null, "conc_A_hi95": null, "conc_A_status": "unavailable", "conc_A_status_ru": "концентрация недоступна", "conc_A_reasons": "вне бассейна профиля: nw_atlantic_subtropical", "conc_A_model": "conc-A-c6bce5631d2b", "conc_B_items_km2": 160.1, "conc_B_lo80": 33.6, "conc_B_hi80": 539.7, "conc_B_lo95": 20.7, "conc_B_hi95": 1011.2, "conc_B_status": "model_estimate", "conc_B_status_ru": "модельная оценка", "conc_B_reasons": "", "conc_B_model": "conc-B-c6bce5631d2b"}}, {"type": "Feature", "geometry": {"type": "Polygon", "coordinates": [[[38.090628011025885, 42.23888337911745], [38.09062930409496, 42.238793327568686], [38.090386931808084, 42.23879140559788], [38.090388225215754, 42.238701354053696], [38.090267039253455, 42.23870039287928], [38.09026833282747, 42.23861034133666], [38.09038951861751, 42.23861130250807], [38.09039081201336, 42.23852125096097], [38.090633183266675, 42.238523172913695], [38.090631890215356, 42.23861322446681], [38.09075307602314, 42.23861418525417], [38.09075178313817, 42.23870423680885], [38.09087296912413, 42.23870519747119], [38.0908716764055, 42.23879524902743], [38.090750490247274, 42.23879428836208], [38.09074919735046, 42.238884339913845], [38.090628011025885, 42.23888337911745]]]}, "properties": {"zone_id": "s4_ordu-2024-06-03-006", "aoi": "s4_ordu", "date": "2024-06-03", "scene_id": "S2A_MSIL2A_20240603T081611_R121_T37TDG_20240603T140746", "scene_datetime_utc": "2024-06-03T08:16:11.024000+00:00", "detection_status": "detected", "detection_status_ru": "обнаружено", "lon": 38.09057, "lat": 42.23869, "n_pixels": 3, "zone_area_km2": 0.0011, "cover_m2": 0.0, "p_mean": 0.895, "p_max": 0.988, "cover_m2_km2": 0.0, "h3": "882d0ab56dfffff", "valid_frac_scene": 1.0, "wind_ms": 3.7, "sea": "спокойное", "scene_reliable": true, "field_event_id": "S4:DOORS3:T16", "field_profile": "B", "field_date": "2024-06-04", "field_distance_km": 4.6, "field_date_gap_days": 1, "field_conc_items_km2": 64.91, "conc_A_items_km2": null, "conc_A_lo80": null, "conc_A_hi80": null, "conc_A_lo95": null, "conc_A_hi95": null, "conc_A_status": "unavailable", "conc_A_status_ru": "концентрация недоступна", "conc_A_reasons": "вне бассейна профиля: nw_atlantic_subtropical", "conc_A_model": "conc-A-c6bce5631d2b", "conc_B_items_km2": 160.4, "conc_B_lo80": 33.7, "conc_B_hi80": 540.8, "conc_B_lo95": 20.7, "conc_B_hi95": 1013.2, "conc_B_status": "model_estimate", "conc_B_status_ru": "модельная оценка", "conc_B_reasons": "", "conc_B_model": "conc-B-c6bce5631d2b"}}, {"type": "Feature", "geometry": {"type": "Polygon", "coordinates": [[[38.096390585450834, 42.23424570835549], [38.096391870117955, 42.23415565659008], [38.096270692650975, 42.23415470184136], [38.09627197748444, 42.23406465007748], [38.0963931547792, 42.2340656048232], [38.09639572408407, 42.233885501285094], [38.096639362301524, 42.23379735860336], [38.096638078002336, 42.23388741038057], [38.096759254970294, 42.23388836473631], [38.09675797083745, 42.233978416515065], [38.096636793697286, 42.23397746215634], [38.09663550938636, 42.23406751393066], [38.09675668669875, 42.234068468292385], [38.09675540255416, 42.234158520068235], [38.09663422506955, 42.23415756570351], [38.09663294074687, 42.23424761747492], [38.096390585450834, 42.23424570835549]]]}, "properties": {"zone_id": "s4_ordu-2024-06-03-007", "aoi": "s4_ordu", "date": "2024-06-03", "scene_id": "S2A_MSIL2A_20240603T081611_R121_T37TDG_20240603T140746", "scene_datetime_utc": "2024-06-03T08:16:11.024000+00:00", "detection_status": "detected", "detection_status_ru": "обнаружено", "lon": 38.09653, "lat": 42.23405, "n_pixels": 3, "zone_area_km2": 0.0012, "cover_m2": 2.4, "p_mean": 0.809, "p_max": 0.996, "cover_m2_km2": 2000.0, "h3": "882d0ab0b3fffff", "valid_frac_scene": 1.0, "wind_ms": 3.7, "sea": "спокойное", "scene_reliable": true, "field_event_id": "S4:DOORS3:T16", "field_profile": "B", "field_date": "2024-06-04", "field_distance_km": 4.5, "field_date_gap_days": 1, "field_conc_items_km2": 64.91, "conc_A_items_km2": null, "conc_A_lo80": null, "conc_A_hi80": null, "conc_A_lo95": null, "conc_A_hi95": null, "conc_A_status": "unavailable", "conc_A_status_ru": "концентрация недоступна", "conc_A_reasons": "вне бассейна профиля: nw_atlantic_subtropical", "conc_A_model": "conc-A-c6bce5631d2b", "conc_B_items_km2": 160.4, "conc_B_lo80": 33.7, "conc_B_hi80": 540.8, "conc_B_lo95": 20.7, "conc_B_hi95": 1013.2, "conc_B_status": "model_estimate", "conc_B_status_ru": "модельная оценка", "conc_B_reasons": "", "conc_B_model": "conc-B-c6bce5631d2b"}}]}