{"type": "FeatureCollection", "features": [{"type": "Feature", "geometry": {"type": "Polygon", "coordinates": [[[49.05614406360314, 53.70522297732259], [49.056148205138065, 53.705133145472814], [49.05599680455651, 53.70513068805036], [49.056005088203285, 53.70495102436215], [49.05631202924615, 53.70486610712124], [49.05630788810053, 53.70495593898374], [49.056459288082756, 53.70495839600766], [49.05645100636841, 53.70513805974402], [49.05614406360314, 53.70522297732259]]]}, "properties": {"zone_id": "kuibyshev-2026-05-05-001", "aoi": "kuibyshev", "date": "2026-05-05", "scene_id": "S2C_MSIL2A_20260505T074611_R135_T39UUV_20260505T110920", "scene_datetime_utc": "2026-05-05T07:46:11.025000+00:00", "detection_status": "detected", "detection_status_ru": "обнаружено", "lon": 49.05623, "lat": 53.70504, "n_pixels": 2, "zone_area_km2": 0.0008, "cover_m2": 7.1, "p_mean": 0.818, "p_max": 0.835, "cover_m2_km2": 8875.0, "h3": "881085629bfffff", "valid_frac_scene": 0.999, "wind_ms": 2.8, "sea": "спокойное", "scene_reliable": true, "field_event_id": "S4:DOORS3:T23", "field_profile": "B", "field_date": "2024-06-10", "field_distance_km": 1379.7, "field_date_gap_days": 694, "field_conc_items_km2": 102.37, "conc_A_items_km2": null, "conc_A_lo80": null, "conc_A_hi80": null, "conc_A_lo95": null, "conc_A_hi95": null, "conc_A_status": "unavailable", "conc_A_status_ru": "концентрация недоступна", "conc_A_reasons": "вне бассейна профиля: nw_atlantic_subtropical", "conc_A_model": "conc-A-c6bce5631d2b", "conc_B_items_km2": null, "conc_B_lo80": null, "conc_B_hi80": null, "conc_B_lo95": null, "conc_B_hi95": null, "conc_B_status": "unavailable", "conc_B_status_ru": "концентрация недоступна", "conc_B_reasons": "вне бассейна профиля: black_sea", "conc_B_model": "conc-B-c6bce5631d2b"}}, {"type": "Feature", "geometry": {"type": "Polygon", "coordinates": [[[49.05618961925487, 53.70423482688855], [49.0561937605433, 53.70414499502145], [49.05604236350446, 53.704142537687275], [49.05605064665821, 53.703962873964414], [49.05620204305294, 53.70396533128254], [49.05620618427415, 53.70387549941073], [49.05605478820147, 53.70387304210063], [49.05606307122077, 53.70369337836831], [49.056370002932276, 53.703608460880595], [49.05636586210033, 53.70369829276517], [49.056517257573724, 53.70370074967674], [49.056508976486725, 53.703880413457206], [49.05635758036923, 53.70387795652959], [49.05635343947008, 53.70396778840943], [49.05650483590962, 53.703970245345076], [49.056496554688195, 53.70414990911608], [49.05618961925487, 53.70423482688855]]]}, "properties": {"zone_id": "kuibyshev-2026-05-05-002", "aoi": "kuibyshev", "date": "2026-05-05", "scene_id": "S2C_MSIL2A_20260505T074611_R135_T39UUV_20260505T110920", "scene_datetime_utc": "2026-05-05T07:46:11.025000+00:00", "detection_status": "detected", "detection_status_ru": "обнаружено", "lon": 49.05628, "lat": 53.70392, "n_pixels": 4, "zone_area_km2": 0.0015, "cover_m2": 16.9, "p_mean": 0.78, "p_max": 0.91, "cover_m2_km2": 11266.7, "h3": "881085629bfffff", "valid_frac_scene": 0.999, "wind_ms": 2.8, "sea": "спокойное", "scene_reliable": true, "field_event_id": "S4:DOORS3:T23", "field_profile": "B", "field_date": "2024-06-10", "field_distance_km": 1379.6, "field_date_gap_days": 694, "field_conc_items_km2": 102.37, "conc_A_items_km2": null, "conc_A_lo80": null, "conc_A_hi80": null, "conc_A_lo95": null, "conc_A_hi95": null, "conc_A_status": "unavailable", "conc_A_status_ru": "концентрация недоступна", "conc_A_reasons": "вне бассейна профиля: nw_atlantic_subtropical", "conc_A_model": "conc-A-c6bce5631d2b", "conc_B_items_km2": null, "conc_B_lo80": null, "conc_B_hi80": null, "conc_B_lo95": null, "conc_B_hi95": null, "conc_B_status": "unavailable", "conc_B_status_ru": "концентрация недоступна", "conc_B_reasons": "вне бассейна профиля: black_sea", "conc_B_model": "conc-B-c6bce5631d2b"}}, {"type": "Feature", "geometry": {"type": "Polygon", "coordinates": [[[49.05577270672397, 53.70341896764439], [49.055776848776866, 53.7033291357872], [49.055625454703694, 53.70332667795155], [49.05562959705621, 53.703236846100815], [49.05593652626692, 53.70315192969643], [49.05593238458089, 53.703241761564804], [49.056083778376845, 53.70324421900995], [49.05607963699045, 53.70333405088478], [49.05592824287245, 53.7033315934316], [49.0559241011416, 53.703421425296824], [49.05577270672397, 53.70341896764439]]]}, "properties": {"zone_id": "kuibyshev-2026-05-05-003", "aoi": "kuibyshev", "date": "2026-05-05", "scene_id": "S2C_MSIL2A_20260505T074611_R135_T39UUV_20260505T110920", "scene_datetime_utc": "2026-05-05T07:46:11.025000+00:00", "detection_status": "detected", "detection_status_ru": "обнаружено", "lon": 49.05585, "lat": 53.70329, "n_pixels": 1, "zone_area_km2": 0.0005, "cover_m2": 3.5, "p_mean": 0.694, "p_max": 0.694, "cover_m2_km2": 7000.0, "h3": "881085629bfffff", "valid_frac_scene": 0.999, "wind_ms": 2.8, "sea": "спокойное", "scene_reliable": true, "field_event_id": "S4:DOORS3:T23", "field_profile": "B", "field_date": "2024-06-10", "field_distance_km": 1379.5, "field_date_gap_days": 694, "field_conc_items_km2": 102.37, "conc_A_items_km2": null, "conc_A_lo80": null, "conc_A_hi80": null, "conc_A_lo95": null, "conc_A_hi95": null, "conc_A_status": "unavailable", "conc_A_status_ru": "концентрация недоступна", "conc_A_reasons": "вне бассейна профиля: nw_atlantic_subtropical", "conc_A_model": "conc-A-c6bce5631d2b", "conc_B_items_km2": null, "conc_B_lo80": null, "conc_B_hi80": null, "conc_B_lo95": null, "conc_B_hi95": null, "conc_B_status": "unavailable", "conc_B_status_ru": "концентрация недоступна", "conc_B_reasons": "вне бассейна профиля: black_sea", "conc_B_model": "conc-B-c6bce5631d2b"}}, {"type": "Feature", "geometry": {"type": "Polygon", "coordinates": [[[49.183971791251004, 53.49147291640149], [49.18397563047617, 53.49138307473949], [49.18367817173303, 53.49128865358059], [49.18368201155294, 53.4911988119304], [49.183832660198355, 53.49120110176552], [49.18383649967952, 53.49111126010632], [49.18413779639631, 53.49111583919222], [49.18413395755124, 53.491205680866344], [49.1842846062587, 53.49120797013204], [49.18427692914265, 53.49138765349054], [49.183971791251004, 53.49147291640149]]]}, "properties": {"zone_id": "kuibyshev-2026-05-05-004", "aoi": "kuibyshev", "date": "2026-05-05", "scene_id": "S2C_MSIL2A_20260505T074611_R135_T39UUV_20260505T110920", "scene_datetime_utc": "2026-05-05T07:46:11.025000+00:00", "detection_status": "detected", "detection_status_ru": "обнаружено", "lon": 49.18401, "lat": 53.49128, "n_pixels": 3, "zone_area_km2": 0.001, "cover_m2": 11.8, "p_mean": 0.844, "p_max": 0.992, "cover_m2_km2": 11800.0, "h3": "8810856883fffff", "valid_frac_scene": 0.999, "wind_ms": 2.8, "sea": "спокойное", "scene_reliable": true, "field_event_id": "S4:DOORS3:T23", "field_profile": "B", "field_date": "2024-06-10", "field_distance_km": 1362.4, "field_date_gap_days": 694, "field_conc_items_km2": 102.37, "conc_A_items_km2": null, "conc_A_lo80": null, "conc_A_hi80": null, "conc_A_lo95": null, "conc_A_hi95": null, "conc_A_status": "unavailable", "conc_A_status_ru": "концентрация недоступна", "conc_A_reasons": "вне бассейна профиля: nw_atlantic_subtropical", "conc_A_model": "conc-A-c6bce5631d2b", "conc_B_items_km2": null, "conc_B_lo80": null, "conc_B_hi80": null, "conc_B_lo95": null, "conc_B_hi95": null, "conc_B_status": "unavailable", "conc_B_status_ru": "концентрация недоступна", "conc_B_reasons": "вне бассейна профиля: black_sea", "conc_B_model": "conc-B-c6bce5631d2b"}}, {"type": "Feature", "geometry": {"type": "Polygon", "coordinates": [[[49.191811961659184, 53.46309348559702], [49.19181578036435, 53.46300364311655], [49.19166523089408, 53.46300136416285], [49.19166904989622, 53.46291152168827], [49.19181959904897, 53.46291380063456], [49.191823417713024, 53.462823958150985], [49.19227506434207, 53.462830793829916], [49.19227124663057, 53.46292063633575], [49.192421795865556, 53.4629229145236], [49.19241797845103, 53.463012757035294], [49.192267428898525, 53.46301047884003], [49.19226361114592, 53.46310032134277], [49.191811961659184, 53.46309348559702]]]}, "properties": {"zone_id": "kuibyshev-2026-05-05-005", "aoi": "kuibyshev", "date": "2026-05-05", "scene_id": "S2C_MSIL2A_20260505T074611_R135_T39UUV_20260505T110920", "scene_datetime_utc": "2026-05-05T07:46:11.025000+00:00", "detection_status": "detected", "detection_status_ru": "обнаружено", "lon": 49.19204, "lat": 53.46296, "n_pixels": 3, "zone_area_km2": 0.0011, "cover_m2": 12.2, "p_mean": 0.979, "p_max": 0.996, "cover_m2_km2": 11090.9, "h3": "88108568a7fffff", "valid_frac_scene": 0.999, "wind_ms": 2.8, "sea": "спокойное", "scene_reliable": true, "field_event_id": "S4:DOORS3:T23", "field_profile": "B", "field_date": "2024-06-10", "field_distance_km": 1359.8, "field_date_gap_days": 694, "field_conc_items_km2": 102.37, "conc_A_items_km2": null, "conc_A_lo80": null, "conc_A_hi80": null, "conc_A_lo95": null, "conc_A_hi95": null, "conc_A_status": "unavailable", "conc_A_status_ru": "концентрация недоступна", "conc_A_reasons": "вне бассейна профиля: nw_atlantic_subtropical", "conc_A_model": "conc-A-c6bce5631d2b", "conc_B_items_km2": null, "conc_B_lo80": null, "conc_B_hi80": null, "conc_B_lo95": null, "conc_B_hi95": null, "conc_B_status": "unavailable", "conc_B_status_ru": "концентрация недоступна", "conc_B_reasons": "вне бассейна профиля: black_sea", "conc_B_model": "conc-B-c6bce5631d2b"}}, {"type": "Feature", "geometry": {"type": "Polygon", "coordinates": [[[49.6266680241519, 53.45054524297092], [49.62667092336391, 53.450455381346075], [49.626520386514144, 53.45045365059733], [49.6265232860281, 53.450363788976645], [49.626827257971385, 53.450277388639805], [49.626824359108134, 53.450367250273224], [49.626974895671566, 53.45036898063706], [49.62697199711026, 53.450458842274664], [49.62682146022928, 53.45045711190519], [49.626818561334815, 53.45054697353566], [49.6266680241519, 53.45054524297092]]]}, "properties": {"zone_id": "kuibyshev-2026-05-05-006", "aoi": "kuibyshev", "date": "2026-05-05", "scene_id": "S2C_MSIL2A_20260505T074611_R135_T39UUV_20260505T110920", "scene_datetime_utc": "2026-05-05T07:46:11.025000+00:00", "detection_status": "detected", "detection_status_ru": "обнаружено", "lon": 49.62675, "lat": 53.45041, "n_pixels": 1, "zone_area_km2": 0.0005, "cover_m2": 8.2, "p_mean": 0.792, "p_max": 0.792, "cover_m2_km2": 16400.0, "h3": "881081c297fffff", "valid_frac_scene": 0.999, "wind_ms": 2.8, "sea": "спокойное", "scene_reliable": true, "field_event_id": "S4:DOORS3:T23", "field_profile": "B", "field_date": "2024-06-10", "field_distance_km": 1372.3, "field_date_gap_days": 694, "field_conc_items_km2": 102.37, "conc_A_items_km2": null, "conc_A_lo80": null, "conc_A_hi80": null, "conc_A_lo95": null, "conc_A_hi95": null, "conc_A_status": "unavailable", "conc_A_status_ru": "концентрация недоступна", "conc_A_reasons": "вне бассейна профиля: nw_atlantic_subtropical", "conc_A_model": "conc-A-c6bce5631d2b", "conc_B_items_km2": null, "conc_B_lo80": null, "conc_B_hi80": null, "conc_B_lo95": null, "conc_B_hi95": null, "conc_B_status": "unavailable", "conc_B_status_ru": "концентрация недоступна", "conc_B_reasons": "вне бассейна профиля: black_sea", "conc_B_model": "conc-B-c6bce5631d2b"}}]}