{"type": "FeatureCollection", "features": [{"type": "Feature", "geometry": {"type": "Polygon", "coordinates": [[[37.914403293223344, 44.65743441480115], [37.91440497283508, 44.657344406293426], [37.91427886609803, 44.65734320740612], [37.91428222568792, 44.6571631903937], [37.91453611778293, 44.657075579498226], [37.914534438389815, 44.65716558801412], [37.914660544752564, 44.657166786615505], [37.91465718633277, 44.65734680365037], [37.914403293223344, 44.65743441480115]]]}, "properties": {"zone_id": "novorossiysk-2026-08-12-001", "aoi": "novorossiysk", "date": "2026-08-12", "scene_id": "S2C_MSIL2A_20260812T081601_R121_T37TCK_20260812T121315", "scene_datetime_utc": "2026-08-12T08:16:01.025000+00:00", "detection_status": "detected", "detection_status_ru": "обнаружено", "lon": 37.91447, "lat": 44.65725, "n_pixels": 2, "zone_area_km2": 0.0008, "cover_m2": 17.3, "p_mean": 0.955, "p_max": 0.996, "cover_m2_km2": 21625.0, "h3": "882d721039fffff", "valid_frac_scene": 1.0, "wind_ms": 3.9, "sea": "спокойное", "scene_reliable": true, "field_event_id": "S4:DOORS3:T13", "field_profile": "B", "field_date": "2024-06-04", "field_distance_km": 256.5, "field_date_gap_days": 799, "field_conc_items_km2": 263.57, "conc_A_items_km2": null, "conc_A_lo80": null, "conc_A_hi80": null, "conc_A_lo95": null, "conc_A_hi95": null, "conc_A_status": "unavailable", "conc_A_status_ru": "концентрация недоступна", "conc_A_reasons": "вне бассейна профиля: nw_atlantic_subtropical", "conc_A_model": "conc-A-c6bce5631d2b", "conc_B_items_km2": 669.0, "conc_B_lo80": 142.9, "conc_B_hi80": 2247.5, "conc_B_lo95": 89.1, "conc_B_hi95": 4208.2, "conc_B_status": "research_estimate", "conc_B_status_ru": "исследовательская оценка", "conc_B_reasons": "ближайшее полевое измерение в 256 км (> 60 км); месяц 8 вне месяцев обучения [6]; log_dist_coast_km = 0.8 вне диапазона обучения [1.7; 5.0]", "conc_B_model": "conc-B-c6bce5631d2b"}}, {"type": "Feature", "geometry": {"type": "Polygon", "coordinates": [[[37.915574584824455, 44.64196131362615], [37.9155762617197, 44.64187130483866], [37.915450188456916, 44.64187010756877], [37.91545354261357, 44.641690089996835], [37.915707365044376, 44.64160247558689], [37.915705688367545, 44.64169248438253], [37.91583176125632, 44.641693681366675], [37.91582840826882, 44.641873698961014], [37.915574584824455, 44.64196131362615]]]}, "properties": {"zone_id": "novorossiysk-2026-08-12-002", "aoi": "novorossiysk", "date": "2026-08-12", "scene_id": "S2C_MSIL2A_20260812T081601_R121_T37TCK_20260812T121315", "scene_datetime_utc": "2026-08-12T08:16:01.025000+00:00", "detection_status": "detected", "detection_status_ru": "обнаружено", "lon": 37.91564, "lat": 44.64178, "n_pixels": 2, "zone_area_km2": 0.0008, "cover_m2": 15.7, "p_mean": 0.925, "p_max": 0.953, "cover_m2_km2": 19625.0, "h3": "882d721023fffff", "valid_frac_scene": 1.0, "wind_ms": 3.9, "sea": "спокойное", "scene_reliable": true, "field_event_id": "S4:DOORS3:T13", "field_profile": "B", "field_date": "2024-06-04", "field_distance_km": 254.8, "field_date_gap_days": 799, "field_conc_items_km2": 263.57, "conc_A_items_km2": null, "conc_A_lo80": null, "conc_A_hi80": null, "conc_A_lo95": null, "conc_A_hi95": null, "conc_A_status": "unavailable", "conc_A_status_ru": "концентрация недоступна", "conc_A_reasons": "вне бассейна профиля: nw_atlantic_subtropical", "conc_A_model": "conc-A-c6bce5631d2b", "conc_B_items_km2": 901.4, "conc_B_lo80": 192.7, "conc_B_hi80": 3027.3, "conc_B_lo95": 120.4, "conc_B_hi95": 5668.0, "conc_B_status": "research_estimate", "conc_B_status_ru": "исследовательская оценка", "conc_B_reasons": "ближайшее полевое измерение в 255 км (> 60 км); месяц 8 вне месяцев обучения [6]; log_dist_coast_km = 0.0 вне диапазона обучения [1.7; 5.0]", "conc_B_model": "conc-B-c6bce5631d2b"}}, {"type": "Feature", "geometry": {"type": "Polygon", "coordinates": [[[37.6576393147854, 44.62310612470013], [37.65764138910827, 44.6230161242113], [37.65751536869814, 44.62301464271802], [37.657517443205904, 44.62292464223231], [37.65764346342144, 44.62292612372097], [37.657645537724896, 44.622836123229135], [37.65789757779593, 44.62283908578015], [37.657895503881655, 44.622929086281225], [37.658021524126326, 44.62293056735283], [37.65801945039694, 44.623020567857026], [37.65789342995768, 44.62301908678079], [37.657891356023995, 44.62310908727888], [37.6576393147854, 44.62310612470013]]]}, "properties": {"zone_id": "novorossiysk-2026-08-12-003", "aoi": "novorossiysk", "date": "2026-08-12", "scene_id": "S2C_MSIL2A_20260812T081601_R121_T37TCK_20260812T121315", "scene_datetime_utc": "2026-08-12T08:16:01.025000+00:00", "detection_status": "detected", "detection_status_ru": "обнаружено", "lon": 37.65777, "lat": 44.62297, "n_pixels": 2, "zone_area_km2": 0.0008, "cover_m2": 15.7, "p_mean": 0.753, "p_max": 0.89, "cover_m2_km2": 19625.0, "h3": "882d72896bfffff", "valid_frac_scene": 1.0, "wind_ms": 3.9, "sea": "спокойное", "scene_reliable": true, "field_event_id": "S4:DOORS3:T12", "field_profile": "B", "field_date": "2024-06-04", "field_distance_km": 248.1, "field_date_gap_days": 799, "field_conc_items_km2": 48.97, "conc_A_items_km2": null, "conc_A_lo80": null, "conc_A_hi80": null, "conc_A_lo95": null, "conc_A_hi95": null, "conc_A_status": "unavailable", "conc_A_status_ru": "концентрация недоступна", "conc_A_reasons": "вне бассейна профиля: nw_atlantic_subtropical", "conc_A_model": "conc-A-c6bce5631d2b", "conc_B_items_km2": 491.0, "conc_B_lo80": 104.6, "conc_B_hi80": 1650.1, "conc_B_lo95": 65.2, "conc_B_hi95": 3089.9, "conc_B_status": "research_estimate", "conc_B_status_ru": "исследовательская оценка", "conc_B_reasons": "ближайшее полевое измерение в 248 км (> 60 км); месяц 8 вне месяцев обучения [6]", "conc_B_model": "conc-B-c6bce5631d2b"}}, {"type": "Feature", "geometry": {"type": "Polygon", "coordinates": [[[37.6582714913046, 44.623023529592466], [37.658273564644794, 44.62293352907903], [37.65814754438071, 44.622932048285435], [37.65814961790579, 44.62284204777511], [37.65827563797529, 44.62284352856408], [37.65827771129607, 44.62275352804764], [37.658529751074994, 44.6227564891993], [37.65852767814339, 44.622846489724985], [37.658653698242006, 44.622847970096906], [37.658651625495295, 44.62293797062571], [37.65852560520209, 44.62293649024917], [37.65852353225109, 44.62302649077184], [37.6582714913046, 44.623023529592466]]]}, "properties": {"zone_id": "novorossiysk-2026-08-12-004", "aoi": "novorossiysk", "date": "2026-08-12", "scene_id": "S2C_MSIL2A_20260812T081601_R121_T37TCK_20260812T121315", "scene_datetime_utc": "2026-08-12T08:16:01.025000+00:00", "detection_status": "detected", "detection_status_ru": "обнаружено", "lon": 37.6584, "lat": 44.62289, "n_pixels": 2, "zone_area_km2": 0.0008, "cover_m2": 17.6, "p_mean": 0.816, "p_max": 0.867, "cover_m2_km2": 22000.0, "h3": "882d72896bfffff", "valid_frac_scene": 1.0, "wind_ms": 3.9, "sea": "спокойное", "scene_reliable": true, "field_event_id": "S4:DOORS3:T12", "field_profile": "B", "field_date": "2024-06-04", "field_distance_km": 248.1, "field_date_gap_days": 799, "field_conc_items_km2": 48.97, "conc_A_items_km2": null, "conc_A_lo80": null, "conc_A_hi80": null, "conc_A_lo95": null, "conc_A_hi95": null, "conc_A_status": "unavailable", "conc_A_status_ru": "концентрация недоступна", "conc_A_reasons": "вне бассейна профиля: nw_atlantic_subtropical", "conc_A_model": "conc-A-c6bce5631d2b", "conc_B_items_km2": 491.0, "conc_B_lo80": 104.6, "conc_B_hi80": 1650.1, "conc_B_lo95": 65.2, "conc_B_hi95": 3089.9, "conc_B_status": "research_estimate", "conc_B_status_ru": "исследовательская оценка", "conc_B_reasons": "ближайшее полевое измерение в 248 км (> 60 км); месяц 8 вне месяцев обучения [6]", "conc_B_model": "conc-B-c6bce5631d2b"}}, {"type": "Feature", "geometry": {"type": "Polygon", "coordinates": [[[37.90957978967837, 44.618677808507904], [37.90958147447484, 44.61858779953105], [37.90945545185656, 44.61858659613431], [37.90945882181508, 44.618406578183674], [37.90971255085923, 44.61831897583807], [37.909710866281046, 44.61840898482311], [37.90983688852585, 44.61841018793429], [37.90983351973506, 44.618590205907445], [37.90957978967837, 44.618677808507904]]]}, "properties": {"zone_id": "novorossiysk-2026-08-12-005", "aoi": "novorossiysk", "date": "2026-08-12", "scene_id": "S2C_MSIL2A_20260812T081601_R121_T37TCK_20260812T121315", "scene_datetime_utc": "2026-08-12T08:16:01.025000+00:00", "detection_status": "detected", "detection_status_ru": "обнаружено", "lon": 37.90965, "lat": 44.6185, "n_pixels": 2, "zone_area_km2": 0.0008, "cover_m2": 17.3, "p_mean": 0.671, "p_max": 0.678, "cover_m2_km2": 21625.0, "h3": "882d721119fffff", "valid_frac_scene": 1.0, "wind_ms": 3.9, "sea": "спокойное", "scene_reliable": true, "field_event_id": "S4:DOORS3:T13", "field_profile": "B", "field_date": "2024-06-04", "field_distance_km": 252.2, "field_date_gap_days": 799, "field_conc_items_km2": 263.57, "conc_A_items_km2": null, "conc_A_lo80": null, "conc_A_hi80": null, "conc_A_lo95": null, "conc_A_hi95": null, "conc_A_status": "unavailable", "conc_A_status_ru": "концентрация недоступна", "conc_A_reasons": "вне бассейна профиля: nw_atlantic_subtropical", "conc_A_model": "conc-A-c6bce5631d2b", "conc_B_items_km2": 669.0, "conc_B_lo80": 142.9, "conc_B_hi80": 2247.5, "conc_B_lo95": 89.1, "conc_B_hi95": 4208.2, "conc_B_status": "research_estimate", "conc_B_status_ru": "исследовательская оценка", "conc_B_reasons": "ближайшее полевое измерение в 252 км (> 60 км); месяц 8 вне месяцев обучения [6]; log_dist_coast_km = 0.8 вне диапазона обучения [1.7; 5.0]", "conc_B_model": "conc-B-c6bce5631d2b"}}]}