{"type": "FeatureCollection", "features": [{"type": "Feature", "geometry": {"type": "Polygon", "coordinates": [[[36.56105586959038, 45.15407268771087], [36.56105970802344, 45.15398275255666], [36.56093260332545, 45.15398003654204], [36.560936441939994, 45.153890101394595], [36.56119448915232, 45.15380559809951], [36.56119065095495, 45.15389553326557], [36.561317755489526, 45.15389824898905], [36.56131391747364, 45.153988184161896], [36.56118681273951, 45.15398546842993], [36.561182974506, 45.15407540359264], [36.56105586959038, 45.15407268771087]]]}, "properties": {"zone_id": "kerch-2025-06-21-001", "aoi": "kerch", "date": "2025-06-21", "scene_id": "S2C_MSIL2A_20250621T082621_R021_T37TCK_20250621T124616", "scene_datetime_utc": "2025-06-21T08:26:21.024000+00:00", "detection_status": "detected", "detection_status_ru": "обнаружено", "lon": 36.56113, "lat": 45.15394, "n_pixels": 1, "zone_area_km2": 0.0005, "cover_m2": 12.5, "p_mean": 0.796, "p_max": 0.796, "cover_m2_km2": 25000.0, "h3": "882d76aa43fffff", "valid_frac_scene": 0.967, "wind_ms": 4.1, "sea": "спокойное", "scene_reliable": true, "field_event_id": "S4:DOORS3:T11", "field_profile": "B", "field_date": "2024-06-04", "field_distance_km": 296.1, "field_date_gap_days": 382, "field_conc_items_km2": 62.52, "conc_A_items_km2": null, "conc_A_lo80": null, "conc_A_hi80": null, "conc_A_lo95": null, "conc_A_hi95": null, "conc_A_status": "unavailable", "conc_A_status_ru": "концентрация недоступна", "conc_A_reasons": "вне бассейна профиля: nw_atlantic_subtropical", "conc_A_model": "conc-A-c6bce5631d2b", "conc_B_items_km2": 462.9, "conc_B_lo80": 98.6, "conc_B_hi80": 1555.8, "conc_B_lo95": 61.4, "conc_B_hi95": 2913.3, "conc_B_status": "research_estimate", "conc_B_status_ru": "исследовательская оценка", "conc_B_reasons": "ближайшее полевое измерение в 296 км (> 60 км)", "conc_B_model": "conc-B-c6bce5631d2b"}}, {"type": "Feature", "geometry": {"type": "Polygon", "coordinates": [[[36.88066778551496, 45.09825209306335], [36.880671114702906, 45.098162137024275], [36.8805441056649, 45.09815977901251], [36.880547435036334, 45.09806982297918], [36.88080478168716, 45.097984582797146], [36.8808014527297, 45.09807453884681], [36.88092846159987, 45.09807689656892], [36.880925132825894, 45.09816685262432], [36.88079812375657, 45.09816449489487], [36.88079479476777, 45.098254450941305], [36.88066778551496, 45.09825209306335]]]}, "properties": {"zone_id": "kerch-2025-06-21-002", "aoi": "kerch", "date": "2025-06-21", "scene_id": "S2C_MSIL2A_20250621T082621_R021_T37TCK_20250621T124616", "scene_datetime_utc": "2025-06-21T08:26:21.024000+00:00", "detection_status": "detected", "detection_status_ru": "обнаружено", "lon": 36.88074, "lat": 45.09812, "n_pixels": 1, "zone_area_km2": 0.0005, "cover_m2": 2.0, "p_mean": 0.549, "p_max": 0.549, "cover_m2_km2": 4000.0, "h3": "882d763019fffff", "valid_frac_scene": 0.967, "wind_ms": 4.1, "sea": "спокойное", "scene_reliable": true, "field_event_id": "S4:DOORS3:T11", "field_profile": "B", "field_date": "2024-06-04", "field_distance_km": 290.2, "field_date_gap_days": 382, "field_conc_items_km2": 62.52, "conc_A_items_km2": null, "conc_A_lo80": null, "conc_A_hi80": null, "conc_A_lo95": null, "conc_A_hi95": null, "conc_A_status": "unavailable", "conc_A_status_ru": "концентрация недоступна", "conc_A_reasons": "вне бассейна профиля: nw_atlantic_subtropical", "conc_A_model": "conc-A-c6bce5631d2b", "conc_B_items_km2": 621.6, "conc_B_lo80": 132.7, "conc_B_hi80": 2088.3, "conc_B_lo95": 82.8, "conc_B_hi95": 3910.2, "conc_B_status": "research_estimate", "conc_B_status_ru": "исследовательская оценка", "conc_B_reasons": "ближайшее полевое измерение в 290 км (> 60 км); log_dist_coast_km = 1.0 вне диапазона обучения [1.7; 5.0]", "conc_B_model": "conc-B-c6bce5631d2b"}}, {"type": "Feature", "geometry": {"type": "MultiPolygon", "coordinates": [[[[36.56318739003726, 45.05626885844491], [36.563183567987586, 45.05635879528599], [36.56331045644953, 45.056361504239675], [36.563314278300666, 45.05627156739015], [36.56344116658205, 45.056274276194536], [36.56344498821667, 45.05618433933489], [36.563195034082696, 45.05608898475772], [36.56319121206896, 45.056178921602154], [36.56306432402206, 45.056176212524505], [36.56306050179182, 45.05626614935883], [36.56318739003726, 45.05626885844491]]], [[[36.56293361356435, 45.056263440131865], [36.56292979111759, 45.056353376956054], [36.56280290270956, 45.05635066757982], [36.5627990800463, 45.05644060439387], [36.56304903499327, 45.05653595985167], [36.56305285727742, 45.0564460230224], [36.56317974591994, 45.05644873212538], [36.563183567987586, 45.05635879528599], [36.56293361356435, 45.056263440131865]]]]}, "properties": {"zone_id": "kerch-2025-06-21-003", "aoi": "kerch", "date": "2025-06-21", "scene_id": "S2C_MSIL2A_20250621T082621_R021_T37TCK_20250621T124616", "scene_datetime_utc": "2025-06-21T08:26:21.024000+00:00", "detection_status": "detected", "detection_status_ru": "обнаружено", "lon": 36.56312, "lat": 45.05631, "n_pixels": 2, "zone_area_km2": 0.001, "cover_m2": 13.3, "p_mean": 0.576, "p_max": 0.592, "cover_m2_km2": 13300.0, "h3": "882d7616b3fffff", "valid_frac_scene": 0.967, "wind_ms": 4.1, "sea": "спокойное", "scene_reliable": true, "field_event_id": "S4:DOORS3:T11", "field_profile": "B", "field_date": "2024-06-04", "field_distance_km": 285.2, "field_date_gap_days": 382, "field_conc_items_km2": 62.52, "conc_A_items_km2": null, "conc_A_lo80": null, "conc_A_hi80": null, "conc_A_lo95": null, "conc_A_hi95": null, "conc_A_status": "unavailable", "conc_A_status_ru": "концентрация недоступна", "conc_A_reasons": "вне бассейна профиля: nw_atlantic_subtropical", "conc_A_model": "conc-A-c6bce5631d2b", "conc_B_items_km2": 403.1, "conc_B_lo80": 85.8, "conc_B_hi80": 1354.9, "conc_B_lo95": 53.4, "conc_B_hi95": 2537.3, "conc_B_status": "research_estimate", "conc_B_status_ru": "исследовательская оценка", "conc_B_reasons": "ближайшее полевое измерение в 285 км (> 60 км)", "conc_B_model": "conc-B-c6bce5631d2b"}}, {"type": "Feature", "geometry": {"type": "Polygon", "coordinates": [[[36.97471253495745, 45.0445080706554], [36.9747157105233, 45.04441810841462], [36.974588812913034, 45.04441585707771], [36.974591988662596, 45.044325894842366], [36.97471888607421, 45.044328146172255], [36.974722061610194, 45.04423818392829], [36.9748489588381, 45.044240435110254], [36.97485213416052, 45.044150472857666], [36.975102753338724, 45.04424493705144], [36.975099578398655, 45.04433489931646], [36.97522647587, 45.0443371500827], [36.97522330111364, 45.044427112353155], [36.975096403443665, 45.044424861579884], [36.97509322847373, 45.04451482384172], [36.97471253495745, 45.0445080706554]]]}, "properties": {"zone_id": "kerch-2025-06-21-004", "aoi": "kerch", "date": "2025-06-21", "scene_id": "S2C_MSIL2A_20250621T082621_R021_T37TCK_20250621T124616", "scene_datetime_utc": "2025-06-21T08:26:21.024000+00:00", "detection_status": "detected", "detection_status_ru": "обнаружено", "lon": 36.97491, "lat": 45.04435, "n_pixels": 4, "zone_area_km2": 0.0012, "cover_m2": 2.0, "p_mean": 0.739, "p_max": 0.969, "cover_m2_km2": 1666.7, "h3": "882d7631b1fffff", "valid_frac_scene": 0.967, "wind_ms": 4.1, "sea": "спокойное", "scene_reliable": true, "field_event_id": "S4:DOORS3:T11", "field_profile": "B", "field_date": "2024-06-04", "field_distance_km": 284.7, "field_date_gap_days": 382, "field_conc_items_km2": 62.52, "conc_A_items_km2": null, "conc_A_lo80": null, "conc_A_hi80": null, "conc_A_lo95": null, "conc_A_hi95": null, "conc_A_status": "unavailable", "conc_A_status_ru": "концентрация недоступна", "conc_A_reasons": "вне бассейна профиля: nw_atlantic_subtropical", "conc_A_model": "conc-A-c6bce5631d2b", "conc_B_items_km2": 512.0, "conc_B_lo80": 109.1, "conc_B_hi80": 1720.6, "conc_B_lo95": 68.0, "conc_B_hi95": 3221.9, "conc_B_status": "research_estimate", "conc_B_status_ru": "исследовательская оценка", "conc_B_reasons": "ближайшее полевое измерение в 285 км (> 60 км)", "conc_B_model": "conc-B-c6bce5631d2b"}}, {"type": "Feature", "geometry": {"type": "Polygon", "coordinates": [[[37.05928414906133, 45.03310442421496], [37.059287190864964, 45.03301445718837], [37.05916031196287, 45.03301230024734], [37.05916335395075, 45.03292233322589], [37.05929023265429, 45.03292449016019], [37.05929327442931, 45.032834523130425], [37.059547031482154, 45.03283883656292], [37.05954399010425, 45.03292880360615], [37.05967086885069, 45.03293096011782], [37.05966782765704, 45.03302092716618], [37.05954094871204, 45.033018770647786], [37.05953790730554, 45.03310873768783], [37.05928414906133, 45.03310442421496]]]}, "properties": {"zone_id": "kerch-2025-06-21-005", "aoi": "kerch", "date": "2025-06-21", "scene_id": "S2C_MSIL2A_20250621T082621_R021_T37TCK_20250621T124616", "scene_datetime_utc": "2025-06-21T08:26:21.024000+00:00", "detection_status": "detected", "detection_status_ru": "обнаружено", "lon": 37.05942, "lat": 45.03297, "n_pixels": 2, "zone_area_km2": 0.0008, "cover_m2": 9.4, "p_mean": 0.59, "p_max": 0.616, "cover_m2_km2": 11750.0, "h3": "882d762069fffff", "valid_frac_scene": 0.967, "wind_ms": 4.1, "sea": "спокойное", "scene_reliable": true, "field_event_id": "S4:DOORS3:T11", "field_profile": "B", "field_date": "2024-06-04", "field_distance_km": 284.1, "field_date_gap_days": 382, "field_conc_items_km2": 62.52, "conc_A_items_km2": null, "conc_A_lo80": null, "conc_A_hi80": null, "conc_A_lo95": null, "conc_A_hi95": null, "conc_A_status": "unavailable", "conc_A_status_ru": "концентрация недоступна", "conc_A_reasons": "вне бассейна профиля: nw_atlantic_subtropical", "conc_A_model": "conc-A-c6bce5631d2b", "conc_B_items_km2": 541.7, "conc_B_lo80": 115.5, "conc_B_hi80": 1820.1, "conc_B_lo95": 72.0, "conc_B_hi95": 3408.1, "conc_B_status": "research_estimate", "conc_B_status_ru": "исследовательская оценка", "conc_B_reasons": "ближайшее полевое измерение в 284 км (> 60 км)", "conc_B_model": "conc-B-c6bce5631d2b"}}, {"type": "Feature", "geometry": {"type": "Polygon", "coordinates": [[[37.01750233830802, 45.02617520750599], [37.01750544482291, 45.02608524262058], [37.01737858440267, 45.026083039525886], [37.01738169110142, 45.02599307464577], [37.01763851784678, 45.025907515785114], [37.01763541155957, 45.02599748068059], [37.017762271810554, 45.02599968348674], [37.0177591657072, 45.02608964838747], [37.017632305257756, 45.02608744557444], [37.01762919894133, 45.02617741046674], [37.01750233830802, 45.02617520750599]]]}, "properties": {"zone_id": "kerch-2025-06-21-006", "aoi": "kerch", "date": "2025-06-21", "scene_id": "S2C_MSIL2A_20250621T082621_R021_T37TCK_20250621T124616", "scene_datetime_utc": "2025-06-21T08:26:21.024000+00:00", "detection_status": "detected", "detection_status_ru": "обнаружено", "lon": 37.01757, "lat": 45.02604, "n_pixels": 1, "zone_area_km2": 0.0005, "cover_m2": 4.7, "p_mean": 0.925, "p_max": 0.925, "cover_m2_km2": 9400.0, "h3": "882d76230bfffff", "valid_frac_scene": 0.967, "wind_ms": 4.1, "sea": "спокойное", "scene_reliable": true, "field_event_id": "S4:DOORS3:T11", "field_profile": "B", "field_date": "2024-06-04", "field_distance_km": 283.0, "field_date_gap_days": 382, "field_conc_items_km2": 62.52, "conc_A_items_km2": null, "conc_A_lo80": null, "conc_A_hi80": null, "conc_A_lo95": null, "conc_A_hi95": null, "conc_A_status": "unavailable", "conc_A_status_ru": "концентрация недоступна", "conc_A_reasons": "вне бассейна профиля: nw_atlantic_subtropical", "conc_A_model": "conc-A-c6bce5631d2b", "conc_B_items_km2": 512.0, "conc_B_lo80": 109.1, "conc_B_hi80": 1720.6, "conc_B_lo95": 68.0, "conc_B_hi95": 3221.9, "conc_B_status": "research_estimate", "conc_B_status_ru": "исследовательская оценка", "conc_B_reasons": "ближайшее полевое измерение в 283 км (> 60 км)", "conc_B_model": "conc-B-c6bce5631d2b"}}, {"type": "Feature", "geometry": {"type": "Polygon", "coordinates": [[[36.6190465291238, 45.010908063235235], [36.6190502576952, 45.010818121980634], [36.61892346463716, 45.01081547703696], [36.61892719338913, 45.01072553578894], [36.61918450746479, 45.01064088425299], [36.61918077912653, 45.01073082551917], [36.61930757202151, 45.01073347017331], [36.61930384386384, 45.01082341144606], [36.61917705077076, 45.010820766783674], [36.619173322397465, 45.01091070804652], [36.6190465291238, 45.010908063235235]]]}, "properties": {"zone_id": "kerch-2025-06-21-007", "aoi": "kerch", "date": "2025-06-21", "scene_id": "S2C_MSIL2A_20250621T082621_R021_T37TCK_20250621T124616", "scene_datetime_utc": "2025-06-21T08:26:21.024000+00:00", "detection_status": "detected", "detection_status_ru": "обнаружено", "lon": 36.61912, "lat": 45.01077, "n_pixels": 1, "zone_area_km2": 0.0005, "cover_m2": 6.3, "p_mean": 0.922, "p_max": 0.922, "cover_m2_km2": 12600.0, "h3": "882d7614b5fffff", "valid_frac_scene": 0.967, "wind_ms": 4.1, "sea": "спокойное", "scene_reliable": true, "field_event_id": "S4:DOORS3:T11", "field_profile": "B", "field_date": "2024-06-04", "field_distance_km": 280.0, "field_date_gap_days": 382, "field_conc_items_km2": 62.52, "conc_A_items_km2": null, "conc_A_lo80": null, "conc_A_hi80": null, "conc_A_lo95": null, "conc_A_hi95": null, "conc_A_status": "unavailable", "conc_A_status_ru": "концентрация недоступна", "conc_A_reasons": "вне бассейна профиля: nw_atlantic_subtropical", "conc_A_model": "conc-A-c6bce5631d2b", "conc_B_items_km2": 348.8, "conc_B_lo80": 74.1, "conc_B_hi80": 1172.9, "conc_B_lo95": 46.1, "conc_B_hi95": 2196.5, "conc_B_status": "research_estimate", "conc_B_status_ru": "исследовательская оценка", "conc_B_reasons": "ближайшее полевое измерение в 280 км (> 60 км)", "conc_B_model": "conc-B-c6bce5631d2b"}}, {"type": "Feature", "geometry": {"type": "Polygon", "coordinates": [[[36.619911649125825, 45.00840557284966], [36.6199153760182, 45.00831563149895], [36.619788588401505, 45.00831298763002], [36.619792315474434, 45.0082230462859], [36.62004961698846, 45.008138392504385], [36.62004589032919, 45.008228333866654], [36.62017267778283, 45.00823097744607], [36.62016895130412, 45.00832091881493], [36.62004216365241, 45.00831827522727], [36.62003843695811, 45.00840821658621], [36.619911649125825, 45.00840557284966]]]}, "properties": {"zone_id": "kerch-2025-06-21-008", "aoi": "kerch", "date": "2025-06-21", "scene_id": "S2C_MSIL2A_20250621T082621_R021_T37TCK_20250621T124616", "scene_datetime_utc": "2025-06-21T08:26:21.024000+00:00", "detection_status": "detected", "detection_status_ru": "обнаружено", "lon": 36.61998, "lat": 45.00827, "n_pixels": 1, "zone_area_km2": 0.0005, "cover_m2": 5.1, "p_mean": 0.557, "p_max": 0.557, "cover_m2_km2": 10200.0, "h3": "882d760649fffff", "valid_frac_scene": 0.967, "wind_ms": 4.1, "sea": "спокойное", "scene_reliable": true, "field_event_id": "S4:DOORS3:T11", "field_profile": "B", "field_date": "2024-06-04", "field_distance_km": 279.7, "field_date_gap_days": 382, "field_conc_items_km2": 62.52, "conc_A_items_km2": null, "conc_A_lo80": null, "conc_A_hi80": null, "conc_A_lo95": null, "conc_A_hi95": null, "conc_A_status": "unavailable", "conc_A_status_ru": "концентрация недоступна", "conc_A_reasons": "вне бассейна профиля: nw_atlantic_subtropical", "conc_A_model": "conc-A-c6bce5631d2b", "conc_B_items_km2": 348.8, "conc_B_lo80": 74.1, "conc_B_hi80": 1172.9, "conc_B_lo95": 46.1, "conc_B_hi95": 2196.5, "conc_B_status": "research_estimate", "conc_B_status_ru": "исследовательская оценка", "conc_B_reasons": "ближайшее полевое измерение в 280 км (> 60 км)", "conc_B_model": "conc-B-c6bce5631d2b"}}, {"type": "Feature", "geometry": {"type": "Polygon", "coordinates": [[[37.23028622519523, 44.97962127195251], [37.23028899390061, 44.97953129536761], [37.23016222073214, 44.979529330228], [37.230164989622594, 44.97943935364769], [37.23042130405765, 44.97935330717984], [37.230418535576376, 44.97944328377398], [37.23054530857278, 44.97944524862614], [37.23054254027658, 44.97953522522484], [37.230415767082086, 44.97953326036655], [37.23041299857479, 44.979623236957586], [37.23028622519523, 44.97962127195251]]]}, "properties": {"zone_id": "kerch-2025-06-21-009", "aoi": "kerch", "date": "2025-06-21", "scene_id": "S2C_MSIL2A_20250621T082621_R021_T37TCK_20250621T124616", "scene_datetime_utc": "2025-06-21T08:26:21.024000+00:00", "detection_status": "detected", "detection_status_ru": "обнаружено", "lon": 37.23035, "lat": 44.97949, "n_pixels": 1, "zone_area_km2": 0.0005, "cover_m2": 3.9, "p_mean": 0.525, "p_max": 0.525, "cover_m2_km2": 7800.0, "h3": "882d762f0dfffff", "valid_frac_scene": 0.967, "wind_ms": 4.1, "sea": "спокойное", "scene_reliable": true, "field_event_id": "S4:DOORS3:T11", "field_profile": "B", "field_date": "2024-06-04", "field_distance_km": 280.0, "field_date_gap_days": 382, "field_conc_items_km2": 62.52, "conc_A_items_km2": null, "conc_A_lo80": null, "conc_A_hi80": null, "conc_A_lo95": null, "conc_A_hi95": null, "conc_A_status": "unavailable", "conc_A_status_ru": "концентрация недоступна", "conc_A_reasons": "вне бассейна профиля: nw_atlantic_subtropical", "conc_A_model": "conc-A-c6bce5631d2b", "conc_B_items_km2": 669.7, "conc_B_lo80": 143.0, "conc_B_hi80": 2249.8, "conc_B_lo95": 89.2, "conc_B_hi95": 4212.4, "conc_B_status": "research_estimate", "conc_B_status_ru": "исследовательская оценка", "conc_B_reasons": "ближайшее полевое измерение в 280 км (> 60 км); log_dist_coast_km = 0.8 вне диапазона обучения [1.7; 5.0]", "conc_B_model": "conc-B-c6bce5631d2b"}}, {"type": "Feature", "geometry": {"type": "Polygon", "coordinates": [[[37.247956495820134, 44.97413255456335], [37.24795923636487, 44.97404257703711], [37.24783247408568, 44.97404063169689], [37.247837955532596, 44.97386067665189], [37.24809421961979, 44.97377458963044], [37.24809147931171, 44.97386456716742], [37.24821824122059, 44.97386651221424], [37.24821276096188, 44.97404646729565], [37.247956495820134, 44.97413255456335]]]}, "properties": {"zone_id": "kerch-2025-06-21-010", "aoi": "kerch", "date": "2025-06-21", "scene_id": "S2C_MSIL2A_20250621T082621_R021_T37TCK_20250621T124616", "scene_datetime_utc": "2025-06-21T08:26:21.024000+00:00", "detection_status": "detected", "detection_status_ru": "обнаружено", "lon": 37.24803, "lat": 44.97395, "n_pixels": 2, "zone_area_km2": 0.0008, "cover_m2": 9.8, "p_mean": 0.614, "p_max": 0.616, "cover_m2_km2": 12250.0, "h3": "882d762f2bfffff", "valid_frac_scene": 0.967, "wind_ms": 4.1, "sea": "спокойное", "scene_reliable": true, "field_event_id": "S4:DOORS3:T11", "field_profile": "B", "field_date": "2024-06-04", "field_distance_km": 279.7, "field_date_gap_days": 382, "field_conc_items_km2": 62.52, "conc_A_items_km2": null, "conc_A_lo80": null, "conc_A_hi80": null, "conc_A_lo95": null, "conc_A_hi95": null, "conc_A_status": "unavailable", "conc_A_status_ru": "концентрация недоступна", "conc_A_reasons": "вне бассейна профиля: nw_atlantic_subtropical", "conc_A_model": "conc-A-c6bce5631d2b", "conc_B_items_km2": 901.4, "conc_B_lo80": 192.7, "conc_B_hi80": 3027.3, "conc_B_lo95": 120.4, "conc_B_hi95": 5668.0, "conc_B_status": "research_estimate", "conc_B_status_ru": "исследовательская оценка", "conc_B_reasons": "ближайшее полевое измерение в 280 км (> 60 км); log_dist_coast_km = 0.0 вне диапазона обучения [1.7; 5.0]", "conc_B_model": "conc-B-c6bce5631d2b"}}, {"type": "Feature", "geometry": {"type": "Polygon", "coordinates": [[[36.679548147456174, 44.920514085192885], [36.67955176990545, 44.920424138603984], [36.67942517032142, 44.92042156485897], [36.679428792950894, 44.92033161827645], [36.679685613959606, 44.92024681900997], [36.67968199174154, 44.92033676561021], [36.67980859116238, 44.92033933906674], [36.67980496912451, 44.92042928567334], [36.679678369506476, 44.92042671220878], [36.6796747472544, 44.920516658805695], [36.679548147456174, 44.920514085192885]]]}, "properties": {"zone_id": "kerch-2025-06-21-011", "aoi": "kerch", "date": "2025-06-21", "scene_id": "S2C_MSIL2A_20250621T082621_R021_T37TCK_20250621T124616", "scene_datetime_utc": "2025-06-21T08:26:21.024000+00:00", "detection_status": "detected", "detection_status_ru": "обнаружено", "lon": 36.67962, "lat": 44.92038, "n_pixels": 1, "zone_area_km2": 0.0005, "cover_m2": 0.0, "p_mean": 0.745, "p_max": 0.745, "cover_m2_km2": 0.0, "h3": "882d760721fffff", "valid_frac_scene": 0.967, "wind_ms": 4.1, "sea": "спокойное", "scene_reliable": true, "field_event_id": "S4:DOORS3:T11", "field_profile": "B", "field_date": "2024-06-04", "field_distance_km": 269.9, "field_date_gap_days": 382, "field_conc_items_km2": 62.52, "conc_A_items_km2": null, "conc_A_lo80": null, "conc_A_hi80": null, "conc_A_lo95": null, "conc_A_hi95": null, "conc_A_status": "unavailable", "conc_A_status_ru": "концентрация недоступна", "conc_A_reasons": "вне бассейна профиля: nw_atlantic_subtropical", "conc_A_model": "conc-A-c6bce5631d2b", "conc_B_items_km2": 293.9, "conc_B_lo80": 62.3, "conc_B_hi80": 988.6, "conc_B_lo95": 38.7, "conc_B_hi95": 1851.5, "conc_B_status": "research_estimate", "conc_B_status_ru": "исследовательская оценка", "conc_B_reasons": "ближайшее полевое измерение в 270 км (> 60 км)", "conc_B_model": "conc-B-c6bce5631d2b"}}, {"type": "Feature", "geometry": {"type": "Polygon", "coordinates": [[[37.29276998892274, 44.908466674165986], [37.292772653287265, 44.90837669347232], [37.29264603242517, 44.908374800027], [37.29265402603579, 44.90810485795442], [37.29290993070535, 44.90801866396354], [37.292907266588244, 44.908108644669305], [37.29303388688324, 44.90811053781626], [37.29302589504898, 44.908380479942], [37.29276998892274, 44.908466674165986]]]}, "properties": {"zone_id": "kerch-2025-06-21-012", "aoi": "kerch", "date": "2025-06-21", "scene_id": "S2C_MSIL2A_20250621T082621_R021_T37TCK_20250621T124616", "scene_datetime_utc": "2025-06-21T08:26:21.024000+00:00", "detection_status": "detected", "detection_status_ru": "обнаружено", "lon": 37.29284, "lat": 44.90824, "n_pixels": 3, "zone_area_km2": 0.0011, "cover_m2": 38.4, "p_mean": 0.967, "p_max": 0.969, "cover_m2_km2": 34909.1, "h3": "882d729243fffff", "valid_frac_scene": 0.967, "wind_ms": 4.1, "sea": "спокойное", "scene_reliable": true, "field_event_id": "S4:DOORS3:T11", "field_profile": "B", "field_date": "2024-06-04", "field_distance_km": 273.1, "field_date_gap_days": 382, "field_conc_items_km2": 62.52, "conc_A_items_km2": null, "conc_A_lo80": null, "conc_A_hi80": null, "conc_A_lo95": null, "conc_A_hi95": null, "conc_A_status": "unavailable", "conc_A_status_ru": "концентрация недоступна", "conc_A_reasons": "вне бассейна профиля: nw_atlantic_subtropical", "conc_A_model": "conc-A-c6bce5631d2b", "conc_B_items_km2": 571.1, "conc_B_lo80": 121.8, "conc_B_hi80": 1918.8, "conc_B_lo95": 76.0, "conc_B_hi95": 3592.8, "conc_B_status": "research_estimate", "conc_B_status_ru": "исследовательская оценка", "conc_B_reasons": "ближайшее полевое измерение в 273 км (> 60 км); log_dist_coast_km = 1.3 вне диапазона обучения [1.7; 5.0]", "conc_B_model": "conc-B-c6bce5631d2b"}}, {"type": "Feature", "geometry": {"type": "Polygon", "coordinates": [[[37.30879032585903, 44.906454589951075], [37.30879296504384, 44.906364608477936], [37.30866634754691, 44.906362732859975], [37.30866898691669, 44.906272751391136], [37.308924860490876, 44.906186520992996], [37.30892222152821, 44.90627650247507], [37.30904883885257, 44.90627837780656], [37.30904620007487, 44.906368359292934], [37.30891958255316, 44.9063664839556], [37.30891694356571, 44.90645646543458], [37.30879032585903, 44.906454589951075]]]}, "properties": {"zone_id": "kerch-2025-06-21-013", "aoi": "kerch", "date": "2025-06-21", "scene_id": "S2C_MSIL2A_20250621T082621_R021_T37TCK_20250621T124616", "scene_datetime_utc": "2025-06-21T08:26:21.024000+00:00", "detection_status": "detected", "detection_status_ru": "обнаружено", "lon": 37.30886, "lat": 44.90632, "n_pixels": 1, "zone_area_km2": 0.0005, "cover_m2": 6.3, "p_mean": 0.62, "p_max": 0.62, "cover_m2_km2": 12600.0, "h3": "882d72920bfffff", "valid_frac_scene": 0.967, "wind_ms": 4.1, "sea": "спокойное", "scene_reliable": true, "field_event_id": "S4:DOORS3:T11", "field_profile": "B", "field_date": "2024-06-04", "field_distance_km": 273.1, "field_date_gap_days": 382, "field_conc_items_km2": 62.52, "conc_A_items_km2": null, "conc_A_lo80": null, "conc_A_hi80": null, "conc_A_lo95": null, "conc_A_hi95": null, "conc_A_status": "unavailable", "conc_A_status_ru": "концентрация недоступна", "conc_A_reasons": "вне бассейна профиля: nw_atlantic_subtropical", "conc_A_model": "conc-A-c6bce5631d2b", "conc_B_items_km2": 669.7, "conc_B_lo80": 143.0, "conc_B_hi80": 2249.8, "conc_B_lo95": 89.2, "conc_B_hi95": 4212.4, "conc_B_status": "research_estimate", "conc_B_status_ru": "исследовательская оценка", "conc_B_reasons": "ближайшее полевое измерение в 273 км (> 60 км); log_dist_coast_km = 0.8 вне диапазона обучения [1.7; 5.0]", "conc_B_model": "conc-B-c6bce5631d2b"}}, {"type": "Feature", "geometry": {"type": "Polygon", "coordinates": [[[37.3070995738824, 44.90363889460346], [37.3071022154457, 44.90354891316437], [37.30697560424009, 44.903547035763545], [37.30697824598832, 44.90345705432876], [37.30710485699661, 44.903458931723726], [37.30710749853511, 44.903368950281525], [37.30736072019424, 44.90337270463885], [37.307358079050395, 44.90346268609275], [37.30748469009589, 44.90346456306683], [37.30748204913698, 44.90355454452503], [37.30735543789415, 44.90355266754513], [37.30735279672551, 44.903642648995934], [37.3070995738824, 44.90363889460346]]]}, "properties": {"zone_id": "kerch-2025-06-21-014", "aoi": "kerch", "date": "2025-06-21", "scene_id": "S2C_MSIL2A_20250621T082621_R021_T37TCK_20250621T124616", "scene_datetime_utc": "2025-06-21T08:26:21.024000+00:00", "detection_status": "detected", "detection_status_ru": "обнаружено", "lon": 37.30723, "lat": 44.90351, "n_pixels": 2, "zone_area_km2": 0.0008, "cover_m2": 7.1, "p_mean": 0.982, "p_max": 0.996, "cover_m2_km2": 8875.0, "h3": "882d729209fffff", "valid_frac_scene": 0.967, "wind_ms": 4.1, "sea": "спокойное", "scene_reliable": true, "field_event_id": "S4:DOORS3:T11", "field_profile": "B", "field_date": "2024-06-04", "field_distance_km": 272.8, "field_date_gap_days": 382, "field_conc_items_km2": 62.52, "conc_A_items_km2": null, "conc_A_lo80": null, "conc_A_hi80": null, "conc_A_lo95": null, "conc_A_hi95": null, "conc_A_status": "unavailable", "conc_A_status_ru": "концентрация недоступна", "conc_A_reasons": "вне бассейна профиля: nw_atlantic_subtropical", "conc_A_model": "conc-A-c6bce5631d2b", "conc_B_items_km2": 669.7, "conc_B_lo80": 143.0, "conc_B_hi80": 2249.8, "conc_B_lo95": 89.2, "conc_B_hi95": 4212.4, "conc_B_status": "research_estimate", "conc_B_status_ru": "исследовательская оценка", "conc_B_reasons": "ближайшее полевое измерение в 273 км (> 60 км); log_dist_coast_km = 0.8 вне диапазона обучения [1.7; 5.0]", "conc_B_model": "conc-B-c6bce5631d2b"}}, {"type": "Feature", "geometry": {"type": "Polygon", "coordinates": [[[36.74066680536034, 44.880510812386404], [36.7406703275339, 44.880420861321795], [36.74054381030089, 44.88041835706722], [36.74055085499207, 44.8802384549487], [36.74067737183143, 44.88024095918766], [36.74068089395541, 44.88015100811813], [36.74093392729007, 44.88015601616028], [36.74093040555974, 44.880245967245436], [36.741056922448685, 44.88024847106424], [36.741049879332095, 44.88042837324524], [36.7409233620495, 44.8804258694108], [36.74091984026959, 44.88051582049103], [36.74066680536034, 44.880510812386404]]]}, "properties": {"zone_id": "kerch-2025-06-21-015", "aoi": "kerch", "date": "2025-06-21", "scene_id": "S2C_MSIL2A_20250621T082621_R021_T37TCK_20250621T124616", "scene_datetime_utc": "2025-06-21T08:26:21.024000+00:00", "detection_status": "detected", "detection_status_ru": "обнаружено", "lon": 36.7408, "lat": 44.88033, "n_pixels": 4, "zone_area_km2": 0.0012, "cover_m2": 50.2, "p_mean": 0.901, "p_max": 0.984, "cover_m2_km2": 41833.3, "h3": "882d760e53fffff", "valid_frac_scene": 0.967, "wind_ms": 4.1, "sea": "спокойное", "scene_reliable": true, "field_event_id": "S4:DOORS3:T11", "field_profile": "B", "field_date": "2024-06-04", "field_distance_km": 265.5, "field_date_gap_days": 382, "field_conc_items_km2": 62.52, "conc_A_items_km2": null, "conc_A_lo80": null, "conc_A_hi80": null, "conc_A_lo95": null, "conc_A_hi95": null, "conc_A_status": "unavailable", "conc_A_status_ru": "концентрация недоступна", "conc_A_reasons": "вне бассейна профиля: nw_atlantic_subtropical", "conc_A_model": "conc-A-c6bce5631d2b", "conc_B_items_km2": 280.3, "conc_B_lo80": 59.4, "conc_B_hi80": 943.0, "conc_B_lo95": 36.8, "conc_B_hi95": 1766.2, "conc_B_status": "research_estimate", "conc_B_status_ru": "исследовательская оценка", "conc_B_reasons": "ближайшее полевое измерение в 266 км (> 60 км)", "conc_B_model": "conc-B-c6bce5631d2b"}}, {"type": "Feature", "geometry": {"type": "Polygon", "coordinates": [[[37.28101713391066, 44.87777329148206], [37.281019813743754, 44.87768331085585], [37.28089326099198, 44.87768140539469], [37.28089594100954, 44.87759142477289], [37.28115172574245, 44.877505254907895], [37.281149046131574, 44.87759523554315], [37.281275598711446, 44.87759714071802], [37.281272919285044, 44.87768712135765], [37.28114636650811, 44.87768521617684], [37.28114368687207, 44.87777519680899], [37.28101713391066, 44.87777329148206]]]}, "properties": {"zone_id": "kerch-2025-06-21-016", "aoi": "kerch", "date": "2025-06-21", "scene_id": "S2C_MSIL2A_20250621T082621_R021_T37TCK_20250621T124616", "scene_datetime_utc": "2025-06-21T08:26:21.024000+00:00", "detection_status": "detected", "detection_status_ru": "обнаружено", "lon": 37.28108, "lat": 44.87764, "n_pixels": 1, "zone_area_km2": 0.0005, "cover_m2": 2.7, "p_mean": 0.961, "p_max": 0.961, "cover_m2_km2": 5400.0, "h3": "882d72926dfffff", "valid_frac_scene": 0.967, "wind_ms": 4.1, "sea": "спокойное", "scene_reliable": true, "field_event_id": "S4:DOORS3:T11", "field_profile": "B", "field_date": "2024-06-04", "field_distance_km": 269.6, "field_date_gap_days": 382, "field_conc_items_km2": 62.52, "conc_A_items_km2": null, "conc_A_lo80": null, "conc_A_hi80": null, "conc_A_lo95": null, "conc_A_hi95": null, "conc_A_status": "unavailable", "conc_A_status_ru": "концентрация недоступна", "conc_A_reasons": "вне бассейна профиля: nw_atlantic_subtropical", "conc_A_model": "conc-A-c6bce5631d2b", "conc_B_items_km2": 571.1, "conc_B_lo80": 121.8, "conc_B_hi80": 1918.8, "conc_B_lo95": 76.0, "conc_B_hi95": 3592.8, "conc_B_status": "research_estimate", "conc_B_status_ru": "исследовательская оценка", "conc_B_reasons": "ближайшее полевое измерение в 270 км (> 60 км); log_dist_coast_km = 1.3 вне диапазона обучения [1.7; 5.0]", "conc_B_model": "conc-B-c6bce5631d2b"}}, {"type": "Feature", "geometry": {"type": "Polygon", "coordinates": [[[37.27486715235598, 44.8759701321335], [37.2748698416048, 44.87588015176964], [37.27474329321436, 44.87587823955347], [37.27474598264759, 44.87578825919403], [37.275001768073594, 44.875702103101354], [37.27499907904705, 44.87579208347428], [37.275125627265716, 44.87579399540416], [37.27512293842357, 44.875883975781505], [37.27499639000788, 44.87588206384565], [37.27499370095608, 44.87597204421548], [37.27486715235598, 44.8759701321335]]]}, "properties": {"zone_id": "kerch-2025-06-21-017", "aoi": "kerch", "date": "2025-06-21", "scene_id": "S2C_MSIL2A_20250621T082621_R021_T37TCK_20250621T124616", "scene_datetime_utc": "2025-06-21T08:26:21.024000+00:00", "detection_status": "detected", "detection_status_ru": "обнаружено", "lon": 37.27493, "lat": 44.87584, "n_pixels": 1, "zone_area_km2": 0.0005, "cover_m2": 15.7, "p_mean": 0.878, "p_max": 0.878, "cover_m2_km2": 31400.0, "h3": "882d7629bbfffff", "valid_frac_scene": 0.967, "wind_ms": 4.1, "sea": "спокойное", "scene_reliable": true, "field_event_id": "S4:DOORS3:T11", "field_profile": "B", "field_date": "2024-06-04", "field_distance_km": 269.3, "field_date_gap_days": 382, "field_conc_items_km2": 62.52, "conc_A_items_km2": null, "conc_A_lo80": null, "conc_A_hi80": null, "conc_A_lo95": null, "conc_A_hi95": null, "conc_A_status": "unavailable", "conc_A_status_ru": "концентрация недоступна", "conc_A_reasons": "вне бассейна профиля: nw_atlantic_subtropical", "conc_A_model": "conc-A-c6bce5631d2b", "conc_B_items_km2": 511.8, "conc_B_lo80": 109.1, "conc_B_hi80": 1719.9, "conc_B_lo95": 68.0, "conc_B_hi95": 3220.6, "conc_B_status": "research_estimate", "conc_B_status_ru": "исследовательская оценка", "conc_B_reasons": "ближайшее полевое измерение в 269 км (> 60 км)", "conc_B_model": "conc-B-c6bce5631d2b"}}]}