{"type": "FeatureCollection", "features": [{"type": "Feature", "geometry": {"type": "Polygon", "coordinates": [[[44.601069279058265, 48.62016928382786], [44.60106998795064, 48.62007932388692], [44.60093430090212, 48.6200788538155], [44.60093501003209, 48.61998889387461], [44.60120709229472, 48.61989987390938], [44.60120638365044, 48.61998983385464], [44.601342070464874, 48.61999030360487], [44.60134136205819, 48.62008026355019], [44.60120567500267, 48.620079793798475], [44.60120496635139, 48.620169753740896], [44.601069279058265, 48.62016928382786]]]}, "properties": {"zone_id": "volgograd-2026-08-29-001", "aoi": "volgograd", "date": "2026-08-29", "scene_id": "S2C_MSIL2A_20260829T080601_R078_T38UMV_20260829T115102", "scene_datetime_utc": "2026-08-29T08:06:01.024000+00:00", "detection_status": "detected", "detection_status_ru": "обнаружено", "lon": 44.60114, "lat": 48.62003, "n_pixels": 1, "zone_area_km2": 0.0005, "cover_m2": 13.7, "p_mean": 0.71, "p_max": 0.71, "cover_m2_km2": 27400.0, "h3": "882d481495fffff", "valid_frac_scene": 1.0, "wind_ms": 4.3, "sea": "спокойное", "scene_reliable": true, "field_event_id": "S4:DOORS3:T23", "field_profile": "B", "field_date": "2024-06-10", "field_distance_km": 737.5, "field_date_gap_days": 810, "field_conc_items_km2": 102.37, "conc_A_items_km2": null, "conc_A_lo80": null, "conc_A_hi80": null, "conc_A_lo95": null, "conc_A_hi95": null, "conc_A_status": "unavailable", "conc_A_status_ru": "концентрация недоступна", "conc_A_reasons": "вне бассейна профиля: nw_atlantic_subtropical", "conc_A_model": "conc-A-c6bce5631d2b", "conc_B_items_km2": null, "conc_B_lo80": null, "conc_B_hi80": null, "conc_B_lo95": null, "conc_B_hi95": null, "conc_B_status": "unavailable", "conc_B_status_ru": "концентрация недоступна", "conc_B_reasons": "вне бассейна профиля: black_sea", "conc_B_model": "conc-B-c6bce5631d2b"}}]}