{"type": "FeatureCollection", "features": [{"type": "Feature", "geometry": {"type": "Polygon", "coordinates": [[[37.63467572106392, 44.62940567911604], [37.6346778313286, 44.629315679580834], [37.634299732824786, 44.629311158171944], [37.63430184366353, 44.62922115864934], [37.63417581104334, 44.629219651239666], [37.63417792206685, 44.62912965172027], [37.634303954492395, 44.62913115912524], [37.63430606531138, 44.62904115959963], [37.63506225890424, 44.62905020108143], [37.63506014925315, 44.62914020063525], [37.63518618174785, 44.62914170706696], [37.635181962805326, 44.629321706179496], [37.63505592992133, 44.62932019973839], [37.63505382024061, 44.6294101992877], [37.63492778717183, 44.62940869270285], [37.63492989704721, 44.62931869315824], [37.63467572106392, 44.62940567911604]]]}, "properties": {"zone_id": "novorossiysk-2025-09-14-001", "aoi": "novorossiysk", "date": "2025-09-14", "scene_id": "S2B_MSIL2A_20250914T082559_R021_T37TCK_20250914T104754", "scene_datetime_utc": "2025-09-14T08:25:59.024000+00:00", "detection_status": "detected", "detection_status_ru": "обнаружено", "lon": 37.63473, "lat": 44.6292, "n_pixels": 8, "zone_area_km2": 0.0023, "cover_m2": 79.6, "p_mean": 0.992, "p_max": 1.0, "cover_m2_km2": 34608.7, "h3": "882d72d49bfffff", "valid_frac_scene": 1.0, "wind_ms": 11.9, "sea": "шторм", "scene_reliable": false, "field_event_id": "S4:DOORS3:T12", "field_profile": "B", "field_date": "2024-06-04", "field_distance_km": 248.5, "field_date_gap_days": 467, "field_conc_items_km2": 48.97, "conc_A_items_km2": null, "conc_A_lo80": null, "conc_A_hi80": null, "conc_A_lo95": null, "conc_A_hi95": null, "conc_A_status": "unavailable", "conc_A_status_ru": "концентрация недоступна", "conc_A_reasons": "вне бассейна профиля: nw_atlantic_subtropical", "conc_A_model": "conc-A-c6bce5631d2b", "conc_B_items_km2": 520.5, "conc_B_lo80": 111.0, "conc_B_hi80": 1749.2, "conc_B_lo95": 69.2, "conc_B_hi95": 3275.4, "conc_B_status": "research_estimate", "conc_B_status_ru": "исследовательская оценка", "conc_B_reasons": "ближайшее полевое измерение в 248 км (> 60 км); месяц 9 вне месяцев обучения [6]", "conc_B_model": "conc-B-c6bce5631d2b"}}]}