{"type": "FeatureCollection", "features": [{"type": "Feature", "geometry": {"type": "Polygon", "coordinates": [[[37.79077936235708, 44.72497054028911], [37.79078123761875, 44.724880536746326], [37.790654989709815, 44.724879199784766], [37.79065686515837, 44.72478919624468], [37.79078311287164, 44.72479053320208], [37.79078498811573, 44.724700529656324], [37.7910374831773, 44.72470320314419], [37.79103560832454, 44.72479320669828], [37.79116185606417, 44.724794543237095], [37.79115998139829, 44.72488454679389], [37.79103373346299, 44.72488321025089], [37.79103185859265, 44.724973213802], [37.79077936235708, 44.72497054028911]]]}, "properties": {"zone_id": "novorossiysk-2026-03-13-001", "aoi": "novorossiysk", "date": "2026-03-13", "scene_id": "S2B_MSIL2A_20260313T082629_R021_T37TCK_20260313T125221", "scene_datetime_utc": "2026-03-13T08:26:29.024000+00:00", "detection_status": "detected", "detection_status_ru": "обнаружено", "lon": 37.79091, "lat": 44.72484, "n_pixels": 2, "zone_area_km2": 0.0008, "cover_m2": 12.9, "p_mean": 0.986, "p_max": 0.988, "cover_m2_km2": 16125.0, "h3": "882d728d6dfffff", "valid_frac_scene": 1.0, "wind_ms": 4.9, "sea": "спокойное", "scene_reliable": true, "field_event_id": "S4:DOORS3:T12", "field_profile": "B", "field_date": "2024-06-04", "field_distance_km": 261.5, "field_date_gap_days": 647, "field_conc_items_km2": 48.97, "conc_A_items_km2": null, "conc_A_lo80": null, "conc_A_hi80": null, "conc_A_lo95": null, "conc_A_hi95": null, "conc_A_status": "unavailable", "conc_A_status_ru": "концентрация недоступна", "conc_A_reasons": "вне бассейна профиля: nw_atlantic_subtropical", "conc_A_model": "conc-A-c6bce5631d2b", "conc_B_items_km2": 669.1, "conc_B_lo80": 142.9, "conc_B_hi80": 2247.8, "conc_B_lo95": 89.2, "conc_B_hi95": 4208.7, "conc_B_status": "research_estimate", "conc_B_status_ru": "исследовательская оценка", "conc_B_reasons": "ближайшее полевое измерение в 262 км (> 60 км); месяц 3 вне месяцев обучения [6]; log_dist_coast_km = 0.8 вне диапазона обучения [1.7; 5.0]", "conc_B_model": "conc-B-c6bce5631d2b"}}, {"type": "Feature", "geometry": {"type": "Polygon", "coordinates": [[[37.82719605471106, 44.69753306585156], [37.82719787176735, 44.69744306068329], [37.82694730932238, 44.6973504632127], [37.826949126752446, 44.697260458049534], [37.82707531629916, 44.6972617542656], [37.8270771335253, 44.6971717490969], [37.82732951225349, 44.69717434110275], [37.82732769541814, 44.69726434627953], [37.8274538849904, 44.697265642077404], [37.82745025168496, 44.69744565243461], [37.82719605471106, 44.69753306585156]]]}, "properties": {"zone_id": "novorossiysk-2026-03-13-002", "aoi": "novorossiysk", "date": "2026-03-13", "scene_id": "S2B_MSIL2A_20260313T082629_R021_T37TCK_20260313T125221", "scene_datetime_utc": "2026-03-13T08:26:29.024000+00:00", "detection_status": "detected", "detection_status_ru": "обнаружено", "lon": 37.82722, "lat": 44.69734, "n_pixels": 3, "zone_area_km2": 0.001, "cover_m2": 20.4, "p_mean": 0.91, "p_max": 0.961, "cover_m2_km2": 20400.0, "h3": "882d72121dfffff", "valid_frac_scene": 1.0, "wind_ms": 4.9, "sea": "спокойное", "scene_reliable": true, "field_event_id": "S4:DOORS3:T12", "field_profile": "B", "field_date": "2024-06-04", "field_distance_km": 259.3, "field_date_gap_days": 647, "field_conc_items_km2": 48.97, "conc_A_items_km2": null, "conc_A_lo80": null, "conc_A_hi80": null, "conc_A_lo95": null, "conc_A_hi95": null, "conc_A_status": "unavailable", "conc_A_status_ru": "концентрация недоступна", "conc_A_reasons": "вне бассейна профиля: nw_atlantic_subtropical", "conc_A_model": "conc-A-c6bce5631d2b", "conc_B_items_km2": 621.6, "conc_B_lo80": 132.7, "conc_B_hi80": 2088.3, "conc_B_lo95": 82.8, "conc_B_hi95": 3910.2, "conc_B_status": "research_estimate", "conc_B_status_ru": "исследовательская оценка", "conc_B_reasons": "ближайшее полевое измерение в 259 км (> 60 км); месяц 3 вне месяцев обучения [6]; log_dist_coast_km = 1.0 вне диапазона обучения [1.7; 5.0]", "conc_B_model": "conc-B-c6bce5631d2b"}}, {"type": "Feature", "geometry": {"type": "Polygon", "coordinates": [[[37.825855260201564, 44.69517866750789], [37.82585707918564, 44.69508866234557], [37.8257308944134, 44.695087364832716], [37.82573271358433, 44.69499735967296], [37.825986901518235, 44.69490994938183], [37.82598508274657, 44.69499995455118], [37.82611126734048, 44.6950012517812], [37.82610944875568, 44.695091256953106], [37.8259832639664, 44.69508995971902], [37.825981445177696, 44.6951799648854], [37.825855260201564, 44.69517866750789]]]}, "properties": {"zone_id": "novorossiysk-2026-03-13-003", "aoi": "novorossiysk", "date": "2026-03-13", "scene_id": "S2B_MSIL2A_20260313T082629_R021_T37TCK_20260313T125221", "scene_datetime_utc": "2026-03-13T08:26:29.024000+00:00", "detection_status": "detected", "detection_status_ru": "обнаружено", "lon": 37.82592, "lat": 44.69504, "n_pixels": 1, "zone_area_km2": 0.0005, "cover_m2": 4.7, "p_mean": 1.0, "p_max": 1.0, "cover_m2_km2": 9400.0, "h3": "882d72120bfffff", "valid_frac_scene": 1.0, "wind_ms": 4.9, "sea": "спокойное", "scene_reliable": true, "field_event_id": "S4:DOORS3:T12", "field_profile": "B", "field_date": "2024-06-04", "field_distance_km": 259.0, "field_date_gap_days": 647, "field_conc_items_km2": 48.97, "conc_A_items_km2": null, "conc_A_lo80": null, "conc_A_hi80": null, "conc_A_lo95": null, "conc_A_hi95": null, "conc_A_status": "unavailable", "conc_A_status_ru": "концентрация недоступна", "conc_A_reasons": "вне бассейна профиля: nw_atlantic_subtropical", "conc_A_model": "conc-A-c6bce5631d2b", "conc_B_items_km2": 592.0, "conc_B_lo80": 126.3, "conc_B_hi80": 1989.0, "conc_B_lo95": 78.8, "conc_B_hi95": 3724.4, "conc_B_status": "research_estimate", "conc_B_status_ru": "исследовательская оценка", "conc_B_reasons": "ближайшее полевое измерение в 259 км (> 60 км); месяц 3 вне месяцев обучения [6]; log_dist_coast_km = 1.2 вне диапазона обучения [1.7; 5.0]", "conc_B_model": "conc-B-c6bce5631d2b"}}, {"type": "Feature", "geometry": {"type": "MultiPolygon", "coordinates": [[[[37.64140170368993, 44.66531565251572], [37.641151584240056, 44.665222652122914], [37.64114948134958, 44.66531265133223], [37.641023370194176, 44.66531115053168], [37.64102126709883, 44.665401149734805], [37.64127138709436, 44.66549415041708], [37.64127348980952, 44.66540415120608], [37.641399601179636, 44.665405651732904], [37.64140170368993, 44.66531565251572]]], [[[37.641267181634504, 44.66567414883458], [37.64151730320005, 44.66576714899295], [37.6415194055547, 44.665677149777096], [37.64164551752958, 44.66567865003953], [37.64164972181931, 44.665498651593936], [37.641399601179636, 44.665405651732904], [37.6413974986595, 44.665495650948586], [37.64127138709436, 44.66549415041708], [37.641267181634504, 44.66567414883458]]]]}, "properties": {"zone_id": "novorossiysk-2026-03-13-004", "aoi": "novorossiysk", "date": "2026-03-13", "scene_id": "S2B_MSIL2A_20260313T082629_R021_T37TCK_20260313T125221", "scene_datetime_utc": "2026-03-13T08:26:29.024000+00:00", "detection_status": "detected", "detection_status_ru": "обнаружено", "lon": 37.64138, "lat": 44.66551, "n_pixels": 3, "zone_area_km2": 0.0013, "cover_m2": 9.8, "p_mean": 0.822, "p_max": 0.988, "cover_m2_km2": 7538.5, "h3": "882d728b3bfffff", "valid_frac_scene": 1.0, "wind_ms": 4.9, "sea": "спокойное", "scene_reliable": true, "field_event_id": "S4:DOORS3:T12", "field_profile": "B", "field_date": "2024-06-04", "field_distance_km": 252.5, "field_date_gap_days": 647, "field_conc_items_km2": 48.97, "conc_A_items_km2": null, "conc_A_lo80": null, "conc_A_hi80": null, "conc_A_lo95": null, "conc_A_hi95": null, "conc_A_status": "unavailable", "conc_A_status_ru": "концентрация недоступна", "conc_A_reasons": "вне бассейна профиля: nw_atlantic_subtropical", "conc_A_model": "conc-A-c6bce5631d2b", "conc_B_items_km2": 669.1, "conc_B_lo80": 142.9, "conc_B_hi80": 2247.8, "conc_B_lo95": 89.2, "conc_B_hi95": 4208.7, "conc_B_status": "research_estimate", "conc_B_status_ru": "исследовательская оценка", "conc_B_reasons": "ближайшее полевое измерение в 253 км (> 60 км); месяц 3 вне месяцев обучения [6]; log_dist_coast_km = 0.8 вне диапазона обучения [1.7; 5.0]", "conc_B_model": "conc-B-c6bce5631d2b"}}, {"type": "Feature", "geometry": {"type": "Polygon", "coordinates": [[[37.64294233987474, 44.6641636572325], [37.642944439907104, 44.664073657938125], [37.64281833134406, 44.664072159152035], [37.64282253176928, 44.66389216056813], [37.64294863994232, 44.663893659344865], [37.642950739945164, 44.66380366004598], [37.64320295593074, 44.663806657172486], [37.64320085631789, 44.663896656480716], [37.64332696452043, 44.66389815483982], [37.64332486509276, 44.663988154151234], [37.64319875669521, 44.66398665578745], [37.643196657062695, 44.66407665509268], [37.64294233987474, 44.6641636572325]]]}, "properties": {"zone_id": "novorossiysk-2026-03-13-005", "aoi": "novorossiysk", "date": "2026-03-13", "scene_id": "S2B_MSIL2A_20260313T082629_R021_T37TCK_20260313T125221", "scene_datetime_utc": "2026-03-13T08:26:29.024000+00:00", "detection_status": "detected", "detection_status_ru": "обнаружено", "lon": 37.64305, "lat": 44.66397, "n_pixels": 3, "zone_area_km2": 0.001, "cover_m2": 12.5, "p_mean": 0.999, "p_max": 1.0, "cover_m2_km2": 12500.0, "h3": "882d728b3bfffff", "valid_frac_scene": 1.0, "wind_ms": 4.9, "sea": "спокойное", "scene_reliable": true, "field_event_id": "S4:DOORS3:T12", "field_profile": "B", "field_date": "2024-06-04", "field_distance_km": 252.4, "field_date_gap_days": 647, "field_conc_items_km2": 48.97, "conc_A_items_km2": null, "conc_A_lo80": null, "conc_A_hi80": null, "conc_A_lo95": null, "conc_A_hi95": null, "conc_A_status": "unavailable", "conc_A_status_ru": "концентрация недоступна", "conc_A_reasons": "вне бассейна профиля: nw_atlantic_subtropical", "conc_A_model": "conc-A-c6bce5631d2b", "conc_B_items_km2": 669.1, "conc_B_lo80": 142.9, "conc_B_hi80": 2247.8, "conc_B_lo95": 89.2, "conc_B_hi95": 4208.7, "conc_B_status": "research_estimate", "conc_B_status_ru": "исследовательская оценка", "conc_B_reasons": "ближайшее полевое измерение в 252 км (> 60 км); месяц 3 вне месяцев обучения [6]; log_dist_coast_km = 0.8 вне диапазона обучения [1.7; 5.0]", "conc_B_model": "conc-B-c6bce5631d2b"}}, {"type": "Feature", "geometry": {"type": "Polygon", "coordinates": [[[37.62819530684339, 44.65831591545354], [37.62819742925973, 44.65822591661933], [37.628071334146846, 44.658224401704814], [37.62807345674819, 44.658134402873834], [37.62832776879552, 44.65804743371231], [37.62832564659401, 44.65813743255425], [37.628451741531826, 44.6581389471857], [37.62844961951531, 44.65822894603085], [37.62832352438255, 44.658227431394685], [37.62832140216115, 44.65831743023362], [37.62819530684339, 44.65831591545354]]]}, "properties": {"zone_id": "novorossiysk-2026-03-13-006", "aoi": "novorossiysk", "date": "2026-03-13", "scene_id": "S2B_MSIL2A_20260313T082629_R021_T37TCK_20260313T125221", "scene_datetime_utc": "2026-03-13T08:26:29.024000+00:00", "detection_status": "detected", "detection_status_ru": "обнаружено", "lon": 37.62826, "lat": 44.65818, "n_pixels": 1, "zone_area_km2": 0.0005, "cover_m2": 6.7, "p_mean": 0.949, "p_max": 0.949, "cover_m2_km2": 13400.0, "h3": "882d728b3dfffff", "valid_frac_scene": 1.0, "wind_ms": 4.9, "sea": "спокойное", "scene_reliable": true, "field_event_id": "S4:DOORS3:T12", "field_profile": "B", "field_date": "2024-06-04", "field_distance_km": 251.5, "field_date_gap_days": 647, "field_conc_items_km2": 48.97, "conc_A_items_km2": null, "conc_A_lo80": null, "conc_A_hi80": null, "conc_A_lo95": null, "conc_A_hi95": null, "conc_A_status": "unavailable", "conc_A_status_ru": "концентрация недоступна", "conc_A_reasons": "вне бассейна профиля: nw_atlantic_subtropical", "conc_A_model": "conc-A-c6bce5631d2b", "conc_B_items_km2": 669.1, "conc_B_lo80": 142.9, "conc_B_hi80": 2247.8, "conc_B_lo95": 89.2, "conc_B_hi95": 4208.7, "conc_B_status": "research_estimate", "conc_B_status_ru": "исследовательская оценка", "conc_B_reasons": "ближайшее полевое измерение в 252 км (> 60 км); месяц 3 вне месяцев обучения [6]; log_dist_coast_km = 0.8 вне диапазона обучения [1.7; 5.0]", "conc_B_model": "conc-B-c6bce5631d2b"}}, {"type": "Feature", "geometry": {"type": "Polygon", "coordinates": [[[37.65188089905138, 44.626819330092125], [37.65188298254059, 44.62672932987482], [37.65175695439475, 44.62672784193103], [37.65176320538775, 44.62645784128404], [37.65201734377699, 44.6263708167768], [37.65201526052142, 44.62646081700475], [37.65214128810288, 44.626462304656556], [37.65213503886154, 44.626732305345335], [37.65188089905138, 44.626819330092125]]]}, "properties": {"zone_id": "novorossiysk-2026-03-13-007", "aoi": "novorossiysk", "date": "2026-03-13", "scene_id": "S2B_MSIL2A_20260313T082629_R021_T37TCK_20260313T125221", "scene_datetime_utc": "2026-03-13T08:26:29.024000+00:00", "detection_status": "detected", "detection_status_ru": "обнаружено", "lon": 37.65195, "lat": 44.6266, "n_pixels": 3, "zone_area_km2": 0.0011, "cover_m2": 23.5, "p_mean": 0.916, "p_max": 0.984, "cover_m2_km2": 21363.6, "h3": "882d728945fffff", "valid_frac_scene": 1.0, "wind_ms": 4.9, "sea": "спокойное", "scene_reliable": true, "field_event_id": "S4:DOORS3:T12", "field_profile": "B", "field_date": "2024-06-04", "field_distance_km": 248.4, "field_date_gap_days": 647, "field_conc_items_km2": 48.97, "conc_A_items_km2": null, "conc_A_lo80": null, "conc_A_hi80": null, "conc_A_lo95": null, "conc_A_hi95": null, "conc_A_status": "unavailable", "conc_A_status_ru": "концентрация недоступна", "conc_A_reasons": "вне бассейна профиля: nw_atlantic_subtropical", "conc_A_model": "conc-A-c6bce5631d2b", "conc_B_items_km2": 511.9, "conc_B_lo80": 109.1, "conc_B_hi80": 1720.2, "conc_B_lo95": 68.0, "conc_B_hi95": 3221.1, "conc_B_status": "research_estimate", "conc_B_status_ru": "исследовательская оценка", "conc_B_reasons": "ближайшее полевое измерение в 248 км (> 60 км); месяц 3 вне месяцев обучения [6]", "conc_B_model": "conc-B-c6bce5631d2b"}}]}