{"type": "FeatureCollection", "features": [{"type": "Feature", "geometry": {"type": "Polygon", "coordinates": [[[39.74212181930413, 43.50649342125475], [39.74212071624055, 43.50640338591801], [39.7419970190436, 43.50640418873489], [39.741995916168946, 43.5063141533942], [39.742119613182076, 43.506313350579816], [39.742118510128705, 43.506223315240184], [39.74236700719302, 43.50631174454965], [39.742368110619125, 43.50640177988282], [39.74224441343239, 43.506402582967326], [39.74224551667979, 43.50649261830155], [39.74212181930413, 43.50649342125475]]]}, "properties": {"zone_id": "sochi-2025-12-05-001", "aoi": "sochi", "date": "2025-12-05", "scene_id": "S2C_MSIL2A_20251205T082331_R121_T37TEJ_20251205T111817", "scene_datetime_utc": "2025-12-05T08:23:31.025000+00:00", "detection_status": "detected", "detection_status_ru": "обнаружено", "lon": 39.74218, "lat": 43.50636, "n_pixels": 1, "zone_area_km2": 0.0005, "cover_m2": 5.5, "p_mean": 0.992, "p_max": 0.992, "cover_m2_km2": 11000.0, "h3": "882d568f0bfffff", "valid_frac_scene": 1.0, "wind_ms": 4.3, "sea": "спокойное", "scene_reliable": true, "field_event_id": "S4:DOORS3:T17", "field_profile": "B", "field_date": "2024-06-04", "field_distance_km": 179.5, "field_date_gap_days": 549, "field_conc_items_km2": 89.61, "conc_A_items_km2": null, "conc_A_lo80": null, "conc_A_hi80": null, "conc_A_lo95": null, "conc_A_hi95": null, "conc_A_status": "unavailable", "conc_A_status_ru": "концентрация недоступна", "conc_A_reasons": "вне бассейна профиля: nw_atlantic_subtropical", "conc_A_model": "conc-A-c6bce5631d2b", "conc_B_items_km2": 490.0, "conc_B_lo80": 104.4, "conc_B_hi80": 1646.8, "conc_B_lo95": 65.1, "conc_B_hi95": 3083.7, "conc_B_status": "research_estimate", "conc_B_status_ru": "исследовательская оценка", "conc_B_reasons": "ближайшее полевое измерение в 179 км (> 60 км); месяц 12 вне месяцев обучения [6]", "conc_B_model": "conc-B-c6bce5631d2b"}}, {"type": "Feature", "geometry": {"type": "Polygon", "coordinates": [[[39.757275560978954, 43.471817642455484], [39.757274436753896, 43.47172760688281], [39.7571508107289, 43.47172842557576], [39.75714968669253, 43.4716383899991], [39.75727331253403, 43.471637571308705], [39.75727218831938, 43.471547535733144], [39.75752056420143, 43.47163593352698], [39.757521688788266, 43.471725969095985], [39.757398062773674, 43.47172678805622], [39.75739918718223, 43.471816823626334], [39.757275560978954, 43.471817642455484]]]}, "properties": {"zone_id": "sochi-2025-12-05-002", "aoi": "sochi", "date": "2025-12-05", "scene_id": "S2C_MSIL2A_20251205T082331_R121_T37TEJ_20251205T111817", "scene_datetime_utc": "2025-12-05T08:23:31.025000+00:00", "detection_status": "detected", "detection_status_ru": "обнаружено", "lon": 39.75734, "lat": 43.47168, "n_pixels": 1, "zone_area_km2": 0.0005, "cover_m2": 9.0, "p_mean": 0.718, "p_max": 0.718, "cover_m2_km2": 18000.0, "h3": "882d568f25fffff", "valid_frac_scene": 1.0, "wind_ms": 4.3, "sea": "спокойное", "scene_reliable": true, "field_event_id": "S4:DOORS3:T17", "field_profile": "B", "field_date": "2024-06-04", "field_distance_km": 177.2, "field_date_gap_days": 549, "field_conc_items_km2": 89.61, "conc_A_items_km2": null, "conc_A_lo80": null, "conc_A_hi80": null, "conc_A_lo95": null, "conc_A_hi95": null, "conc_A_status": "unavailable", "conc_A_status_ru": "концентрация недоступна", "conc_A_reasons": "вне бассейна профиля: nw_atlantic_subtropical", "conc_A_model": "conc-A-c6bce5631d2b", "conc_B_items_km2": 421.5, "conc_B_lo80": 89.7, "conc_B_hi80": 1416.9, "conc_B_lo95": 55.8, "conc_B_hi95": 2653.3, "conc_B_status": "research_estimate", "conc_B_status_ru": "исследовательская оценка", "conc_B_reasons": "ближайшее полевое измерение в 177 км (> 60 км); месяц 12 вне месяцев обучения [6]", "conc_B_model": "conc-B-c6bce5631d2b"}}, {"type": "Feature", "geometry": {"type": "Polygon", "coordinates": [[[39.84448820959083, 43.44869600505456], [39.84448695691293, 43.44860597103578], [39.84436338062296, 43.44860688363088], [39.84436212813412, 43.448516849607806], [39.84448570424084, 43.44851593701555], [39.84448445157454, 43.44842590299388], [39.84473285643689, 43.448514111430484], [39.8447341094755, 43.448604145445], [39.84461053319712, 43.44860505830716], [39.84461178605826, 43.44869509232308], [39.84448820959083, 43.44869600505456]]]}, "properties": {"zone_id": "sochi-2025-12-05-003", "aoi": "sochi", "date": "2025-12-05", "scene_id": "S2C_MSIL2A_20251205T082331_R121_T37TEJ_20251205T111817", "scene_datetime_utc": "2025-12-05T08:23:31.025000+00:00", "detection_status": "detected", "detection_status_ru": "обнаружено", "lon": 39.84455, "lat": 43.44856, "n_pixels": 1, "zone_area_km2": 0.0005, "cover_m2": 2.7, "p_mean": 0.878, "p_max": 0.878, "cover_m2_km2": 5400.0, "h3": "882d5612c9fffff", "valid_frac_scene": 1.0, "wind_ms": 4.3, "sea": "спокойное", "scene_reliable": true, "field_event_id": "S4:DOORS3:T17", "field_profile": "B", "field_date": "2024-06-04", "field_distance_km": 179.7, "field_date_gap_days": 549, "field_conc_items_km2": 89.61, "conc_A_items_km2": null, "conc_A_lo80": null, "conc_A_hi80": null, "conc_A_lo95": null, "conc_A_hi95": null, "conc_A_status": "unavailable", "conc_A_status_ru": "концентрация недоступна", "conc_A_reasons": "вне бассейна профиля: nw_atlantic_subtropical", "conc_A_model": "conc-A-c6bce5631d2b", "conc_B_items_km2": 467.2, "conc_B_lo80": 99.5, "conc_B_hi80": 1570.4, "conc_B_lo95": 62.0, "conc_B_hi95": 2940.6, "conc_B_status": "research_estimate", "conc_B_status_ru": "исследовательская оценка", "conc_B_reasons": "ближайшее полевое измерение в 180 км (> 60 км); месяц 12 вне месяцев обучения [6]", "conc_B_model": "conc-B-c6bce5631d2b"}}, {"type": "Feature", "geometry": {"type": "Polygon", "coordinates": [[[39.9298435265125, 43.37311736550561], [39.92984215086622, 43.37302733237328], [39.929718730994914, 43.373028335819825], [39.92971735553751, 43.37293830268292], [39.9298407752263, 43.3729372992395], [39.929839399592744, 43.37284726610426], [39.93008761458481, 43.37293529195319], [39.93008899058978, 43.37302532508068], [39.92996557073118, 43.37302632879357], [39.929966946559986, 43.37311636192275], [39.9298435265125, 43.37311736550561]]]}, "properties": {"zone_id": "sochi-2025-12-05-004", "aoi": "sochi", "date": "2025-12-05", "scene_id": "S2C_MSIL2A_20251205T082331_R121_T37TEJ_20251205T111817", "scene_datetime_utc": "2025-12-05T08:23:31.025000+00:00", "detection_status": "detected", "detection_status_ru": "обнаружено", "lon": 39.9299, "lat": 43.37298, "n_pixels": 1, "zone_area_km2": 0.0005, "cover_m2": 8.2, "p_mean": 0.576, "p_max": 0.576, "cover_m2_km2": 16400.0, "h3": "882d5611d9fffff", "valid_frac_scene": 1.0, "wind_ms": 4.3, "sea": "спокойное", "scene_reliable": true, "field_event_id": "S4:DOORS3:T23", "field_profile": "B", "field_date": "2024-06-10", "field_distance_km": 174.8, "field_date_gap_days": 543, "field_conc_items_km2": 102.37, "conc_A_items_km2": null, "conc_A_lo80": null, "conc_A_hi80": null, "conc_A_lo95": null, "conc_A_hi95": null, "conc_A_status": "unavailable", "conc_A_status_ru": "концентрация недоступна", "conc_A_reasons": "вне бассейна профиля: nw_atlantic_subtropical", "conc_A_model": "conc-A-c6bce5631d2b", "conc_B_items_km2": 520.5, "conc_B_lo80": 111.0, "conc_B_hi80": 1749.2, "conc_B_lo95": 69.2, "conc_B_hi95": 3275.4, "conc_B_status": "research_estimate", "conc_B_status_ru": "исследовательская оценка", "conc_B_reasons": "ближайшее полевое измерение в 175 км (> 60 км); месяц 12 вне месяцев обучения [6]", "conc_B_model": "conc-B-c6bce5631d2b"}}]}