{"type": "FeatureCollection", "features": [{"type": "Feature", "geometry": {"type": "Polygon", "coordinates": [[[39.72121831285537, 43.558671529582035], [39.72121723890681, 43.558581494649864], [39.72109343444278, 43.55858227559396], [39.7210912869292, 43.558402205720384], [39.721337820997086, 43.5583106087738], [39.72133889511504, 43.55840064370788], [39.7214626992005, 43.55839986250056], [39.72146484781996, 43.55857993235949], [39.72121831285537, 43.558671529582035]]]}, "properties": {"zone_id": "sochi-2026-09-13-001", "aoi": "sochi", "date": "2026-09-13", "scene_id": "S2A_MSIL2A_20260913T082021_R121_T37TEJ_20260913T115558", "scene_datetime_utc": "2026-09-13T08:20:21.024000+00:00", "detection_status": "detected", "detection_status_ru": "обнаружено", "lon": 39.72128, "lat": 43.55849, "n_pixels": 2, "zone_area_km2": 0.0008, "cover_m2": 11.8, "p_mean": 0.951, "p_max": 0.984, "cover_m2_km2": 14750.0, "h3": "882d568e47fffff", "valid_frac_scene": 1.0, "wind_ms": 2.5, "sea": "спокойное", "scene_reliable": true, "field_event_id": "S4:DOORS3:T17", "field_profile": "B", "field_date": "2024-06-04", "field_distance_km": 183.1, "field_date_gap_days": 831, "field_conc_items_km2": 89.61, "conc_A_items_km2": null, "conc_A_lo80": null, "conc_A_hi80": null, "conc_A_lo95": null, "conc_A_hi95": null, "conc_A_status": "unavailable", "conc_A_status_ru": "концентрация недоступна", "conc_A_reasons": "вне бассейна профиля: nw_atlantic_subtropical", "conc_A_model": "conc-A-c6bce5631d2b", "conc_B_items_km2": 591.0, "conc_B_lo80": 126.1, "conc_B_hi80": 1985.7, "conc_B_lo95": 78.7, "conc_B_hi95": 3718.1, "conc_B_status": "research_estimate", "conc_B_status_ru": "исследовательская оценка", "conc_B_reasons": "ближайшее полевое измерение в 183 км (> 60 км); месяц 9 вне месяцев обучения [6]; log_dist_coast_km = 1.2 вне диапазона обучения [1.7; 5.0]", "conc_B_model": "conc-B-c6bce5631d2b"}}, {"type": "Feature", "geometry": {"type": "Polygon", "coordinates": [[[39.76587629497851, 43.536050708995965], [39.76587515543447, 43.53596067461862], [39.76575139851305, 43.53596150357926], [39.76575025915838, 43.53587146919787], [39.76587401589571, 43.53587064023982], [39.765872876362224, 43.53578060585959], [39.76612152935454, 43.53586898192192], [39.76612266926149, 43.53595901629554], [39.76599891235062, 43.535959845524054], [39.76600005207876, 43.53604987989881], [39.76587629497851, 43.536050708995965]]]}, "properties": {"zone_id": "sochi-2026-09-13-002", "aoi": "sochi", "date": "2026-09-13", "scene_id": "S2A_MSIL2A_20260913T082021_R121_T37TEJ_20260913T115558", "scene_datetime_utc": "2026-09-13T08:20:21.024000+00:00", "detection_status": "detected", "detection_status_ru": "обнаружено", "lon": 39.76594, "lat": 43.53592, "n_pixels": 1, "zone_area_km2": 0.0005, "cover_m2": 11.8, "p_mean": 0.631, "p_max": 0.631, "cover_m2_km2": 23600.0, "h3": "882d568e27fffff", "valid_frac_scene": 1.0, "wind_ms": 2.5, "sea": "спокойное", "scene_reliable": true, "field_event_id": "S4:DOORS3:T17", "field_profile": "B", "field_date": "2024-06-04", "field_distance_km": 183.2, "field_date_gap_days": 831, "field_conc_items_km2": 89.61, "conc_A_items_km2": null, "conc_A_lo80": null, "conc_A_hi80": null, "conc_A_lo95": null, "conc_A_hi95": null, "conc_A_status": "unavailable", "conc_A_status_ru": "концентрация недоступна", "conc_A_reasons": "вне бассейна профиля: nw_atlantic_subtropical", "conc_A_model": "conc-A-c6bce5631d2b", "conc_B_items_km2": 621.6, "conc_B_lo80": 132.7, "conc_B_hi80": 2088.3, "conc_B_lo95": 82.8, "conc_B_hi95": 3910.2, "conc_B_status": "research_estimate", "conc_B_status_ru": "исследовательская оценка", "conc_B_reasons": "ближайшее полевое измерение в 183 км (> 60 км); месяц 9 вне месяцев обучения [6]; log_dist_coast_km = 1.0 вне диапазона обучения [1.7; 5.0]", "conc_B_model": "conc-B-c6bce5631d2b"}}, {"type": "Feature", "geometry": {"type": "Polygon", "coordinates": [[[39.75544021620499, 43.532878628705554], [39.75543909231225, 43.53278859405994], [39.75531534157763, 43.53278941167744], [39.755314217874165, 43.53269937702781], [39.755437968424715, 43.532698559412864], [39.75543684454239, 43.53260852476435], [39.75568546951022, 43.532696923781195], [39.75568659376589, 43.532786958423145], [39.75556284304167, 43.5327877763085], [39.755563967118476, 43.532877810951575], [39.75544021620499, 43.532878628705554]]]}, "properties": {"zone_id": "sochi-2026-09-13-003", "aoi": "sochi", "date": "2026-09-13", "scene_id": "S2A_MSIL2A_20260913T082021_R121_T37TEJ_20260913T115558", "scene_datetime_utc": "2026-09-13T08:20:21.024000+00:00", "detection_status": "detected", "detection_status_ru": "обнаружено", "lon": 39.7555, "lat": 43.53274, "n_pixels": 1, "zone_area_km2": 0.0005, "cover_m2": 6.3, "p_mean": 0.984, "p_max": 0.984, "cover_m2_km2": 12600.0, "h3": "882d568e21fffff", "valid_frac_scene": 1.0, "wind_ms": 2.5, "sea": "спокойное", "scene_reliable": true, "field_event_id": "S4:DOORS3:T17", "field_profile": "B", "field_date": "2024-06-04", "field_distance_km": 182.4, "field_date_gap_days": 831, "field_conc_items_km2": 89.61, "conc_A_items_km2": null, "conc_A_lo80": null, "conc_A_hi80": null, "conc_A_lo95": null, "conc_A_hi95": null, "conc_A_status": "unavailable", "conc_A_status_ru": "концентрация недоступна", "conc_A_reasons": "вне бассейна профиля: nw_atlantic_subtropical", "conc_A_model": "conc-A-c6bce5631d2b", "conc_B_items_km2": 591.0, "conc_B_lo80": 126.1, "conc_B_hi80": 1985.7, "conc_B_lo95": 78.7, "conc_B_hi95": 3718.1, "conc_B_status": "research_estimate", "conc_B_status_ru": "исследовательская оценка", "conc_B_reasons": "ближайшее полевое измерение в 182 км (> 60 км); месяц 9 вне месяцев обучения [6]; log_dist_coast_km = 1.2 вне диапазона обучения [1.7; 5.0]", "conc_B_model": "conc-B-c6bce5631d2b"}}, {"type": "Feature", "geometry": {"type": "Polygon", "coordinates": [[[39.84969222146745, 43.48494477490234], [39.84969095947528, 43.484854741577635], [39.84956730948611, 43.48485566040364], [39.84956604768338, 43.48476562707459], [39.849689697488955, 43.48476470825146], [39.84968843550846, 43.484674674923845], [39.84993699708258, 43.48476287020412], [39.849938259436094, 43.48485290352454], [39.849814609458605, 43.48485382261794], [39.84981587163437, 43.48494385593977], [39.84969222146745, 43.48494477490234]]]}, "properties": {"zone_id": "sochi-2026-09-13-004", "aoi": "sochi", "date": "2026-09-13", "scene_id": "S2A_MSIL2A_20260913T082021_R121_T37TEJ_20260913T115558", "scene_datetime_utc": "2026-09-13T08:20:21.024000+00:00", "detection_status": "detected", "detection_status_ru": "обнаружено", "lon": 39.84975, "lat": 43.48481, "n_pixels": 1, "zone_area_km2": 0.0005, "cover_m2": 6.3, "p_mean": 0.737, "p_max": 0.737, "cover_m2_km2": 12600.0, "h3": "882d568de9fffff", "valid_frac_scene": 1.0, "wind_ms": 2.5, "sea": "спокойное", "scene_reliable": true, "field_event_id": "S4:DOORS3:T17", "field_profile": "B", "field_date": "2024-06-04", "field_distance_km": 183.0, "field_date_gap_days": 831, "field_conc_items_km2": 89.61, "conc_A_items_km2": null, "conc_A_lo80": null, "conc_A_hi80": null, "conc_A_lo95": null, "conc_A_hi95": null, "conc_A_status": "unavailable", "conc_A_status_ru": "концентрация недоступна", "conc_A_reasons": "вне бассейна профиля: nw_atlantic_subtropical", "conc_A_model": "conc-A-c6bce5631d2b", "conc_B_items_km2": 591.0, "conc_B_lo80": 126.1, "conc_B_hi80": 1985.7, "conc_B_lo95": 78.7, "conc_B_hi95": 3718.1, "conc_B_status": "research_estimate", "conc_B_status_ru": "исследовательская оценка", "conc_B_reasons": "ближайшее полевое измерение в 183 км (> 60 км); месяц 9 вне месяцев обучения [6]; log_dist_coast_km = 1.2 вне диапазона обучения [1.7; 5.0]", "conc_B_model": "conc-B-c6bce5631d2b"}}, {"type": "Feature", "geometry": {"type": "Polygon", "coordinates": [[[39.87251297704462, 43.480991113072875], [39.87251168133964, 43.480901080225664], [39.87238804015518, 43.48090202366114], [39.87238674463974, 43.48081199080951], [39.872510385640645, 43.48081104737698], [39.87250908994765, 43.480721014526864], [39.87275637156437, 43.480719127266696], [39.87275766762447, 43.480809160110915], [39.87288130860739, 43.48080821627737], [39.87288260485703, 43.4808982491172], [39.872758963690565, 43.4808991929537], [39.87276025976266, 43.480989225795014], [39.87251297704462, 43.480991113072875]]]}, "properties": {"zone_id": "sochi-2026-09-13-005", "aoi": "sochi", "date": "2026-09-13", "scene_id": "S2A_MSIL2A_20260913T082021_R121_T37TEJ_20260913T115558", "scene_datetime_utc": "2026-09-13T08:20:21.024000+00:00", "detection_status": "detected", "detection_status_ru": "обнаружено", "lon": 39.87263, "lat": 43.48086, "n_pixels": 2, "zone_area_km2": 0.0008, "cover_m2": 11.8, "p_mean": 0.931, "p_max": 0.965, "cover_m2_km2": 14750.0, "h3": "882d568de3fffff", "valid_frac_scene": 1.0, "wind_ms": 2.5, "sea": "спокойное", "scene_reliable": true, "field_event_id": "S4:DOORS3:T17", "field_profile": "B", "field_date": "2024-06-04", "field_distance_km": 183.9, "field_date_gap_days": 831, "field_conc_items_km2": 89.61, "conc_A_items_km2": null, "conc_A_lo80": null, "conc_A_hi80": null, "conc_A_lo95": null, "conc_A_hi95": null, "conc_A_status": "unavailable", "conc_A_status_ru": "концентрация недоступна", "conc_A_reasons": "вне бассейна профиля: nw_atlantic_subtropical", "conc_A_model": "conc-A-c6bce5631d2b", "conc_B_items_km2": 591.0, "conc_B_lo80": 126.1, "conc_B_hi80": 1985.7, "conc_B_lo95": 78.7, "conc_B_hi95": 3718.1, "conc_B_status": "research_estimate", "conc_B_status_ru": "исследовательская оценка", "conc_B_reasons": "ближайшее полевое измерение в 184 км (> 60 км); месяц 9 вне месяцев обучения [6]; log_dist_coast_km = 1.2 вне диапазона обучения [1.7; 5.0]", "conc_B_model": "conc-B-c6bce5631d2b"}}, {"type": "Feature", "geometry": {"type": "Polygon", "coordinates": [[[39.87194978634146, 43.47622314249326], [39.8719484916882, 43.47613310955719], [39.87182486020692, 43.47613405230175], [39.87182356574316, 43.47604401936128], [39.87194719704093, 43.47604307661966], [39.871945902399645, 43.475953043680676], [39.87206953350792, 43.47595210080836], [39.87206823868912, 43.47586206787087], [39.87231679570649, 43.47595021466277], [39.8723180908983, 43.476040247592906], [39.8721944596185, 43.47604119073549], [39.872195754632784, 43.47613122366711], [39.87194978634146, 43.47622314249326]]]}, "properties": {"zone_id": "sochi-2026-09-13-006", "aoi": "sochi", "date": "2026-09-13", "scene_id": "S2A_MSIL2A_20260913T082021_R121_T37TEJ_20260913T115558", "scene_datetime_utc": "2026-09-13T08:20:21.024000+00:00", "detection_status": "detected", "detection_status_ru": "обнаружено", "lon": 39.87207, "lat": 43.47604, "n_pixels": 2, "zone_area_km2": 0.0008, "cover_m2": 9.4, "p_mean": 0.982, "p_max": 0.984, "cover_m2_km2": 11750.0, "h3": "882d568de7fffff", "valid_frac_scene": 1.0, "wind_ms": 2.5, "sea": "спокойное", "scene_reliable": true, "field_event_id": "S4:DOORS3:T17", "field_profile": "B", "field_date": "2024-06-04", "field_distance_km": 183.5, "field_date_gap_days": 831, "field_conc_items_km2": 89.61, "conc_A_items_km2": null, "conc_A_lo80": null, "conc_A_hi80": null, "conc_A_lo95": null, "conc_A_hi95": null, "conc_A_status": "unavailable", "conc_A_status_ru": "концентрация недоступна", "conc_A_reasons": "вне бассейна профиля: nw_atlantic_subtropical", "conc_A_model": "conc-A-c6bce5631d2b", "conc_B_items_km2": 591.0, "conc_B_lo80": 126.1, "conc_B_hi80": 1985.7, "conc_B_lo95": 78.7, "conc_B_hi95": 3718.1, "conc_B_status": "research_estimate", "conc_B_status_ru": "исследовательская оценка", "conc_B_reasons": "ближайшее полевое измерение в 183 км (> 60 км); месяц 9 вне месяцев обучения [6]; log_dist_coast_km = 1.2 вне диапазона обучения [1.7; 5.0]", "conc_B_model": "conc-B-c6bce5631d2b"}}, {"type": "Feature", "geometry": {"type": "Polygon", "coordinates": [[[39.870084975703605, 43.475517005789726], [39.870083683850794, 43.47542697279785], [39.86996005374782, 43.475427913514096], [39.86995876208449, 43.475337880517834], [39.870082392003965, 43.47533693980453], [39.87008110016311, 43.475246906809744], [39.870328359617126, 43.47524502498808], [39.87032965182498, 43.47533505797696], [39.87045328172652, 43.47533411686272], [39.870454574123855, 43.47542414984723], [39.87033094403881, 43.475425090964414], [39.870332236258626, 43.4755151239504], [39.870084975703605, 43.475517005789726]]]}, "properties": {"zone_id": "sochi-2026-09-13-007", "aoi": "sochi", "date": "2026-09-13", "scene_id": "S2A_MSIL2A_20260913T082021_R121_T37TEJ_20260913T115558", "scene_datetime_utc": "2026-09-13T08:20:21.024000+00:00", "detection_status": "detected", "detection_status_ru": "обнаружено", "lon": 39.87021, "lat": 43.47538, "n_pixels": 2, "zone_area_km2": 0.0008, "cover_m2": 8.2, "p_mean": 0.975, "p_max": 0.988, "cover_m2_km2": 10250.0, "h3": "882d568de7fffff", "valid_frac_scene": 1.0, "wind_ms": 2.5, "sea": "спокойное", "scene_reliable": true, "field_event_id": "S4:DOORS3:T17", "field_profile": "B", "field_date": "2024-06-04", "field_distance_km": 183.3, "field_date_gap_days": 831, "field_conc_items_km2": 89.61, "conc_A_items_km2": null, "conc_A_lo80": null, "conc_A_hi80": null, "conc_A_lo95": null, "conc_A_hi95": null, "conc_A_status": "unavailable", "conc_A_status_ru": "концентрация недоступна", "conc_A_reasons": "вне бассейна профиля: nw_atlantic_subtropical", "conc_A_model": "conc-A-c6bce5631d2b", "conc_B_items_km2": 591.0, "conc_B_lo80": 126.1, "conc_B_hi80": 1985.7, "conc_B_lo95": 78.7, "conc_B_hi95": 3718.1, "conc_B_status": "research_estimate", "conc_B_status_ru": "исследовательская оценка", "conc_B_reasons": "ближайшее полевое измерение в 183 км (> 60 км); месяц 9 вне месяцев обучения [6]; log_dist_coast_km = 1.2 вне диапазона обучения [1.7; 5.0]", "conc_B_model": "conc-B-c6bce5631d2b"}}, {"type": "Feature", "geometry": {"type": "Polygon", "coordinates": [[[39.73612666179277, 43.47123540878433], [39.73612556898509, 43.471145372768504], [39.73600194355109, 43.47114616858828], [39.73600085093195, 43.47105613256852], [39.73612447618246, 43.47105533675125], [39.7361233833849, 43.47096530073253], [39.73637172666833, 43.47105374471576], [39.736372819837925, 43.471143780728056], [39.73624919441403, 43.471144576815085], [39.7362502874052, 43.47123461282844], [39.73612666179277, 43.47123540878433]]]}, "properties": {"zone_id": "sochi-2026-09-13-008", "aoi": "sochi", "date": "2026-09-13", "scene_id": "S2A_MSIL2A_20260913T082021_R121_T37TEJ_20260913T115558", "scene_datetime_utc": "2026-09-13T08:20:21.024000+00:00", "detection_status": "detected", "detection_status_ru": "обнаружено", "lon": 39.73619, "lat": 43.4711, "n_pixels": 1, "zone_area_km2": 0.0005, "cover_m2": 17.6, "p_mean": 0.898, "p_max": 0.898, "cover_m2_km2": 35200.0, "h3": "882d5688dbfffff", "valid_frac_scene": 1.0, "wind_ms": 2.5, "sea": "спокойное", "scene_reliable": true, "field_event_id": "S4:DOORS3:T17", "field_profile": "B", "field_date": "2024-06-04", "field_distance_km": 176.1, "field_date_gap_days": 831, "field_conc_items_km2": 89.61, "conc_A_items_km2": null, "conc_A_lo80": null, "conc_A_hi80": null, "conc_A_lo95": null, "conc_A_hi95": null, "conc_A_status": "unavailable", "conc_A_status_ru": "концентрация недоступна", "conc_A_reasons": "вне бассейна профиля: nw_atlantic_subtropical", "conc_A_model": "conc-A-c6bce5631d2b", "conc_B_items_km2": 396.2, "conc_B_lo80": 84.3, "conc_B_hi80": 1332.1, "conc_B_lo95": 52.4, "conc_B_hi95": 2494.6, "conc_B_status": "research_estimate", "conc_B_status_ru": "исследовательская оценка", "conc_B_reasons": "ближайшее полевое измерение в 176 км (> 60 км); месяц 9 вне месяцев обучения [6]", "conc_B_model": "conc-B-c6bce5631d2b"}}, {"type": "Feature", "geometry": {"type": "Polygon", "coordinates": [[[39.87490678576153, 43.4669261379164], [39.87490548713952, 43.46683610490435], [39.87478187470505, 43.46683705068563], [39.874779277845875, 43.46665698465127], [39.875025203187725, 43.46656505995347], [39.875026501975135, 43.466655092966924], [39.87515011403075, 43.466654146924334], [39.87515271199043, 43.46683421294095], [39.87490678576153, 43.4669261379164]]]}, "properties": {"zone_id": "sochi-2026-09-13-009", "aoi": "sochi", "date": "2026-09-13", "scene_id": "S2A_MSIL2A_20260913T082021_R121_T37TEJ_20260913T115558", "scene_datetime_utc": "2026-09-13T08:20:21.024000+00:00", "detection_status": "detected", "detection_status_ru": "обнаружено", "lon": 39.87497, "lat": 43.46675, "n_pixels": 2, "zone_area_km2": 0.0008, "cover_m2": 8.2, "p_mean": 0.812, "p_max": 0.969, "cover_m2_km2": 10250.0, "h3": "882d5612dbfffff", "valid_frac_scene": 1.0, "wind_ms": 2.5, "sea": "спокойное", "scene_reliable": true, "field_event_id": "S4:DOORS3:T17", "field_profile": "B", "field_date": "2024-06-04", "field_distance_km": 182.8, "field_date_gap_days": 831, "field_conc_items_km2": 89.61, "conc_A_items_km2": null, "conc_A_lo80": null, "conc_A_hi80": null, "conc_A_lo95": null, "conc_A_hi95": null, "conc_A_status": "unavailable", "conc_A_status_ru": "концентрация недоступна", "conc_A_reasons": "вне бассейна профиля: nw_atlantic_subtropical", "conc_A_model": "conc-A-c6bce5631d2b", "conc_B_items_km2": 591.0, "conc_B_lo80": 126.1, "conc_B_hi80": 1985.7, "conc_B_lo95": 78.7, "conc_B_hi95": 3718.1, "conc_B_status": "research_estimate", "conc_B_status_ru": "исследовательская оценка", "conc_B_reasons": "ближайшее полевое измерение в 183 км (> 60 км); месяц 9 вне месяцев обучения [6]; log_dist_coast_km = 1.2 вне диапазона обучения [1.7; 5.0]", "conc_B_model": "conc-B-c6bce5631d2b"}}, {"type": "Feature", "geometry": {"type": "Polygon", "coordinates": [[[39.804291463128116, 43.455739053614394], [39.804290269779095, 43.455649018796336], [39.80416667789818, 43.4556498880643], [39.80416548473801, 43.45555985324208], [39.804289076435595, 43.455558983976836], [39.804287883097615, 43.455468949155865], [39.80453625981421, 43.45555724504564], [39.80453745352437, 43.45564727985971], [39.804413861654496, 43.45564814939481], [39.804415055186844, 43.455738184210155], [39.804291463128116, 43.455739053614394]]]}, "properties": {"zone_id": "sochi-2026-09-13-010", "aoi": "sochi", "date": "2026-09-13", "scene_id": "S2A_MSIL2A_20260913T082021_R121_T37TEJ_20260913T115558", "scene_datetime_utc": "2026-09-13T08:20:21.024000+00:00", "detection_status": "detected", "detection_status_ru": "обнаружено", "lon": 39.80435, "lat": 43.4556, "n_pixels": 1, "zone_area_km2": 0.0005, "cover_m2": 4.3, "p_mean": 0.902, "p_max": 0.902, "cover_m2_km2": 8600.0, "h3": "882d568d63fffff", "valid_frac_scene": 1.0, "wind_ms": 2.5, "sea": "спокойное", "scene_reliable": true, "field_event_id": "S4:DOORS3:T17", "field_profile": "B", "field_date": "2024-06-04", "field_distance_km": 178.2, "field_date_gap_days": 831, "field_conc_items_km2": 89.61, "conc_A_items_km2": null, "conc_A_lo80": null, "conc_A_hi80": null, "conc_A_lo95": null, "conc_A_hi95": null, "conc_A_status": "unavailable", "conc_A_status_ru": "концентрация недоступна", "conc_A_reasons": "вне бассейна профиля: nw_atlantic_subtropical", "conc_A_model": "conc-A-c6bce5631d2b", "conc_B_items_km2": 419.0, "conc_B_lo80": 89.2, "conc_B_hi80": 1408.6, "conc_B_lo95": 55.5, "conc_B_hi95": 2637.7, "conc_B_status": "research_estimate", "conc_B_status_ru": "исследовательская оценка", "conc_B_reasons": "ближайшее полевое измерение в 178 км (> 60 км); месяц 9 вне месяцев обучения [6]", "conc_B_model": "conc-B-c6bce5631d2b"}}, {"type": "Feature", "geometry": {"type": "Polygon", "coordinates": [[[39.88681802997853, 43.44450368546492], [39.8868167147077, 43.44441365238681], [39.886693148333485, 43.44441461065206], [39.886690518176486, 43.444234544485475], [39.88693633475024, 43.444142594753956], [39.88693765018602, 43.444232627833436], [39.88706121618166, 43.44423166930718], [39.887063847437894, 43.444411735455795], [39.88681802997853, 43.44450368546492]]]}, "properties": {"zone_id": "sochi-2026-09-13-011", "aoi": "sochi", "date": "2026-09-13", "scene_id": "S2A_MSIL2A_20260913T082021_R121_T37TEJ_20260913T115558", "scene_datetime_utc": "2026-09-13T08:20:21.024000+00:00", "detection_status": "detected", "detection_status_ru": "обнаружено", "lon": 39.88688, "lat": 43.44432, "n_pixels": 2, "zone_area_km2": 0.0008, "cover_m2": 8.2, "p_mean": 0.927, "p_max": 0.933, "cover_m2_km2": 10250.0, "h3": "882d56128bfffff", "valid_frac_scene": 1.0, "wind_ms": 2.5, "sea": "спокойное", "scene_reliable": true, "field_event_id": "S4:DOORS3:T17", "field_profile": "B", "field_date": "2024-06-04", "field_distance_km": 181.6, "field_date_gap_days": 831, "field_conc_items_km2": 89.61, "conc_A_items_km2": null, "conc_A_lo80": null, "conc_A_hi80": null, "conc_A_lo95": null, "conc_A_hi95": null, "conc_A_status": "unavailable", "conc_A_status_ru": "концентрация недоступна", "conc_A_reasons": "вне бассейна профиля: nw_atlantic_subtropical", "conc_A_model": "conc-A-c6bce5631d2b", "conc_B_items_km2": 591.0, "conc_B_lo80": 126.1, "conc_B_hi80": 1985.7, "conc_B_lo95": 78.7, "conc_B_hi95": 3718.1, "conc_B_status": "research_estimate", "conc_B_status_ru": "исследовательская оценка", "conc_B_reasons": "ближайшее полевое измерение в 182 км (> 60 км); месяц 9 вне месяцев обучения [6]; log_dist_coast_km = 1.2 вне диапазона обучения [1.7; 5.0]", "conc_B_model": "conc-B-c6bce5631d2b"}}, {"type": "Feature", "geometry": {"type": "Polygon", "coordinates": [[[39.85681309156431, 43.43752898535831], [39.85681182110079, 43.437438951451135], [39.85668826793381, 43.4374398771764], [39.85668699765931, 43.43734984326488], [39.85681055064315, 43.437348917542515], [39.85680928019138, 43.437258883632445], [39.8570576565932, 43.43734706569734], [39.85705892741714, 43.43743709960018], [39.85693537426191, 43.4374380255924], [39.85693664490858, 43.43752805949668], [39.85681309156431, 43.43752898535831]]]}, "properties": {"zone_id": "sochi-2026-09-13-012", "aoi": "sochi", "date": "2026-09-13", "scene_id": "S2A_MSIL2A_20260913T082021_R121_T37TEJ_20260913T115558", "scene_datetime_utc": "2026-09-13T08:20:21.024000+00:00", "detection_status": "detected", "detection_status_ru": "обнаружено", "lon": 39.85687, "lat": 43.43739, "n_pixels": 1, "zone_area_km2": 0.0005, "cover_m2": 7.5, "p_mean": 0.894, "p_max": 0.894, "cover_m2_km2": 15000.0, "h3": "882d5612c7fffff", "valid_frac_scene": 1.0, "wind_ms": 2.5, "sea": "спокойное", "scene_reliable": true, "field_event_id": "S4:DOORS3:T17", "field_profile": "B", "field_date": "2024-06-04", "field_distance_km": 179.4, "field_date_gap_days": 831, "field_conc_items_km2": 89.61, "conc_A_items_km2": null, "conc_A_lo80": null, "conc_A_hi80": null, "conc_A_lo95": null, "conc_A_hi95": null, "conc_A_status": "unavailable", "conc_A_status_ru": "концентрация недоступна", "conc_A_reasons": "вне бассейна профиля: nw_atlantic_subtropical", "conc_A_model": "conc-A-c6bce5631d2b", "conc_B_items_km2": 494.5, "conc_B_lo80": 105.4, "conc_B_hi80": 1661.9, "conc_B_lo95": 65.7, "conc_B_hi95": 3111.9, "conc_B_status": "research_estimate", "conc_B_status_ru": "исследовательская оценка", "conc_B_reasons": "ближайшее полевое измерение в 179 км (> 60 км); месяц 9 вне месяцев обучения [6]", "conc_B_model": "conc-B-c6bce5631d2b"}}, {"type": "Feature", "geometry": {"type": "Polygon", "coordinates": [[[39.86101134859215, 43.43731736356482], [39.86101007191344, 43.43722732975339], [39.86088651931299, 43.437228260010976], [39.86088524282333, 43.43713822619518], [39.86100879524063, 43.437137295940516], [39.86100751857373, 43.43704726212618], [39.86125590005753, 43.437135435030754], [39.86125717709662, 43.437225468837816], [39.861133624507985, 43.43722639936234], [39.86113490136984, 43.43731643317086], [39.86101134859215, 43.43731736356482]]]}, "properties": {"zone_id": "sochi-2026-09-13-013", "aoi": "sochi", "date": "2026-09-13", "scene_id": "S2A_MSIL2A_20260913T082021_R121_T37TEJ_20260913T115558", "scene_datetime_utc": "2026-09-13T08:20:21.024000+00:00", "detection_status": "detected", "detection_status_ru": "обнаружено", "lon": 39.86107, "lat": 43.43718, "n_pixels": 1, "zone_area_km2": 0.0005, "cover_m2": 4.7, "p_mean": 0.988, "p_max": 0.988, "cover_m2_km2": 9400.0, "h3": "882d5612c7fffff", "valid_frac_scene": 1.0, "wind_ms": 2.5, "sea": "спокойное", "scene_reliable": true, "field_event_id": "S4:DOORS3:T17", "field_profile": "B", "field_date": "2024-06-04", "field_distance_km": 179.6, "field_date_gap_days": 831, "field_conc_items_km2": 89.61, "conc_A_items_km2": null, "conc_A_lo80": null, "conc_A_hi80": null, "conc_A_lo95": null, "conc_A_hi95": null, "conc_A_status": "unavailable", "conc_A_status_ru": "концентрация недоступна", "conc_A_reasons": "вне бассейна профиля: nw_atlantic_subtropical", "conc_A_model": "conc-A-c6bce5631d2b", "conc_B_items_km2": 539.0, "conc_B_lo80": 114.9, "conc_B_hi80": 1811.2, "conc_B_lo95": 71.7, "conc_B_hi95": 3391.3, "conc_B_status": "research_estimate", "conc_B_status_ru": "исследовательская оценка", "conc_B_reasons": "ближайшее полевое измерение в 180 км (> 60 км); месяц 9 вне месяцев обучения [6]", "conc_B_model": "conc-B-c6bce5631d2b"}}, {"type": "Feature", "geometry": {"type": "Polygon", "coordinates": [[[39.90359784725611, 43.434377506142546], [39.903596507574115, 43.434287473317156], [39.903472962371424, 43.43428844953342], [39.90347028339224, 43.43410838387221], [39.90371603321245, 43.434016398491735], [39.903717373058974, 43.43410643131842], [39.903840917883045, 43.43410545484135], [39.903843597960886, 43.43428552048426], [39.90359784725611, 43.434377506142546]]]}, "properties": {"zone_id": "sochi-2026-09-13-014", "aoi": "sochi", "date": "2026-09-13", "scene_id": "S2A_MSIL2A_20260913T082021_R121_T37TEJ_20260913T115558", "scene_datetime_utc": "2026-09-13T08:20:21.024000+00:00", "detection_status": "detected", "detection_status_ru": "обнаружено", "lon": 39.90366, "lat": 43.4342, "n_pixels": 2, "zone_area_km2": 0.0008, "cover_m2": 12.5, "p_mean": 0.782, "p_max": 0.8, "cover_m2_km2": 15625.0, "h3": "882d5612b9fffff", "valid_frac_scene": 1.0, "wind_ms": 2.5, "sea": "спокойное", "scene_reliable": true, "field_event_id": "S4:DOORS3:T23", "field_profile": "B", "field_date": "2024-06-10", "field_distance_km": 180.9, "field_date_gap_days": 825, "field_conc_items_km2": 102.37, "conc_A_items_km2": null, "conc_A_lo80": null, "conc_A_hi80": null, "conc_A_lo95": null, "conc_A_hi95": null, "conc_A_status": "unavailable", "conc_A_status_ru": "концентрация недоступна", "conc_A_reasons": "вне бассейна профиля: nw_atlantic_subtropical", "conc_A_model": "conc-A-c6bce5631d2b", "conc_B_items_km2": 666.4, "conc_B_lo80": 142.3, "conc_B_hi80": 2238.7, "conc_B_lo95": 88.8, "conc_B_hi95": 4191.7, "conc_B_status": "research_estimate", "conc_B_status_ru": "исследовательская оценка", "conc_B_reasons": "ближайшее полевое измерение в 181 км (> 60 км); месяц 9 вне месяцев обучения [6]; log_dist_coast_km = 0.9 вне диапазона обучения [1.7; 5.0]", "conc_B_model": "conc-B-c6bce5631d2b"}}, {"type": "Feature", "geometry": {"type": "Polygon", "coordinates": [[[39.9081872419607, 43.41903374854794], [39.908185896195846, 43.41894371559431], [39.908062382351375, 43.41894469649384], [39.90806103677571, 43.41885466353568], [39.90818455043722, 43.41885368263923], [39.90818320468482, 43.418763649682695], [39.90830671815714, 43.41876266865593], [39.908305372228, 43.41867263570101], [39.90855374508312, 43.41876070620224], [39.90855643769192, 43.418940772095446], [39.90843292386612, 43.41894175339512], [39.908434269996896, 43.419031786342615], [39.9081872419607, 43.41903374854794]]]}, "properties": {"zone_id": "sochi-2026-09-13-015", "aoi": "sochi", "date": "2026-09-13", "scene_id": "S2A_MSIL2A_20260913T082021_R121_T37TEJ_20260913T115558", "scene_datetime_utc": "2026-09-13T08:20:21.024000+00:00", "detection_status": "detected", "detection_status_ru": "обнаружено", "lon": 39.90833, "lat": 43.41887, "n_pixels": 3, "zone_area_km2": 0.001, "cover_m2": 9.0, "p_mean": 0.906, "p_max": 0.945, "cover_m2_km2": 9000.0, "h3": "882d5612a3fffff", "valid_frac_scene": 1.0, "wind_ms": 2.5, "sea": "спокойное", "scene_reliable": true, "field_event_id": "S4:DOORS3:T23", "field_profile": "B", "field_date": "2024-06-10", "field_distance_km": 179.5, "field_date_gap_days": 825, "field_conc_items_km2": 102.37, "conc_A_items_km2": null, "conc_A_lo80": null, "conc_A_hi80": null, "conc_A_lo95": null, "conc_A_hi95": null, "conc_A_status": "unavailable", "conc_A_status_ru": "концентрация недоступна", "conc_A_reasons": "вне бассейна профиля: nw_atlantic_subtropical", "conc_A_model": "conc-A-c6bce5631d2b", "conc_B_items_km2": 666.4, "conc_B_lo80": 142.3, "conc_B_hi80": 2238.7, "conc_B_lo95": 88.8, "conc_B_hi95": 4191.7, "conc_B_status": "research_estimate", "conc_B_status_ru": "исследовательская оценка", "conc_B_reasons": "ближайшее полевое измерение в 180 км (> 60 км); месяц 9 вне месяцев обучения [6]; log_dist_coast_km = 0.9 вне диапазона обучения [1.7; 5.0]", "conc_B_model": "conc-B-c6bce5631d2b"}}]}