{"type": "FeatureCollection", "features": [{"type": "Feature", "geometry": {"type": "Polygon", "coordinates": [[[49.26703412331593, 53.491447817632654], [49.2670377869922, 53.491357971931706], [49.266887131006506, 53.49135578696073], [49.26689079498115, 53.49126594126538], [49.26719576965471, 53.49118046529214], [49.26719210633604, 53.491270311003255], [49.267342762043086, 53.49127249558747], [49.267339099022784, 53.49136234130418], [49.26718844299762, 53.49136015671286], [49.26718477963947, 53.491450002420926], [49.26703412331593, 53.491447817632654]]]}, "properties": {"zone_id": "kuibyshev-2025-07-11-001", "aoi": "kuibyshev", "date": "2025-07-11", "scene_id": "S2A_MSIL2A_20250711T075031_R135_T39UUV_20250711T092212", "scene_datetime_utc": "2025-07-11T07:50:31.024000+00:00", "detection_status": "detected", "detection_status_ru": "обнаружено", "lon": 49.26711, "lat": 53.49131, "n_pixels": 1, "zone_area_km2": 0.0005, "cover_m2": 15.3, "p_mean": 0.518, "p_max": 0.518, "cover_m2_km2": 30600.0, "h3": "8810856d21fffff", "valid_frac_scene": 1.0, "wind_ms": 1.9, "sea": "спокойное", "scene_reliable": true, "field_event_id": "S4:DOORS3:T23", "field_profile": "B", "field_date": "2024-06-10", "field_distance_km": 1365.0, "field_date_gap_days": 396, "field_conc_items_km2": 102.37, "conc_A_items_km2": null, "conc_A_lo80": null, "conc_A_hi80": null, "conc_A_lo95": null, "conc_A_hi95": null, "conc_A_status": "unavailable", "conc_A_status_ru": "концентрация недоступна", "conc_A_reasons": "вне бассейна профиля: nw_atlantic_subtropical", "conc_A_model": "conc-A-c6bce5631d2b", "conc_B_items_km2": null, "conc_B_lo80": null, "conc_B_hi80": null, "conc_B_lo95": null, "conc_B_hi95": null, "conc_B_status": "unavailable", "conc_B_status_ru": "концентрация недоступна", "conc_B_reasons": "вне бассейна профиля: black_sea", "conc_B_model": "conc-B-c6bce5631d2b"}}, {"type": "Feature", "geometry": {"type": "MultiPolygon", "coordinates": [[[[49.26825035779164, 53.49119575334543], [49.26824669669975, 53.491285599106384], [49.26854800840979, 53.491289965427434], [49.26855166886545, 53.49120011965225], [49.268702324431935, 53.49120230252092], [49.26870598454977, 53.49111245673709], [49.26855532930139, 53.491110273875535], [49.26855898971761, 53.491020428097286], [49.26825767991625, 53.49101606181894], [49.26825401886381, 53.49110590758295], [49.2681033636746, 53.49110372415193], [49.26809970228432, 53.491193569907296], [49.26825035779164, 53.49119575334543]]], [[[49.26794904679672, 53.49119138627932], [49.26795270850511, 53.49110154053107], [49.26765139822534, 53.4910971727199], [49.26764773588072, 53.49118701845392], [49.26749708045232, 53.49118483425649], [49.26749341776986, 53.49127467998185], [49.26764407351638, 53.4912768641864], [49.26764041113231, 53.491366709917365], [49.26794172332076, 53.49137107777123], [49.26794538506861, 53.49128123202605], [49.26809604087432, 53.49128341566114], [49.26809970228432, 53.491193569907296], [49.26794904679672, 53.49119138627932]]]]}, "properties": {"zone_id": "kuibyshev-2025-07-11-002", "aoi": "kuibyshev", "date": "2025-07-11", "scene_id": "S2A_MSIL2A_20250711T075031_R135_T39UUV_20250711T092212", "scene_datetime_utc": "2025-07-11T07:50:31.024000+00:00", "detection_status": "detected", "detection_status_ru": "обнаружено", "lon": 49.2681, "lat": 53.49119, "n_pixels": 4, "zone_area_km2": 0.0016, "cover_m2": 54.5, "p_mean": 0.697, "p_max": 0.886, "cover_m2_km2": 34062.5, "h3": "8810856d21fffff", "valid_frac_scene": 1.0, "wind_ms": 1.9, "sea": "спокойное", "scene_reliable": true, "field_event_id": "S4:DOORS3:T23", "field_profile": "B", "field_date": "2024-06-10", "field_distance_km": 1365.0, "field_date_gap_days": 396, "field_conc_items_km2": 102.37, "conc_A_items_km2": null, "conc_A_lo80": null, "conc_A_hi80": null, "conc_A_lo95": null, "conc_A_hi95": null, "conc_A_status": "unavailable", "conc_A_status_ru": "концентрация недоступна", "conc_A_reasons": "вне бассейна профиля: nw_atlantic_subtropical", "conc_A_model": "conc-A-c6bce5631d2b", "conc_B_items_km2": null, "conc_B_lo80": null, "conc_B_hi80": null, "conc_B_lo95": null, "conc_B_hi95": null, "conc_B_status": "unavailable", "conc_B_status_ru": "концентрация недоступна", "conc_B_reasons": "вне бассейна профиля: black_sea", "conc_B_model": "conc-B-c6bce5631d2b"}}, {"type": "Feature", "geometry": {"type": "Polygon", "coordinates": [[[49.38020630289694, 53.46076224380906], [49.38020972355421, 53.46067239244562], [49.38005916750434, 53.460670350919216], [49.380066009398824, 53.4604906482011], [49.379915454002585, 53.46048860649836], [49.379918875239795, 53.46039875514369], [49.380069430318436, 53.46040079683979], [49.38007285121964, 53.46031094547696], [49.38037396079698, 53.46031502828693], [49.38037054053098, 53.46040487966306], [49.38052109566488, 53.46040692079023], [49.38051083570918, 53.46067647492952], [49.38020630289694, 53.46076224380906]]]}, "properties": {"zone_id": "kuibyshev-2025-07-11-003", "aoi": "kuibyshev", "date": "2025-07-11", "scene_id": "S2A_MSIL2A_20250711T075031_R135_T39UUV_20250711T092212", "scene_datetime_utc": "2025-07-11T07:50:31.024000+00:00", "detection_status": "detected", "detection_status_ru": "обнаружено", "lon": 49.38025, "lat": 53.46052, "n_pixels": 4, "zone_area_km2": 0.0013, "cover_m2": 400.0, "p_mean": 0.566, "p_max": 0.651, "cover_m2_km2": 307692.3, "h3": "881081d0cbfffff", "valid_frac_scene": 1.0, "wind_ms": 1.9, "sea": "спокойное", "scene_reliable": true, "field_event_id": "S4:DOORS3:T23", "field_profile": "B", "field_date": "2024-06-10", "field_distance_km": 1365.5, "field_date_gap_days": 396, "field_conc_items_km2": 102.37, "conc_A_items_km2": null, "conc_A_lo80": null, "conc_A_hi80": null, "conc_A_lo95": null, "conc_A_hi95": null, "conc_A_status": "unavailable", "conc_A_status_ru": "концентрация недоступна", "conc_A_reasons": "вне бассейна профиля: nw_atlantic_subtropical", "conc_A_model": "conc-A-c6bce5631d2b", "conc_B_items_km2": null, "conc_B_lo80": null, "conc_B_hi80": null, "conc_B_lo95": null, "conc_B_hi95": null, "conc_B_status": "unavailable", "conc_B_status_ru": "концентрация недоступна", "conc_B_reasons": "вне бассейна профиля: black_sea", "conc_B_model": "conc-B-c6bce5631d2b"}}, {"type": "Feature", "geometry": {"type": "Polygon", "coordinates": [[[49.301220706161914, 53.454540887777654], [49.30122429275928, 53.4544510399112], [49.301073764730766, 53.45444889903746], [49.30107735162625, 53.45435905117646], [49.30138199330903, 53.454273484843945], [49.301378407067716, 53.454363332720426], [49.30152893481741, 53.45436547320802], [49.30152534887423, 53.45445532108995], [49.301374820807105, 53.454453180595365], [49.301371234527174, 53.454543028468784], [49.301220706161914, 53.454540887777654]]]}, "properties": {"zone_id": "kuibyshev-2025-07-11-004", "aoi": "kuibyshev", "date": "2025-07-11", "scene_id": "S2A_MSIL2A_20250711T075031_R135_T39UUV_20250711T092212", "scene_datetime_utc": "2025-07-11T07:50:31.024000+00:00", "detection_status": "detected", "detection_status_ru": "обнаружено", "lon": 49.3013, "lat": 53.45441, "n_pixels": 1, "zone_area_km2": 0.0005, "cover_m2": 11.4, "p_mean": 0.992, "p_max": 0.992, "cover_m2_km2": 22800.0, "h3": "881081d233fffff", "valid_frac_scene": 1.0, "wind_ms": 1.9, "sea": "спокойное", "scene_reliable": true, "field_event_id": "S4:DOORS3:T23", "field_profile": "B", "field_date": "2024-06-10", "field_distance_km": 1362.4, "field_date_gap_days": 396, "field_conc_items_km2": 102.37, "conc_A_items_km2": null, "conc_A_lo80": null, "conc_A_hi80": null, "conc_A_lo95": null, "conc_A_hi95": null, "conc_A_status": "unavailable", "conc_A_status_ru": "концентрация недоступна", "conc_A_reasons": "вне бассейна профиля: nw_atlantic_subtropical", "conc_A_model": "conc-A-c6bce5631d2b", "conc_B_items_km2": null, "conc_B_lo80": null, "conc_B_hi80": null, "conc_B_lo95": null, "conc_B_hi95": null, "conc_B_status": "unavailable", "conc_B_status_ru": "концентрация недоступна", "conc_B_reasons": "вне бассейна профиля: black_sea", "conc_B_model": "conc-B-c6bce5631d2b"}}, {"type": "Feature", "geometry": {"type": "Polygon", "coordinates": [[[49.29038632416569, 53.45429641243904], [49.290389933598554, 53.45420656507482], [49.290239407282186, 53.45420441055849], [49.29024662672447, 53.454024715839495], [49.290397152406, 53.45402687034178], [49.290400761780575, 53.453937022972966], [49.29069820382736, 53.45403117877764], [49.29069459506819, 53.45412102615896], [49.290845121125436, 53.454123180099536], [49.29084151266426, 53.45421302748636], [49.2906909862896, 53.45421087353876], [49.29068737749157, 53.45430072091702], [49.29038632416569, 53.45429641243904]]]}, "properties": {"zone_id": "kuibyshev-2025-07-11-005", "aoi": "kuibyshev", "date": "2025-07-11", "scene_id": "S2A_MSIL2A_20250711T075031_R135_T39UUV_20250711T092212", "scene_datetime_utc": "2025-07-11T07:50:31.024000+00:00", "detection_status": "detected", "detection_status_ru": "обнаружено", "lon": 49.29052, "lat": 53.45413, "n_pixels": 3, "zone_area_km2": 0.001, "cover_m2": 12.2, "p_mean": 0.997, "p_max": 1.0, "cover_m2_km2": 12200.0, "h3": "881081d233fffff", "valid_frac_scene": 1.0, "wind_ms": 1.9, "sea": "спокойное", "scene_reliable": true, "field_event_id": "S4:DOORS3:T23", "field_profile": "B", "field_date": "2024-06-10", "field_distance_km": 1362.0, "field_date_gap_days": 396, "field_conc_items_km2": 102.37, "conc_A_items_km2": null, "conc_A_lo80": null, "conc_A_hi80": null, "conc_A_lo95": null, "conc_A_hi95": null, "conc_A_status": "unavailable", "conc_A_status_ru": "концентрация недоступна", "conc_A_reasons": "вне бассейна профиля: nw_atlantic_subtropical", "conc_A_model": "conc-A-c6bce5631d2b", "conc_B_items_km2": null, "conc_B_lo80": null, "conc_B_hi80": null, "conc_B_lo95": null, "conc_B_hi95": null, "conc_B_status": "unavailable", "conc_B_status_ru": "концентрация недоступна", "conc_B_reasons": "вне бассейна профиля: black_sea", "conc_B_model": "conc-B-c6bce5631d2b"}}, {"type": "Feature", "geometry": {"type": "Polygon", "coordinates": [[[49.350811727751406, 53.45352779315174], [49.350815209549054, 53.45343794299532], [49.35066468129184, 53.45343586462493], [49.35067164546579, 53.453256164321104], [49.35097618215317, 53.45317047067748], [49.350972700729194, 53.45326032084521], [49.351123228389014, 53.4532623988229], [49.351116266119725, 53.45344209916736], [49.350811727751406, 53.45352779315174]]]}, "properties": {"zone_id": "kuibyshev-2025-07-11-006", "aoi": "kuibyshev", "date": "2025-07-11", "scene_id": "S2A_MSIL2A_20250711T075031_R135_T39UUV_20250711T092212", "scene_datetime_utc": "2025-07-11T07:50:31.024000+00:00", "detection_status": "detected", "detection_status_ru": "обнаружено", "lon": 49.35089, "lat": 53.45335, "n_pixels": 2, "zone_area_km2": 0.0008, "cover_m2": 23.5, "p_mean": 0.882, "p_max": 0.929, "cover_m2_km2": 29375.0, "h3": "881081d2a5fffff", "valid_frac_scene": 1.0, "wind_ms": 1.9, "sea": "спокойное", "scene_reliable": true, "field_event_id": "S4:DOORS3:T23", "field_profile": "B", "field_date": "2024-06-10", "field_distance_km": 1363.8, "field_date_gap_days": 396, "field_conc_items_km2": 102.37, "conc_A_items_km2": null, "conc_A_lo80": null, "conc_A_hi80": null, "conc_A_lo95": null, "conc_A_hi95": null, "conc_A_status": "unavailable", "conc_A_status_ru": "концентрация недоступна", "conc_A_reasons": "вне бассейна профиля: nw_atlantic_subtropical", "conc_A_model": "conc-A-c6bce5631d2b", "conc_B_items_km2": null, "conc_B_lo80": null, "conc_B_hi80": null, "conc_B_lo95": null, "conc_B_hi95": null, "conc_B_status": "unavailable", "conc_B_status_ru": "концентрация недоступна", "conc_B_reasons": "вне бассейна профиля: black_sea", "conc_B_model": "conc-B-c6bce5631d2b"}}, {"type": "Feature", "geometry": {"type": "Polygon", "coordinates": [[[49.35192457853497, 53.452014882812755], [49.35192805779204, 53.45192503258319], [49.35177753480001, 53.45192295565493], [49.351781014355765, 53.45183310543061], [49.35208553862592, 53.45174740884465], [49.35208205972373, 53.451837259084016], [49.352232582435796, 53.45183933562636], [49.35222910383229, 53.45192918587098], [49.352078580802804, 53.45192710932187], [49.35207510186315, 53.45201695955821], [49.35192457853497, 53.452014882812755]]]}, "properties": {"zone_id": "kuibyshev-2025-07-11-007", "aoi": "kuibyshev", "date": "2025-07-11", "scene_id": "S2A_MSIL2A_20250711T075031_R135_T39UUV_20250711T092212", "scene_datetime_utc": "2025-07-11T07:50:31.024000+00:00", "detection_status": "detected", "detection_status_ru": "обнаружено", "lon": 49.35201, "lat": 53.45188, "n_pixels": 1, "zone_area_km2": 0.0005, "cover_m2": 10.6, "p_mean": 0.529, "p_max": 0.529, "cover_m2_km2": 21200.0, "h3": "881081d2a5fffff", "valid_frac_scene": 1.0, "wind_ms": 1.9, "sea": "спокойное", "scene_reliable": true, "field_event_id": "S4:DOORS3:T23", "field_profile": "B", "field_date": "2024-06-10", "field_distance_km": 1363.7, "field_date_gap_days": 396, "field_conc_items_km2": 102.37, "conc_A_items_km2": null, "conc_A_lo80": null, "conc_A_hi80": null, "conc_A_lo95": null, "conc_A_hi95": null, "conc_A_status": "unavailable", "conc_A_status_ru": "концентрация недоступна", "conc_A_reasons": "вне бассейна профиля: nw_atlantic_subtropical", "conc_A_model": "conc-A-c6bce5631d2b", "conc_B_items_km2": null, "conc_B_lo80": null, "conc_B_hi80": null, "conc_B_lo95": null, "conc_B_hi95": null, "conc_B_status": "unavailable", "conc_B_status_ru": "концентрация недоступна", "conc_B_reasons": "вне бассейна профиля: black_sea", "conc_B_model": "conc-B-c6bce5631d2b"}}, {"type": "Feature", "geometry": {"type": "Polygon", "coordinates": [[[49.352390061682605, 53.451661711471814], [49.35239353991251, 53.45157186121589], [49.35224301813396, 53.451569784883404], [49.35224649666256, 53.45147993463273], [49.352551017478625, 53.45139423682885], [49.35254753960357, 53.45148408709458], [49.35269806110217, 53.451486163041146], [49.3526945835258, 53.45157601331211], [49.35254406170979, 53.45157393735879], [49.35254058379729, 53.45166378762148], [49.352390061682605, 53.451661711471814]]]}, "properties": {"zone_id": "kuibyshev-2025-07-11-008", "aoi": "kuibyshev", "date": "2025-07-11", "scene_id": "S2A_MSIL2A_20250711T075031_R135_T39UUV_20250711T092212", "scene_datetime_utc": "2025-07-11T07:50:31.024000+00:00", "detection_status": "detected", "detection_status_ru": "обнаружено", "lon": 49.35247, "lat": 53.45153, "n_pixels": 1, "zone_area_km2": 0.0005, "cover_m2": 12.2, "p_mean": 0.545, "p_max": 0.545, "cover_m2_km2": 24400.0, "h3": "881081d2a5fffff", "valid_frac_scene": 1.0, "wind_ms": 1.9, "sea": "спокойное", "scene_reliable": true, "field_event_id": "S4:DOORS3:T23", "field_profile": "B", "field_date": "2024-06-10", "field_distance_km": 1363.7, "field_date_gap_days": 396, "field_conc_items_km2": 102.37, "conc_A_items_km2": null, "conc_A_lo80": null, "conc_A_hi80": null, "conc_A_lo95": null, "conc_A_hi95": null, "conc_A_status": "unavailable", "conc_A_status_ru": "концентрация недоступна", "conc_A_reasons": "вне бассейна профиля: nw_atlantic_subtropical", "conc_A_model": "conc-A-c6bce5631d2b", "conc_B_items_km2": null, "conc_B_lo80": null, "conc_B_hi80": null, "conc_B_lo95": null, "conc_B_hi95": null, "conc_B_status": "unavailable", "conc_B_status_ru": "концентрация недоступна", "conc_B_reasons": "вне бассейна профиля: black_sea", "conc_B_model": "conc-B-c6bce5631d2b"}}, {"type": "Feature", "geometry": {"type": "Polygon", "coordinates": [[[49.35407012874943, 53.45105558634764], [49.354073603356845, 53.450965736006744], [49.353776039073914, 53.45087173708852], [49.35377951427872, 53.45078188675809], [49.35393003338779, 53.450783961134], [49.353933508256496, 53.45069411079531], [49.35423454589597, 53.45069825896493], [49.354231071662056, 53.45078810931714], [49.354381590827245, 53.45079018312435], [49.35437464293812, 53.45096988383776], [49.35407012874943, 53.45105558634764]]]}, "properties": {"zone_id": "kuibyshev-2025-07-11-009", "aoi": "kuibyshev", "date": "2025-07-11", "scene_id": "S2A_MSIL2A_20250711T075031_R135_T39UUV_20250711T092212", "scene_datetime_utc": "2025-07-11T07:50:31.024000+00:00", "detection_status": "detected", "detection_status_ru": "обнаружено", "lon": 49.3541, "lat": 53.45086, "n_pixels": 3, "zone_area_km2": 0.001, "cover_m2": 51.8, "p_mean": 0.648, "p_max": 0.765, "cover_m2_km2": 51800.0, "h3": "881081d2a7fffff", "valid_frac_scene": 1.0, "wind_ms": 1.9, "sea": "спокойное", "scene_reliable": true, "field_event_id": "S4:DOORS3:T23", "field_profile": "B", "field_date": "2024-06-10", "field_distance_km": 1363.7, "field_date_gap_days": 396, "field_conc_items_km2": 102.37, "conc_A_items_km2": null, "conc_A_lo80": null, "conc_A_hi80": null, "conc_A_lo95": null, "conc_A_hi95": null, "conc_A_status": "unavailable", "conc_A_status_ru": "концентрация недоступна", "conc_A_reasons": "вне бассейна профиля: nw_atlantic_subtropical", "conc_A_model": "conc-A-c6bce5631d2b", "conc_B_items_km2": null, "conc_B_lo80": null, "conc_B_hi80": null, "conc_B_lo95": null, "conc_B_hi95": null, "conc_B_status": "unavailable", "conc_B_status_ru": "концентрация недоступна", "conc_B_reasons": "вне бассейна профиля: black_sea", "conc_B_model": "conc-B-c6bce5631d2b"}}, {"type": "Feature", "geometry": {"type": "Polygon", "coordinates": [[[49.14207090230262, 53.44992383848968], [49.14207482413755, 53.44983399830827], [49.14192432542495, 53.44983165708125], [49.14192824755601, 53.449741816905906], [49.142233165843344, 53.449656658963036], [49.14222924436786, 53.44974649915519], [49.14237974280545, 53.44974883999557], [49.142375821626096, 53.44983868019379], [49.14222532287127, 53.449836339345794], [49.142221401353574, 53.44992617953481], [49.14207090230262, 53.44992383848968]]]}, "properties": {"zone_id": "kuibyshev-2025-07-11-010", "aoi": "kuibyshev", "date": "2025-07-11", "scene_id": "S2A_MSIL2A_20250711T075031_R135_T39UUV_20250711T092212", "scene_datetime_utc": "2025-07-11T07:50:31.024000+00:00", "detection_status": "detected", "detection_status_ru": "обнаружено", "lon": 49.14215, "lat": 53.44979, "n_pixels": 1, "zone_area_km2": 0.0005, "cover_m2": 5.9, "p_mean": 0.502, "p_max": 0.502, "cover_m2_km2": 11800.0, "h3": "88108569d1fffff", "valid_frac_scene": 1.0, "wind_ms": 1.9, "sea": "спокойное", "scene_reliable": true, "field_event_id": "S4:DOORS3:T23", "field_profile": "B", "field_date": "2024-06-10", "field_distance_km": 1357.0, "field_date_gap_days": 396, "field_conc_items_km2": 102.37, "conc_A_items_km2": null, "conc_A_lo80": null, "conc_A_hi80": null, "conc_A_lo95": null, "conc_A_hi95": null, "conc_A_status": "unavailable", "conc_A_status_ru": "концентрация недоступна", "conc_A_reasons": "вне бассейна профиля: nw_atlantic_subtropical", "conc_A_model": "conc-A-c6bce5631d2b", "conc_B_items_km2": null, "conc_B_lo80": null, "conc_B_hi80": null, "conc_B_lo95": null, "conc_B_hi95": null, "conc_B_status": "unavailable", "conc_B_status_ru": "концентрация недоступна", "conc_B_reasons": "вне бассейна профиля: black_sea", "conc_B_model": "conc-B-c6bce5631d2b"}}, {"type": "Feature", "geometry": {"type": "Polygon", "coordinates": [[[49.145544129363984, 53.44970811350853], [49.145548043839206, 53.4496182731472], [49.14539754559322, 53.44961593630163], [49.14540146036461, 53.449526095946354], [49.14555195829337, 53.44952843278433], [49.14555587272645, 53.449438592419895], [49.14585686801269, 53.44944326551208], [49.14585295421408, 53.44953310589174], [49.14600345220604, 53.4495354421612], [49.145999538703585, 53.44962528254691], [49.14584904039439, 53.44962294626985], [49.14584512655364, 53.44971278664639], [49.145544129363984, 53.44970811350853]]]}, "properties": {"zone_id": "kuibyshev-2025-07-11-011", "aoi": "kuibyshev", "date": "2025-07-11", "scene_id": "S2A_MSIL2A_20250711T075031_R135_T39UUV_20250711T092212", "scene_datetime_utc": "2025-07-11T07:50:31.024000+00:00", "detection_status": "detected", "detection_status_ru": "обнаружено", "lon": 49.1457, "lat": 53.44958, "n_pixels": 2, "zone_area_km2": 0.0008, "cover_m2": 15.3, "p_mean": 0.563, "p_max": 0.588, "cover_m2_km2": 19125.0, "h3": "88108569d1fffff", "valid_frac_scene": 1.0, "wind_ms": 1.9, "sea": "спокойное", "scene_reliable": true, "field_event_id": "S4:DOORS3:T23", "field_profile": "B", "field_date": "2024-06-10", "field_distance_km": 1357.1, "field_date_gap_days": 396, "field_conc_items_km2": 102.37, "conc_A_items_km2": null, "conc_A_lo80": null, "conc_A_hi80": null, "conc_A_lo95": null, "conc_A_hi95": null, "conc_A_status": "unavailable", "conc_A_status_ru": "концентрация недоступна", "conc_A_reasons": "вне бассейна профиля: nw_atlantic_subtropical", "conc_A_model": "conc-A-c6bce5631d2b", "conc_B_items_km2": null, "conc_B_lo80": null, "conc_B_hi80": null, "conc_B_lo95": null, "conc_B_hi95": null, "conc_B_status": "unavailable", "conc_B_status_ru": "концентрация недоступна", "conc_B_reasons": "вне бассейна профиля: black_sea", "conc_B_model": "conc-B-c6bce5631d2b"}}, {"type": "Feature", "geometry": {"type": "MultiPolygon", "coordinates": [[[[49.58048611116974, 53.44452175137545], [49.58048311512493, 53.44461161132285], [49.58078414163401, 53.44461518837189], [49.580787137044, 53.44452532841283], [49.58093765000532, 53.44452711664716], [49.58094064508176, 53.4444372566808], [49.580790132437855, 53.44443546845229], [49.58079312781558, 53.444345608490295], [49.58049210321098, 53.44434203147622], [49.580489107198424, 53.44443189142657], [49.58033859460289, 53.44443010262934], [49.580335598256795, 53.444519962572386], [49.58048611116974, 53.44452175137545]]], [[[49.58018508535999, 53.444518173579745], [49.5801880820235, 53.444428313642526], [49.58003756946024, 53.44442652446613], [49.58003457247932, 53.444516384397524], [49.57988405961477, 53.44451459502572], [49.57988106230031, 53.44460445494982], [49.580179091984576, 53.44469789344976], [49.580182088680345, 53.444608033515486], [49.58033260189457, 53.44460982251396], [49.580335598256795, 53.444519962572386], [49.58018508535999, 53.444518173579745]]]]}, "properties": {"zone_id": "kuibyshev-2025-07-11-012", "aoi": "kuibyshev", "date": "2025-07-11", "scene_id": "S2A_MSIL2A_20250711T075031_R135_T39UUV_20250711T092212", "scene_datetime_utc": "2025-07-11T07:50:31.024000+00:00", "detection_status": "detected", "detection_status_ru": "обнаружено", "lon": 49.58046, "lat": 53.44451, "n_pixels": 3, "zone_area_km2": 0.0013, "cover_m2": 8.6, "p_mean": 0.82, "p_max": 0.918, "cover_m2_km2": 6615.4, "h3": "881081c289fffff", "valid_frac_scene": 1.0, "wind_ms": 1.9, "sea": "спокойное", "scene_reliable": true, "field_event_id": "S4:DOORS3:T23", "field_profile": "B", "field_date": "2024-06-10", "field_distance_km": 1370.2, "field_date_gap_days": 396, "field_conc_items_km2": 102.37, "conc_A_items_km2": null, "conc_A_lo80": null, "conc_A_hi80": null, "conc_A_lo95": null, "conc_A_hi95": null, "conc_A_status": "unavailable", "conc_A_status_ru": "концентрация недоступна", "conc_A_reasons": "вне бассейна профиля: nw_atlantic_subtropical", "conc_A_model": "conc-A-c6bce5631d2b", "conc_B_items_km2": null, "conc_B_lo80": null, "conc_B_hi80": null, "conc_B_lo95": null, "conc_B_hi95": null, "conc_B_status": "unavailable", "conc_B_status_ru": "концентрация недоступна", "conc_B_reasons": "вне бассейна профиля: black_sea", "conc_B_model": "conc-B-c6bce5631d2b"}}, {"type": "Feature", "geometry": {"type": "Polygon", "coordinates": [[[49.142257631212985, 53.44219523661254], [49.142261551550135, 53.44210539630471], [49.14211108013466, 53.44210305554397], [49.1421150007678, 53.44201321524222], [49.14241986296353, 53.441928056240414], [49.142415942985664, 53.44201789655898], [49.142566414126236, 53.44202023693318], [49.14256249444437, 53.442110077257816], [49.1424120229867, 53.442107736876], [49.14240810296665, 53.44219757719145], [49.142257631212985, 53.44219523661254]]]}, "properties": {"zone_id": "kuibyshev-2025-07-11-013", "aoi": "kuibyshev", "date": "2025-07-11", "scene_id": "S2A_MSIL2A_20250711T075031_R135_T39UUV_20250711T092212", "scene_datetime_utc": "2025-07-11T07:50:31.024000+00:00", "detection_status": "detected", "detection_status_ru": "обнаружено", "lon": 49.14234, "lat": 53.44206, "n_pixels": 1, "zone_area_km2": 0.0005, "cover_m2": 2.0, "p_mean": 0.506, "p_max": 0.506, "cover_m2_km2": 4000.0, "h3": "88108569d5fffff", "valid_frac_scene": 1.0, "wind_ms": 1.9, "sea": "спокойное", "scene_reliable": true, "field_event_id": "S4:DOORS3:T23", "field_profile": "B", "field_date": "2024-06-10", "field_distance_km": 1356.3, "field_date_gap_days": 396, "field_conc_items_km2": 102.37, "conc_A_items_km2": null, "conc_A_lo80": null, "conc_A_hi80": null, "conc_A_lo95": null, "conc_A_hi95": null, "conc_A_status": "unavailable", "conc_A_status_ru": "концентрация недоступна", "conc_A_reasons": "вне бассейна профиля: nw_atlantic_subtropical", "conc_A_model": "conc-A-c6bce5631d2b", "conc_B_items_km2": null, "conc_B_lo80": null, "conc_B_hi80": null, "conc_B_lo95": null, "conc_B_hi95": null, "conc_B_status": "unavailable", "conc_B_status_ru": "концентрация недоступна", "conc_B_reasons": "вне бассейна профиля: black_sea", "conc_B_model": "conc-B-c6bce5631d2b"}}, {"type": "Feature", "geometry": {"type": "Polygon", "coordinates": [[[49.362301670317756, 53.440650642686045], [49.362305126242866, 53.44056079181738], [49.36215464263504, 53.44055872826186], [49.36216155506386, 53.44037902653346], [49.362465976581376, 53.440293302548184], [49.36246252102927, 53.4403831534281], [49.36261300403988, 53.440385216591174], [49.36260609351431, 53.440564918359904], [49.362301670317756, 53.440650642686045]]]}, "properties": {"zone_id": "kuibyshev-2025-07-11-014", "aoi": "kuibyshev", "date": "2025-07-11", "scene_id": "S2A_MSIL2A_20250711T075031_R135_T39UUV_20250711T092212", "scene_datetime_utc": "2025-07-11T07:50:31.024000+00:00", "detection_status": "detected", "detection_status_ru": "обнаружено", "lon": 49.36238, "lat": 53.44047, "n_pixels": 2, "zone_area_km2": 0.0008, "cover_m2": 19.2, "p_mean": 0.935, "p_max": 0.996, "cover_m2_km2": 24000.0, "h3": "881081d013fffff", "valid_frac_scene": 1.0, "wind_ms": 1.9, "sea": "спокойное", "scene_reliable": true, "field_event_id": "S4:DOORS3:T23", "field_profile": "B", "field_date": "2024-06-10", "field_distance_km": 1362.9, "field_date_gap_days": 396, "field_conc_items_km2": 102.37, "conc_A_items_km2": null, "conc_A_lo80": null, "conc_A_hi80": null, "conc_A_lo95": null, "conc_A_hi95": null, "conc_A_status": "unavailable", "conc_A_status_ru": "концентрация недоступна", "conc_A_reasons": "вне бассейна профиля: nw_atlantic_subtropical", "conc_A_model": "conc-A-c6bce5631d2b", "conc_B_items_km2": null, "conc_B_lo80": null, "conc_B_hi80": null, "conc_B_lo95": null, "conc_B_hi95": null, "conc_B_status": "unavailable", "conc_B_status_ru": "концентрация недоступна", "conc_B_reasons": "вне бассейна профиля: black_sea", "conc_B_model": "conc-B-c6bce5631d2b"}}]}