{"type": "FeatureCollection", "features": [{"type": "Feature", "geometry": {"type": "Polygon", "coordinates": [[[29.70870905702402, 59.98846092882166], [29.70870172295092, 59.988371236406486], [29.708336349879456, 59.98828889247602], [29.70832901686552, 59.9881992000309], [29.70850803592775, 59.98819552592213], [29.70850070247687, 59.98810583348845], [29.708858739495874, 59.98809848456974], [29.70886607391328, 59.988188176977026], [29.709045092836572, 59.98818450214066], [29.709052427783558, 59.988274194532934], [29.709231447143786, 59.98827051944085], [29.70923878262036, 59.98836021181815], [29.709059762776867, 59.988363886923445], [29.709067097816504, 59.98845357931221], [29.70870905702402, 59.98846092882166]]]}, "properties": {"zone_id": "neva-2026-05-05-001", "aoi": "neva", "date": "2026-05-05", "scene_id": "S2C_MSIL2A_20260505T093041_R136_T36VUM_20260505T124718", "scene_datetime_utc": "2026-05-05T09:30:41.025000+00:00", "detection_status": "detected", "detection_status_ru": "обнаружено", "lon": 29.70878, "lat": 59.98828, "n_pixels": 4, "zone_area_km2": 0.0012, "cover_m2": 38.8, "p_mean": 0.825, "p_max": 0.976, "cover_m2_km2": 32333.3, "h3": "8811068705fffff", "valid_frac_scene": 0.91, "wind_ms": 8.6, "sea": "шторм", "scene_reliable": false, "field_event_id": "S3:HE419_MarLitter_transect28", "field_profile": "B", "field_date": "2014-04-11", "field_distance_km": 1397.7, "field_date_gap_days": 4407, "field_conc_items_km2": 43.1, "conc_A_items_km2": null, "conc_A_lo80": null, "conc_A_hi80": null, "conc_A_lo95": null, "conc_A_hi95": null, "conc_A_status": "unavailable", "conc_A_status_ru": "концентрация недоступна", "conc_A_reasons": "вне бассейна профиля: nw_atlantic_subtropical", "conc_A_model": "conc-A-c6bce5631d2b", "conc_B_items_km2": null, "conc_B_lo80": null, "conc_B_hi80": null, "conc_B_lo95": null, "conc_B_hi95": null, "conc_B_status": "unavailable", "conc_B_status_ru": "концентрация недоступна", "conc_B_reasons": "вне бассейна профиля: black_sea", "conc_B_model": "conc-B-c6bce5631d2b"}}, {"type": "Feature", "geometry": {"type": "Polygon", "coordinates": [[[30.044864801815244, 59.911313114051715], [30.044856583914488, 59.91122344703179], [30.04467803207919, 59.911227573849615], [30.04466159739315, 59.91104823977441], [30.044840148268293, 59.91104411298621], [30.044831930522843, 59.910954445960556], [30.045189031157655, 59.91094619168898], [30.045197249863254, 59.91103585868503], [30.045375800583077, 59.91103173117201], [30.045392239109756, 59.9112110651287], [30.045213687429776, 59.91121519267136], [30.045221906290703, 59.911304859661634], [30.044864801815244, 59.911313114051715]]]}, "properties": {"zone_id": "neva-2026-05-05-002", "aoi": "neva", "date": "2026-05-05", "scene_id": "S2C_MSIL2A_20260505T093041_R136_T36VUM_20260505T124718", "scene_datetime_utc": "2026-05-05T09:30:41.025000+00:00", "detection_status": "detected", "detection_status_ru": "обнаружено", "lon": 30.04503, "lat": 59.91113, "n_pixels": 4, "zone_area_km2": 0.0012, "cover_m2": 50.6, "p_mean": 0.863, "p_max": 0.973, "cover_m2_km2": 42166.7, "h3": "8811068d97fffff", "valid_frac_scene": 0.91, "wind_ms": 8.6, "sea": "шторм", "scene_reliable": false, "field_event_id": "S3:HE419_MarLitter_transect28", "field_profile": "B", "field_date": "2014-04-11", "field_distance_km": 1413.8, "field_date_gap_days": 4407, "field_conc_items_km2": 43.1, "conc_A_items_km2": null, "conc_A_lo80": null, "conc_A_hi80": null, "conc_A_lo95": null, "conc_A_hi95": null, "conc_A_status": "unavailable", "conc_A_status_ru": "концентрация недоступна", "conc_A_reasons": "вне бассейна профиля: nw_atlantic_subtropical", "conc_A_model": "conc-A-c6bce5631d2b", "conc_B_items_km2": null, "conc_B_lo80": null, "conc_B_hi80": null, "conc_B_lo95": null, "conc_B_hi95": null, "conc_B_status": "unavailable", "conc_B_status_ru": "концентрация недоступна", "conc_B_reasons": "вне бассейна профиля: black_sea", "conc_B_model": "conc-B-c6bce5631d2b"}}, {"type": "Feature", "geometry": {"type": "Polygon", "coordinates": [[[30.14864685215256, 59.89054159875742], [30.14863836151595, 59.89045194024327], [30.148459938619137, 59.89045620670274], [30.148442958464663, 59.89027688963791], [30.148621380403092, 59.89027262320905], [30.14861288992683, 59.890182964689], [30.148969732684964, 59.890174431137865], [30.1489782241196, 59.89026408962731], [30.149156645897666, 59.8902598224744], [30.14917362988568, 59.89043913941676], [30.148995207149223, 59.890443406600276], [30.149003698744227, 59.890533065083815], [30.14864685215256, 59.89054159875742]]]}, "properties": {"zone_id": "neva-2026-05-05-003", "aoi": "neva", "date": "2026-05-05", "scene_id": "S2C_MSIL2A_20260505T093041_R136_T36VUM_20260505T124718", "scene_datetime_utc": "2026-05-05T09:30:41.025000+00:00", "detection_status": "detected", "detection_status_ru": "обнаружено", "lon": 30.14881, "lat": 59.89036, "n_pixels": 4, "zone_area_km2": 0.0012, "cover_m2": 27.8, "p_mean": 0.661, "p_max": 0.824, "cover_m2_km2": 23166.7, "h3": "881106146dfffff", "valid_frac_scene": 0.91, "wind_ms": 8.6, "sea": "шторм", "scene_reliable": false, "field_event_id": "S3:HE419_MarLitter_transect28", "field_profile": "B", "field_date": "2014-04-11", "field_distance_km": 1418.9, "field_date_gap_days": 4407, "field_conc_items_km2": 43.1, "conc_A_items_km2": null, "conc_A_lo80": null, "conc_A_hi80": null, "conc_A_lo95": null, "conc_A_hi95": null, "conc_A_status": "unavailable", "conc_A_status_ru": "концентрация недоступна", "conc_A_reasons": "вне бассейна профиля: nw_atlantic_subtropical", "conc_A_model": "conc-A-c6bce5631d2b", "conc_B_items_km2": null, "conc_B_lo80": null, "conc_B_hi80": null, "conc_B_lo95": null, "conc_B_hi95": null, "conc_B_status": "unavailable", "conc_B_status_ru": "концентрация недоступна", "conc_B_reasons": "вне бассейна профиля: black_sea", "conc_B_model": "conc-B-c6bce5631d2b"}}]}