{"type": "FeatureCollection", "features": [{"type": "Feature", "geometry": {"type": "Polygon", "coordinates": [[[44.70940456844329, 48.87031335531232], [44.70940508938808, 48.870223398271484], [44.70926872570936, 48.87022305453237], [44.70926976808007, 48.87004314044861], [44.7095430151549, 48.86995387071508], [44.70954249446231, 48.87004382776124], [44.7096788576573, 48.87004417117567], [44.70967781675327, 48.87022408526593], [44.70940456844329, 48.87031335531232]]]}, "properties": {"zone_id": "volgograd-2025-08-06-001", "aoi": "volgograd", "date": "2025-08-06", "scene_id": "S2B_MSIL2A_20250806T075609_R035_T38UMV_20250806T101847", "scene_datetime_utc": "2025-08-06T07:56:09.024000+00:00", "detection_status": "detected", "detection_status_ru": "обнаружено", "lon": 44.70947, "lat": 48.87013, "n_pixels": 2, "zone_area_km2": 0.0008, "cover_m2": 6.3, "p_mean": 0.51, "p_max": 0.51, "cover_m2_km2": 7875.0, "h3": "882d48a0b7fffff", "valid_frac_scene": 0.973, "wind_ms": 3.0, "sea": "спокойное", "scene_reliable": true, "field_event_id": "S4:DOORS3:T23", "field_profile": "B", "field_date": "2024-06-10", "field_distance_km": 766.4, "field_date_gap_days": 422, "field_conc_items_km2": 102.37, "conc_A_items_km2": null, "conc_A_lo80": null, "conc_A_hi80": null, "conc_A_lo95": null, "conc_A_hi95": null, "conc_A_status": "unavailable", "conc_A_status_ru": "концентрация недоступна", "conc_A_reasons": "вне бассейна профиля: nw_atlantic_subtropical", "conc_A_model": "conc-A-c6bce5631d2b", "conc_B_items_km2": null, "conc_B_lo80": null, "conc_B_hi80": null, "conc_B_lo95": null, "conc_B_hi95": null, "conc_B_status": "unavailable", "conc_B_status_ru": "концентрация недоступна", "conc_B_reasons": "вне бассейна профиля: black_sea", "conc_B_model": "conc-B-c6bce5631d2b"}}, {"type": "Feature", "geometry": {"type": "Polygon", "coordinates": [[[44.67135884670067, 48.849430769732365], [44.67135943541608, 48.84934081268723], [44.67122312894201, 48.84934042407804], [44.67122371789866, 48.84925046703271], [44.67149691882678, 48.84916128703833], [44.671497507289274, 48.84907132998774], [44.671633813036685, 48.84907171827098], [44.6716344012521, 48.84898176121774], [44.67190642454024, 48.84907249435405], [44.67190524907731, 48.849252408461155], [44.67176894283575, 48.84925202049775], [44.67176835485575, 48.849341977547965], [44.67163204837295, 48.84934158942219], [44.67163146014587, 48.84943154646977], [44.67135884670067, 48.849430769732365]]]}, "properties": {"zone_id": "volgograd-2025-08-06-002", "aoi": "volgograd", "date": "2025-08-06", "scene_id": "S2B_MSIL2A_20250806T075609_R035_T38UMV_20250806T101847", "scene_datetime_utc": "2025-08-06T07:56:09.024000+00:00", "detection_status": "detected", "detection_status_ru": "обнаружено", "lon": 44.67159, "lat": 48.84922, "n_pixels": 5, "zone_area_km2": 0.0014, "cover_m2": 28.6, "p_mean": 0.84, "p_max": 0.961, "cover_m2_km2": 20428.6, "h3": "882d48a1d3fffff", "valid_frac_scene": 0.973, "wind_ms": 3.0, "sea": "спокойное", "scene_reliable": true, "field_event_id": "S4:DOORS3:T23", "field_profile": "B", "field_date": "2024-06-10", "field_distance_km": 763.3, "field_date_gap_days": 422, "field_conc_items_km2": 102.37, "conc_A_items_km2": null, "conc_A_lo80": null, "conc_A_hi80": null, "conc_A_lo95": null, "conc_A_hi95": null, "conc_A_status": "unavailable", "conc_A_status_ru": "концентрация недоступна", "conc_A_reasons": "вне бассейна профиля: nw_atlantic_subtropical", "conc_A_model": "conc-A-c6bce5631d2b", "conc_B_items_km2": null, "conc_B_lo80": null, "conc_B_hi80": null, "conc_B_lo95": null, "conc_B_hi95": null, "conc_B_status": "unavailable", "conc_B_status_ru": "концентрация недоступна", "conc_B_reasons": "вне бассейна профиля: black_sea", "conc_B_model": "conc-B-c6bce5631d2b"}}, {"type": "Feature", "geometry": {"type": "Polygon", "coordinates": [[[44.6731325909177, 48.84916593581666], [44.67313317645027, 48.84907597875143], [44.672996870670865, 48.84907559224072], [44.67299745644469, 48.84898563517529], [44.67327065280068, 48.84889645096384], [44.67327006751808, 48.84898640803313], [44.673406373059116, 48.84898679422034], [44.673405788017774, 48.84907675128941], [44.67326948223257, 48.849076365100984], [44.673268896944165, 48.84916632216743], [44.6731325909177, 48.84916593581666]]]}, "properties": {"zone_id": "volgograd-2025-08-06-003", "aoi": "volgograd", "date": "2025-08-06", "scene_id": "S2B_MSIL2A_20250806T075609_R035_T38UMV_20250806T101847", "scene_datetime_utc": "2025-08-06T07:56:09.024000+00:00", "detection_status": "detected", "detection_status_ru": "обнаружено", "lon": 44.6732, "lat": 48.84903, "n_pixels": 1, "zone_area_km2": 0.0005, "cover_m2": 3.9, "p_mean": 0.788, "p_max": 0.788, "cover_m2_km2": 7800.0, "h3": "882d48a199fffff", "valid_frac_scene": 0.973, "wind_ms": 3.0, "sea": "спокойное", "scene_reliable": true, "field_event_id": "S4:DOORS3:T23", "field_profile": "B", "field_date": "2024-06-10", "field_distance_km": 763.3, "field_date_gap_days": 422, "field_conc_items_km2": 102.37, "conc_A_items_km2": null, "conc_A_lo80": null, "conc_A_hi80": null, "conc_A_lo95": null, "conc_A_hi95": null, "conc_A_status": "unavailable", "conc_A_status_ru": "концентрация недоступна", "conc_A_reasons": "вне бассейна профиля: nw_atlantic_subtropical", "conc_A_model": "conc-A-c6bce5631d2b", "conc_B_items_km2": null, "conc_B_lo80": null, "conc_B_hi80": null, "conc_B_lo95": null, "conc_B_hi95": null, "conc_B_status": "unavailable", "conc_B_status_ru": "концентрация недоступна", "conc_B_reasons": "вне бассейна профиля: black_sea", "conc_B_model": "conc-B-c6bce5631d2b"}}, {"type": "Feature", "geometry": {"type": "Polygon", "coordinates": [[[44.45066761920029, 48.587793211389794], [44.450668594237044, 48.58770325289723], [44.45053299683513, 48.58770260595677], [44.45053397210772, 48.587612647464816], [44.45066956926899, 48.587613294403226], [44.450670544296116, 48.5875233359078], [44.450941738151776, 48.58752462930158], [44.450940763605935, 48.587614587801085], [44.45107636078163, 48.587615234260504], [44.451075386471636, 48.5877051927606], [44.45093978905529, 48.58770454629913], [44.45093881449984, 48.58779450479578], [44.45066761920029, 48.587793211389794]]]}, "properties": {"zone_id": "volgograd-2025-08-06-004", "aoi": "volgograd", "date": "2025-08-06", "scene_id": "S2B_MSIL2A_20250806T075609_R035_T38UMV_20250806T101847", "scene_datetime_utc": "2025-08-06T07:56:09.024000+00:00", "detection_status": "detected", "detection_status_ru": "обнаружено", "lon": 44.4508, "lat": 48.58766, "n_pixels": 2, "zone_area_km2": 0.0008, "cover_m2": 6.3, "p_mean": 0.661, "p_max": 0.686, "cover_m2_km2": 7875.0, "h3": "882d481627fffff", "valid_frac_scene": 0.973, "wind_ms": 3.0, "sea": "спокойное", "scene_reliable": true, "field_event_id": "S4:DOORS3:T23", "field_profile": "B", "field_date": "2024-06-10", "field_distance_km": 730.4, "field_date_gap_days": 422, "field_conc_items_km2": 102.37, "conc_A_items_km2": null, "conc_A_lo80": null, "conc_A_hi80": null, "conc_A_lo95": null, "conc_A_hi95": null, "conc_A_status": "unavailable", "conc_A_status_ru": "концентрация недоступна", "conc_A_reasons": "вне бассейна профиля: nw_atlantic_subtropical", "conc_A_model": "conc-A-c6bce5631d2b", "conc_B_items_km2": null, "conc_B_lo80": null, "conc_B_hi80": null, "conc_B_lo95": null, "conc_B_hi95": null, "conc_B_status": "unavailable", "conc_B_status_ru": "концентрация недоступна", "conc_B_reasons": "вне бассейна профиля: black_sea", "conc_B_model": "conc-B-c6bce5631d2b"}}, {"type": "Feature", "geometry": {"type": "Polygon", "coordinates": [[[44.45148509949924, 48.58743725566419], [44.45148607307288, 48.58734729715373], [44.4513504766047, 48.58734665117935], [44.45135145041418, 48.587256692669484], [44.45148704664171, 48.58725733864181], [44.451488020205744, 48.58716738012849], [44.45162361619743, 48.58716802593913], [44.45162458951602, 48.58707806742235], [44.45189480819523, 48.58716931708144], [44.45189383535312, 48.58725927560086], [44.45175823911118, 48.5872586301075], [44.451757266023634, 48.58734858862347], [44.45148509949924, 48.58743725566419]]]}, "properties": {"zone_id": "volgograd-2025-08-06-005", "aoi": "volgograd", "date": "2025-08-06", "scene_id": "S2B_MSIL2A_20250806T075609_R035_T38UMV_20250806T101847", "scene_datetime_utc": "2025-08-06T07:56:09.024000+00:00", "detection_status": "detected", "detection_status_ru": "обнаружено", "lon": 44.45162, "lat": 48.58726, "n_pixels": 2, "zone_area_km2": 0.0008, "cover_m2": 9.0, "p_mean": 0.782, "p_max": 0.871, "cover_m2_km2": 11250.0, "h3": "882d481627fffff", "valid_frac_scene": 0.973, "wind_ms": 3.0, "sea": "спокойное", "scene_reliable": true, "field_event_id": "S4:DOORS3:T23", "field_profile": "B", "field_date": "2024-06-10", "field_distance_km": 730.4, "field_date_gap_days": 422, "field_conc_items_km2": 102.37, "conc_A_items_km2": null, "conc_A_lo80": null, "conc_A_hi80": null, "conc_A_lo95": null, "conc_A_hi95": null, "conc_A_status": "unavailable", "conc_A_status_ru": "концентрация недоступна", "conc_A_reasons": "вне бассейна профиля: nw_atlantic_subtropical", "conc_A_model": "conc-A-c6bce5631d2b", "conc_B_items_km2": null, "conc_B_lo80": null, "conc_B_hi80": null, "conc_B_lo95": null, "conc_B_hi95": null, "conc_B_status": "unavailable", "conc_B_status_ru": "концентрация недоступна", "conc_B_reasons": "вне бассейна профиля: black_sea", "conc_B_model": "conc-B-c6bce5631d2b"}}]}