{"type": "FeatureCollection", "features": [{"type": "Feature", "geometry": {"type": "Polygon", "coordinates": [[[49.628190772668326, 53.45002336997574], [49.62819366861126, 53.44993350828572], [49.628043133510765, 53.44993177946708], [49.62804602975565, 53.44984191778122], [49.62834999493136, 53.44975551351903], [49.62834709933715, 53.44984537521761], [49.62849763415128, 53.44984710365136], [49.62849473885902, 53.44993696535411], [49.62834420372734, 53.44993523691473], [49.62834130810195, 53.450025098610375], [49.628190772668326, 53.45002336997574]]]}, "properties": {"zone_id": "kuibyshev-2026-04-15-001", "aoi": "kuibyshev", "date": "2026-04-15", "scene_id": "S2C_MSIL2A_20260415T074611_R135_T39UUV_20260415T114310", "scene_datetime_utc": "2026-04-15T07:46:11.025000+00:00", "detection_status": "detected", "detection_status_ru": "обнаружено", "lon": 49.62827, "lat": 53.44989, "n_pixels": 1, "zone_area_km2": 0.0005, "cover_m2": 8.6, "p_mean": 0.98, "p_max": 0.98, "cover_m2_km2": 17200.0, "h3": "881081c297fffff", "valid_frac_scene": 0.999, "wind_ms": 6.9, "sea": "волнение", "scene_reliable": true, "field_event_id": "S4:DOORS3:T23", "field_profile": "B", "field_date": "2024-06-10", "field_distance_km": 1372.3, "field_date_gap_days": 674, "field_conc_items_km2": 102.37, "conc_A_items_km2": null, "conc_A_lo80": null, "conc_A_hi80": null, "conc_A_lo95": null, "conc_A_hi95": null, "conc_A_status": "unavailable", "conc_A_status_ru": "концентрация недоступна", "conc_A_reasons": "вне бассейна профиля: nw_atlantic_subtropical", "conc_A_model": "conc-A-c6bce5631d2b", "conc_B_items_km2": null, "conc_B_lo80": null, "conc_B_hi80": null, "conc_B_lo95": null, "conc_B_hi95": null, "conc_B_status": "unavailable", "conc_B_status_ru": "концентрация недоступна", "conc_B_reasons": "вне бассейна профиля: black_sea", "conc_B_model": "conc-B-c6bce5631d2b"}}, {"type": "Feature", "geometry": {"type": "Polygon", "coordinates": [[[49.60997316640465, 53.44990266655734], [49.60997610078528, 53.44981280555485], [49.60982556726644, 53.44981105378595], [49.60982850194881, 53.44972119278769], [49.61013250239874, 53.44963483511331], [49.610129568367235, 53.449724696124456], [49.61028010160014, 53.449726447508404], [49.610277167870365, 53.449816308523786], [49.610126634319926, 53.44981455713413], [49.61012370025682, 53.449904418142324], [49.60997316640465, 53.44990266655734]]]}, "properties": {"zone_id": "kuibyshev-2026-04-15-002", "aoi": "kuibyshev", "date": "2026-04-15", "scene_id": "S2C_MSIL2A_20260415T074611_R135_T39UUV_20260415T114310", "scene_datetime_utc": "2026-04-15T07:46:11.025000+00:00", "detection_status": "detected", "detection_status_ru": "обнаружено", "lon": 49.61005, "lat": 53.44977, "n_pixels": 1, "zone_area_km2": 0.0005, "cover_m2": 4.7, "p_mean": 0.992, "p_max": 0.992, "cover_m2_km2": 9400.0, "h3": "881081c29dfffff", "valid_frac_scene": 0.999, "wind_ms": 6.9, "sea": "волнение", "scene_reliable": true, "field_event_id": "S4:DOORS3:T23", "field_profile": "B", "field_date": "2024-06-10", "field_distance_km": 1371.7, "field_date_gap_days": 674, "field_conc_items_km2": 102.37, "conc_A_items_km2": null, "conc_A_lo80": null, "conc_A_hi80": null, "conc_A_lo95": null, "conc_A_hi95": null, "conc_A_status": "unavailable", "conc_A_status_ru": "концентрация недоступна", "conc_A_reasons": "вне бассейна профиля: nw_atlantic_subtropical", "conc_A_model": "conc-A-c6bce5631d2b", "conc_B_items_km2": null, "conc_B_lo80": null, "conc_B_hi80": null, "conc_B_lo95": null, "conc_B_hi95": null, "conc_B_status": "unavailable", "conc_B_status_ru": "концентрация недоступна", "conc_B_reasons": "вне бассейна профиля: black_sea", "conc_B_model": "conc-B-c6bce5631d2b"}}, {"type": "Feature", "geometry": {"type": "Polygon", "coordinates": [[[49.60987252028839, 53.448373277637195], [49.60987545471797, 53.44828341661539], [49.60972492661269, 53.44828166475391], [49.609727861343984, 53.448191803736336], [49.61003185101582, 53.44810544622783], [49.610028916935335, 53.44819530725828], [49.610179444754706, 53.448197058734834], [49.61017651097592, 53.44828691976954], [49.61002598283905, 53.44828516828727], [49.61002304872697, 53.44837502931479], [49.60987252028839, 53.448373277637195]]]}, "properties": {"zone_id": "kuibyshev-2026-04-15-003", "aoi": "kuibyshev", "date": "2026-04-15", "scene_id": "S2C_MSIL2A_20260415T074611_R135_T39UUV_20260415T114310", "scene_datetime_utc": "2026-04-15T07:46:11.025000+00:00", "detection_status": "detected", "detection_status_ru": "обнаружено", "lon": 49.60995, "lat": 53.44824, "n_pixels": 1, "zone_area_km2": 0.0005, "cover_m2": 6.7, "p_mean": 0.992, "p_max": 0.992, "cover_m2_km2": 13400.0, "h3": "881081c295fffff", "valid_frac_scene": 0.999, "wind_ms": 6.9, "sea": "волнение", "scene_reliable": true, "field_event_id": "S4:DOORS3:T23", "field_profile": "B", "field_date": "2024-06-10", "field_distance_km": 1371.5, "field_date_gap_days": 674, "field_conc_items_km2": 102.37, "conc_A_items_km2": null, "conc_A_lo80": null, "conc_A_hi80": null, "conc_A_lo95": null, "conc_A_hi95": null, "conc_A_status": "unavailable", "conc_A_status_ru": "концентрация недоступна", "conc_A_reasons": "вне бассейна профиля: nw_atlantic_subtropical", "conc_A_model": "conc-A-c6bce5631d2b", "conc_B_items_km2": null, "conc_B_lo80": null, "conc_B_hi80": null, "conc_B_lo95": null, "conc_B_hi95": null, "conc_B_status": "unavailable", "conc_B_status_ru": "концентрация недоступна", "conc_B_reasons": "вне бассейна профиля: black_sea", "conc_B_model": "conc-B-c6bce5631d2b"}}, {"type": "Feature", "geometry": {"type": "Polygon", "coordinates": [[[49.494804425114374, 53.44041626914464], [49.49480760146766, 53.440326412566975], [49.494657109131666, 53.44032451592743], [49.49466028578514, 53.44023465935444], [49.49496444584147, 53.44014859584481], [49.49496126983966, 53.440238452431636], [49.49511176189257, 53.44024034868595], [49.495108586190945, 53.440330205277476], [49.494958093820756, 53.44032830901699], [49.49495491778475, 53.44041816560083], [49.494804425114374, 53.44041626914464]]]}, "properties": {"zone_id": "kuibyshev-2026-04-15-004", "aoi": "kuibyshev", "date": "2026-04-15", "scene_id": "S2C_MSIL2A_20260415T074611_R135_T39UUV_20260415T114310", "scene_datetime_utc": "2026-04-15T07:46:11.025000+00:00", "detection_status": "detected", "detection_status_ru": "обнаружено", "lon": 49.49488, "lat": 53.44028, "n_pixels": 1, "zone_area_km2": 0.0005, "cover_m2": 4.7, "p_mean": 0.851, "p_max": 0.851, "cover_m2_km2": 9400.0, "h3": "881081c25bfffff", "valid_frac_scene": 0.999, "wind_ms": 6.9, "sea": "волнение", "scene_reliable": true, "field_event_id": "S4:DOORS3:T23", "field_profile": "B", "field_date": "2024-06-10", "field_distance_km": 1367.1, "field_date_gap_days": 674, "field_conc_items_km2": 102.37, "conc_A_items_km2": null, "conc_A_lo80": null, "conc_A_hi80": null, "conc_A_lo95": null, "conc_A_hi95": null, "conc_A_status": "unavailable", "conc_A_status_ru": "концентрация недоступна", "conc_A_reasons": "вне бассейна профиля: nw_atlantic_subtropical", "conc_A_model": "conc-A-c6bce5631d2b", "conc_B_items_km2": null, "conc_B_lo80": null, "conc_B_hi80": null, "conc_B_lo95": null, "conc_B_hi95": null, "conc_B_status": "unavailable", "conc_B_status_ru": "концентрация недоступна", "conc_B_reasons": "вне бассейна профиля: black_sea", "conc_B_model": "conc-B-c6bce5631d2b"}}]}