{"type": "FeatureCollection", "features": [{"type": "Feature", "geometry": {"type": "Polygon", "coordinates": [[[44.65423156895833, 48.78308070146173], [44.65423218691123, 48.78299074353432], [44.65409606044219, 48.78299033508645], [44.654096678635305, 48.782900377158924], [44.654369548793404, 48.78281123595983], [44.65436893108989, 48.78290119389134], [44.65450505732177, 48.78290160201639], [44.65450443985847, 48.782991559947774], [44.65436831338332, 48.782991151821435], [44.6543676956737, 48.783081109750114], [44.65423156895833, 48.78308070146173]]]}, "properties": {"zone_id": "volgograd-2026-05-08-001", "aoi": "volgograd", "date": "2026-05-08", "scene_id": "S2C_MSIL2A_20260508T075611_R035_T38UMV_20260508T111116", "scene_datetime_utc": "2026-05-08T07:56:11.026000+00:00", "detection_status": "detected", "detection_status_ru": "обнаружено", "lon": 44.6543, "lat": 48.78295, "n_pixels": 1, "zone_area_km2": 0.0005, "cover_m2": 5.1, "p_mean": 0.914, "p_max": 0.914, "cover_m2_km2": 10200.0, "h3": "882d48aad1fffff", "valid_frac_scene": 1.0, "wind_ms": 1.0, "sea": "спокойное", "scene_reliable": true, "field_event_id": "S4:DOORS3:T23", "field_profile": "B", "field_date": "2024-06-10", "field_distance_km": 755.9, "field_date_gap_days": 697, "field_conc_items_km2": 102.37, "conc_A_items_km2": null, "conc_A_lo80": null, "conc_A_hi80": null, "conc_A_lo95": null, "conc_A_hi95": null, "conc_A_status": "unavailable", "conc_A_status_ru": "концентрация недоступна", "conc_A_reasons": "вне бассейна профиля: nw_atlantic_subtropical", "conc_A_model": "conc-A-c6bce5631d2b", "conc_B_items_km2": null, "conc_B_lo80": null, "conc_B_hi80": null, "conc_B_lo95": null, "conc_B_hi95": null, "conc_B_status": "unavailable", "conc_B_status_ru": "концентрация недоступна", "conc_B_reasons": "вне бассейна профиля: black_sea", "conc_B_model": "conc-B-c6bce5631d2b"}}, {"type": "Feature", "geometry": {"type": "Polygon", "coordinates": [[[44.65396797341042, 48.78182047332615], [44.65396859180701, 48.78173051538148], [44.65383246874977, 48.78173010663009], [44.65383308738655, 48.78164014868529], [44.65410595116478, 48.78155100807597], [44.65410533301757, 48.78164096602476], [44.65424145583766, 48.78164137445335], [44.65424083793065, 48.781731332402], [44.654104714867294, 48.78173092397212], [44.65410409671396, 48.78182088191807], [44.65396797341042, 48.78182047332615]]]}, "properties": {"zone_id": "volgograd-2026-05-08-002", "aoi": "volgograd", "date": "2026-05-08", "scene_id": "S2C_MSIL2A_20260508T075611_R035_T38UMV_20260508T111116", "scene_datetime_utc": "2026-05-08T07:56:11.026000+00:00", "detection_status": "detected", "detection_status_ru": "обнаружено", "lon": 44.65404, "lat": 48.78169, "n_pixels": 1, "zone_area_km2": 0.0005, "cover_m2": 7.8, "p_mean": 0.816, "p_max": 0.816, "cover_m2_km2": 15600.0, "h3": "882d48aad1fffff", "valid_frac_scene": 1.0, "wind_ms": 1.0, "sea": "спокойное", "scene_reliable": true, "field_event_id": "S4:DOORS3:T23", "field_profile": "B", "field_date": "2024-06-10", "field_distance_km": 755.8, "field_date_gap_days": 697, "field_conc_items_km2": 102.37, "conc_A_items_km2": null, "conc_A_lo80": null, "conc_A_hi80": null, "conc_A_lo95": null, "conc_A_hi95": null, "conc_A_status": "unavailable", "conc_A_status_ru": "концентрация недоступна", "conc_A_reasons": "вне бассейна профиля: nw_atlantic_subtropical", "conc_A_model": "conc-A-c6bce5631d2b", "conc_B_items_km2": null, "conc_B_lo80": null, "conc_B_hi80": null, "conc_B_lo95": null, "conc_B_hi95": null, "conc_B_status": "unavailable", "conc_B_status_ru": "концентрация недоступна", "conc_B_reasons": "вне бассейна профиля: black_sea", "conc_B_model": "conc-B-c6bce5631d2b"}}, {"type": "Feature", "geometry": {"type": "Polygon", "coordinates": [[[44.63604395175283, 48.775647996416204], [44.636044602040045, 48.775558038549285], [44.63590849593575, 48.77555760866964], [44.635909146462915, 48.77546765080266], [44.63618200822599, 48.77537855252742], [44.63618135818838, 48.77546851039851], [44.63631746405593, 48.775468939955346], [44.63631681425828, 48.775558897826386], [44.636180708147556, 48.7755584682682], [44.63618005810351, 48.77564842613647], [44.63604395175283, 48.775647996416204]]]}, "properties": {"zone_id": "volgograd-2026-05-08-003", "aoi": "volgograd", "date": "2026-05-08", "scene_id": "S2C_MSIL2A_20260508T075611_R035_T38UMV_20260508T111116", "scene_datetime_utc": "2026-05-08T07:56:11.026000+00:00", "detection_status": "detected", "detection_status_ru": "обнаружено", "lon": 44.63611, "lat": 48.77551, "n_pixels": 1, "zone_area_km2": 0.0005, "cover_m2": 3.9, "p_mean": 0.949, "p_max": 0.949, "cover_m2_km2": 7800.0, "h3": "882d48aacbfffff", "valid_frac_scene": 1.0, "wind_ms": 1.0, "sea": "спокойное", "scene_reliable": true, "field_event_id": "S4:DOORS3:T23", "field_profile": "B", "field_date": "2024-06-10", "field_distance_km": 754.7, "field_date_gap_days": 697, "field_conc_items_km2": 102.37, "conc_A_items_km2": null, "conc_A_lo80": null, "conc_A_hi80": null, "conc_A_lo95": null, "conc_A_hi95": null, "conc_A_status": "unavailable", "conc_A_status_ru": "концентрация недоступна", "conc_A_reasons": "вне бассейна профиля: nw_atlantic_subtropical", "conc_A_model": "conc-A-c6bce5631d2b", "conc_B_items_km2": null, "conc_B_lo80": null, "conc_B_hi80": null, "conc_B_lo95": null, "conc_B_hi95": null, "conc_B_status": "unavailable", "conc_B_status_ru": "концентрация недоступна", "conc_B_reasons": "вне бассейна профиля: black_sea", "conc_B_model": "conc-B-c6bce5631d2b"}}, {"type": "Feature", "geometry": {"type": "Polygon", "coordinates": [[[44.635775643654135, 48.775107389286966], [44.63577629440836, 48.77501743141425], [44.63564018976951, 48.77501700122128], [44.63564084076368, 48.77492704334851], [44.63591370006291, 48.77483794569412], [44.63591304955828, 48.77492790357102], [44.636049153960414, 48.77492833344119], [44.63604850369573, 48.77501829131802], [44.63591239905043, 48.775017861446486], [44.63591174853937, 48.775107819320574], [44.635775643654135, 48.775107389286966]]]}, "properties": {"zone_id": "volgograd-2026-05-08-004", "aoi": "volgograd", "date": "2026-05-08", "scene_id": "S2C_MSIL2A_20260508T075611_R035_T38UMV_20260508T111116", "scene_datetime_utc": "2026-05-08T07:56:11.026000+00:00", "detection_status": "detected", "detection_status_ru": "обнаружено", "lon": 44.63584, "lat": 48.77497, "n_pixels": 1, "zone_area_km2": 0.0005, "cover_m2": 7.8, "p_mean": 0.839, "p_max": 0.839, "cover_m2_km2": 15600.0, "h3": "882d48aac3fffff", "valid_frac_scene": 1.0, "wind_ms": 1.0, "sea": "спокойное", "scene_reliable": true, "field_event_id": "S4:DOORS3:T23", "field_profile": "B", "field_date": "2024-06-10", "field_distance_km": 754.6, "field_date_gap_days": 697, "field_conc_items_km2": 102.37, "conc_A_items_km2": null, "conc_A_lo80": null, "conc_A_hi80": null, "conc_A_lo95": null, "conc_A_hi95": null, "conc_A_status": "unavailable", "conc_A_status_ru": "концентрация недоступна", "conc_A_reasons": "вне бассейна профиля: nw_atlantic_subtropical", "conc_A_model": "conc-A-c6bce5631d2b", "conc_B_items_km2": null, "conc_B_lo80": null, "conc_B_hi80": null, "conc_B_lo95": null, "conc_B_hi95": null, "conc_B_status": "unavailable", "conc_B_status_ru": "концентрация недоступна", "conc_B_reasons": "вне бассейна профиля: black_sea", "conc_B_model": "conc-B-c6bce5631d2b"}}, {"type": "Feature", "geometry": {"type": "Polygon", "coordinates": [[[44.63700318198083, 48.77475142225538], [44.63700383053375, 48.77466146436481], [44.636867726838595, 48.77466103562375], [44.636868375631465, 48.774571077733135], [44.637141230842005, 48.77448197715715], [44.63714058253866, 48.774571935051874], [44.63727668599707, 48.77457236347016], [44.63727603793368, 48.77466232136482], [44.63713993423212, 48.774661892945176], [44.63713928592235, 48.774751850837085], [44.63700318198083, 48.77475142225538]]]}, "properties": {"zone_id": "volgograd-2026-05-08-005", "aoi": "volgograd", "date": "2026-05-08", "scene_id": "S2C_MSIL2A_20260508T075611_R035_T38UMV_20260508T111116", "scene_datetime_utc": "2026-05-08T07:56:11.026000+00:00", "detection_status": "detected", "detection_status_ru": "обнаружено", "lon": 44.63707, "lat": 48.77462, "n_pixels": 1, "zone_area_km2": 0.0005, "cover_m2": 3.5, "p_mean": 0.988, "p_max": 0.988, "cover_m2_km2": 7000.0, "h3": "882d48aac3fffff", "valid_frac_scene": 1.0, "wind_ms": 1.0, "sea": "спокойное", "scene_reliable": true, "field_event_id": "S4:DOORS3:T23", "field_profile": "B", "field_date": "2024-06-10", "field_distance_km": 754.6, "field_date_gap_days": 697, "field_conc_items_km2": 102.37, "conc_A_items_km2": null, "conc_A_lo80": null, "conc_A_hi80": null, "conc_A_lo95": null, "conc_A_hi95": null, "conc_A_status": "unavailable", "conc_A_status_ru": "концентрация недоступна", "conc_A_reasons": "вне бассейна профиля: nw_atlantic_subtropical", "conc_A_model": "conc-A-c6bce5631d2b", "conc_B_items_km2": null, "conc_B_lo80": null, "conc_B_hi80": null, "conc_B_lo95": null, "conc_B_hi95": null, "conc_B_status": "unavailable", "conc_B_status_ru": "концентрация недоступна", "conc_B_reasons": "вне бассейна профиля: black_sea", "conc_B_model": "conc-B-c6bce5631d2b"}}, {"type": "Feature", "geometry": {"type": "Polygon", "coordinates": [[[44.60658929751864, 48.747843485165916], [44.60658999974557, 48.747753527168804], [44.60631793867695, 48.74775259807427], [44.60631864138601, 48.747662640078666], [44.6061826110997, 48.747662175292], [44.606183314048074, 48.747572217296444], [44.60645607659788, 48.74748318870637], [44.60645537413857, 48.74757314670627], [44.60659140418903, 48.74757361117034], [44.60659210640555, 48.74748365316898], [44.606728136216695, 48.747484117471025], [44.60672743424296, 48.747574075473835], [44.606863464300375, 48.747574539616764], [44.6068620608281, 48.747754455621084], [44.60658929751864, 48.747843485165916]]]}, "properties": {"zone_id": "volgograd-2026-05-08-006", "aoi": "volgograd", "date": "2026-05-08", "scene_id": "S2C_MSIL2A_20260508T075611_R035_T38UMV_20260508T111116", "scene_datetime_utc": "2026-05-08T07:56:11.026000+00:00", "detection_status": "detected", "detection_status_ru": "обнаружено", "lon": 44.60657, "lat": 48.74765, "n_pixels": 3, "zone_area_km2": 0.0012, "cover_m2": 22.0, "p_mean": 0.864, "p_max": 0.996, "cover_m2_km2": 18333.3, "h3": "882d48aa11fffff", "valid_frac_scene": 1.0, "wind_ms": 1.0, "sea": "спокойное", "scene_reliable": true, "field_event_id": "S4:DOORS3:T23", "field_profile": "B", "field_date": "2024-06-10", "field_distance_km": 751.0, "field_date_gap_days": 697, "field_conc_items_km2": 102.37, "conc_A_items_km2": null, "conc_A_lo80": null, "conc_A_hi80": null, "conc_A_lo95": null, "conc_A_hi95": null, "conc_A_status": "unavailable", "conc_A_status_ru": "концентрация недоступна", "conc_A_reasons": "вне бассейна профиля: nw_atlantic_subtropical", "conc_A_model": "conc-A-c6bce5631d2b", "conc_B_items_km2": null, "conc_B_lo80": null, "conc_B_hi80": null, "conc_B_lo95": null, "conc_B_hi95": null, "conc_B_status": "unavailable", "conc_B_status_ru": "концентрация недоступна", "conc_B_reasons": "вне бассейна профиля: black_sea", "conc_B_model": "conc-B-c6bce5631d2b"}}, {"type": "Feature", "geometry": {"type": "Polygon", "coordinates": [[[44.53587385594401, 48.701070607119306], [44.53587468303273, 48.70098064922019], [44.535602876644106, 48.70097955395876], [44.53560370421306, 48.70088959606167], [44.535467801267046, 48.70088904819223], [44.53546862907407, 48.70079909029543], [44.53560453177793, 48.70079963816315], [44.5356053593387, 48.700709680263195], [44.53587716427437, 48.700710775514295], [44.53587633719791, 48.7008007334177], [44.53601223991404, 48.70080128080451], [44.53601141307565, 48.7008912387082], [44.536147316038026, 48.70089178593645], [44.53614648943772, 48.70098174384042], [44.53601058623318, 48.700981196610456], [44.53600975938662, 48.7010711545113], [44.53587385594401, 48.701070607119306]]]}, "properties": {"zone_id": "volgograd-2026-05-08-007", "aoi": "volgograd", "date": "2026-05-08", "scene_id": "S2C_MSIL2A_20260508T075611_R035_T38UMV_20260508T111116", "scene_datetime_utc": "2026-05-08T07:56:11.026000+00:00", "detection_status": "detected", "detection_status_ru": "обнаружено", "lon": 44.53581, "lat": 48.70088, "n_pixels": 3, "zone_area_km2": 0.0011, "cover_m2": 11.4, "p_mean": 0.859, "p_max": 0.965, "cover_m2_km2": 10363.6, "h3": "882d48b9b1fffff", "valid_frac_scene": 1.0, "wind_ms": 1.0, "sea": "спокойное", "scene_reliable": true, "field_event_id": "S4:DOORS3:T23", "field_profile": "B", "field_date": "2024-06-10", "field_distance_km": 744.4, "field_date_gap_days": 697, "field_conc_items_km2": 102.37, "conc_A_items_km2": null, "conc_A_lo80": null, "conc_A_hi80": null, "conc_A_lo95": null, "conc_A_hi95": null, "conc_A_status": "unavailable", "conc_A_status_ru": "концентрация недоступна", "conc_A_reasons": "вне бассейна профиля: nw_atlantic_subtropical", "conc_A_model": "conc-A-c6bce5631d2b", "conc_B_items_km2": null, "conc_B_lo80": null, "conc_B_hi80": null, "conc_B_lo95": null, "conc_B_hi95": null, "conc_B_status": "unavailable", "conc_B_status_ru": "концентрация недоступна", "conc_B_reasons": "вне бассейна профиля: black_sea", "conc_B_model": "conc-B-c6bce5631d2b"}}]}