{"type": "FeatureCollection", "features": [{"type": "Feature", "geometry": {"type": "Polygon", "coordinates": [[[29.992076565375807, 60.0839638990354], [29.99206843349727, 60.08387423001793], [29.99188894026238, 60.083878292307666], [29.991880808921383, 60.083788623273676], [29.99206030167021, 60.083784560998595], [29.99205216989464, 60.08369489197734], [29.992419287013423, 60.08377643571842], [29.99242741981258, 60.08386610470851], [29.992247926680665, 60.08387016748487], [29.99225605904526, 60.083959836487736], [29.992076565375807, 60.0839638990354]]]}, "properties": {"zone_id": "neva-2026-04-20-001", "aoi": "neva", "date": "2026-04-20", "scene_id": "S2B_MSIL2A_20260420T093029_R136_T36VUM_20260420T114121", "scene_datetime_utc": "2026-04-20T09:30:29.025000+00:00", "detection_status": "detected", "detection_status_ru": "обнаружено", "lon": 29.99215, "lat": 60.08383, "n_pixels": 1, "zone_area_km2": 0.0005, "cover_m2": 7.5, "p_mean": 0.886, "p_max": 0.886, "cover_m2_km2": 15000.0, "h3": "881106bac5fffff", "valid_frac_scene": 0.998, "wind_ms": 5.9, "sea": "спокойное", "scene_reliable": true, "field_event_id": "S3:HE419_MarLitter_transect28", "field_profile": "B", "field_date": "2014-04-11", "field_distance_km": 1415.5, "field_date_gap_days": 4392, "field_conc_items_km2": 43.1, "conc_A_items_km2": null, "conc_A_lo80": null, "conc_A_hi80": null, "conc_A_lo95": null, "conc_A_hi95": null, "conc_A_status": "unavailable", "conc_A_status_ru": "концентрация недоступна", "conc_A_reasons": "вне бассейна профиля: nw_atlantic_subtropical", "conc_A_model": "conc-A-c6bce5631d2b", "conc_B_items_km2": null, "conc_B_lo80": null, "conc_B_hi80": null, "conc_B_lo95": null, "conc_B_hi95": null, "conc_B_status": "unavailable", "conc_B_status_ru": "концентрация недоступна", "conc_B_reasons": "вне бассейна профиля: black_sea", "conc_B_model": "conc-B-c6bce5631d2b"}}, {"type": "Feature", "geometry": {"type": "Polygon", "coordinates": [[[29.992077158917073, 60.081987117988994], [29.992069027685098, 60.08189744894459], [29.9918895451941, 60.08190151115572], [29.99188141449958, 60.081811842094794], [29.992060896504597, 60.081807779898305], [29.99205276537557, 60.081718110850105], [29.99241986036019, 60.081799654775416], [29.992427992512656, 60.08188932379242], [29.992248510124618, 60.08189338649015], [29.992256641842584, 60.081983055519935], [29.992077158917073, 60.081987117988994]]]}, "properties": {"zone_id": "neva-2026-04-20-002", "aoi": "neva", "date": "2026-04-20", "scene_id": "S2B_MSIL2A_20260420T093029_R136_T36VUM_20260420T114121", "scene_datetime_utc": "2026-04-20T09:30:29.025000+00:00", "detection_status": "detected", "detection_status_ru": "обнаружено", "lon": 29.99215, "lat": 60.08185, "n_pixels": 1, "zone_area_km2": 0.0005, "cover_m2": 27.1, "p_mean": 0.631, "p_max": 0.631, "cover_m2_km2": 54200.0, "h3": "881106bac5fffff", "valid_frac_scene": 0.998, "wind_ms": 5.9, "sea": "спокойное", "scene_reliable": true, "field_event_id": "S3:HE419_MarLitter_transect28", "field_profile": "B", "field_date": "2014-04-11", "field_distance_km": 1415.5, "field_date_gap_days": 4392, "field_conc_items_km2": 43.1, "conc_A_items_km2": null, "conc_A_lo80": null, "conc_A_hi80": null, "conc_A_lo95": null, "conc_A_hi95": null, "conc_A_status": "unavailable", "conc_A_status_ru": "концентрация недоступна", "conc_A_reasons": "вне бассейна профиля: nw_atlantic_subtropical", "conc_A_model": "conc-A-c6bce5631d2b", "conc_B_items_km2": null, "conc_B_lo80": null, "conc_B_hi80": null, "conc_B_lo95": null, "conc_B_hi95": null, "conc_B_status": "unavailable", "conc_B_status_ru": "концентрация недоступна", "conc_B_reasons": "вне бассейна профиля: black_sea", "conc_B_model": "conc-B-c6bce5631d2b"}}, {"type": "Feature", "geometry": {"type": "Polygon", "coordinates": [[[30.01864728002909, 60.079496123210866], [30.018639077480834, 60.07940645631649], [30.018459612897242, 60.07941055446761], [30.01845141088676, 60.07932088755659], [30.0186308749845, 60.07931678942022], [30.018622672540086, 60.07922712252206], [30.0189898030242, 60.079308592417725], [30.018998006492236, 60.079398259284446], [30.018818542012493, 60.079402357922085], [30.018826745046606, 60.0794920248017], [30.01864728002909, 60.079496123210866]]]}, "properties": {"zone_id": "neva-2026-04-20-003", "aoi": "neva", "date": "2026-04-20", "scene_id": "S2B_MSIL2A_20260420T093029_R136_T36VUM_20260420T114121", "scene_datetime_utc": "2026-04-20T09:30:29.025000+00:00", "detection_status": "detected", "detection_status_ru": "обнаружено", "lon": 30.01872, "lat": 60.07936, "n_pixels": 1, "zone_area_km2": 0.0005, "cover_m2": 17.6, "p_mean": 0.796, "p_max": 0.796, "cover_m2_km2": 35200.0, "h3": "881106bae3fffff", "valid_frac_scene": 0.998, "wind_ms": 5.9, "sea": "спокойное", "scene_reliable": true, "field_event_id": "S3:HE419_MarLitter_transect28", "field_profile": "B", "field_date": "2014-04-11", "field_distance_km": 1416.8, "field_date_gap_days": 4392, "field_conc_items_km2": 43.1, "conc_A_items_km2": null, "conc_A_lo80": null, "conc_A_hi80": null, "conc_A_lo95": null, "conc_A_hi95": null, "conc_A_status": "unavailable", "conc_A_status_ru": "концентрация недоступна", "conc_A_reasons": "вне бассейна профиля: nw_atlantic_subtropical", "conc_A_model": "conc-A-c6bce5631d2b", "conc_B_items_km2": null, "conc_B_lo80": null, "conc_B_hi80": null, "conc_B_lo95": null, "conc_B_hi95": null, "conc_B_status": "unavailable", "conc_B_status_ru": "концентрация недоступна", "conc_B_reasons": "вне бассейна профиля: black_sea", "conc_B_model": "conc-B-c6bce5631d2b"}}, {"type": "Feature", "geometry": {"type": "Polygon", "coordinates": [[[29.774841762355695, 60.01583739202537], [29.774834241075848, 60.015747704944346], [29.774655083020544, 60.01575146998774], [29.77464756227232, 60.01566178289136], [29.774826719843535, 60.0156580178615], [29.774819198658758, 60.01556833077689], [29.775185034843357, 60.01565048707352], [29.775192557043848, 60.015740174129256], [29.775013399083615, 60.015743939658186], [29.77502092084756, 60.01583362672567], [29.774841762355695, 60.01583739202537]]]}, "properties": {"zone_id": "neva-2026-04-20-004", "aoi": "neva", "date": "2026-04-20", "scene_id": "S2B_MSIL2A_20260420T093029_R136_T36VUM_20260420T114121", "scene_datetime_utc": "2026-04-20T09:30:29.025000+00:00", "detection_status": "detected", "detection_status_ru": "обнаружено", "lon": 29.77492, "lat": 60.0157, "n_pixels": 1, "zone_area_km2": 0.0005, "cover_m2": 3.9, "p_mean": 0.996, "p_max": 0.996, "cover_m2_km2": 7800.0, "h3": "8811068467fffff", "valid_frac_scene": 0.998, "wind_ms": 5.9, "sea": "спокойное", "scene_reliable": true, "field_event_id": "S3:HE419_MarLitter_transect28", "field_profile": "B", "field_date": "2014-04-11", "field_distance_km": 1402.0, "field_date_gap_days": 4392, "field_conc_items_km2": 43.1, "conc_A_items_km2": null, "conc_A_lo80": null, "conc_A_hi80": null, "conc_A_lo95": null, "conc_A_hi95": null, "conc_A_status": "unavailable", "conc_A_status_ru": "концентрация недоступна", "conc_A_reasons": "вне бассейна профиля: nw_atlantic_subtropical", "conc_A_model": "conc-A-c6bce5631d2b", "conc_B_items_km2": null, "conc_B_lo80": null, "conc_B_hi80": null, "conc_B_lo95": null, "conc_B_hi95": null, "conc_B_status": "unavailable", "conc_B_status_ru": "концентрация недоступна", "conc_B_reasons": "вне бассейна профиля: black_sea", "conc_B_model": "conc-B-c6bce5631d2b"}}, {"type": "Feature", "geometry": {"type": "Polygon", "coordinates": [[[29.74526542318948, 59.98815473029703], [29.74525799030349, 59.98806504060453], [29.745078977416735, 59.988068764523824], [29.745056680489974, 59.98779969539535], [29.744877669005866, 59.98780341903195], [29.744870237274007, 59.9877137293055], [29.74522082657761, 59.98761659211513], [29.745228259228913, 59.98770628181658], [29.745407270135967, 59.987702557708346], [29.745414703317383, 59.987792247394616], [29.74559371466068, 59.987788523030474], [29.745616015936175, 59.98805759203842], [29.74526542318948, 59.98815473029703]]]}, "properties": {"zone_id": "neva-2026-04-20-005", "aoi": "neva", "date": "2026-04-20", "scene_id": "S2B_MSIL2A_20260420T093029_R136_T36VUM_20260420T114121", "scene_datetime_utc": "2026-04-20T09:30:29.025000+00:00", "detection_status": "detected", "detection_status_ru": "обнаружено", "lon": 29.74529, "lat": 59.98788, "n_pixels": 4, "zone_area_km2": 0.0014, "cover_m2": 19.6, "p_mean": 0.753, "p_max": 0.847, "cover_m2_km2": 14000.0, "h3": "8811068735fffff", "valid_frac_scene": 0.998, "wind_ms": 5.9, "sea": "спокойное", "scene_reliable": true, "field_event_id": "S3:HE419_MarLitter_transect28", "field_profile": "B", "field_date": "2014-04-11", "field_distance_km": 1399.6, "field_date_gap_days": 4392, "field_conc_items_km2": 43.1, "conc_A_items_km2": null, "conc_A_lo80": null, "conc_A_hi80": null, "conc_A_lo95": null, "conc_A_hi95": null, "conc_A_status": "unavailable", "conc_A_status_ru": "концентрация недоступна", "conc_A_reasons": "вне бассейна профиля: nw_atlantic_subtropical", "conc_A_model": "conc-A-c6bce5631d2b", "conc_B_items_km2": null, "conc_B_lo80": null, "conc_B_hi80": null, "conc_B_lo95": null, "conc_B_hi95": null, "conc_B_status": "unavailable", "conc_B_status_ru": "концентрация недоступна", "conc_B_reasons": "вне бассейна профиля: black_sea", "conc_B_model": "conc-B-c6bce5631d2b"}}, {"type": "Feature", "geometry": {"type": "Polygon", "coordinates": [[[30.088916367193455, 59.90013349003272], [30.08890803425841, 59.90004382655485], [30.088729549781252, 59.900048012555594], [30.08872121737831, 59.8999583490608], [30.088899701375844, 59.89995416307509], [30.088891368545752, 59.89986449959336], [30.08924833542415, 59.899856126927546], [30.089256669213484, 59.89994579037923], [30.089435153053586, 59.89994160366911], [30.08944348737503, 59.90003126710382], [30.089265003055303, 59.900035453828956], [30.089273336949603, 59.900125117276794], [30.088916367193455, 59.90013349003272]]]}, "properties": {"zone_id": "neva-2026-04-20-006", "aoi": "neva", "date": "2026-04-20", "scene_id": "S2B_MSIL2A_20260420T093029_R136_T36VUM_20260420T114121", "scene_datetime_utc": "2026-04-20T09:30:29.025000+00:00", "detection_status": "detected", "detection_status_ru": "обнаружено", "lon": 30.08908, "lat": 59.89999, "n_pixels": 2, "zone_area_km2": 0.0008, "cover_m2": 9.4, "p_mean": 0.865, "p_max": 0.91, "cover_m2_km2": 11750.0, "h3": "8811061753fffff", "valid_frac_scene": 0.998, "wind_ms": 5.9, "sea": "спокойное", "scene_reliable": true, "field_event_id": "S3:HE419_MarLitter_transect28", "field_profile": "B", "field_date": "2014-04-11", "field_distance_km": 1415.9, "field_date_gap_days": 4392, "field_conc_items_km2": 43.1, "conc_A_items_km2": null, "conc_A_lo80": null, "conc_A_hi80": null, "conc_A_lo95": null, "conc_A_hi95": null, "conc_A_status": "unavailable", "conc_A_status_ru": "концентрация недоступна", "conc_A_reasons": "вне бассейна профиля: nw_atlantic_subtropical", "conc_A_model": "conc-A-c6bce5631d2b", "conc_B_items_km2": null, "conc_B_lo80": null, "conc_B_hi80": null, "conc_B_lo95": null, "conc_B_hi95": null, "conc_B_status": "unavailable", "conc_B_status_ru": "концентрация недоступна", "conc_B_reasons": "вне бассейна профиля: black_sea", "conc_B_model": "conc-B-c6bce5631d2b"}}, {"type": "Feature", "geometry": {"type": "Polygon", "coordinates": [[[30.125871449428278, 59.89746434317947], [30.125863017802313, 59.897374682805854], [30.12568455389461, 59.89737891872639], [30.125676122801202, 59.89728925833566], [30.125854586229433, 59.89728502243032], [30.12584615470965, 59.89719536205283], [30.126203080447908, 59.897186889548266], [30.12621151292663, 59.89727654989535], [30.12638997619558, 59.89727231326574], [30.12639840920686, 59.897361973595686], [30.12621994545844, 59.89736621024051], [30.126228378043347, 59.897455870583705], [30.125871449428278, 59.89746434317947]]]}, "properties": {"zone_id": "neva-2026-04-20-007", "aoi": "neva", "date": "2026-04-20", "scene_id": "S2B_MSIL2A_20260420T093029_R136_T36VUM_20260420T114121", "scene_datetime_utc": "2026-04-20T09:30:29.025000+00:00", "detection_status": "detected", "detection_status_ru": "обнаружено", "lon": 30.12604, "lat": 59.89733, "n_pixels": 2, "zone_area_km2": 0.0008, "cover_m2": 9.4, "p_mean": 0.731, "p_max": 0.745, "cover_m2_km2": 11750.0, "h3": "8811061711fffff", "valid_frac_scene": 0.998, "wind_ms": 5.9, "sea": "спокойное", "scene_reliable": true, "field_event_id": "S3:HE419_MarLitter_transect28", "field_profile": "B", "field_date": "2014-04-11", "field_distance_km": 1417.9, "field_date_gap_days": 4392, "field_conc_items_km2": 43.1, "conc_A_items_km2": null, "conc_A_lo80": null, "conc_A_hi80": null, "conc_A_lo95": null, "conc_A_hi95": null, "conc_A_status": "unavailable", "conc_A_status_ru": "концентрация недоступна", "conc_A_reasons": "вне бассейна профиля: nw_atlantic_subtropical", "conc_A_model": "conc-A-c6bce5631d2b", "conc_B_items_km2": null, "conc_B_lo80": null, "conc_B_hi80": null, "conc_B_lo95": null, "conc_B_hi95": null, "conc_B_status": "unavailable", "conc_B_status_ru": "концентрация недоступна", "conc_B_reasons": "вне бассейна профиля: black_sea", "conc_B_model": "conc-B-c6bce5631d2b"}}, {"type": "Feature", "geometry": {"type": "Polygon", "coordinates": [[[30.140574826322656, 59.892172154010275], [30.140566356876562, 59.8920824948242], [30.140387923856416, 59.89208675042576], [30.14037945494291, 59.89199709122246], [30.140557887483794, 59.89199283563617], [30.14054941814434, 59.891903176446164], [30.140906282107622, 59.89189466457999], [30.140914752405592, 59.89198432373945], [30.14109318478651, 59.89198006742905], [30.14110165561707, 59.892069726571286], [30.140923222756896, 59.892073982896974], [30.14093169316152, 59.892163642052495], [30.140574826322656, 59.892172154010275]]]}, "properties": {"zone_id": "neva-2026-04-20-008", "aoi": "neva", "date": "2026-04-20", "scene_id": "S2B_MSIL2A_20260420T093029_R136_T36VUM_20260420T114121", "scene_datetime_utc": "2026-04-20T09:30:29.025000+00:00", "detection_status": "detected", "detection_status_ru": "обнаружено", "lon": 30.14074, "lat": 59.89203, "n_pixels": 2, "zone_area_km2": 0.0008, "cover_m2": 13.7, "p_mean": 0.794, "p_max": 0.973, "cover_m2_km2": 17125.0, "h3": "8811061717fffff", "valid_frac_scene": 0.998, "wind_ms": 5.9, "sea": "спокойное", "scene_reliable": true, "field_event_id": "S3:HE419_MarLitter_transect28", "field_profile": "B", "field_date": "2014-04-11", "field_distance_km": 1418.6, "field_date_gap_days": 4392, "field_conc_items_km2": 43.1, "conc_A_items_km2": null, "conc_A_lo80": null, "conc_A_hi80": null, "conc_A_lo95": null, "conc_A_hi95": null, "conc_A_status": "unavailable", "conc_A_status_ru": "концентрация недоступна", "conc_A_reasons": "вне бассейна профиля: nw_atlantic_subtropical", "conc_A_model": "conc-A-c6bce5631d2b", "conc_B_items_km2": null, "conc_B_lo80": null, "conc_B_hi80": null, "conc_B_lo95": null, "conc_B_hi95": null, "conc_B_status": "unavailable", "conc_B_status_ru": "концентрация недоступна", "conc_B_reasons": "вне бассейна профиля: black_sea", "conc_B_model": "conc-B-c6bce5631d2b"}}]}