{"type": "FeatureCollection", "features": [{"type": "Feature", "geometry": {"type": "Polygon", "coordinates": [[[29.882156360735827, 60.01156165725095], [29.88214855016238, 60.01147197841406], [29.881969431818582, 60.01147588878575], [29.88196162177825, 60.01138620993292], [29.882140739638285, 60.01138229957532], [29.882132929163536, 60.011292620734736], [29.882491163768023, 60.01128479931962], [29.882498975210293, 60.01137447813207], [29.882678092922262, 60.01137056704643], [29.882685904897652, 60.011460245842976], [29.88250678670192, 60.01146415694267], [29.882514598242906, 60.01155383575143], [29.882156360735827, 60.01156165725095]]]}, "properties": {"zone_id": "neva-2025-09-07-001", "aoi": "neva", "date": "2025-09-07", "scene_id": "S2C_MSIL2A_20250907T093051_R136_T36VUM_20250907T130615", "scene_datetime_utc": "2025-09-07T09:30:51.025000+00:00", "detection_status": "detected", "detection_status_ru": "обнаружено", "lon": 29.88232, "lat": 60.01142, "n_pixels": 2, "zone_area_km2": 0.0008, "cover_m2": 9.0, "p_mean": 0.78, "p_max": 0.875, "cover_m2_km2": 11250.0, "h3": "8811068585fffff", "valid_frac_scene": 1.0, "wind_ms": 5.9, "sea": "спокойное", "scene_reliable": true, "field_event_id": "S3:HE419_MarLitter_transect28", "field_profile": "B", "field_date": "2014-04-11", "field_distance_km": 1407.7, "field_date_gap_days": 4167, "field_conc_items_km2": 43.1, "conc_A_items_km2": null, "conc_A_lo80": null, "conc_A_hi80": null, "conc_A_lo95": null, "conc_A_hi95": null, "conc_A_status": "unavailable", "conc_A_status_ru": "концентрация недоступна", "conc_A_reasons": "вне бассейна профиля: nw_atlantic_subtropical", "conc_A_model": "conc-A-c6bce5631d2b", "conc_B_items_km2": null, "conc_B_lo80": null, "conc_B_hi80": null, "conc_B_lo95": null, "conc_B_hi95": null, "conc_B_status": "unavailable", "conc_B_status_ru": "концентрация недоступна", "conc_B_reasons": "вне бассейна профиля: black_sea", "conc_B_model": "conc-B-c6bce5631d2b"}}, {"type": "Feature", "geometry": {"type": "Polygon", "coordinates": [[[29.920387243906383, 59.99535693637702], [29.920379334978495, 59.99526726035241], [29.920200310278528, 59.995271221914], [29.920184493538887, 59.995091869830674], [29.920363517272563, 59.995087908297585], [29.920355608494518, 59.99499823226741], [29.92072156459006, 59.99507998450395], [29.920737384228577, 59.995259336501775], [29.920387243906383, 59.99535693637702]]]}, "properties": {"zone_id": "neva-2025-09-07-002", "aoi": "neva", "date": "2025-09-07", "scene_id": "S2C_MSIL2A_20250907T093051_R136_T36VUM_20250907T130615", "scene_datetime_utc": "2025-09-07T09:30:51.025000+00:00", "detection_status": "detected", "detection_status_ru": "обнаружено", "lon": 29.92046, "lat": 59.99518, "n_pixels": 2, "zone_area_km2": 0.0008, "cover_m2": 14.1, "p_mean": 0.859, "p_max": 0.937, "cover_m2_km2": 17625.0, "h3": "881106bb4dfffff", "valid_frac_scene": 1.0, "wind_ms": 5.9, "sea": "спокойное", "scene_reliable": true, "field_event_id": "S3:HE419_MarLitter_transect28", "field_profile": "B", "field_date": "2014-04-11", "field_distance_km": 1409.3, "field_date_gap_days": 4167, "field_conc_items_km2": 43.1, "conc_A_items_km2": null, "conc_A_lo80": null, "conc_A_hi80": null, "conc_A_lo95": null, "conc_A_hi95": null, "conc_A_status": "unavailable", "conc_A_status_ru": "концентрация недоступна", "conc_A_reasons": "вне бассейна профиля: nw_atlantic_subtropical", "conc_A_model": "conc-A-c6bce5631d2b", "conc_B_items_km2": null, "conc_B_lo80": null, "conc_B_hi80": null, "conc_B_lo95": null, "conc_B_hi95": null, "conc_B_status": "unavailable", "conc_B_status_ru": "концентрация недоступна", "conc_B_reasons": "вне бассейна профиля: black_sea", "conc_B_model": "conc-B-c6bce5631d2b"}}, {"type": "Feature", "geometry": {"type": "Polygon", "coordinates": [[[29.73381121784976, 59.98408000849969], [29.7338038171665, 59.98399031789308], [29.733624824566682, 59.98399402613613], [29.733617424413232, 59.983904335514424], [29.733796416529977, 59.98390062728469], [29.73378901594018, 59.98381093667455], [29.73415440062326, 59.983893210097804], [29.734161802225945, 59.98398290067951], [29.73398280971959, 59.98398660940753], [29.733990210885924, 59.9840763000008], [29.73381121784976, 59.98408000849969]]]}, "properties": {"zone_id": "neva-2025-09-07-003", "aoi": "neva", "date": "2025-09-07", "scene_id": "S2C_MSIL2A_20250907T093051_R136_T36VUM_20250907T130615", "scene_datetime_utc": "2025-09-07T09:30:51.025000+00:00", "detection_status": "detected", "detection_status_ru": "обнаружено", "lon": 29.73389, "lat": 59.98394, "n_pixels": 1, "zone_area_km2": 0.0005, "cover_m2": 3.9, "p_mean": 0.867, "p_max": 0.867, "cover_m2_km2": 7800.0, "h3": "8811068723fffff", "valid_frac_scene": 1.0, "wind_ms": 5.9, "sea": "спокойное", "scene_reliable": true, "field_event_id": "S3:HE419_MarLitter_transect28", "field_profile": "B", "field_date": "2014-04-11", "field_distance_km": 1398.9, "field_date_gap_days": 4167, "field_conc_items_km2": 43.1, "conc_A_items_km2": null, "conc_A_lo80": null, "conc_A_hi80": null, "conc_A_lo95": null, "conc_A_hi95": null, "conc_A_status": "unavailable", "conc_A_status_ru": "концентрация недоступна", "conc_A_reasons": "вне бассейна профиля: nw_atlantic_subtropical", "conc_A_model": "conc-A-c6bce5631d2b", "conc_B_items_km2": null, "conc_B_lo80": null, "conc_B_hi80": null, "conc_B_lo95": null, "conc_B_hi95": null, "conc_B_status": "unavailable", "conc_B_status_ru": "концентрация недоступна", "conc_B_reasons": "вне бассейна профиля: black_sea", "conc_B_model": "conc-B-c6bce5631d2b"}}, {"type": "Feature", "geometry": {"type": "Polygon", "coordinates": [[[30.119262410946682, 59.97948335321884], [30.119253969338594, 59.9793936934034], [30.119075063111367, 59.97939792382677], [30.11906662203882, 59.9793082639942], [30.11924552778379, 59.97930403358601], [30.119237086282254, 59.979214373766695], [30.119603339113887, 59.979295572042986], [30.1196117816332, 59.97938523182994], [30.119432875512537, 59.97938946273779], [30.11944131760288, 59.97947912253802], [30.119262410946682, 59.97948335321884]]]}, "properties": {"zone_id": "neva-2025-09-07-004", "aoi": "neva", "date": "2025-09-07", "scene_id": "S2C_MSIL2A_20250907T093051_R136_T36VUM_20250907T130615", "scene_datetime_utc": "2025-09-07T09:30:51.025000+00:00", "detection_status": "detected", "detection_status_ru": "обнаружено", "lon": 30.11934, "lat": 59.97935, "n_pixels": 1, "zone_area_km2": 0.0005, "cover_m2": 5.9, "p_mean": 0.616, "p_max": 0.616, "cover_m2_km2": 11800.0, "h3": "88110616cbfffff", "valid_frac_scene": 1.0, "wind_ms": 5.9, "sea": "спокойное", "scene_reliable": true, "field_event_id": "S3:HE419_MarLitter_transect28", "field_profile": "B", "field_date": "2014-04-11", "field_distance_km": 1419.6, "field_date_gap_days": 4167, "field_conc_items_km2": 43.1, "conc_A_items_km2": null, "conc_A_lo80": null, "conc_A_hi80": null, "conc_A_lo95": null, "conc_A_hi95": null, "conc_A_status": "unavailable", "conc_A_status_ru": "концентрация недоступна", "conc_A_reasons": "вне бассейна профиля: nw_atlantic_subtropical", "conc_A_model": "conc-A-c6bce5631d2b", "conc_B_items_km2": null, "conc_B_lo80": null, "conc_B_hi80": null, "conc_B_lo95": null, "conc_B_hi95": null, "conc_B_status": "unavailable", "conc_B_status_ru": "концентрация недоступна", "conc_B_reasons": "вне бассейна профиля: black_sea", "conc_B_model": "conc-B-c6bce5631d2b"}}, {"type": "Feature", "geometry": {"type": "Polygon", "coordinates": [[[30.19634930716092, 59.971886675073236], [30.196340659790973, 59.971797021811625], [30.196161807815958, 59.971801356351136], [30.196153160982423, 59.971711703071946], [30.19633201247559, 59.971707368548024], [30.196323365214763, 59.97161771528243], [30.196689715298234, 59.97169869877385], [30.196698363577323, 59.97178835200629], [30.196519511711426, 59.97179268703001], [30.196528159563236, 59.97188234027605], [30.19634930716092, 59.971886675073236]]]}, "properties": {"zone_id": "neva-2025-09-07-005", "aoi": "neva", "date": "2025-09-07", "scene_id": "S2C_MSIL2A_20250907T093051_R136_T36VUM_20250907T130615", "scene_datetime_utc": "2025-09-07T09:30:51.025000+00:00", "detection_status": "detected", "detection_status_ru": "обнаружено", "lon": 30.19643, "lat": 59.97175, "n_pixels": 1, "zone_area_km2": 0.0005, "cover_m2": 4.7, "p_mean": 0.949, "p_max": 0.949, "cover_m2_km2": 9400.0, "h3": "88110616b1fffff", "valid_frac_scene": 1.0, "wind_ms": 5.9, "sea": "спокойное", "scene_reliable": true, "field_event_id": "S3:HE419_MarLitter_transect28", "field_profile": "B", "field_date": "2014-04-11", "field_distance_km": 1423.6, "field_date_gap_days": 4167, "field_conc_items_km2": 43.1, "conc_A_items_km2": null, "conc_A_lo80": null, "conc_A_hi80": null, "conc_A_lo95": null, "conc_A_hi95": null, "conc_A_status": "unavailable", "conc_A_status_ru": "концентрация недоступна", "conc_A_reasons": "вне бассейна профиля: nw_atlantic_subtropical", "conc_A_model": "conc-A-c6bce5631d2b", "conc_B_items_km2": null, "conc_B_lo80": null, "conc_B_hi80": null, "conc_B_lo95": null, "conc_B_hi95": null, "conc_B_status": "unavailable", "conc_B_status_ru": "концентрация недоступна", "conc_B_reasons": "вне бассейна профиля: black_sea", "conc_B_model": "conc-B-c6bce5631d2b"}}, {"type": "Feature", "geometry": {"type": "Polygon", "coordinates": [[[30.18933087860098, 59.971607273954525], [30.18932225029599, 59.971517620076185], [30.189143398604777, 59.971521945095624], [30.189134770836095, 59.97143229119982], [30.189313622045454, 59.97142796619592], [30.189304993849348, 59.97133831231362], [30.189671324300846, 59.9714193154618], [30.1896799535151, 59.97150896931099], [30.189501101932766, 59.97151329481465], [30.18950973071961, 59.971602948677436], [30.18933087860098, 59.971607273954525]]]}, "properties": {"zone_id": "neva-2025-09-07-006", "aoi": "neva", "date": "2025-09-07", "scene_id": "S2C_MSIL2A_20250907T093051_R136_T36VUM_20250907T130615", "scene_datetime_utc": "2025-09-07T09:30:51.025000+00:00", "detection_status": "detected", "detection_status_ru": "обнаружено", "lon": 30.18941, "lat": 59.97147, "n_pixels": 1, "zone_area_km2": 0.0005, "cover_m2": 3.5, "p_mean": 0.906, "p_max": 0.906, "cover_m2_km2": 7000.0, "h3": "88110616b9fffff", "valid_frac_scene": 1.0, "wind_ms": 5.9, "sea": "спокойное", "scene_reliable": true, "field_event_id": "S3:HE419_MarLitter_transect28", "field_profile": "B", "field_date": "2014-04-11", "field_distance_km": 1423.2, "field_date_gap_days": 4167, "field_conc_items_km2": 43.1, "conc_A_items_km2": null, "conc_A_lo80": null, "conc_A_hi80": null, "conc_A_lo95": null, "conc_A_hi95": null, "conc_A_status": "unavailable", "conc_A_status_ru": "концентрация недоступна", "conc_A_reasons": "вне бассейна профиля: nw_atlantic_subtropical", "conc_A_model": "conc-A-c6bce5631d2b", "conc_B_items_km2": null, "conc_B_lo80": null, "conc_B_hi80": null, "conc_B_lo95": null, "conc_B_hi95": null, "conc_B_status": "unavailable", "conc_B_status_ru": "концентрация недоступна", "conc_B_reasons": "вне бассейна профиля: black_sea", "conc_B_model": "conc-B-c6bce5631d2b"}}, {"type": "Feature", "geometry": {"type": "Polygon", "coordinates": [[[30.117959576428042, 59.96944989902264], [30.117951141748048, 59.969360238958835], [30.11777228940807, 59.96936446719556], [30.11776385526321, 59.969274807114616], [30.117942707121262, 59.9692705788931], [30.117934272547707, 59.9691809188254], [30.118300410677723, 59.9692621217237], [30.11830884626833, 59.96935178175903], [30.1181299940348, 59.96935601048001], [30.11813842919672, 59.9694456705286], [30.117959576428042, 59.96944989902264]]]}, "properties": {"zone_id": "neva-2025-09-07-007", "aoi": "neva", "date": "2025-09-07", "scene_id": "S2C_MSIL2A_20250907T093051_R136_T36VUM_20250907T130615", "scene_datetime_utc": "2025-09-07T09:30:51.025000+00:00", "detection_status": "detected", "detection_status_ru": "обнаружено", "lon": 30.11804, "lat": 59.96931, "n_pixels": 1, "zone_area_km2": 0.0005, "cover_m2": 4.3, "p_mean": 0.867, "p_max": 0.867, "cover_m2_km2": 8600.0, "h3": "88110616c1fffff", "valid_frac_scene": 1.0, "wind_ms": 5.9, "sea": "спокойное", "scene_reliable": true, "field_event_id": "S3:HE419_MarLitter_transect28", "field_profile": "B", "field_date": "2014-04-11", "field_distance_km": 1419.3, "field_date_gap_days": 4167, "field_conc_items_km2": 43.1, "conc_A_items_km2": null, "conc_A_lo80": null, "conc_A_hi80": null, "conc_A_lo95": null, "conc_A_hi95": null, "conc_A_status": "unavailable", "conc_A_status_ru": "концентрация недоступна", "conc_A_reasons": "вне бассейна профиля: nw_atlantic_subtropical", "conc_A_model": "conc-A-c6bce5631d2b", "conc_B_items_km2": null, "conc_B_lo80": null, "conc_B_hi80": null, "conc_B_lo95": null, "conc_B_hi95": null, "conc_B_status": "unavailable", "conc_B_status_ru": "концентрация недоступна", "conc_B_reasons": "вне бассейна профиля: black_sea", "conc_B_model": "conc-B-c6bce5631d2b"}}, {"type": "Feature", "geometry": {"type": "Polygon", "coordinates": [[[30.12416023193579, 59.96867414090308], [30.124151780762173, 59.96858448135798], [30.12397293365992, 59.96858871796261], [30.123964483021503, 59.96849905840035], [30.12414332964188, 59.96849482181093], [30.124134878574907, 59.96840516226194], [30.124501022722665, 59.96848634790577], [30.124509474806715, 59.96857600742235], [30.12433062781111, 59.96858024451123], [30.12433907946661, 59.96866990404112], [30.12416023193579, 59.96867414090308]]]}, "properties": {"zone_id": "neva-2025-09-07-008", "aoi": "neva", "date": "2025-09-07", "scene_id": "S2C_MSIL2A_20250907T093051_R136_T36VUM_20250907T130615", "scene_datetime_utc": "2025-09-07T09:30:51.025000+00:00", "detection_status": "detected", "detection_status_ru": "обнаружено", "lon": 30.12424, "lat": 59.96854, "n_pixels": 1, "zone_area_km2": 0.0005, "cover_m2": 4.7, "p_mean": 0.71, "p_max": 0.71, "cover_m2_km2": 9400.0, "h3": "88110616c1fffff", "valid_frac_scene": 1.0, "wind_ms": 5.9, "sea": "спокойное", "scene_reliable": true, "field_event_id": "S3:HE419_MarLitter_transect28", "field_profile": "B", "field_date": "2014-04-11", "field_distance_km": 1419.6, "field_date_gap_days": 4167, "field_conc_items_km2": 43.1, "conc_A_items_km2": null, "conc_A_lo80": null, "conc_A_hi80": null, "conc_A_lo95": null, "conc_A_hi95": null, "conc_A_status": "unavailable", "conc_A_status_ru": "концентрация недоступна", "conc_A_reasons": "вне бассейна профиля: nw_atlantic_subtropical", "conc_A_model": "conc-A-c6bce5631d2b", "conc_B_items_km2": null, "conc_B_lo80": null, "conc_B_hi80": null, "conc_B_lo95": null, "conc_B_hi95": null, "conc_B_status": "unavailable", "conc_B_status_ru": "концентрация недоступна", "conc_B_reasons": "вне бассейна профиля: black_sea", "conc_B_model": "conc-B-c6bce5631d2b"}}, {"type": "Feature", "geometry": {"type": "Polygon", "coordinates": [[[30.19733619343876, 59.96539262337369], [30.197327545661256, 59.96530297010952], [30.197148728862786, 59.96530730570623], [30.197140081621466, 59.96521765242453], [30.197318897938306, 59.965213316843396], [30.1973102502699, 59.965123663575255], [30.197676530408312, 59.965204644955016], [30.197685179094528, 59.965294298189995], [30.197506362405164, 59.96529863427077], [30.197515010664304, 59.96538828751936], [30.19733619343876, 59.96539262337369]]]}, "properties": {"zone_id": "neva-2025-09-07-009", "aoi": "neva", "date": "2025-09-07", "scene_id": "S2C_MSIL2A_20250907T093051_R136_T36VUM_20250907T130615", "scene_datetime_utc": "2025-09-07T09:30:51.025000+00:00", "detection_status": "detected", "detection_status_ru": "обнаружено", "lon": 30.19741, "lat": 59.96526, "n_pixels": 1, "zone_area_km2": 0.0005, "cover_m2": 7.1, "p_mean": 0.871, "p_max": 0.871, "cover_m2_km2": 14200.0, "h3": "88110616b1fffff", "valid_frac_scene": 1.0, "wind_ms": 5.9, "sea": "спокойное", "scene_reliable": true, "field_event_id": "S3:HE419_MarLitter_transect28", "field_profile": "B", "field_date": "2014-04-11", "field_distance_km": 1423.5, "field_date_gap_days": 4167, "field_conc_items_km2": 43.1, "conc_A_items_km2": null, "conc_A_lo80": null, "conc_A_hi80": null, "conc_A_lo95": null, "conc_A_hi95": null, "conc_A_status": "unavailable", "conc_A_status_ru": "концентрация недоступна", "conc_A_reasons": "вне бассейна профиля: nw_atlantic_subtropical", "conc_A_model": "conc-A-c6bce5631d2b", "conc_B_items_km2": null, "conc_B_lo80": null, "conc_B_hi80": null, "conc_B_lo95": null, "conc_B_hi95": null, "conc_B_status": "unavailable", "conc_B_status_ru": "концентрация недоступна", "conc_B_reasons": "вне бассейна профиля: black_sea", "conc_B_model": "conc-B-c6bce5631d2b"}}, {"type": "Feature", "geometry": {"type": "Polygon", "coordinates": [[[30.183222718231036, 59.962139577296995], [30.183214109713237, 59.96204992275688], [30.1830353079876, 59.962054239095316], [30.18302670000565, 59.96196458453771], [30.183205501249738, 59.96196026821479], [30.18319689284054, 59.96187061367073], [30.183554494202728, 59.96186198032988], [30.183563103575008, 59.961951634842904], [30.183741904656188, 59.96194731779392], [30.18375051456432, 59.96203697228947], [30.1835717130016, 59.96204128935397], [30.183580322482495, 59.96213094386307], [30.183222718231036, 59.962139577296995]]]}, "properties": {"zone_id": "neva-2025-09-07-010", "aoi": "neva", "date": "2025-09-07", "scene_id": "S2C_MSIL2A_20250907T093051_R136_T36VUM_20250907T130615", "scene_datetime_utc": "2025-09-07T09:30:51.025000+00:00", "detection_status": "detected", "detection_status_ru": "обнаружено", "lon": 30.18339, "lat": 59.962, "n_pixels": 2, "zone_area_km2": 0.0008, "cover_m2": 13.3, "p_mean": 0.578, "p_max": 0.612, "cover_m2_km2": 16625.0, "h3": "88110616bdfffff", "valid_frac_scene": 1.0, "wind_ms": 5.9, "sea": "спокойное", "scene_reliable": true, "field_event_id": "S3:HE419_MarLitter_transect28", "field_profile": "B", "field_date": "2014-04-11", "field_distance_km": 1422.6, "field_date_gap_days": 4167, "field_conc_items_km2": 43.1, "conc_A_items_km2": null, "conc_A_lo80": null, "conc_A_hi80": null, "conc_A_lo95": null, "conc_A_hi95": null, "conc_A_status": "unavailable", "conc_A_status_ru": "концентрация недоступна", "conc_A_reasons": "вне бассейна профиля: nw_atlantic_subtropical", "conc_A_model": "conc-A-c6bce5631d2b", "conc_B_items_km2": null, "conc_B_lo80": null, "conc_B_hi80": null, "conc_B_lo95": null, "conc_B_hi95": null, "conc_B_status": "unavailable", "conc_B_status_ru": "концентрация недоступна", "conc_B_reasons": "вне бассейна профиля: black_sea", "conc_B_model": "conc-B-c6bce5631d2b"}}, {"type": "Feature", "geometry": {"type": "Polygon", "coordinates": [[[30.036957331571227, 59.961815219855794], [30.03694911833303, 59.961725552869495], [30.03677029354351, 59.96172967104832], [30.036753868186164, 59.96155033704042], [30.03693269201208, 59.9615462188912], [30.036924478929325, 59.961456551899175], [30.037290339508456, 59.961537981866435], [30.03730676775662, 59.96171731578555], [30.036957331571227, 59.961815219855794]]]}, "properties": {"zone_id": "neva-2025-09-07-011", "aoi": "neva", "date": "2025-09-07", "scene_id": "S2C_MSIL2A_20250907T093051_R136_T36VUM_20250907T130615", "scene_datetime_utc": "2025-09-07T09:30:51.025000+00:00", "detection_status": "detected", "detection_status_ru": "обнаружено", "lon": 30.03703, "lat": 59.96163, "n_pixels": 2, "zone_area_km2": 0.0008, "cover_m2": 18.0, "p_mean": 0.967, "p_max": 0.973, "cover_m2_km2": 22500.0, "h3": "881106b96dfffff", "valid_frac_scene": 1.0, "wind_ms": 5.9, "sea": "спокойное", "scene_reliable": true, "field_event_id": "S3:HE419_MarLitter_transect28", "field_profile": "B", "field_date": "2014-04-11", "field_distance_km": 1414.7, "field_date_gap_days": 4167, "field_conc_items_km2": 43.1, "conc_A_items_km2": null, "conc_A_lo80": null, "conc_A_hi80": null, "conc_A_lo95": null, "conc_A_hi95": null, "conc_A_status": "unavailable", "conc_A_status_ru": "концентрация недоступна", "conc_A_reasons": "вне бассейна профиля: nw_atlantic_subtropical", "conc_A_model": "conc-A-c6bce5631d2b", "conc_B_items_km2": null, "conc_B_lo80": null, "conc_B_hi80": null, "conc_B_lo95": null, "conc_B_hi95": null, "conc_B_status": "unavailable", "conc_B_status_ru": "концентрация недоступна", "conc_B_reasons": "вне бассейна профиля: black_sea", "conc_B_model": "conc-B-c6bce5631d2b"}}, {"type": "Feature", "geometry": {"type": "Polygon", "coordinates": [[[30.08477218045452, 59.959537198544126], [30.08476383879264, 59.95944753552962], [30.08458503425933, 59.95945171839152], [30.084568352056706, 59.95927239232665], [30.084747155626744, 59.95926820949483], [30.08473881412272, 59.95917854647454], [30.085104762608953, 59.95925984310498], [30.08512144770141, 59.95943916907968], [30.08477218045452, 59.959537198544126]]]}, "properties": {"zone_id": "neva-2025-09-07-012", "aoi": "neva", "date": "2025-09-07", "scene_id": "S2C_MSIL2A_20250907T093051_R136_T36VUM_20250907T130615", "scene_datetime_utc": "2025-09-07T09:30:51.025000+00:00", "detection_status": "detected", "detection_status_ru": "обнаружено", "lon": 30.08484, "lat": 59.95936, "n_pixels": 2, "zone_area_km2": 0.0008, "cover_m2": 12.5, "p_mean": 0.782, "p_max": 0.976, "cover_m2_km2": 15625.0, "h3": "881106b925fffff", "valid_frac_scene": 1.0, "wind_ms": 5.9, "sea": "спокойное", "scene_reliable": true, "field_event_id": "S3:HE419_MarLitter_transect28", "field_profile": "B", "field_date": "2014-04-11", "field_distance_km": 1417.2, "field_date_gap_days": 4167, "field_conc_items_km2": 43.1, "conc_A_items_km2": null, "conc_A_lo80": null, "conc_A_hi80": null, "conc_A_lo95": null, "conc_A_hi95": null, "conc_A_status": "unavailable", "conc_A_status_ru": "концентрация недоступна", "conc_A_reasons": "вне бассейна профиля: nw_atlantic_subtropical", "conc_A_model": "conc-A-c6bce5631d2b", "conc_B_items_km2": null, "conc_B_lo80": null, "conc_B_hi80": null, "conc_B_lo95": null, "conc_B_hi95": null, "conc_B_status": "unavailable", "conc_B_status_ru": "концентрация недоступна", "conc_B_reasons": "вне бассейна профиля: black_sea", "conc_B_model": "conc-B-c6bce5631d2b"}}, {"type": "Feature", "geometry": {"type": "Polygon", "coordinates": [[[30.087088292936254, 59.95939313629818], [30.087079945065707, 59.959303473477206], [30.086901141698313, 59.95930765947075], [30.086884447078447, 59.95912833379289], [30.087063249482576, 59.95912414782944], [30.08705490177, 59.959034485002654], [30.08741250545703, 59.95902611237966], [30.087420854132866, 59.959115775176365], [30.08759965637901, 59.959111588486756], [30.08761635485192, 59.95929091404428], [30.087437551642513, 59.95929510076399], [30.08744590047633, 59.95938476355488], [30.087088292936254, 59.95939313629818]]]}, "properties": {"zone_id": "neva-2025-09-07-013", "aoi": "neva", "date": "2025-09-07", "scene_id": "S2C_MSIL2A_20250907T093051_R136_T36VUM_20250907T130615", "scene_datetime_utc": "2025-09-07T09:30:51.025000+00:00", "detection_status": "detected", "detection_status_ru": "обнаружено", "lon": 30.08725, "lat": 59.95921, "n_pixels": 4, "zone_area_km2": 0.0012, "cover_m2": 50.2, "p_mean": 0.982, "p_max": 0.996, "cover_m2_km2": 41833.3, "h3": "881106b925fffff", "valid_frac_scene": 1.0, "wind_ms": 5.9, "sea": "спокойное", "scene_reliable": true, "field_event_id": "S3:HE419_MarLitter_transect28", "field_profile": "B", "field_date": "2014-04-11", "field_distance_km": 1417.4, "field_date_gap_days": 4167, "field_conc_items_km2": 43.1, "conc_A_items_km2": null, "conc_A_lo80": null, "conc_A_hi80": null, "conc_A_lo95": null, "conc_A_hi95": null, "conc_A_status": "unavailable", "conc_A_status_ru": "концентрация недоступна", "conc_A_reasons": "вне бассейна профиля: nw_atlantic_subtropical", "conc_A_model": "conc-A-c6bce5631d2b", "conc_B_items_km2": null, "conc_B_lo80": null, "conc_B_hi80": null, "conc_B_lo95": null, "conc_B_hi95": null, "conc_B_status": "unavailable", "conc_B_status_ru": "концентрация недоступна", "conc_B_reasons": "вне бассейна профиля: black_sea", "conc_B_model": "conc-B-c6bce5631d2b"}}, {"type": "Feature", "geometry": {"type": "Polygon", "coordinates": [[[30.085990434268044, 59.95914925997946], [30.085982089445228, 59.959059597062456], [30.085803287206847, 59.95906378155859], [30.085786598682382, 59.95888445568873], [30.08596539995751, 59.95888027122266], [30.08595705529261, 59.95879060829984], [30.086323002349857, 59.95887190156438], [30.08633969376407, 59.95905122734405], [30.085990434268044, 59.95914925997946]]]}, "properties": {"zone_id": "neva-2025-09-07-014", "aoi": "neva", "date": "2025-09-07", "scene_id": "S2C_MSIL2A_20250907T093051_R136_T36VUM_20250907T130615", "scene_datetime_utc": "2025-09-07T09:30:51.025000+00:00", "detection_status": "detected", "detection_status_ru": "обнаружено", "lon": 30.08606, "lat": 59.95897, "n_pixels": 2, "zone_area_km2": 0.0008, "cover_m2": 19.6, "p_mean": 0.551, "p_max": 0.584, "cover_m2_km2": 24500.0, "h3": "881106b925fffff", "valid_frac_scene": 1.0, "wind_ms": 5.9, "sea": "спокойное", "scene_reliable": true, "field_event_id": "S3:HE419_MarLitter_transect28", "field_profile": "B", "field_date": "2014-04-11", "field_distance_km": 1417.3, "field_date_gap_days": 4167, "field_conc_items_km2": 43.1, "conc_A_items_km2": null, "conc_A_lo80": null, "conc_A_hi80": null, "conc_A_lo95": null, "conc_A_hi95": null, "conc_A_status": "unavailable", "conc_A_status_ru": "концентрация недоступна", "conc_A_reasons": "вне бассейна профиля: nw_atlantic_subtropical", "conc_A_model": "conc-A-c6bce5631d2b", "conc_B_items_km2": null, "conc_B_lo80": null, "conc_B_hi80": null, "conc_B_lo95": null, "conc_B_hi95": null, "conc_B_status": "unavailable", "conc_B_status_ru": "концентрация недоступна", "conc_B_reasons": "вне бассейна профиля: black_sea", "conc_B_model": "conc-B-c6bce5631d2b"}}, {"type": "Feature", "geometry": {"type": "Polygon", "coordinates": [[[30.080243733061483, 59.95901405408039], [30.08023540380864, 59.95892439067693], [30.080056601332338, 59.958928567382415], [30.080048272613666, 59.95883890396202], [30.080227074608345, 59.95883472727156], [30.080218745460584, 59.958745063864235], [30.080576348329057, 59.95873670978719], [30.080584678440072, 59.95882637316448], [30.080763480277117, 59.958822195747885], [30.080771810922307, 59.95891185910823], [30.080593008603632, 59.958916036539854], [30.08060133881974, 59.95900569991329], [30.080243733061483, 59.95901405408039]]]}, "properties": {"zone_id": "neva-2025-09-07-015", "aoi": "neva", "date": "2025-09-07", "scene_id": "S2C_MSIL2A_20250907T093051_R136_T36VUM_20250907T130615", "scene_datetime_utc": "2025-09-07T09:30:51.025000+00:00", "detection_status": "detected", "detection_status_ru": "обнаружено", "lon": 30.08041, "lat": 59.95888, "n_pixels": 2, "zone_area_km2": 0.0008, "cover_m2": 10.2, "p_mean": 0.676, "p_max": 0.765, "cover_m2_km2": 12750.0, "h3": "881106b92dfffff", "valid_frac_scene": 1.0, "wind_ms": 5.9, "sea": "спокойное", "scene_reliable": true, "field_event_id": "S3:HE419_MarLitter_transect28", "field_profile": "B", "field_date": "2014-04-11", "field_distance_km": 1417.0, "field_date_gap_days": 4167, "field_conc_items_km2": 43.1, "conc_A_items_km2": null, "conc_A_lo80": null, "conc_A_hi80": null, "conc_A_lo95": null, "conc_A_hi95": null, "conc_A_status": "unavailable", "conc_A_status_ru": "концентрация недоступна", "conc_A_reasons": "вне бассейна профиля: nw_atlantic_subtropical", "conc_A_model": "conc-A-c6bce5631d2b", "conc_B_items_km2": null, "conc_B_lo80": null, "conc_B_hi80": null, "conc_B_lo95": null, "conc_B_hi95": null, "conc_B_status": "unavailable", "conc_B_status_ru": "концентрация недоступна", "conc_B_reasons": "вне бассейна профиля: black_sea", "conc_B_model": "conc-B-c6bce5631d2b"}}, {"type": "Feature", "geometry": {"type": "Polygon", "coordinates": [[[30.09597818726682, 59.95864555481995], [30.095969815631964, 59.958555892740414], [30.095603849277936, 59.95847462639758], [30.095595478711868, 59.95838496428401], [30.09577427564267, 59.9583807665508], [30.09576590464781, 59.9582911044504], [30.096123497387836, 59.95828270828804], [30.096131869345857, 59.95837237035829], [30.096310666118242, 59.958368171898975], [30.096327411155894, 59.9585474960035], [30.09597818726682, 59.95864555481995]]]}, "properties": {"zone_id": "neva-2025-09-07-016", "aoi": "neva", "date": "2025-09-07", "scene_id": "S2C_MSIL2A_20250907T093051_R136_T36VUM_20250907T130615", "scene_datetime_utc": "2025-09-07T09:30:51.025000+00:00", "detection_status": "detected", "detection_status_ru": "обнаружено", "lon": 30.09599, "lat": 59.95845, "n_pixels": 3, "zone_area_km2": 0.001, "cover_m2": 34.5, "p_mean": 0.843, "p_max": 0.965, "cover_m2_km2": 34500.0, "h3": "881106161bfffff", "valid_frac_scene": 1.0, "wind_ms": 5.9, "sea": "спокойное", "scene_reliable": true, "field_event_id": "S3:HE419_MarLitter_transect28", "field_profile": "B", "field_date": "2014-04-11", "field_distance_km": 1417.8, "field_date_gap_days": 4167, "field_conc_items_km2": 43.1, "conc_A_items_km2": null, "conc_A_lo80": null, "conc_A_hi80": null, "conc_A_lo95": null, "conc_A_hi95": null, "conc_A_status": "unavailable", "conc_A_status_ru": "концентрация недоступна", "conc_A_reasons": "вне бассейна профиля: nw_atlantic_subtropical", "conc_A_model": "conc-A-c6bce5631d2b", "conc_B_items_km2": null, "conc_B_lo80": null, "conc_B_hi80": null, "conc_B_lo95": null, "conc_B_hi95": null, "conc_B_status": "unavailable", "conc_B_status_ru": "концентрация недоступна", "conc_B_reasons": "вне бассейна профиля: black_sea", "conc_B_model": "conc-B-c6bce5631d2b"}}, {"type": "Feature", "geometry": {"type": "Polygon", "coordinates": [[[30.093790775158364, 59.95824760376958], [30.093782409566504, 59.95815794149944], [30.09360361349984, 59.958162136525026], [30.093586883437585, 59.95798281194882], [30.09376567854109, 59.95797861695339], [30.09375731310753, 59.95788895467745], [30.094123268589804, 59.95797022623641], [30.094140001541533, 59.95814955072218], [30.093790775158364, 59.95824760376958]]]}, "properties": {"zone_id": "neva-2025-09-07-017", "aoi": "neva", "date": "2025-09-07", "scene_id": "S2C_MSIL2A_20250907T093051_R136_T36VUM_20250907T130615", "scene_datetime_utc": "2025-09-07T09:30:51.025000+00:00", "detection_status": "detected", "detection_status_ru": "обнаружено", "lon": 30.09386, "lat": 59.95807, "n_pixels": 2, "zone_area_km2": 0.0008, "cover_m2": 22.7, "p_mean": 0.884, "p_max": 0.922, "cover_m2_km2": 28375.0, "h3": "881106b925fffff", "valid_frac_scene": 1.0, "wind_ms": 5.9, "sea": "спокойное", "scene_reliable": true, "field_event_id": "S3:HE419_MarLitter_transect28", "field_profile": "B", "field_date": "2014-04-11", "field_distance_km": 1417.7, "field_date_gap_days": 4167, "field_conc_items_km2": 43.1, "conc_A_items_km2": null, "conc_A_lo80": null, "conc_A_hi80": null, "conc_A_lo95": null, "conc_A_hi95": null, "conc_A_status": "unavailable", "conc_A_status_ru": "концентрация недоступна", "conc_A_reasons": "вне бассейна профиля: nw_atlantic_subtropical", "conc_A_model": "conc-A-c6bce5631d2b", "conc_B_items_km2": null, "conc_B_lo80": null, "conc_B_hi80": null, "conc_B_lo95": null, "conc_B_hi95": null, "conc_B_status": "unavailable", "conc_B_status_ru": "концентрация недоступна", "conc_B_reasons": "вне бассейна профиля: black_sea", "conc_B_model": "conc-B-c6bce5631d2b"}}, {"type": "Feature", "geometry": {"type": "Polygon", "coordinates": [[[30.091986085802517, 59.958110218440844], [30.091977725131994, 59.958020556016166], [30.091798929500982, 59.958024748591264], [30.091790569364772, 59.95793508614959], [30.09196936451421, 59.95793089358957], [30.09196100394916, 59.95784123116102], [30.092326954654858, 59.95792250774339], [30.092335316235804, 59.958012170139895], [30.092156520710272, 59.95801636319906], [30.092164881862377, 59.95810602560867], [30.091986085802517, 59.958110218440844]]]}, "properties": {"zone_id": "neva-2025-09-07-018", "aoi": "neva", "date": "2025-09-07", "scene_id": "S2C_MSIL2A_20250907T093051_R136_T36VUM_20250907T130615", "scene_datetime_utc": "2025-09-07T09:30:51.025000+00:00", "detection_status": "detected", "detection_status_ru": "обнаружено", "lon": 30.09206, "lat": 59.95797, "n_pixels": 1, "zone_area_km2": 0.0005, "cover_m2": 9.0, "p_mean": 0.757, "p_max": 0.757, "cover_m2_km2": 18000.0, "h3": "881106b925fffff", "valid_frac_scene": 1.0, "wind_ms": 5.9, "sea": "спокойное", "scene_reliable": true, "field_event_id": "S3:HE419_MarLitter_transect28", "field_profile": "B", "field_date": "2014-04-11", "field_distance_km": 1417.6, "field_date_gap_days": 4167, "field_conc_items_km2": 43.1, "conc_A_items_km2": null, "conc_A_lo80": null, "conc_A_hi80": null, "conc_A_lo95": null, "conc_A_hi95": null, "conc_A_status": "unavailable", "conc_A_status_ru": "концентрация недоступна", "conc_A_reasons": "вне бассейна профиля: nw_atlantic_subtropical", "conc_A_model": "conc-A-c6bce5631d2b", "conc_B_items_km2": null, "conc_B_lo80": null, "conc_B_hi80": null, "conc_B_lo95": null, "conc_B_hi95": null, "conc_B_status": "unavailable", "conc_B_status_ru": "концентрация недоступна", "conc_B_reasons": "вне бассейна профиля: black_sea", "conc_B_model": "conc-B-c6bce5631d2b"}}, {"type": "Feature", "geometry": {"type": "Polygon", "coordinates": [[[30.097129277461967, 59.95754021808457], [30.097120903089866, 59.95745055608741], [30.096942111397247, 59.95745475560604], [30.09693373755952, 59.957365093591854], [30.09711252877059, 59.95736089408831], [30.097104154504137, 59.95727123208729], [30.097470111034266, 59.95735249435518], [30.097478486316646, 59.95744215632409], [30.09729969472967, 59.95744635632678], [30.097308069583324, 59.95753601830885], [30.097129277461967, 59.95754021808457]]]}, "properties": {"zone_id": "neva-2025-09-07-019", "aoi": "neva", "date": "2025-09-07", "scene_id": "S2C_MSIL2A_20250907T093051_R136_T36VUM_20250907T130615", "scene_datetime_utc": "2025-09-07T09:30:51.025000+00:00", "detection_status": "detected", "detection_status_ru": "обнаружено", "lon": 30.09721, "lat": 59.9574, "n_pixels": 1, "zone_area_km2": 0.0005, "cover_m2": 9.4, "p_mean": 0.933, "p_max": 0.933, "cover_m2_km2": 18800.0, "h3": "881106161bfffff", "valid_frac_scene": 1.0, "wind_ms": 5.9, "sea": "спокойное", "scene_reliable": true, "field_event_id": "S3:HE419_MarLitter_transect28", "field_profile": "B", "field_date": "2014-04-11", "field_distance_km": 1417.9, "field_date_gap_days": 4167, "field_conc_items_km2": 43.1, "conc_A_items_km2": null, "conc_A_lo80": null, "conc_A_hi80": null, "conc_A_lo95": null, "conc_A_hi95": null, "conc_A_status": "unavailable", "conc_A_status_ru": "концентрация недоступна", "conc_A_reasons": "вне бассейна профиля: nw_atlantic_subtropical", "conc_A_model": "conc-A-c6bce5631d2b", "conc_B_items_km2": null, "conc_B_lo80": null, "conc_B_hi80": null, "conc_B_lo95": null, "conc_B_hi95": null, "conc_B_status": "unavailable", "conc_B_status_ru": "концентрация недоступна", "conc_B_reasons": "вне бассейна профиля: black_sea", "conc_B_model": "conc-B-c6bce5631d2b"}}, {"type": "Feature", "geometry": {"type": "Polygon", "coordinates": [[[30.098554085326196, 59.95552984999327], [30.0985457077827, 59.955440188089334], [30.09836692715892, 59.95544438945411], [30.098358550149747, 59.95535472753313], [30.098537330292057, 59.95535052618346], [30.098528952854238, 59.955260864275644], [30.09888651201738, 59.95525246088043], [30.09889489041814, 59.95534212275804], [30.099073670401918, 59.95533792068233], [30.099082049337014, 59.955427582542924], [30.09890326887175, 59.95543178463373], [30.09891164737821, 59.95552144650748], [30.098554085326196, 59.95552984999327]]]}, "properties": {"zone_id": "neva-2025-09-07-020", "aoi": "neva", "date": "2025-09-07", "scene_id": "S2C_MSIL2A_20250907T093051_R136_T36VUM_20250907T130615", "scene_datetime_utc": "2025-09-07T09:30:51.025000+00:00", "detection_status": "detected", "detection_status_ru": "обнаружено", "lon": 30.09872, "lat": 59.95539, "n_pixels": 2, "zone_area_km2": 0.0008, "cover_m2": 9.4, "p_mean": 0.565, "p_max": 0.569, "cover_m2_km2": 11750.0, "h3": "881106161bfffff", "valid_frac_scene": 1.0, "wind_ms": 5.9, "sea": "спокойное", "scene_reliable": true, "field_event_id": "S3:HE419_MarLitter_transect28", "field_profile": "B", "field_date": "2014-04-11", "field_distance_km": 1417.9, "field_date_gap_days": 4167, "field_conc_items_km2": 43.1, "conc_A_items_km2": null, "conc_A_lo80": null, "conc_A_hi80": null, "conc_A_lo95": null, "conc_A_hi95": null, "conc_A_status": "unavailable", "conc_A_status_ru": "концентрация недоступна", "conc_A_reasons": "вне бассейна профиля: nw_atlantic_subtropical", "conc_A_model": "conc-A-c6bce5631d2b", "conc_B_items_km2": null, "conc_B_lo80": null, "conc_B_hi80": null, "conc_B_lo95": null, "conc_B_hi95": null, "conc_B_status": "unavailable", "conc_B_status_ru": "концентрация недоступна", "conc_B_reasons": "вне бассейна профиля: black_sea", "conc_B_model": "conc-B-c6bce5631d2b"}}, {"type": "Feature", "geometry": {"type": "Polygon", "coordinates": [[[30.11687556006288, 59.954109547800726], [30.116867133513757, 59.954019887434626], [30.11668836364383, 59.954024113558354], [30.116679937629247, 59.95393445317513], [30.116858707017773, 59.9539302270666], [30.11685028057493, 59.953840566696606], [30.11721624563539, 59.95392177412357], [30.117224673094164, 59.95401143446123], [30.117045903330535, 59.95401566106892], [30.11705433036106, 59.95410532141983], [30.11687556006288, 59.954109547800726]]]}, "properties": {"zone_id": "neva-2025-09-07-021", "aoi": "neva", "date": "2025-09-07", "scene_id": "S2C_MSIL2A_20250907T093051_R136_T36VUM_20250907T130615", "scene_datetime_utc": "2025-09-07T09:30:51.025000+00:00", "detection_status": "detected", "detection_status_ru": "обнаружено", "lon": 30.11695, "lat": 59.95397, "n_pixels": 1, "zone_area_km2": 0.0005, "cover_m2": 4.3, "p_mean": 0.525, "p_max": 0.525, "cover_m2_km2": 8600.0, "h3": "8811061613fffff", "valid_frac_scene": 1.0, "wind_ms": 5.9, "sea": "спокойное", "scene_reliable": true, "field_event_id": "S3:HE419_MarLitter_transect28", "field_profile": "B", "field_date": "2014-04-11", "field_distance_km": 1418.8, "field_date_gap_days": 4167, "field_conc_items_km2": 43.1, "conc_A_items_km2": null, "conc_A_lo80": null, "conc_A_hi80": null, "conc_A_lo95": null, "conc_A_hi95": null, "conc_A_status": "unavailable", "conc_A_status_ru": "концентрация недоступна", "conc_A_reasons": "вне бассейна профиля: nw_atlantic_subtropical", "conc_A_model": "conc-A-c6bce5631d2b", "conc_B_items_km2": null, "conc_B_lo80": null, "conc_B_hi80": null, "conc_B_lo95": null, "conc_B_hi95": null, "conc_B_status": "unavailable", "conc_B_status_ru": "концентрация недоступна", "conc_B_reasons": "вне бассейна профиля: black_sea", "conc_B_model": "conc-B-c6bce5631d2b"}}, {"type": "Feature", "geometry": {"type": "Polygon", "coordinates": [[[29.783133537249075, 59.952231738353355], [29.783126012796522, 59.95214205103247], [29.782947199351593, 59.95214582493386], [29.782939675428423, 59.952056137597616], [29.783118488391434, 59.95205236370978], [29.78311096403382, 59.95196267638531], [29.783476114175066, 59.95204481520768], [29.783483639543974, 59.95213450250324], [29.783304826193984, 59.95213827688893], [29.783312351128455, 59.95222796419626], [29.783133537249075, 59.952231738353355]]]}, "properties": {"zone_id": "neva-2025-09-07-022", "aoi": "neva", "date": "2025-09-07", "scene_id": "S2C_MSIL2A_20250907T093051_R136_T36VUM_20250907T130615", "scene_datetime_utc": "2025-09-07T09:30:51.025000+00:00", "detection_status": "detected", "detection_status_ru": "обнаружено", "lon": 29.78321, "lat": 59.9521, "n_pixels": 1, "zone_area_km2": 0.0005, "cover_m2": 6.7, "p_mean": 0.78, "p_max": 0.78, "cover_m2_km2": 13400.0, "h3": "8811068565fffff", "valid_frac_scene": 1.0, "wind_ms": 5.9, "sea": "спокойное", "scene_reliable": true, "field_event_id": "S3:HE419_MarLitter_transect28", "field_profile": "B", "field_date": "2014-04-11", "field_distance_km": 1400.7, "field_date_gap_days": 4167, "field_conc_items_km2": 43.1, "conc_A_items_km2": null, "conc_A_lo80": null, "conc_A_hi80": null, "conc_A_lo95": null, "conc_A_hi95": null, "conc_A_status": "unavailable", "conc_A_status_ru": "концентрация недоступна", "conc_A_reasons": "вне бассейна профиля: nw_atlantic_subtropical", "conc_A_model": "conc-A-c6bce5631d2b", "conc_B_items_km2": null, "conc_B_lo80": null, "conc_B_hi80": null, "conc_B_lo95": null, "conc_B_hi95": null, "conc_B_status": "unavailable", "conc_B_status_ru": "концентрация недоступна", "conc_B_reasons": "вне бассейна профиля: black_sea", "conc_B_model": "conc-B-c6bce5631d2b"}}, {"type": "Feature", "geometry": {"type": "Polygon", "coordinates": [[[30.16733384135643, 59.94589776837435], [30.167325281357112, 59.94580811223217], [30.167146564339138, 59.945812406353774], [30.16713800487481, 59.94572275019421], [30.16731672141176, 59.94571845608802], [30.167308161520378, 59.94562879994191], [30.16748687752233, 59.945624505609274], [30.167478317203894, 59.9455348494766], [30.16784430936431, 59.945615916218394], [30.167861432087193, 59.9457952284161], [30.16768271523114, 59.94579952326335], [30.16769127619252, 59.94588917937466], [30.16733384135643, 59.94589776837435]]]}, "properties": {"zone_id": "neva-2025-09-07-023", "aoi": "neva", "date": "2025-09-07", "scene_id": "S2C_MSIL2A_20250907T093051_R136_T36VUM_20250907T130615", "scene_datetime_utc": "2025-09-07T09:30:51.025000+00:00", "detection_status": "detected", "detection_status_ru": "обнаружено", "lon": 30.16753, "lat": 59.94573, "n_pixels": 3, "zone_area_km2": 0.001, "cover_m2": 23.1, "p_mean": 0.582, "p_max": 0.655, "cover_m2_km2": 23100.0, "h3": "88110616adfffff", "valid_frac_scene": 1.0, "wind_ms": 5.9, "sea": "спокойное", "scene_reliable": true, "field_event_id": "S3:HE419_MarLitter_transect28", "field_profile": "B", "field_date": "2014-04-11", "field_distance_km": 1421.4, "field_date_gap_days": 4167, "field_conc_items_km2": 43.1, "conc_A_items_km2": null, "conc_A_lo80": null, "conc_A_hi80": null, "conc_A_lo95": null, "conc_A_hi95": null, "conc_A_status": "unavailable", "conc_A_status_ru": "концентрация недоступна", "conc_A_reasons": "вне бассейна профиля: nw_atlantic_subtropical", "conc_A_model": "conc-A-c6bce5631d2b", "conc_B_items_km2": null, "conc_B_lo80": null, "conc_B_hi80": null, "conc_B_lo95": null, "conc_B_hi95": null, "conc_B_status": "unavailable", "conc_B_status_ru": "концентрация недоступна", "conc_B_reasons": "вне бассейна профиля: black_sea", "conc_B_model": "conc-B-c6bce5631d2b"}}, {"type": "Feature", "geometry": {"type": "Polygon", "coordinates": [[[30.15962887978344, 59.93646749454133], [30.15962034382355, 59.93637783760344], [30.159254473601354, 59.936296746959194], [30.159245938710523, 59.936207089986624], [30.15942460541476, 59.936202806975096], [30.15941607009701, 59.93611315001592], [30.15977340238264, 59.93610458329826], [30.15978193866183, 59.93619424022667], [30.159960605204656, 59.936189956489784], [30.15997767888589, 59.93636927030993], [30.15962887978344, 59.93646749454133]]]}, "properties": {"zone_id": "neva-2025-09-07-024", "aoi": "neva", "date": "2025-09-07", "scene_id": "S2C_MSIL2A_20250907T093051_R136_T36VUM_20250907T130615", "scene_datetime_utc": "2025-09-07T09:30:51.025000+00:00", "detection_status": "detected", "detection_status_ru": "обнаружено", "lon": 30.15964, "lat": 59.93627, "n_pixels": 3, "zone_area_km2": 0.001, "cover_m2": 16.5, "p_mean": 0.634, "p_max": 0.773, "cover_m2_km2": 16500.0, "h3": "881106145bfffff", "valid_frac_scene": 1.0, "wind_ms": 5.9, "sea": "спокойное", "scene_reliable": true, "field_event_id": "S3:HE419_MarLitter_transect28", "field_profile": "B", "field_date": "2014-04-11", "field_distance_km": 1420.7, "field_date_gap_days": 4167, "field_conc_items_km2": 43.1, "conc_A_items_km2": null, "conc_A_lo80": null, "conc_A_hi80": null, "conc_A_lo95": null, "conc_A_hi95": null, "conc_A_status": "unavailable", "conc_A_status_ru": "концентрация недоступна", "conc_A_reasons": "вне бассейна профиля: nw_atlantic_subtropical", "conc_A_model": "conc-A-c6bce5631d2b", "conc_B_items_km2": null, "conc_B_lo80": null, "conc_B_hi80": null, "conc_B_lo95": null, "conc_B_hi95": null, "conc_B_status": "unavailable", "conc_B_status_ru": "концентрация недоступна", "conc_B_reasons": "вне бассейна профиля: black_sea", "conc_B_model": "conc-B-c6bce5631d2b"}}, {"type": "Feature", "geometry": {"type": "Polygon", "coordinates": [[[30.158658738712557, 59.93568199541696], [30.158650205640402, 59.9355923383845], [30.15847154208596, 59.93559662032124], [30.15846300954829, 59.93550696327144], [30.158641672622032, 59.935502681350066], [30.158633139657447, 59.935413024313654], [30.158998998608162, 59.935494116781975], [30.159007532587925, 59.93558377378564], [30.15882886914106, 59.93558805620596], [30.158837402693916, 59.93567771322304], [30.158658738712557, 59.93568199541696]]]}, "properties": {"zone_id": "neva-2025-09-07-025", "aoi": "neva", "date": "2025-09-07", "scene_id": "S2C_MSIL2A_20250907T093051_R136_T36VUM_20250907T130615", "scene_datetime_utc": "2025-09-07T09:30:51.025000+00:00", "detection_status": "detected", "detection_status_ru": "обнаружено", "lon": 30.15874, "lat": 59.93555, "n_pixels": 1, "zone_area_km2": 0.0005, "cover_m2": 8.6, "p_mean": 0.953, "p_max": 0.953, "cover_m2_km2": 17200.0, "h3": "8811061451fffff", "valid_frac_scene": 1.0, "wind_ms": 5.9, "sea": "спокойное", "scene_reliable": true, "field_event_id": "S3:HE419_MarLitter_transect28", "field_profile": "B", "field_date": "2014-04-11", "field_distance_km": 1420.6, "field_date_gap_days": 4167, "field_conc_items_km2": 43.1, "conc_A_items_km2": null, "conc_A_lo80": null, "conc_A_hi80": null, "conc_A_lo95": null, "conc_A_hi95": null, "conc_A_status": "unavailable", "conc_A_status_ru": "концентрация недоступна", "conc_A_reasons": "вне бассейна профиля: nw_atlantic_subtropical", "conc_A_model": "conc-A-c6bce5631d2b", "conc_B_items_km2": null, "conc_B_lo80": null, "conc_B_hi80": null, "conc_B_lo95": null, "conc_B_hi95": null, "conc_B_status": "unavailable", "conc_B_status_ru": "концентрация недоступна", "conc_B_reasons": "вне бассейна профиля: black_sea", "conc_B_model": "conc-B-c6bce5631d2b"}}, {"type": "Feature", "geometry": {"type": "Polygon", "coordinates": [[[29.770667846841008, 59.93380633089876], [29.77066036161195, 59.93371664237873], [29.770481645455718, 59.93372039870098], [29.770474160755168, 59.93363071016565], [29.770652876430088, 59.93362695385691], [29.770645391295425, 59.9335372653333], [29.771010307638342, 59.933619440513496], [29.771017793782825, 59.93370912900832], [29.77083907772099, 59.933712885814515], [29.770846563431363, 59.933802574321035], [29.770667846841008, 59.93380633089876]]]}, "properties": {"zone_id": "neva-2025-09-07-026", "aoi": "neva", "date": "2025-09-07", "scene_id": "S2C_MSIL2A_20250907T093051_R136_T36VUM_20250907T130615", "scene_datetime_utc": "2025-09-07T09:30:51.025000+00:00", "detection_status": "detected", "detection_status_ru": "обнаружено", "lon": 29.77075, "lat": 59.93367, "n_pixels": 1, "zone_area_km2": 0.0005, "cover_m2": 5.9, "p_mean": 0.51, "p_max": 0.51, "cover_m2_km2": 11800.0, "h3": "88110680b5fffff", "valid_frac_scene": 1.0, "wind_ms": 5.9, "sea": "спокойное", "scene_reliable": true, "field_event_id": "S3:HE419_MarLitter_transect28", "field_profile": "B", "field_date": "2014-04-11", "field_distance_km": 1399.6, "field_date_gap_days": 4167, "field_conc_items_km2": 43.1, "conc_A_items_km2": null, "conc_A_lo80": null, "conc_A_hi80": null, "conc_A_lo95": null, "conc_A_hi95": null, "conc_A_status": "unavailable", "conc_A_status_ru": "концентрация недоступна", "conc_A_reasons": "вне бассейна профиля: nw_atlantic_subtropical", "conc_A_model": "conc-A-c6bce5631d2b", "conc_B_items_km2": null, "conc_B_lo80": null, "conc_B_hi80": null, "conc_B_lo95": null, "conc_B_hi95": null, "conc_B_status": "unavailable", "conc_B_status_ru": "концентрация недоступна", "conc_B_reasons": "вне бассейна профиля: black_sea", "conc_B_model": "conc-B-c6bce5631d2b"}}, {"type": "Feature", "geometry": {"type": "Polygon", "coordinates": [[[29.644232273334087, 59.9332586525832], [29.644225129592314, 59.9331689546919], [29.644046397724985, 59.93317253969899], [29.644039254509753, 59.93308284179305], [29.644217985895583, 59.93307925679886], [29.6442108422439, 59.932989558904076], [29.644575448532112, 59.933072086084366], [29.644582593191828, 59.93316178395165], [29.6444038614146, 59.93316536944278], [29.64441100563787, 59.933255067321205], [29.644232273334087, 59.9332586525832]]]}, "properties": {"zone_id": "neva-2025-09-07-027", "aoi": "neva", "date": "2025-09-07", "scene_id": "S2C_MSIL2A_20250907T093051_R136_T36VUM_20250907T130615", "scene_datetime_utc": "2025-09-07T09:30:51.025000+00:00", "detection_status": "detected", "detection_status_ru": "обнаружено", "lon": 29.64431, "lat": 59.93312, "n_pixels": 1, "zone_area_km2": 0.0005, "cover_m2": 5.1, "p_mean": 0.827, "p_max": 0.827, "cover_m2_km2": 10200.0, "h3": "88110682adfffff", "valid_frac_scene": 1.0, "wind_ms": 5.9, "sea": "спокойное", "scene_reliable": true, "field_event_id": "S3:HE419_MarLitter_transect28", "field_profile": "B", "field_date": "2014-04-11", "field_distance_km": 1392.7, "field_date_gap_days": 4167, "field_conc_items_km2": 43.1, "conc_A_items_km2": null, "conc_A_lo80": null, "conc_A_hi80": null, "conc_A_lo95": null, "conc_A_hi95": null, "conc_A_status": "unavailable", "conc_A_status_ru": "концентрация недоступна", "conc_A_reasons": "вне бассейна профиля: nw_atlantic_subtropical", "conc_A_model": "conc-A-c6bce5631d2b", "conc_B_items_km2": null, "conc_B_lo80": null, "conc_B_hi80": null, "conc_B_lo95": null, "conc_B_hi95": null, "conc_B_status": "unavailable", "conc_B_status_ru": "концентрация недоступна", "conc_B_reasons": "вне бассейна профиля: black_sea", "conc_B_model": "conc-B-c6bce5631d2b"}}, {"type": "Feature", "geometry": {"type": "Polygon", "coordinates": [[[29.990087255186186, 59.92892132446863], [29.99007917927811, 59.928831653168906], [29.989900523834102, 59.9288357065209], [29.989892448457706, 59.92874603520471], [29.99007110342093, 59.928741981867276], [29.990063027614656, 59.92865231056375], [29.99042841319468, 59.928733874466936], [29.9904364900134, 59.92882354573946], [29.990257834671205, 59.92882759957509], [29.990265911060064, 59.928917270860275], [29.990087255186186, 59.92892132446863]]]}, "properties": {"zone_id": "neva-2025-09-07-028", "aoi": "neva", "date": "2025-09-07", "scene_id": "S2C_MSIL2A_20250907T093051_R136_T36VUM_20250907T130615", "scene_datetime_utc": "2025-09-07T09:30:51.025000+00:00", "detection_status": "detected", "detection_status_ru": "обнаружено", "lon": 29.99016, "lat": 59.92878, "n_pixels": 1, "zone_area_km2": 0.0005, "cover_m2": 5.1, "p_mean": 0.945, "p_max": 0.945, "cover_m2_km2": 10200.0, "h3": "8811068ca9fffff", "valid_frac_scene": 1.0, "wind_ms": 5.9, "sea": "спокойное", "scene_reliable": true, "field_event_id": "S3:HE419_MarLitter_transect28", "field_profile": "B", "field_date": "2014-04-11", "field_distance_km": 1411.3, "field_date_gap_days": 4167, "field_conc_items_km2": 43.1, "conc_A_items_km2": null, "conc_A_lo80": null, "conc_A_hi80": null, "conc_A_lo95": null, "conc_A_hi95": null, "conc_A_status": "unavailable", "conc_A_status_ru": "концентрация недоступна", "conc_A_reasons": "вне бассейна профиля: nw_atlantic_subtropical", "conc_A_model": "conc-A-c6bce5631d2b", "conc_B_items_km2": null, "conc_B_lo80": null, "conc_B_hi80": null, "conc_B_lo95": null, "conc_B_hi95": null, "conc_B_status": "unavailable", "conc_B_status_ru": "концентрация недоступна", "conc_B_reasons": "вне бассейна профиля: black_sea", "conc_B_model": "conc-B-c6bce5631d2b"}}, {"type": "Feature", "geometry": {"type": "Polygon", "coordinates": [[[29.897227721231072, 59.90898191094892], [29.897219902178207, 59.90889223189946], [29.897041338971263, 59.90889615869692], [29.897033520447916, 59.908806479631515], [29.897212083174608, 59.908802552848144], [29.89720426422026, 59.90871287379498], [29.897569208480192, 59.908794698556434], [29.89757702844432, 59.90888437757954], [29.897398465335893, 59.90888830486032], [29.89740628486902, 59.90897798389569], [29.897227721231072, 59.90898191094892]]]}, "properties": {"zone_id": "neva-2025-09-07-029", "aoi": "neva", "date": "2025-09-07", "scene_id": "S2C_MSIL2A_20250907T093051_R136_T36VUM_20250907T130615", "scene_datetime_utc": "2025-09-07T09:30:51.025000+00:00", "detection_status": "detected", "detection_status_ru": "обнаружено", "lon": 29.89731, "lat": 59.90885, "n_pixels": 1, "zone_area_km2": 0.0005, "cover_m2": 9.8, "p_mean": 0.973, "p_max": 0.973, "cover_m2_km2": 19600.0, "h3": "8811068c09fffff", "valid_frac_scene": 1.0, "wind_ms": 5.9, "sea": "спокойное", "scene_reliable": true, "field_event_id": "S3:HE419_MarLitter_transect28", "field_profile": "B", "field_date": "2014-04-11", "field_distance_km": 1405.8, "field_date_gap_days": 4167, "field_conc_items_km2": 43.1, "conc_A_items_km2": null, "conc_A_lo80": null, "conc_A_hi80": null, "conc_A_lo95": null, "conc_A_hi95": null, "conc_A_status": "unavailable", "conc_A_status_ru": "концентрация недоступна", "conc_A_reasons": "вне бассейна профиля: nw_atlantic_subtropical", "conc_A_model": "conc-A-c6bce5631d2b", "conc_B_items_km2": null, "conc_B_lo80": null, "conc_B_hi80": null, "conc_B_lo95": null, "conc_B_hi95": null, "conc_B_status": "unavailable", "conc_B_status_ru": "концентрация недоступна", "conc_B_reasons": "вне бассейна профиля: black_sea", "conc_B_model": "conc-B-c6bce5631d2b"}}, {"type": "Feature", "geometry": {"type": "Polygon", "coordinates": [[[29.981723001647094, 59.90754580169143], [29.981714955224984, 59.907456129415834], [29.981536413253774, 59.90746017057907], [29.981528367362422, 59.9073704982871], [29.98170690885356, 59.90736645713838], [29.98169886253282, 59.90727678485901], [29.982055944402912, 59.907268701865746], [29.982063991683777, 59.9073583741161], [29.982242533022852, 59.907354332242555], [29.98225058083447, 59.90744400447649], [29.982072039015335, 59.907448046364536], [29.982080086397584, 59.907537718611124], [29.981723001647094, 59.90754580169143]]]}, "properties": {"zone_id": "neva-2025-09-07-030", "aoi": "neva", "date": "2025-09-07", "scene_id": "S2C_MSIL2A_20250907T093051_R136_T36VUM_20250907T130615", "scene_datetime_utc": "2025-09-07T09:30:51.025000+00:00", "detection_status": "detected", "detection_status_ru": "обнаружено", "lon": 29.98189, "lat": 59.90741, "n_pixels": 2, "zone_area_km2": 0.0008, "cover_m2": 37.3, "p_mean": 0.671, "p_max": 0.808, "cover_m2_km2": 46625.0, "h3": "8811068dddfffff", "valid_frac_scene": 1.0, "wind_ms": 5.9, "sea": "спокойное", "scene_reliable": true, "field_event_id": "S3:HE419_MarLitter_transect28", "field_profile": "B", "field_date": "2014-04-11", "field_distance_km": 1410.3, "field_date_gap_days": 4167, "field_conc_items_km2": 43.1, "conc_A_items_km2": null, "conc_A_lo80": null, "conc_A_hi80": null, "conc_A_lo95": null, "conc_A_hi95": null, "conc_A_status": "unavailable", "conc_A_status_ru": "концентрация недоступна", "conc_A_reasons": "вне бассейна профиля: nw_atlantic_subtropical", "conc_A_model": "conc-A-c6bce5631d2b", "conc_B_items_km2": null, "conc_B_lo80": null, "conc_B_hi80": null, "conc_B_lo95": null, "conc_B_hi95": null, "conc_B_status": "unavailable", "conc_B_status_ru": "концентрация недоступна", "conc_B_reasons": "вне бассейна профиля: black_sea", "conc_B_model": "conc-B-c6bce5631d2b"}}, {"type": "Feature", "geometry": {"type": "Polygon", "coordinates": [[[29.91053711540566, 59.903656852046], [29.91052926214459, 59.903567173980726], [29.91035072962759, 59.90357111859313], [29.91033502421396, 59.90339176242871], [29.910513555770848, 59.90338781784466], [29.910505702658174, 59.9032981397738], [29.910870618736215, 59.90337992795169], [29.91088632703018, 59.90355928403115], [29.91053711540566, 59.903656852046]]]}, "properties": {"zone_id": "neva-2025-09-07-031", "aoi": "neva", "date": "2025-09-07", "scene_id": "S2C_MSIL2A_20250907T093051_R136_T36VUM_20250907T130615", "scene_datetime_utc": "2025-09-07T09:30:51.025000+00:00", "detection_status": "detected", "detection_status_ru": "обнаружено", "lon": 29.91061, "lat": 59.90348, "n_pixels": 2, "zone_area_km2": 0.0008, "cover_m2": 5.9, "p_mean": 0.586, "p_max": 0.588, "cover_m2_km2": 7375.0, "h3": "8811068c0dfffff", "valid_frac_scene": 1.0, "wind_ms": 5.9, "sea": "спокойное", "scene_reliable": true, "field_event_id": "S3:HE419_MarLitter_transect28", "field_profile": "B", "field_date": "2014-04-11", "field_distance_km": 1406.3, "field_date_gap_days": 4167, "field_conc_items_km2": 43.1, "conc_A_items_km2": null, "conc_A_lo80": null, "conc_A_hi80": null, "conc_A_lo95": null, "conc_A_hi95": null, "conc_A_status": "unavailable", "conc_A_status_ru": "концентрация недоступна", "conc_A_reasons": "вне бассейна профиля: nw_atlantic_subtropical", "conc_A_model": "conc-A-c6bce5631d2b", "conc_B_items_km2": null, "conc_B_lo80": null, "conc_B_hi80": null, "conc_B_lo95": null, "conc_B_hi95": null, "conc_B_status": "unavailable", "conc_B_status_ru": "концентрация недоступна", "conc_B_reasons": "вне бассейна профиля: black_sea", "conc_B_model": "conc-B-c6bce5631d2b"}}, {"type": "Feature", "geometry": {"type": "Polygon", "coordinates": [[[30.10858408224729, 59.892392092565856], [30.108575698914205, 59.892302430648854], [30.108397259274245, 59.89230664295241], [30.108388876473274, 59.892216981018365], [30.108567315633902, 59.89221276872991], [30.108558932406382, 59.892123106809045], [30.108924193796817, 59.892204343428844], [30.10893257803578, 59.89229400531756], [30.108754138501382, 59.892298218103896], [30.1087625223138, 59.89238788000579], [30.10858408224729, 59.892392092565856]]]}, "properties": {"zone_id": "neva-2025-09-07-032", "aoi": "neva", "date": "2025-09-07", "scene_id": "S2C_MSIL2A_20250907T093051_R136_T36VUM_20250907T130615", "scene_datetime_utc": "2025-09-07T09:30:51.025000+00:00", "detection_status": "detected", "detection_status_ru": "обнаружено", "lon": 30.10866, "lat": 59.89226, "n_pixels": 1, "zone_area_km2": 0.0005, "cover_m2": 5.1, "p_mean": 0.91, "p_max": 0.91, "cover_m2_km2": 10200.0, "h3": "881106171dfffff", "valid_frac_scene": 1.0, "wind_ms": 5.9, "sea": "спокойное", "scene_reliable": true, "field_event_id": "S3:HE419_MarLitter_transect28", "field_profile": "B", "field_date": "2014-04-11", "field_distance_km": 1416.8, "field_date_gap_days": 4167, "field_conc_items_km2": 43.1, "conc_A_items_km2": null, "conc_A_lo80": null, "conc_A_hi80": null, "conc_A_lo95": null, "conc_A_hi95": null, "conc_A_status": "unavailable", "conc_A_status_ru": "концентрация недоступна", "conc_A_reasons": "вне бассейна профиля: nw_atlantic_subtropical", "conc_A_model": "conc-A-c6bce5631d2b", "conc_B_items_km2": null, "conc_B_lo80": null, "conc_B_hi80": null, "conc_B_lo95": null, "conc_B_hi95": null, "conc_B_status": "unavailable", "conc_B_status_ru": "концентрация недоступна", "conc_B_reasons": "вне бассейна профиля: black_sea", "conc_B_model": "conc-B-c6bce5631d2b"}}, {"type": "Feature", "geometry": {"type": "Polygon", "coordinates": [[[30.093185692941397, 59.869121707792075], [30.09317735888679, 59.86903204425023], [30.092999041319025, 59.86903623473539], [30.09299070779543, 59.868946571176565], [30.093169024884624, 59.86894238070645], [30.093160690934887, 59.86885271716073], [30.092982374324272, 59.86885690761583], [30.092974040905542, 59.868767244053124], [30.093152357037592, 59.86876305361306], [30.093144023192725, 59.86867339006349], [30.093508989144386, 59.86875467200945], [30.093517323998825, 59.86884433552706], [30.09333900749308, 59.86884852646448], [30.09334734192138, 59.86893818999517], [30.093525658905698, 59.86893399904272], [30.09353399386502, 59.869023662556444], [30.093185692941397, 59.869121707792075]]]}, "properties": {"zone_id": "neva-2025-09-07-033", "aoi": "neva", "date": "2025-09-07", "scene_id": "S2C_MSIL2A_20250907T093051_R136_T36VUM_20250907T130615", "scene_datetime_utc": "2025-09-07T09:30:51.025000+00:00", "detection_status": "detected", "detection_status_ru": "обнаружено", "lon": 30.09325, "lat": 59.8689, "n_pixels": 2, "zone_area_km2": 0.0009, "cover_m2": 6.7, "p_mean": 0.992, "p_max": 0.992, "cover_m2_km2": 7444.4, "h3": "881106170dfffff", "valid_frac_scene": 1.0, "wind_ms": 5.9, "sea": "спокойное", "scene_reliable": true, "field_event_id": "S3:HE419_MarLitter_transect28", "field_profile": "B", "field_date": "2014-04-11", "field_distance_km": 1415.4, "field_date_gap_days": 4167, "field_conc_items_km2": 43.1, "conc_A_items_km2": null, "conc_A_lo80": null, "conc_A_hi80": null, "conc_A_lo95": null, "conc_A_hi95": null, "conc_A_status": "unavailable", "conc_A_status_ru": "концентрация недоступна", "conc_A_reasons": "вне бассейна профиля: nw_atlantic_subtropical", "conc_A_model": "conc-A-c6bce5631d2b", "conc_B_items_km2": null, "conc_B_lo80": null, "conc_B_hi80": null, "conc_B_lo95": null, "conc_B_hi95": null, "conc_B_status": "unavailable", "conc_B_status_ru": "концентрация недоступна", "conc_B_reasons": "вне бассейна профиля: black_sea", "conc_B_model": "conc-B-c6bce5631d2b"}}, {"type": "Feature", "geometry": {"type": "Polygon", "coordinates": [[[30.10098985999442, 59.8684887726062], [30.10098150514564, 59.86839910971677], [30.100803192280598, 59.86840331073805], [30.100786483697803, 59.86822398492325], [30.100964795605766, 59.86821978393207], [30.10095644091468, 59.86813012103681], [30.101321419263993, 59.868211381226246], [30.10133813071802, 59.86839070695068], [30.10098985999442, 59.8684887726062]]]}, "properties": {"zone_id": "neva-2025-09-07-034", "aoi": "neva", "date": "2025-09-07", "scene_id": "S2C_MSIL2A_20250907T093051_R136_T36VUM_20250907T130615", "scene_datetime_utc": "2025-09-07T09:30:51.025000+00:00", "detection_status": "detected", "detection_status_ru": "обнаружено", "lon": 30.10106, "lat": 59.86831, "n_pixels": 2, "zone_area_km2": 0.0008, "cover_m2": 7.8, "p_mean": 0.99, "p_max": 0.996, "cover_m2_km2": 9750.0, "h3": "8811061705fffff", "valid_frac_scene": 1.0, "wind_ms": 5.9, "sea": "спокойное", "scene_reliable": true, "field_event_id": "S3:HE419_MarLitter_transect28", "field_profile": "B", "field_date": "2014-04-11", "field_distance_km": 1415.8, "field_date_gap_days": 4167, "field_conc_items_km2": 43.1, "conc_A_items_km2": null, "conc_A_lo80": null, "conc_A_hi80": null, "conc_A_lo95": null, "conc_A_hi95": null, "conc_A_status": "unavailable", "conc_A_status_ru": "концентрация недоступна", "conc_A_reasons": "вне бассейна профиля: nw_atlantic_subtropical", "conc_A_model": "conc-A-c6bce5631d2b", "conc_B_items_km2": null, "conc_B_lo80": null, "conc_B_hi80": null, "conc_B_lo95": null, "conc_B_hi95": null, "conc_B_status": "unavailable", "conc_B_status_ru": "концентрация недоступна", "conc_B_reasons": "вне бассейна профиля: black_sea", "conc_B_model": "conc-B-c6bce5631d2b"}}, {"type": "Feature", "geometry": {"type": "Polygon", "coordinates": [[[30.100268253370125, 59.86841591235497], [30.100259900488073, 59.868326249403324], [30.099894923369654, 59.868244986261644], [30.099886571549778, 59.86815532327601], [30.100234842157224, 59.868057260536794], [30.10024319488162, 59.86814692349426], [30.100421506468717, 59.86814272324162], [30.100429859724205, 59.86823238618208], [30.100608171737285, 59.86822818567323], [30.10061652552386, 59.868317848596675], [30.10043821303224, 59.868322049120586], [30.10044656639284, 59.86841171205715], [30.100268253370125, 59.86841591235497]]]}, "properties": {"zone_id": "neva-2025-09-07-035", "aoi": "neva", "date": "2025-09-07", "scene_id": "S2C_MSIL2A_20250907T093051_R136_T36VUM_20250907T130615", "scene_datetime_utc": "2025-09-07T09:30:51.025000+00:00", "detection_status": "detected", "detection_status_ru": "обнаружено", "lon": 30.10025, "lat": 59.86824, "n_pixels": 2, "zone_area_km2": 0.0008, "cover_m2": 11.4, "p_mean": 0.784, "p_max": 0.937, "cover_m2_km2": 14250.0, "h3": "8811061705fffff", "valid_frac_scene": 1.0, "wind_ms": 5.9, "sea": "спокойное", "scene_reliable": true, "field_event_id": "S3:HE419_MarLitter_transect28", "field_profile": "B", "field_date": "2014-04-11", "field_distance_km": 1415.8, "field_date_gap_days": 4167, "field_conc_items_km2": 43.1, "conc_A_items_km2": null, "conc_A_lo80": null, "conc_A_hi80": null, "conc_A_lo95": null, "conc_A_hi95": null, "conc_A_status": "unavailable", "conc_A_status_ru": "концентрация недоступна", "conc_A_reasons": "вне бассейна профиля: nw_atlantic_subtropical", "conc_A_model": "conc-A-c6bce5631d2b", "conc_B_items_km2": null, "conc_B_lo80": null, "conc_B_hi80": null, "conc_B_lo95": null, "conc_B_hi95": null, "conc_B_status": "unavailable", "conc_B_status_ru": "концентрация недоступна", "conc_B_reasons": "вне бассейна профиля: black_sea", "conc_B_model": "conc-B-c6bce5631d2b"}}, {"type": "Feature", "geometry": {"type": "Polygon", "coordinates": [[[30.10239964754884, 59.86827583009372], [30.102391288976904, 59.868186167320964], [30.102212977489536, 59.86819037024141], [30.10220461944872, 59.868100707451624], [30.10238293045755, 59.868096504546266], [30.10237457199079, 59.86800684176961], [30.102739552317463, 59.86808809801204], [30.102747911793873, 59.86817776075659], [30.10256960041168, 59.86818196415936], [30.102577959462153, 59.868271626917036], [30.10239964754884, 59.86827583009372]]]}, "properties": {"zone_id": "neva-2025-09-07-036", "aoi": "neva", "date": "2025-09-07", "scene_id": "S2C_MSIL2A_20250907T093051_R136_T36VUM_20250907T130615", "scene_datetime_utc": "2025-09-07T09:30:51.025000+00:00", "detection_status": "detected", "detection_status_ru": "обнаружено", "lon": 30.10248, "lat": 59.86814, "n_pixels": 1, "zone_area_km2": 0.0005, "cover_m2": 3.1, "p_mean": 0.918, "p_max": 0.918, "cover_m2_km2": 6200.0, "h3": "8811061705fffff", "valid_frac_scene": 1.0, "wind_ms": 5.9, "sea": "спокойное", "scene_reliable": true, "field_event_id": "S3:HE419_MarLitter_transect28", "field_profile": "B", "field_date": "2014-04-11", "field_distance_km": 1415.9, "field_date_gap_days": 4167, "field_conc_items_km2": 43.1, "conc_A_items_km2": null, "conc_A_lo80": null, "conc_A_hi80": null, "conc_A_lo95": null, "conc_A_hi95": null, "conc_A_status": "unavailable", "conc_A_status_ru": "концентрация недоступна", "conc_A_reasons": "вне бассейна профиля: nw_atlantic_subtropical", "conc_A_model": "conc-A-c6bce5631d2b", "conc_B_items_km2": null, "conc_B_lo80": null, "conc_B_hi80": null, "conc_B_lo95": null, "conc_B_hi95": null, "conc_B_status": "unavailable", "conc_B_status_ru": "концентрация недоступна", "conc_B_reasons": "вне бассейна профиля: black_sea", "conc_B_model": "conc-B-c6bce5631d2b"}}, {"type": "Feature", "geometry": {"type": "Polygon", "coordinates": [[[30.088814499989255, 59.8682359102003], [30.08880617799664, 59.86814624627675], [30.088441229839106, 59.86806495114383], [30.088432908908313, 59.867975287186404], [30.08861122156458, 59.86797110292571], [30.088602900207594, 59.86788143898138], [30.08895952440597, 59.86787306976651], [30.088967846720053, 59.86796273368085], [30.089146159219247, 59.86795854869667], [30.08916280496161, 59.86813787648953], [30.088814499989255, 59.8682359102003]]]}, "properties": {"zone_id": "neva-2025-09-07-037", "aoi": "neva", "date": "2025-09-07", "scene_id": "S2C_MSIL2A_20250907T093051_R136_T36VUM_20250907T130615", "scene_datetime_utc": "2025-09-07T09:30:51.025000+00:00", "detection_status": "detected", "detection_status_ru": "обнаружено", "lon": 30.08883, "lat": 59.86804, "n_pixels": 3, "zone_area_km2": 0.001, "cover_m2": 14.5, "p_mean": 0.97, "p_max": 0.992, "cover_m2_km2": 14500.0, "h3": "881106170dfffff", "valid_frac_scene": 1.0, "wind_ms": 5.9, "sea": "спокойное", "scene_reliable": true, "field_event_id": "S3:HE419_MarLitter_transect28", "field_profile": "B", "field_date": "2014-04-11", "field_distance_km": 1415.1, "field_date_gap_days": 4167, "field_conc_items_km2": 43.1, "conc_A_items_km2": null, "conc_A_lo80": null, "conc_A_hi80": null, "conc_A_lo95": null, "conc_A_hi95": null, "conc_A_status": "unavailable", "conc_A_status_ru": "концентрация недоступна", "conc_A_reasons": "вне бассейна профиля: nw_atlantic_subtropical", "conc_A_model": "conc-A-c6bce5631d2b", "conc_B_items_km2": null, "conc_B_lo80": null, "conc_B_hi80": null, "conc_B_lo95": null, "conc_B_hi95": null, "conc_B_status": "unavailable", "conc_B_status_ru": "концентрация недоступна", "conc_B_reasons": "вне бассейна профиля: black_sea", "conc_B_model": "conc-B-c6bce5631d2b"}}, {"type": "Feature", "geometry": {"type": "Polygon", "coordinates": [[[30.106144186680275, 59.86818751273989], [30.106135818059236, 59.86809785028386], [30.10577082963045, 59.86801660352409], [30.10576246207175, 59.86792694103398], [30.105940771549754, 59.86792273332054], [30.105932403565177, 59.86783307084358], [30.106110712512017, 59.867828862904084], [30.106102344101583, 59.86773920044028], [30.106467330247753, 59.867820446301614], [30.106475699667875, 59.8679101087333], [30.10665400893527, 59.867905900055234], [30.106662378886565, 59.867995562469886], [30.10648406914065, 59.86799977116303], [30.106492438666077, 59.86808943359084], [30.106144186680275, 59.86818751273989]]]}, "properties": {"zone_id": "neva-2025-09-07-038", "aoi": "neva", "date": "2025-09-07", "scene_id": "S2C_MSIL2A_20250907T093051_R136_T36VUM_20250907T130615", "scene_datetime_utc": "2025-09-07T09:30:51.025000+00:00", "detection_status": "detected", "detection_status_ru": "обнаружено", "lon": 30.10621, "lat": 59.86796, "n_pixels": 5, "zone_area_km2": 0.0013, "cover_m2": 19.6, "p_mean": 0.958, "p_max": 0.992, "cover_m2_km2": 15076.9, "h3": "8811061705fffff", "valid_frac_scene": 1.0, "wind_ms": 5.9, "sea": "спокойное", "scene_reliable": true, "field_event_id": "S3:HE419_MarLitter_transect28", "field_profile": "B", "field_date": "2014-04-11", "field_distance_km": 1416.1, "field_date_gap_days": 4167, "field_conc_items_km2": 43.1, "conc_A_items_km2": null, "conc_A_lo80": null, "conc_A_hi80": null, "conc_A_lo95": null, "conc_A_hi95": null, "conc_A_status": "unavailable", "conc_A_status_ru": "концентрация недоступна", "conc_A_reasons": "вне бассейна профиля: nw_atlantic_subtropical", "conc_A_model": "conc-A-c6bce5631d2b", "conc_B_items_km2": null, "conc_B_lo80": null, "conc_B_hi80": null, "conc_B_lo95": null, "conc_B_hi95": null, "conc_B_status": "unavailable", "conc_B_status_ru": "концентрация недоступна", "conc_B_reasons": "вне бассейна профиля: black_sea", "conc_B_model": "conc-B-c6bce5631d2b"}}, {"type": "Feature", "geometry": {"type": "Polygon", "coordinates": [[[30.084663398708553, 59.86779410812267], [30.084655088036598, 59.86770444384263], [30.084476776143514, 59.86770862273768], [30.08446015591355, 59.8675292941418], [30.08463846684955, 59.86752511527671], [30.084630156334452, 59.86743545099085], [30.08498677709251, 59.86742709256716], [30.084995088564686, 59.86751675682304], [30.085173399343812, 59.867512577234464], [30.085190023402134, 59.867691905710444], [30.085011711665913, 59.867696085329015], [30.085020023294962, 59.86778574957909], [30.084663398708553, 59.86779410812267]]]}, "properties": {"zone_id": "neva-2025-09-07-039", "aoi": "neva", "date": "2025-09-07", "scene_id": "S2C_MSIL2A_20250907T093051_R136_T36VUM_20250907T130615", "scene_datetime_utc": "2025-09-07T09:30:51.025000+00:00", "detection_status": "detected", "detection_status_ru": "обнаружено", "lon": 30.08483, "lat": 59.86761, "n_pixels": 4, "zone_area_km2": 0.0012, "cover_m2": 19.2, "p_mean": 0.953, "p_max": 0.992, "cover_m2_km2": 16000.0, "h3": "881106176bfffff", "valid_frac_scene": 1.0, "wind_ms": 5.9, "sea": "спокойное", "scene_reliable": true, "field_event_id": "S3:HE419_MarLitter_transect28", "field_profile": "B", "field_date": "2014-04-11", "field_distance_km": 1414.9, "field_date_gap_days": 4167, "field_conc_items_km2": 43.1, "conc_A_items_km2": null, "conc_A_lo80": null, "conc_A_hi80": null, "conc_A_lo95": null, "conc_A_hi95": null, "conc_A_status": "unavailable", "conc_A_status_ru": "концентрация недоступна", "conc_A_reasons": "вне бассейна профиля: nw_atlantic_subtropical", "conc_A_model": "conc-A-c6bce5631d2b", "conc_B_items_km2": null, "conc_B_lo80": null, "conc_B_hi80": null, "conc_B_lo95": null, "conc_B_hi95": null, "conc_B_status": "unavailable", "conc_B_status_ru": "концентрация недоступна", "conc_B_reasons": "вне бассейна профиля: black_sea", "conc_B_model": "conc-B-c6bce5631d2b"}}, {"type": "Feature", "geometry": {"type": "Polygon", "coordinates": [[[30.08929950200964, 59.86768537181256], [30.08929117889556, 59.86759570792244], [30.089112868362893, 59.86759989308777], [30.08910454577971, 59.86751022918071], [30.089282855833833, 59.86750604403041], [30.08927453282448, 59.867416380136426], [30.089639475785003, 59.86749767300632], [30.089647799803796, 59.867587336868354], [30.08946948937586, 59.86759152251598], [30.089477812968475, 59.86768118639108], [30.08929950200964, 59.86768537181256]]]}, "properties": {"zone_id": "neva-2025-09-07-040", "aoi": "neva", "date": "2025-09-07", "scene_id": "S2C_MSIL2A_20250907T093051_R136_T36VUM_20250907T130615", "scene_datetime_utc": "2025-09-07T09:30:51.025000+00:00", "detection_status": "detected", "detection_status_ru": "обнаружено", "lon": 30.08938, "lat": 59.86755, "n_pixels": 1, "zone_area_km2": 0.0005, "cover_m2": 3.9, "p_mean": 0.929, "p_max": 0.929, "cover_m2_km2": 7800.0, "h3": "881106170dfffff", "valid_frac_scene": 1.0, "wind_ms": 5.9, "sea": "спокойное", "scene_reliable": true, "field_event_id": "S3:HE419_MarLitter_transect28", "field_profile": "B", "field_date": "2014-04-11", "field_distance_km": 1415.1, "field_date_gap_days": 4167, "field_conc_items_km2": 43.1, "conc_A_items_km2": null, "conc_A_lo80": null, "conc_A_hi80": null, "conc_A_lo95": null, "conc_A_hi95": null, "conc_A_status": "unavailable", "conc_A_status_ru": "концентрация недоступна", "conc_A_reasons": "вне бассейна профиля: nw_atlantic_subtropical", "conc_A_model": "conc-A-c6bce5631d2b", "conc_B_items_km2": null, "conc_B_lo80": null, "conc_B_hi80": null, "conc_B_lo95": null, "conc_B_hi95": null, "conc_B_status": "unavailable", "conc_B_status_ru": "концентрация недоступна", "conc_B_reasons": "вне бассейна профиля: black_sea", "conc_B_model": "conc-B-c6bce5631d2b"}}]}