{"type": "FeatureCollection", "features": [{"type": "Feature", "geometry": {"type": "Polygon", "coordinates": [[[131.80072270084, 43.314499679219885], [131.80071856726934, 43.31440974104218], [131.80059539738974, 43.314412759286824], [131.80059126401935, 43.31432282109794], [131.80071443371776, 43.31431980286271], [131.80071030018524, 43.31422986468153], [131.80095663916245, 43.31422382783255], [131.80096077305734, 43.31431376599489], [131.80108394269854, 43.31431074736227], [131.80108807679375, 43.314400685513434], [131.80096490697136, 43.314403704155474], [131.80096904090445, 43.31449364231433], [131.80072270084, 43.314499679219885]]]}, "properties": {"zone_id": "vladivostok-2026-04-23-001", "aoi": "vladivostok", "date": "2026-04-23", "scene_id": "S2C_MSIL2A_20260423T020651_R103_T52TGN_20260423T054017", "scene_datetime_utc": "2026-04-23T02:06:51.025000+00:00", "detection_status": "detected", "detection_status_ru": "обнаружено", "lon": 131.80084, "lat": 43.31436, "n_pixels": 2, "zone_area_km2": 0.0008, "cover_m2": 20.4, "p_mean": 0.835, "p_max": 0.89, "cover_m2_km2": 25500.0, "h3": "88316ccd11fffff", "valid_frac_scene": 0.972, "wind_ms": 5.0, "sea": "спокойное", "scene_reliable": true, "field_event_id": "S4:DOORS3:T23", "field_profile": "B", "field_date": "2024-06-10", "field_distance_km": 6964.6, "field_date_gap_days": 682, "field_conc_items_km2": 102.37, "conc_A_items_km2": null, "conc_A_lo80": null, "conc_A_hi80": null, "conc_A_lo95": null, "conc_A_hi95": null, "conc_A_status": "unavailable", "conc_A_status_ru": "концентрация недоступна", "conc_A_reasons": "вне бассейна профиля: nw_atlantic_subtropical", "conc_A_model": "conc-A-c6bce5631d2b", "conc_B_items_km2": null, "conc_B_lo80": null, "conc_B_hi80": null, "conc_B_lo95": null, "conc_B_hi95": null, "conc_B_status": "unavailable", "conc_B_status_ru": "концентрация недоступна", "conc_B_reasons": "вне бассейна профиля: black_sea", "conc_B_model": "conc-B-c6bce5631d2b"}}, {"type": "Feature", "geometry": {"type": "Polygon", "coordinates": [[[131.80412081007, 43.31063469876006], [131.8041166720464, 43.31054476078298], [131.80399351033006, 43.31054778247267], [131.8039852347025, 43.31036790649442], [131.80422741924397, 43.310271925047495], [131.80423155739143, 43.310361863020354], [131.8043547187073, 43.31035884108464], [131.80436299542185, 43.31053871700627], [131.80412081007, 43.31063469876006]]]}, "properties": {"zone_id": "vladivostok-2026-04-23-002", "aoi": "vladivostok", "date": "2026-04-23", "scene_id": "S2C_MSIL2A_20260423T020651_R103_T52TGN_20260423T054017", "scene_datetime_utc": "2026-04-23T02:06:51.025000+00:00", "detection_status": "detected", "detection_status_ru": "обнаружено", "lon": 131.80417, "lat": 43.31045, "n_pixels": 2, "zone_area_km2": 0.0008, "cover_m2": 22.0, "p_mean": 0.747, "p_max": 0.882, "cover_m2_km2": 27500.0, "h3": "88316ccd13fffff", "valid_frac_scene": 0.972, "wind_ms": 5.0, "sea": "спокойное", "scene_reliable": true, "field_event_id": "S4:DOORS3:T23", "field_profile": "B", "field_date": "2024-06-10", "field_distance_km": 6965.0, "field_date_gap_days": 682, "field_conc_items_km2": 102.37, "conc_A_items_km2": null, "conc_A_lo80": null, "conc_A_hi80": null, "conc_A_lo95": null, "conc_A_hi95": null, "conc_A_status": "unavailable", "conc_A_status_ru": "концентрация недоступна", "conc_A_reasons": "вне бассейна профиля: nw_atlantic_subtropical", "conc_A_model": "conc-A-c6bce5631d2b", "conc_B_items_km2": null, "conc_B_lo80": null, "conc_B_hi80": null, "conc_B_lo95": null, "conc_B_hi95": null, "conc_B_status": "unavailable", "conc_B_status_ru": "концентрация недоступна", "conc_B_reasons": "вне бассейна профиля: black_sea", "conc_B_model": "conc-B-c6bce5631d2b"}}, {"type": "Feature", "geometry": {"type": "Polygon", "coordinates": [[[131.82455655112616, 43.29131321890501], [131.82455238578038, 43.291223282203106], [131.8244292652217, 43.29122632481832], [131.8244251000761, 43.29113638810519], [131.8245482204538, 43.291133345499475], [131.82454405514642, 43.29104340879411], [131.82479446115153, 43.291127259891], [131.82479862684005, 43.29121719657562], [131.82467550631983, 43.29122023945555], [131.8246796718466, 43.29131017614793], [131.82455655112616, 43.29131321890501]]]}, "properties": {"zone_id": "vladivostok-2026-04-23-003", "aoi": "vladivostok", "date": "2026-04-23", "scene_id": "S2C_MSIL2A_20260423T020651_R103_T52TGN_20260423T054017", "scene_datetime_utc": "2026-04-23T02:06:51.025000+00:00", "detection_status": "detected", "detection_status_ru": "обнаружено", "lon": 131.82461, "lat": 43.29118, "n_pixels": 1, "zone_area_km2": 0.0005, "cover_m2": 5.5, "p_mean": 0.894, "p_max": 0.894, "cover_m2_km2": 11000.0, "h3": "88316ccd89fffff", "valid_frac_scene": 0.972, "wind_ms": 5.0, "sea": "спокойное", "scene_reliable": true, "field_event_id": "S4:DOORS3:T23", "field_profile": "B", "field_date": "2024-06-10", "field_distance_km": 6967.6, "field_date_gap_days": 682, "field_conc_items_km2": 102.37, "conc_A_items_km2": null, "conc_A_lo80": null, "conc_A_hi80": null, "conc_A_lo95": null, "conc_A_hi95": null, "conc_A_status": "unavailable", "conc_A_status_ru": "концентрация недоступна", "conc_A_reasons": "вне бассейна профиля: nw_atlantic_subtropical", "conc_A_model": "conc-A-c6bce5631d2b", "conc_B_items_km2": null, "conc_B_lo80": null, "conc_B_hi80": null, "conc_B_lo95": null, "conc_B_hi95": null, "conc_B_status": "unavailable", "conc_B_status_ru": "концентрация недоступна", "conc_B_reasons": "вне бассейна профиля: black_sea", "conc_B_model": "conc-B-c6bce5631d2b"}}, {"type": "Feature", "geometry": {"type": "Polygon", "coordinates": [[[131.8268458173847, 43.29017614551889], [131.8268416488311, 43.29008620897677], [131.82671853080933, 43.29008925399251], [131.82671436245596, 43.28999931743914], [131.8268374802968, 43.289996272432916], [131.8268333117817, 43.2899063358873], [131.8270837159208, 43.28999018202342], [131.82708788481702, 43.29008011854825], [131.8269647668337, 43.29008316382868], [131.8269689355682, 43.2901731003613], [131.8268458173847, 43.29017614551889]]]}, "properties": {"zone_id": "vladivostok-2026-04-23-004", "aoi": "vladivostok", "date": "2026-04-23", "scene_id": "S2C_MSIL2A_20260423T020651_R103_T52TGN_20260423T054017", "scene_datetime_utc": "2026-04-23T02:06:51.025000+00:00", "detection_status": "detected", "detection_status_ru": "обнаружено", "lon": 131.8269, "lat": 43.29004, "n_pixels": 1, "zone_area_km2": 0.0005, "cover_m2": 5.1, "p_mean": 0.886, "p_max": 0.886, "cover_m2_km2": 10200.0, "h3": "88316ccd89fffff", "valid_frac_scene": 0.972, "wind_ms": 5.0, "sea": "спокойное", "scene_reliable": true, "field_event_id": "S4:DOORS3:T23", "field_profile": "B", "field_date": "2024-06-10", "field_distance_km": 6967.8, "field_date_gap_days": 682, "field_conc_items_km2": 102.37, "conc_A_items_km2": null, "conc_A_lo80": null, "conc_A_hi80": null, "conc_A_lo95": null, "conc_A_hi95": null, "conc_A_status": "unavailable", "conc_A_status_ru": "концентрация недоступна", "conc_A_reasons": "вне бассейна профиля: nw_atlantic_subtropical", "conc_A_model": "conc-A-c6bce5631d2b", "conc_B_items_km2": null, "conc_B_lo80": null, "conc_B_hi80": null, "conc_B_lo95": null, "conc_B_hi95": null, "conc_B_status": "unavailable", "conc_B_status_ru": "концентрация недоступна", "conc_B_reasons": "вне бассейна профиля: black_sea", "conc_B_model": "conc-B-c6bce5631d2b"}}, {"type": "Feature", "geometry": {"type": "Polygon", "coordinates": [[[131.82536839768255, 43.29021267708704], [131.82536423130057, 43.290122740430796], [131.8252411130481, 43.29012578385838], [131.82523278070371, 43.28994591052165], [131.82547484996033, 43.28984988692021], [131.8254790164656, 43.289939823572176], [131.82560213431776, 43.2899367798989], [131.8256104677479, 43.29011665317859], [131.82536839768255, 43.29021267708704]]]}, "properties": {"zone_id": "vladivostok-2026-04-23-005", "aoi": "vladivostok", "date": "2026-04-23", "scene_id": "S2C_MSIL2A_20260423T020651_R103_T52TGN_20260423T054017", "scene_datetime_utc": "2026-04-23T02:06:51.025000+00:00", "detection_status": "detected", "detection_status_ru": "обнаружено", "lon": 131.82542, "lat": 43.29003, "n_pixels": 2, "zone_area_km2": 0.0008, "cover_m2": 14.5, "p_mean": 0.845, "p_max": 0.922, "cover_m2_km2": 18125.0, "h3": "88316ccd89fffff", "valid_frac_scene": 0.972, "wind_ms": 5.0, "sea": "спокойное", "scene_reliable": true, "field_event_id": "S4:DOORS3:T23", "field_profile": "B", "field_date": "2024-06-10", "field_distance_km": 6967.7, "field_date_gap_days": 682, "field_conc_items_km2": 102.37, "conc_A_items_km2": null, "conc_A_lo80": null, "conc_A_hi80": null, "conc_A_lo95": null, "conc_A_hi95": null, "conc_A_status": "unavailable", "conc_A_status_ru": "концентрация недоступна", "conc_A_reasons": "вне бассейна профиля: nw_atlantic_subtropical", "conc_A_model": "conc-A-c6bce5631d2b", "conc_B_items_km2": null, "conc_B_lo80": null, "conc_B_hi80": null, "conc_B_lo95": null, "conc_B_hi95": null, "conc_B_status": "unavailable", "conc_B_status_ru": "концентрация недоступна", "conc_B_reasons": "вне бассейна профиля: black_sea", "conc_B_model": "conc-B-c6bce5631d2b"}}, {"type": "Feature", "geometry": {"type": "Polygon", "coordinates": [[[131.80476127382397, 43.27631385525037], [131.80475713981207, 43.27622391678137], [131.8046340474034, 43.27622693725791], [131.80462991359144, 43.27613699877774], [131.80475300581926, 43.27613397831063], [131.80474887184553, 43.27604403983815], [131.80499505588227, 43.276037998525965], [131.80499919021773, 43.27612793697957], [131.80512228238834, 43.276124916115585], [131.80512641692368, 43.27621485455801], [131.80500332457223, 43.27621787543143], [131.8050074589458, 43.27630781388155], [131.80476127382397, 43.27631385525037]]]}, "properties": {"zone_id": "vladivostok-2026-04-23-006", "aoi": "vladivostok", "date": "2026-04-23", "scene_id": "S2C_MSIL2A_20260423T020651_R103_T52TGN_20260423T054017", "scene_datetime_utc": "2026-04-23T02:06:51.025000+00:00", "detection_status": "detected", "detection_status_ru": "обнаружено", "lon": 131.80488, "lat": 43.27618, "n_pixels": 2, "zone_area_km2": 0.0008, "cover_m2": 33.7, "p_mean": 0.759, "p_max": 0.906, "cover_m2_km2": 42125.0, "h3": "88316ccdabfffff", "valid_frac_scene": 0.972, "wind_ms": 5.0, "sea": "спокойное", "scene_reliable": true, "field_event_id": "S4:DOORS3:T23", "field_profile": "B", "field_date": "2024-06-10", "field_distance_km": 6967.2, "field_date_gap_days": 682, "field_conc_items_km2": 102.37, "conc_A_items_km2": null, "conc_A_lo80": null, "conc_A_hi80": null, "conc_A_lo95": null, "conc_A_hi95": null, "conc_A_status": "unavailable", "conc_A_status_ru": "концентрация недоступна", "conc_A_reasons": "вне бассейна профиля: nw_atlantic_subtropical", "conc_A_model": "conc-A-c6bce5631d2b", "conc_B_items_km2": null, "conc_B_lo80": null, "conc_B_hi80": null, "conc_B_lo95": null, "conc_B_hi95": null, "conc_B_status": "unavailable", "conc_B_status_ru": "концентрация недоступна", "conc_B_reasons": "вне бассейна профиля: black_sea", "conc_B_model": "conc-B-c6bce5631d2b"}}, {"type": "Feature", "geometry": {"type": "Polygon", "coordinates": [[[131.77281678375053, 43.26214660270343], [131.77281269880666, 43.26205666156374], [131.77268963159537, 43.2620596468882], [131.77268554685105, 43.261969705737435], [131.7728086138816, 43.2619667204223], [131.7728045289754, 43.26187677927914], [131.77305474788622, 43.26196074939532], [131.77305883317274, 43.262050690518095], [131.7729357659991, 43.26205367610704], [131.77293985112374, 43.262143617237406], [131.77281678375053, 43.26214660270343]]]}, "properties": {"zone_id": "vladivostok-2026-04-23-007", "aoi": "vladivostok", "date": "2026-04-23", "scene_id": "S2C_MSIL2A_20260423T020651_R103_T52TGN_20260423T054017", "scene_datetime_utc": "2026-04-23T02:06:51.025000+00:00", "detection_status": "detected", "detection_status_ru": "обнаружено", "lon": 131.77287, "lat": 43.26201, "n_pixels": 1, "zone_area_km2": 0.0005, "cover_m2": 9.0, "p_mean": 0.776, "p_max": 0.776, "cover_m2_km2": 18000.0, "h3": "88316c5291fffff", "valid_frac_scene": 0.972, "wind_ms": 5.0, "sea": "спокойное", "scene_reliable": true, "field_event_id": "S4:DOORS3:T23", "field_profile": "B", "field_date": "2024-06-10", "field_distance_km": 6965.9, "field_date_gap_days": 682, "field_conc_items_km2": 102.37, "conc_A_items_km2": null, "conc_A_lo80": null, "conc_A_hi80": null, "conc_A_lo95": null, "conc_A_hi95": null, "conc_A_status": "unavailable", "conc_A_status_ru": "концентрация недоступна", "conc_A_reasons": "вне бассейна профиля: nw_atlantic_subtropical", "conc_A_model": "conc-A-c6bce5631d2b", "conc_B_items_km2": null, "conc_B_lo80": null, "conc_B_hi80": null, "conc_B_lo95": null, "conc_B_hi95": null, "conc_B_status": "unavailable", "conc_B_status_ru": "концентрация недоступна", "conc_B_reasons": "вне бассейна профиля: black_sea", "conc_B_model": "conc-B-c6bce5631d2b"}}, {"type": "Feature", "geometry": {"type": "Polygon", "coordinates": [[[131.94463321904018, 43.261090725182825], [131.9446288813495, 43.261000797519216], [131.94450583472621, 43.261003967613476], [131.9444971597661, 43.26082411226116], [131.94462020602813, 43.26082094218672], [131.94461586839748, 43.26073101451781], [131.94486629849223, 43.260814601641314], [131.94487063650416, 43.260904529288645], [131.9449936828868, 43.26090135880779], [131.94499802109934, 43.26099128644344], [131.94487497453608, 43.260994456934206], [131.94487931258797, 43.261084384578005], [131.94463321904018, 43.261090725182825]]]}, "properties": {"zone_id": "vladivostok-2026-04-23-008", "aoi": "vladivostok", "date": "2026-04-23", "scene_id": "S2C_MSIL2A_20260423T020651_R103_T52TGN_20260423T054017", "scene_datetime_utc": "2026-04-23T02:06:51.025000+00:00", "detection_status": "detected", "detection_status_ru": "обнаружено", "lon": 131.94473, "lat": 43.26092, "n_pixels": 3, "zone_area_km2": 0.001, "cover_m2": 15.7, "p_mean": 0.905, "p_max": 0.996, "cover_m2_km2": 15700.0, "h3": "88316c1b37fffff", "valid_frac_scene": 0.972, "wind_ms": 5.0, "sea": "спокойное", "scene_reliable": true, "field_event_id": "S4:DOORS3:T23", "field_profile": "B", "field_date": "2024-06-10", "field_distance_km": 6977.6, "field_date_gap_days": 682, "field_conc_items_km2": 102.37, "conc_A_items_km2": null, "conc_A_lo80": null, "conc_A_hi80": null, "conc_A_lo95": null, "conc_A_hi95": null, "conc_A_status": "unavailable", "conc_A_status_ru": "концентрация недоступна", "conc_A_reasons": "вне бассейна профиля: nw_atlantic_subtropical", "conc_A_model": "conc-A-c6bce5631d2b", "conc_B_items_km2": null, "conc_B_lo80": null, "conc_B_hi80": null, "conc_B_lo95": null, "conc_B_hi95": null, "conc_B_status": "unavailable", "conc_B_status_ru": "концентрация недоступна", "conc_B_reasons": "вне бассейна профиля: black_sea", "conc_B_model": "conc-B-c6bce5631d2b"}}, {"type": "Feature", "geometry": {"type": "Polygon", "coordinates": [[[131.77119789554462, 43.22103735913489], [131.77119381883924, 43.22094741722363], [131.77107083417576, 43.220950398552596], [131.77106675766953, 43.22086045663029], [131.77118974215264, 43.220857475310645], [131.7711856654849, 43.22076753339592], [131.771431634034, 43.22076157037913], [131.7714357110625, 43.220851512275225], [131.77155869548923, 43.220848530559444], [131.7715627727169, 43.22093847244449], [131.7714397881098, 43.220941454169576], [131.77144386517588, 43.2210313960622], [131.77119789554462, 43.22103735913489]]]}, "properties": {"zone_id": "vladivostok-2026-04-23-009", "aoi": "vladivostok", "date": "2026-04-23", "scene_id": "S2C_MSIL2A_20260423T020651_R103_T52TGN_20260423T054017", "scene_datetime_utc": "2026-04-23T02:06:51.025000+00:00", "detection_status": "detected", "detection_status_ru": "обнаружено", "lon": 131.77131, "lat": 43.2209, "n_pixels": 2, "zone_area_km2": 0.0008, "cover_m2": 7.8, "p_mean": 0.812, "p_max": 0.851, "cover_m2_km2": 9750.0, "h3": "88316c5723fffff", "valid_frac_scene": 0.972, "wind_ms": 5.0, "sea": "спокойное", "scene_reliable": true, "field_event_id": "S4:DOORS3:T23", "field_profile": "B", "field_date": "2024-06-10", "field_distance_km": 6968.3, "field_date_gap_days": 682, "field_conc_items_km2": 102.37, "conc_A_items_km2": null, "conc_A_lo80": null, "conc_A_hi80": null, "conc_A_lo95": null, "conc_A_hi95": null, "conc_A_status": "unavailable", "conc_A_status_ru": "концентрация недоступна", "conc_A_reasons": "вне бассейна профиля: nw_atlantic_subtropical", "conc_A_model": "conc-A-c6bce5631d2b", "conc_B_items_km2": null, "conc_B_lo80": null, "conc_B_hi80": null, "conc_B_lo95": null, "conc_B_hi95": null, "conc_B_status": "unavailable", "conc_B_status_ru": "концентрация недоступна", "conc_B_reasons": "вне бассейна профиля: black_sea", "conc_B_model": "conc-B-c6bce5631d2b"}}, {"type": "Feature", "geometry": {"type": "Polygon", "coordinates": [[[131.72956876470008, 43.215195830530746], [131.72956475000774, 43.21510588538198], [131.72944177278356, 43.21510882164257], [131.7294377582901, 43.215018876482915], [131.72956073533396, 43.21501594023151], [131.7295567206787, 43.214925995079305], [131.72980668936617, 43.21501006733258], [131.72981070440065, 43.2151000124647], [131.72968772721345, 43.21510294898936], [131.7296917420861, 43.21519289412895], [131.72956876470008, 43.215195830530746]]]}, "properties": {"zone_id": "vladivostok-2026-04-23-010", "aoi": "vladivostok", "date": "2026-04-23", "scene_id": "S2C_MSIL2A_20260423T020651_R103_T52TGN_20260423T054017", "scene_datetime_utc": "2026-04-23T02:06:51.025000+00:00", "detection_status": "detected", "detection_status_ru": "обнаружено", "lon": 131.72962, "lat": 43.21506, "n_pixels": 1, "zone_area_km2": 0.0005, "cover_m2": 14.9, "p_mean": 0.569, "p_max": 0.569, "cover_m2_km2": 29800.0, "h3": "88316c5095fffff", "valid_frac_scene": 0.972, "wind_ms": 5.0, "sea": "спокойное", "scene_reliable": true, "field_event_id": "S4:DOORS3:T23", "field_profile": "B", "field_date": "2024-06-10", "field_distance_km": 6965.9, "field_date_gap_days": 682, "field_conc_items_km2": 102.37, "conc_A_items_km2": null, "conc_A_lo80": null, "conc_A_hi80": null, "conc_A_lo95": null, "conc_A_hi95": null, "conc_A_status": "unavailable", "conc_A_status_ru": "концентрация недоступна", "conc_A_reasons": "вне бассейна профиля: nw_atlantic_subtropical", "conc_A_model": "conc-A-c6bce5631d2b", "conc_B_items_km2": null, "conc_B_lo80": null, "conc_B_hi80": null, "conc_B_lo95": null, "conc_B_hi95": null, "conc_B_status": "unavailable", "conc_B_status_ru": "концентрация недоступна", "conc_B_reasons": "вне бассейна профиля: black_sea", "conc_B_model": "conc-B-c6bce5631d2b"}}, {"type": "Feature", "geometry": {"type": "Polygon", "coordinates": [[[131.8793929197838, 43.199544777820094], [131.8793886872211, 43.19945484396737], [131.8792657572116, 43.19945794037743], [131.87925729250492, 43.19927807264736], [131.87949891909977, 43.199181945885684], [131.87950315178404, 43.199271879734], [131.87962608139435, 43.199268783079454], [131.8796345471816, 43.19944865075147], [131.8793929197838, 43.199544777820094]]]}, "properties": {"zone_id": "vladivostok-2026-04-23-011", "aoi": "vladivostok", "date": "2026-04-23", "scene_id": "S2C_MSIL2A_20260423T020651_R103_T52TGN_20260423T054017", "scene_datetime_utc": "2026-04-23T02:06:51.025000+00:00", "detection_status": "detected", "detection_status_ru": "обнаружено", "lon": 131.87945, "lat": 43.19936, "n_pixels": 2, "zone_area_km2": 0.0008, "cover_m2": 7.8, "p_mean": 0.982, "p_max": 0.992, "cover_m2_km2": 9750.0, "h3": "88316c56ebfffff", "valid_frac_scene": 0.972, "wind_ms": 5.0, "sea": "спокойное", "scene_reliable": true, "field_event_id": "S4:DOORS3:T23", "field_profile": "B", "field_date": "2024-06-10", "field_distance_km": 6977.0, "field_date_gap_days": 682, "field_conc_items_km2": 102.37, "conc_A_items_km2": null, "conc_A_lo80": null, "conc_A_hi80": null, "conc_A_lo95": null, "conc_A_hi95": null, "conc_A_status": "unavailable", "conc_A_status_ru": "концентрация недоступна", "conc_A_reasons": "вне бассейна профиля: nw_atlantic_subtropical", "conc_A_model": "conc-A-c6bce5631d2b", "conc_B_items_km2": null, "conc_B_lo80": null, "conc_B_hi80": null, "conc_B_lo95": null, "conc_B_hi95": null, "conc_B_status": "unavailable", "conc_B_status_ru": "концентрация недоступна", "conc_B_reasons": "вне бассейна профиля: black_sea", "conc_B_model": "conc-B-c6bce5631d2b"}}, {"type": "Feature", "geometry": {"type": "Polygon", "coordinates": [[[131.79672752683092, 43.14658193787323], [131.79672342328098, 43.14649199674049], [131.79660059065236, 43.146495001390214], [131.79659648730095, 43.14640506024636], [131.79671931974994, 43.14640205560602], [131.7967152162378, 43.1463121144698], [131.79696498459117, 43.146396045930246], [131.79696908848152, 43.146485987045935], [131.7968462558907, 43.14648899195905], [131.79685035962032, 43.14657893308242], [131.79672752683092, 43.14658193787323]]]}, "properties": {"zone_id": "vladivostok-2026-04-23-012", "aoi": "vladivostok", "date": "2026-04-23", "scene_id": "S2C_MSIL2A_20260423T020651_R103_T52TGN_20260423T054017", "scene_datetime_utc": "2026-04-23T02:06:51.025000+00:00", "detection_status": "detected", "detection_status_ru": "обнаружено", "lon": 131.79678, "lat": 43.14645, "n_pixels": 1, "zone_area_km2": 0.0005, "cover_m2": 6.7, "p_mean": 0.502, "p_max": 0.502, "cover_m2_km2": 13400.0, "h3": "88316c5589fffff", "valid_frac_scene": 0.972, "wind_ms": 5.0, "sea": "спокойное", "scene_reliable": true, "field_event_id": "S4:DOORS3:T23", "field_profile": "B", "field_date": "2024-06-10", "field_distance_km": 6974.7, "field_date_gap_days": 682, "field_conc_items_km2": 102.37, "conc_A_items_km2": null, "conc_A_lo80": null, "conc_A_hi80": null, "conc_A_lo95": null, "conc_A_hi95": null, "conc_A_status": "unavailable", "conc_A_status_ru": "концентрация недоступна", "conc_A_reasons": "вне бассейна профиля: nw_atlantic_subtropical", "conc_A_model": "conc-A-c6bce5631d2b", "conc_B_items_km2": null, "conc_B_lo80": null, "conc_B_hi80": null, "conc_B_lo95": null, "conc_B_hi95": null, "conc_B_status": "unavailable", "conc_B_status_ru": "концентрация недоступна", "conc_B_reasons": "вне бассейна профиля: black_sea", "conc_B_model": "conc-B-c6bce5631d2b"}}, {"type": "Feature", "geometry": {"type": "Polygon", "coordinates": [[[131.83766728552243, 43.141071065157206], [131.8376631227525, 43.14098112710602], [131.83754030548315, 43.14098417539474], [131.837536142912, 43.14089423733231], [131.8376589600018, 43.140891189053114], [131.83765479727026, 43.14080125099846], [131.8379045941238, 43.140885092099744], [131.8379087572337, 43.1409750301336], [131.8377859400027, 43.14097807868564], [131.83779010295217, 43.141068016727296], [131.83766728552243, 43.141071065157206]]]}, "properties": {"zone_id": "vladivostok-2026-04-23-013", "aoi": "vladivostok", "date": "2026-04-23", "scene_id": "S2C_MSIL2A_20260423T020651_R103_T52TGN_20260423T054017", "scene_datetime_utc": "2026-04-23T02:06:51.025000+00:00", "detection_status": "detected", "detection_status_ru": "обнаружено", "lon": 131.83772, "lat": 43.14093, "n_pixels": 1, "zone_area_km2": 0.0005, "cover_m2": 7.8, "p_mean": 0.941, "p_max": 0.941, "cover_m2_km2": 15600.0, "h3": "88316c54a9fffff", "valid_frac_scene": 0.972, "wind_ms": 5.0, "sea": "спокойное", "scene_reliable": true, "field_event_id": "S4:DOORS3:T23", "field_profile": "B", "field_date": "2024-06-10", "field_distance_km": 6977.8, "field_date_gap_days": 682, "field_conc_items_km2": 102.37, "conc_A_items_km2": null, "conc_A_lo80": null, "conc_A_hi80": null, "conc_A_lo95": null, "conc_A_hi95": null, "conc_A_status": "unavailable", "conc_A_status_ru": "концентрация недоступна", "conc_A_reasons": "вне бассейна профиля: nw_atlantic_subtropical", "conc_A_model": "conc-A-c6bce5631d2b", "conc_B_items_km2": null, "conc_B_lo80": null, "conc_B_hi80": null, "conc_B_lo95": null, "conc_B_hi95": null, "conc_B_status": "unavailable", "conc_B_status_ru": "концентрация недоступна", "conc_B_reasons": "вне бассейна профиля: black_sea", "conc_B_model": "conc-B-c6bce5631d2b"}}, {"type": "Feature", "geometry": {"type": "Polygon", "coordinates": [[[131.87545754439984, 43.09213474009703], [131.87545333344158, 43.092044804240004], [131.87533061804783, 43.09204789030138], [131.87532640728807, 43.09195795443295], [131.87544912250274, 43.091954868381215], [131.87544491158326, 43.09186493252069], [131.8756945528739, 43.09194869588349], [131.87569876417098, 43.092038631722986], [131.87557604881596, 43.092041718047206], [131.87558025995335, 43.092131653894576], [131.87545754439984, 43.09213474009703]]]}, "properties": {"zone_id": "vladivostok-2026-04-23-014", "aoi": "vladivostok", "date": "2026-04-23", "scene_id": "S2C_MSIL2A_20260423T020651_R103_T52TGN_20260423T054017", "scene_datetime_utc": "2026-04-23T02:06:51.025000+00:00", "detection_status": "detected", "detection_status_ru": "обнаружено", "lon": 131.87551, "lat": 43.092, "n_pixels": 1, "zone_area_km2": 0.0005, "cover_m2": 8.2, "p_mean": 0.647, "p_max": 0.647, "cover_m2_km2": 16400.0, "h3": "88316c0929fffff", "valid_frac_scene": 0.972, "wind_ms": 5.0, "sea": "спокойное", "scene_reliable": true, "field_event_id": "S4:DOORS3:T23", "field_profile": "B", "field_date": "2024-06-10", "field_distance_km": 6983.3, "field_date_gap_days": 682, "field_conc_items_km2": 102.37, "conc_A_items_km2": null, "conc_A_lo80": null, "conc_A_hi80": null, "conc_A_lo95": null, "conc_A_hi95": null, "conc_A_status": "unavailable", "conc_A_status_ru": "концентрация недоступна", "conc_A_reasons": "вне бассейна профиля: nw_atlantic_subtropical", "conc_A_model": "conc-A-c6bce5631d2b", "conc_B_items_km2": null, "conc_B_lo80": null, "conc_B_hi80": null, "conc_B_lo95": null, "conc_B_hi95": null, "conc_B_status": "unavailable", "conc_B_status_ru": "концентрация недоступна", "conc_B_reasons": "вне бассейна профиля: black_sea", "conc_B_model": "conc-B-c6bce5631d2b"}}, {"type": "Feature", "geometry": {"type": "Polygon", "coordinates": [[[131.71824252850124, 43.01818310126189], [131.718238557869, 43.018093152159345], [131.71811597338, 43.018096065627276], [131.71810803252737, 43.01791616739885], [131.71834923001694, 43.01782039126967], [131.71835320077292, 43.01791034036825], [131.71847578486828, 43.01790742665626], [131.7184837267921, 43.01808732483005], [131.71824252850124, 43.01818310126189]]]}, "properties": {"zone_id": "vladivostok-2026-04-23-015", "aoi": "vladivostok", "date": "2026-04-23", "scene_id": "S2C_MSIL2A_20260423T020651_R103_T52TGN_20260423T054017", "scene_datetime_utc": "2026-04-23T02:06:51.025000+00:00", "detection_status": "detected", "detection_status_ru": "обнаружено", "lon": 131.7183, "lat": 43.018, "n_pixels": 2, "zone_area_km2": 0.0008, "cover_m2": 12.2, "p_mean": 0.665, "p_max": 0.69, "cover_m2_km2": 15250.0, "h3": "88316c4535fffff", "valid_frac_scene": 0.972, "wind_ms": 5.0, "sea": "спокойное", "scene_reliable": true, "field_event_id": "S4:DOORS3:T23", "field_profile": "B", "field_date": "2024-06-10", "field_distance_km": 6977.3, "field_date_gap_days": 682, "field_conc_items_km2": 102.37, "conc_A_items_km2": null, "conc_A_lo80": null, "conc_A_hi80": null, "conc_A_lo95": null, "conc_A_hi95": null, "conc_A_status": "unavailable", "conc_A_status_ru": "концентрация недоступна", "conc_A_reasons": "вне бассейна профиля: nw_atlantic_subtropical", "conc_A_model": "conc-A-c6bce5631d2b", "conc_B_items_km2": null, "conc_B_lo80": null, "conc_B_hi80": null, "conc_B_lo95": null, "conc_B_hi95": null, "conc_B_status": "unavailable", "conc_B_status_ru": "концентрация недоступна", "conc_B_reasons": "вне бассейна профиля: black_sea", "conc_B_model": "conc-B-c6bce5631d2b"}}, {"type": "Feature", "geometry": {"type": "Polygon", "coordinates": [[[131.9560878142212, 43.01111185606145], [131.9560834975206, 43.01102192538607], [131.95596095235646, 43.01102509315625], [131.95595663585402, 43.01093516246922], [131.95607918083982, 43.01093199470894], [131.95607486417893, 43.01084206403003], [131.95632427075188, 43.01092565879532], [131.95632858778927, 43.01101558945264], [131.95620604266486, 43.01101875748487], [131.95621035954377, 43.01110868815034], [131.9560878142212, 43.01111185606145]]]}, "properties": {"zone_id": "vladivostok-2026-04-23-016", "aoi": "vladivostok", "date": "2026-04-23", "scene_id": "S2C_MSIL2A_20260423T020651_R103_T52TGN_20260423T054017", "scene_datetime_utc": "2026-04-23T02:06:51.025000+00:00", "detection_status": "detected", "detection_status_ru": "обнаружено", "lon": 131.95614, "lat": 43.01098, "n_pixels": 1, "zone_area_km2": 0.0005, "cover_m2": 4.3, "p_mean": 0.984, "p_max": 0.984, "cover_m2_km2": 8600.0, "h3": "88316c720dfffff", "valid_frac_scene": 0.972, "wind_ms": 5.0, "sea": "спокойное", "scene_reliable": true, "field_event_id": "S4:DOORS3:T23", "field_profile": "B", "field_date": "2024-06-10", "field_distance_km": 6993.8, "field_date_gap_days": 682, "field_conc_items_km2": 102.37, "conc_A_items_km2": null, "conc_A_lo80": null, "conc_A_hi80": null, "conc_A_lo95": null, "conc_A_hi95": null, "conc_A_status": "unavailable", "conc_A_status_ru": "концентрация недоступна", "conc_A_reasons": "вне бассейна профиля: nw_atlantic_subtropical", "conc_A_model": "conc-A-c6bce5631d2b", "conc_B_items_km2": null, "conc_B_lo80": null, "conc_B_hi80": null, "conc_B_lo95": null, "conc_B_hi95": null, "conc_B_status": "unavailable", "conc_B_status_ru": "концентрация недоступна", "conc_B_reasons": "вне бассейна профиля: black_sea", "conc_B_model": "conc-B-c6bce5631d2b"}}]}