{"type": "FeatureCollection", "features": [{"type": "Feature", "geometry": {"type": "Polygon", "coordinates": [[[44.71671032471943, 48.88058677776854], [44.71671083275096, 48.880496820831276], [44.7165744410595, 48.88049648568], [44.7165749493331, 48.880406528742384], [44.71684824001128, 48.88031724194035], [44.71684773222937, 48.8804071988815], [44.71698412368128, 48.880407533709075], [44.716983616141434, 48.88049749064985], [44.71684722444493, 48.880497155821224], [44.71684671665799, 48.88058711275954], [44.71671032471943, 48.88058677776854]]]}, "properties": {"zone_id": "volgograd-2026-05-23-001", "aoi": "volgograd", "date": "2026-05-23", "scene_id": "S2A_MSIL2A_20260523T081021_R078_T38UMV_20260523T113615", "scene_datetime_utc": "2026-05-23T08:10:21.024000+00:00", "detection_status": "detected", "detection_status_ru": "обнаружено", "lon": 44.71678, "lat": 48.88045, "n_pixels": 1, "zone_area_km2": 0.0005, "cover_m2": 4.3, "p_mean": 0.616, "p_max": 0.616, "cover_m2_km2": 8600.0, "h3": "882d48ae59fffff", "valid_frac_scene": 1.0, "wind_ms": 3.2, "sea": "спокойное", "scene_reliable": true, "field_event_id": "S4:DOORS3:T23", "field_profile": "B", "field_date": "2024-06-10", "field_distance_km": 767.6, "field_date_gap_days": 712, "field_conc_items_km2": 102.37, "conc_A_items_km2": null, "conc_A_lo80": null, "conc_A_hi80": null, "conc_A_lo95": null, "conc_A_hi95": null, "conc_A_status": "unavailable", "conc_A_status_ru": "концентрация недоступна", "conc_A_reasons": "вне бассейна профиля: nw_atlantic_subtropical", "conc_A_model": "conc-A-c6bce5631d2b", "conc_B_items_km2": null, "conc_B_lo80": null, "conc_B_hi80": null, "conc_B_lo95": null, "conc_B_hi95": null, "conc_B_status": "unavailable", "conc_B_status_ru": "концентрация недоступна", "conc_B_reasons": "вне бассейна профиля: black_sea", "conc_B_model": "conc-B-c6bce5631d2b"}}, {"type": "Feature", "geometry": {"type": "Polygon", "coordinates": [[[44.687698663366916, 48.8741248187654], [44.68769922329814, 48.87403486196386], [44.6875628495331, 48.874034492534335], [44.687563409706044, 48.87394453573253], [44.68783671643108, 48.87385531762242], [44.6878361567499, 48.87394527442795], [44.687972530276, 48.873945643533744], [44.68797197083654, 48.874035600339035], [44.687835597065956, 48.874035231232085], [44.68783503737923, 48.874125188034796], [44.687698663366916, 48.8741248187654]]]}, "properties": {"zone_id": "volgograd-2026-05-23-002", "aoi": "volgograd", "date": "2026-05-23", "scene_id": "S2A_MSIL2A_20260523T081021_R078_T38UMV_20260523T113615", "scene_datetime_utc": "2026-05-23T08:10:21.024000+00:00", "detection_status": "detected", "detection_status_ru": "обнаружено", "lon": 44.68777, "lat": 48.87399, "n_pixels": 1, "zone_area_km2": 0.0005, "cover_m2": 2.0, "p_mean": 0.58, "p_max": 0.58, "cover_m2_km2": 4000.0, "h3": "882d48a0bdfffff", "valid_frac_scene": 1.0, "wind_ms": 3.2, "sea": "спокойное", "scene_reliable": true, "field_event_id": "S4:DOORS3:T23", "field_profile": "B", "field_date": "2024-06-10", "field_distance_km": 766.2, "field_date_gap_days": 712, "field_conc_items_km2": 102.37, "conc_A_items_km2": null, "conc_A_lo80": null, "conc_A_hi80": null, "conc_A_lo95": null, "conc_A_hi95": null, "conc_A_status": "unavailable", "conc_A_status_ru": "концентрация недоступна", "conc_A_reasons": "вне бассейна профиля: nw_atlantic_subtropical", "conc_A_model": "conc-A-c6bce5631d2b", "conc_B_items_km2": null, "conc_B_lo80": null, "conc_B_hi80": null, "conc_B_lo95": null, "conc_B_hi95": null, "conc_B_status": "unavailable", "conc_B_status_ru": "концентрация недоступна", "conc_B_reasons": "вне бассейна профиля: black_sea", "conc_B_model": "conc-B-c6bce5631d2b"}}, {"type": "Feature", "geometry": {"type": "Polygon", "coordinates": [[[44.677078867865376, 48.87139681694784], [44.67707944678129, 48.87130686019607], [44.676943080570794, 48.871306478222685], [44.67694481803471, 48.87103660796245], [44.677218127651805, 48.87094741498209], [44.67721754899182, 48.87103737174073], [44.67735391447467, 48.871037753387974], [44.67735217921088, 48.87130762365902], [44.677078867865376, 48.87139681694784]]]}, "properties": {"zone_id": "volgograd-2026-05-23-003", "aoi": "volgograd", "date": "2026-05-23", "scene_id": "S2A_MSIL2A_20260523T081021_R078_T38UMV_20260523T113615", "scene_datetime_utc": "2026-05-23T08:10:21.024000+00:00", "detection_status": "detected", "detection_status_ru": "обнаружено", "lon": 44.67715, "lat": 48.87117, "n_pixels": 3, "zone_area_km2": 0.0011, "cover_m2": 15.7, "p_mean": 0.648, "p_max": 0.784, "cover_m2_km2": 14272.7, "h3": "882d48a0abfffff", "valid_frac_scene": 1.0, "wind_ms": 3.2, "sea": "спокойное", "scene_reliable": true, "field_event_id": "S4:DOORS3:T23", "field_profile": "B", "field_date": "2024-06-10", "field_distance_km": 765.7, "field_date_gap_days": 712, "field_conc_items_km2": 102.37, "conc_A_items_km2": null, "conc_A_lo80": null, "conc_A_hi80": null, "conc_A_lo95": null, "conc_A_hi95": null, "conc_A_status": "unavailable", "conc_A_status_ru": "концентрация недоступна", "conc_A_reasons": "вне бассейна профиля: nw_atlantic_subtropical", "conc_A_model": "conc-A-c6bce5631d2b", "conc_B_items_km2": null, "conc_B_lo80": null, "conc_B_hi80": null, "conc_B_lo95": null, "conc_B_hi95": null, "conc_B_status": "unavailable", "conc_B_status_ru": "концентрация недоступна", "conc_B_reasons": "вне бассейна профиля: black_sea", "conc_B_model": "conc-B-c6bce5631d2b"}}, {"type": "Feature", "geometry": {"type": "Polygon", "coordinates": [[[44.68867337567877, 48.870888954224284], [44.6886739337989, 48.870798997363664], [44.68853756881559, 48.87079862910485], [44.68853812717741, 48.870708672243964], [44.68881141452806, 48.87061945173338], [44.6888108566579, 48.87070940859801], [44.6889472214023, 48.870709776533126], [44.688946663773834, 48.87079973339749], [44.688810298784986, 48.8707993654612], [44.6888097409093, 48.87088932232299], [44.68867337567877, 48.870888954224284]]]}, "properties": {"zone_id": "volgograd-2026-05-23-004", "aoi": "volgograd", "date": "2026-05-23", "scene_id": "S2A_MSIL2A_20260523T081021_R078_T38UMV_20260523T113615", "scene_datetime_utc": "2026-05-23T08:10:21.024000+00:00", "detection_status": "detected", "detection_status_ru": "обнаружено", "lon": 44.68874, "lat": 48.87075, "n_pixels": 1, "zone_area_km2": 0.0005, "cover_m2": 3.1, "p_mean": 0.584, "p_max": 0.584, "cover_m2_km2": 6200.0, "h3": "882d48a0bdfffff", "valid_frac_scene": 1.0, "wind_ms": 3.2, "sea": "спокойное", "scene_reliable": true, "field_event_id": "S4:DOORS3:T23", "field_profile": "B", "field_date": "2024-06-10", "field_distance_km": 765.9, "field_date_gap_days": 712, "field_conc_items_km2": 102.37, "conc_A_items_km2": null, "conc_A_lo80": null, "conc_A_hi80": null, "conc_A_lo95": null, "conc_A_hi95": null, "conc_A_status": "unavailable", "conc_A_status_ru": "концентрация недоступна", "conc_A_reasons": "вне бассейна профиля: nw_atlantic_subtropical", "conc_A_model": "conc-A-c6bce5631d2b", "conc_B_items_km2": null, "conc_B_lo80": null, "conc_B_hi80": null, "conc_B_lo95": null, "conc_B_hi95": null, "conc_B_status": "unavailable", "conc_B_status_ru": "концентрация недоступна", "conc_B_reasons": "вне бассейна профиля: black_sea", "conc_B_model": "conc-B-c6bce5631d2b"}}, {"type": "Feature", "geometry": {"type": "Polygon", "coordinates": [[[44.676673825993895, 48.87076597327337], [44.67667440562308, 48.87067601651529], [44.67640225675979, 48.87058529469944], [44.676402836872136, 48.87049533794093], [44.676539200871055, 48.87049572054853], [44.67653978073607, 48.87040576378742], [44.6768119288775, 48.87049648527995], [44.67681134949851, 48.87058644204207], [44.676947713750494, 48.870586824167084], [44.67694713461308, 48.870676780928996], [44.676810770116646, 48.87067639880278], [44.676810190731906, 48.87076635556206], [44.676673825993895, 48.87076597327337]]]}, "properties": {"zone_id": "volgograd-2026-05-23-005", "aoi": "volgograd", "date": "2026-05-23", "scene_id": "S2A_MSIL2A_20260523T081021_R078_T38UMV_20260523T113615", "scene_datetime_utc": "2026-05-23T08:10:21.024000+00:00", "detection_status": "detected", "detection_status_ru": "обнаружено", "lon": 44.67667, "lat": 48.87059, "n_pixels": 2, "zone_area_km2": 0.0008, "cover_m2": 12.2, "p_mean": 0.729, "p_max": 0.745, "cover_m2_km2": 15250.0, "h3": "882d48a0abfffff", "valid_frac_scene": 1.0, "wind_ms": 3.2, "sea": "спокойное", "scene_reliable": true, "field_event_id": "S4:DOORS3:T23", "field_profile": "B", "field_date": "2024-06-10", "field_distance_km": 765.6, "field_date_gap_days": 712, "field_conc_items_km2": 102.37, "conc_A_items_km2": null, "conc_A_lo80": null, "conc_A_hi80": null, "conc_A_lo95": null, "conc_A_hi95": null, "conc_A_status": "unavailable", "conc_A_status_ru": "концентрация недоступна", "conc_A_reasons": "вне бассейна профиля: nw_atlantic_subtropical", "conc_A_model": "conc-A-c6bce5631d2b", "conc_B_items_km2": null, "conc_B_lo80": null, "conc_B_hi80": null, "conc_B_lo95": null, "conc_B_hi95": null, "conc_B_status": "unavailable", "conc_B_status_ru": "концентрация недоступна", "conc_B_reasons": "вне бассейна профиля: black_sea", "conc_B_model": "conc-B-c6bce5631d2b"}}, {"type": "Feature", "geometry": {"type": "Polygon", "coordinates": [[[44.69549655354828, 48.8700975492986], [44.695497099421324, 48.87000759236793], [44.69536073650122, 48.8700072321825], [44.695361282616, 48.86991727525154], [44.69549764529166, 48.869917635435826], [44.69549819115929, 48.86982767850231], [44.69577091602984, 48.869828398384854], [44.6957703706511, 48.869918355320635], [44.69590673333487, 48.86991871502115], [44.69590618819786, 48.870008671956654], [44.69576982526965, 48.87000831225501], [44.695769279885496, 48.87009826918794], [44.69549655354828, 48.8700975492986]]]}, "properties": {"zone_id": "volgograd-2026-05-23-006", "aoi": "volgograd", "date": "2026-05-23", "scene_id": "S2A_MSIL2A_20260523T081021_R078_T38UMV_20260523T113615", "scene_datetime_utc": "2026-05-23T08:10:21.024000+00:00", "detection_status": "detected", "detection_status_ru": "обнаружено", "lon": 44.69563, "lat": 48.86996, "n_pixels": 2, "zone_area_km2": 0.0008, "cover_m2": 15.3, "p_mean": 0.651, "p_max": 0.784, "cover_m2_km2": 19125.0, "h3": "882d48a0b5fffff", "valid_frac_scene": 1.0, "wind_ms": 3.2, "sea": "спокойное", "scene_reliable": true, "field_event_id": "S4:DOORS3:T23", "field_profile": "B", "field_date": "2024-06-10", "field_distance_km": 766.0, "field_date_gap_days": 712, "field_conc_items_km2": 102.37, "conc_A_items_km2": null, "conc_A_lo80": null, "conc_A_hi80": null, "conc_A_lo95": null, "conc_A_hi95": null, "conc_A_status": "unavailable", "conc_A_status_ru": "концентрация недоступна", "conc_A_reasons": "вне бассейна профиля: nw_atlantic_subtropical", "conc_A_model": "conc-A-c6bce5631d2b", "conc_B_items_km2": null, "conc_B_lo80": null, "conc_B_hi80": null, "conc_B_lo95": null, "conc_B_hi95": null, "conc_B_status": "unavailable", "conc_B_status_ru": "концентрация недоступна", "conc_B_reasons": "вне бассейна профиля: black_sea", "conc_B_model": "conc-B-c6bce5631d2b"}}, {"type": "Feature", "geometry": {"type": "Polygon", "coordinates": [[[44.68936466874742, 48.869361526183575], [44.689365225598365, 48.86927156929309], [44.68909306125499, 48.86918087737659], [44.689093618589276, 48.86909092048561], [44.68922997893924, 48.86909128807737], [44.689230536026336, 48.8690013311838], [44.68950269964746, 48.869092022777146], [44.68950214304647, 48.86918197967161], [44.68963850364916, 48.86918234678078], [44.68963794728983, 48.86927230367498], [44.68950158644272, 48.86927193656466], [44.68950102983621, 48.8693618934563], [44.68936466874742, 48.869361526183575]]]}, "properties": {"zone_id": "volgograd-2026-05-23-007", "aoi": "volgograd", "date": "2026-05-23", "scene_id": "S2A_MSIL2A_20260523T081021_R078_T38UMV_20260523T113615", "scene_datetime_utc": "2026-05-23T08:10:21.024000+00:00", "detection_status": "detected", "detection_status_ru": "обнаружено", "lon": 44.68937, "lat": 48.86918, "n_pixels": 2, "zone_area_km2": 0.0008, "cover_m2": 5.1, "p_mean": 0.755, "p_max": 0.808, "cover_m2_km2": 6375.0, "h3": "882d48a0a3fffff", "valid_frac_scene": 1.0, "wind_ms": 3.2, "sea": "спокойное", "scene_reliable": true, "field_event_id": "S4:DOORS3:T23", "field_profile": "B", "field_date": "2024-06-10", "field_distance_km": 765.8, "field_date_gap_days": 712, "field_conc_items_km2": 102.37, "conc_A_items_km2": null, "conc_A_lo80": null, "conc_A_hi80": null, "conc_A_lo95": null, "conc_A_hi95": null, "conc_A_status": "unavailable", "conc_A_status_ru": "концентрация недоступна", "conc_A_reasons": "вне бассейна профиля: nw_atlantic_subtropical", "conc_A_model": "conc-A-c6bce5631d2b", "conc_B_items_km2": null, "conc_B_lo80": null, "conc_B_hi80": null, "conc_B_lo95": null, "conc_B_hi95": null, "conc_B_status": "unavailable", "conc_B_status_ru": "концентрация недоступна", "conc_B_reasons": "вне бассейна профиля: black_sea", "conc_B_model": "conc-B-c6bce5631d2b"}}, {"type": "Feature", "geometry": {"type": "Polygon", "coordinates": [[[44.675330549635184, 48.86761365456392], [44.675331131607926, 48.867523697768355], [44.67519477570107, 48.8675233137493], [44.67519535791534, 48.86743335695351], [44.67533171357778, 48.86743374097135], [44.67533229554475, 48.867343784172945], [44.675468650965676, 48.867344168028346], [44.67546923268536, 48.86725421122731], [44.67574136181618, 48.867344935255396], [44.67574078058242, 48.867434892057425], [44.67560442491133, 48.86743450852332], [44.67560384343029, 48.867524465322724], [44.675330549635184, 48.86761365456392]]]}, "properties": {"zone_id": "volgograd-2026-05-23-008", "aoi": "volgograd", "date": "2026-05-23", "scene_id": "S2A_MSIL2A_20260523T081021_R078_T38UMV_20260523T113615", "scene_datetime_utc": "2026-05-23T08:10:21.024000+00:00", "detection_status": "detected", "detection_status_ru": "обнаружено", "lon": 44.67547, "lat": 48.86743, "n_pixels": 2, "zone_area_km2": 0.0008, "cover_m2": 10.6, "p_mean": 0.549, "p_max": 0.569, "cover_m2_km2": 13250.0, "h3": "882d48a0abfffff", "valid_frac_scene": 1.0, "wind_ms": 3.2, "sea": "спокойное", "scene_reliable": true, "field_event_id": "S4:DOORS3:T23", "field_profile": "B", "field_date": "2024-06-10", "field_distance_km": 765.3, "field_date_gap_days": 712, "field_conc_items_km2": 102.37, "conc_A_items_km2": null, "conc_A_lo80": null, "conc_A_hi80": null, "conc_A_lo95": null, "conc_A_hi95": null, "conc_A_status": "unavailable", "conc_A_status_ru": "концентрация недоступна", "conc_A_reasons": "вне бассейна профиля: nw_atlantic_subtropical", "conc_A_model": "conc-A-c6bce5631d2b", "conc_B_items_km2": null, "conc_B_lo80": null, "conc_B_hi80": null, "conc_B_lo95": null, "conc_B_hi95": null, "conc_B_status": "unavailable", "conc_B_status_ru": "концентрация недоступна", "conc_B_reasons": "вне бассейна профиля: black_sea", "conc_B_model": "conc-B-c6bce5631d2b"}}, {"type": "Feature", "geometry": {"type": "Polygon", "coordinates": [[[44.67385401631977, 48.86401114907821], [44.67385460086512, 48.86392119223933], [44.67371825476544, 48.86392080649517], [44.673719424336156, 48.863740892815564], [44.67358307872809, 48.86374050691261], [44.67358366375346, 48.86365055007191], [44.67372000911717, 48.86365093597366], [44.67372059389528, 48.863560979130334], [44.67399269985329, 48.86365170729347], [44.67399211556099, 48.86374166413782], [44.67412846117775, 48.86374204955711], [44.674127293073184, 48.86392196324399], [44.67385401631977, 48.86401114907821]]]}, "properties": {"zone_id": "volgograd-2026-05-23-009", "aoi": "volgograd", "date": "2026-05-23", "scene_id": "S2A_MSIL2A_20260523T081021_R078_T38UMV_20260523T113615", "scene_datetime_utc": "2026-05-23T08:10:21.024000+00:00", "detection_status": "detected", "detection_status_ru": "обнаружено", "lon": 44.67388, "lat": 48.86379, "n_pixels": 3, "zone_area_km2": 0.0011, "cover_m2": 36.1, "p_mean": 0.8, "p_max": 0.906, "cover_m2_km2": 32818.2, "h3": "882d48a0a1fffff", "valid_frac_scene": 1.0, "wind_ms": 3.2, "sea": "спокойное", "scene_reliable": true, "field_event_id": "S4:DOORS3:T23", "field_profile": "B", "field_date": "2024-06-10", "field_distance_km": 764.8, "field_date_gap_days": 712, "field_conc_items_km2": 102.37, "conc_A_items_km2": null, "conc_A_lo80": null, "conc_A_hi80": null, "conc_A_lo95": null, "conc_A_hi95": null, "conc_A_status": "unavailable", "conc_A_status_ru": "концентрация недоступна", "conc_A_reasons": "вне бассейна профиля: nw_atlantic_subtropical", "conc_A_model": "conc-A-c6bce5631d2b", "conc_B_items_km2": null, "conc_B_lo80": null, "conc_B_hi80": null, "conc_B_lo95": null, "conc_B_hi95": null, "conc_B_status": "unavailable", "conc_B_status_ru": "концентрация недоступна", "conc_B_reasons": "вне бассейна профиля: black_sea", "conc_B_model": "conc-B-c6bce5631d2b"}}, {"type": "Feature", "geometry": {"type": "Polygon", "coordinates": [[[44.674253381499376, 48.84449125233607], [44.674253964928326, 48.844401295187474], [44.67411767182044, 48.844400910028945], [44.67411825549059, 48.84431095288017], [44.67439142440013, 48.844221765881066], [44.67439084122106, 48.8443117230337], [44.674527134090624, 48.8443121078688], [44.67452655115276, 48.84440206502121], [44.6743902580391, 48.8444016801849], [44.67438967485425, 48.8444916373347], [44.674253381499376, 48.84449125233607]]]}, "properties": {"zone_id": "volgograd-2026-05-23-010", "aoi": "volgograd", "date": "2026-05-23", "scene_id": "S2A_MSIL2A_20260523T081021_R078_T38UMV_20260523T113615", "scene_datetime_utc": "2026-05-23T08:10:21.024000+00:00", "detection_status": "detected", "detection_status_ru": "обнаружено", "lon": 44.67432, "lat": 48.84436, "n_pixels": 1, "zone_area_km2": 0.0005, "cover_m2": 2.7, "p_mean": 0.671, "p_max": 0.671, "cover_m2_km2": 5400.0, "h3": "882d48a199fffff", "valid_frac_scene": 1.0, "wind_ms": 3.2, "sea": "спокойное", "scene_reliable": true, "field_event_id": "S4:DOORS3:T23", "field_profile": "B", "field_date": "2024-06-10", "field_distance_km": 762.8, "field_date_gap_days": 712, "field_conc_items_km2": 102.37, "conc_A_items_km2": null, "conc_A_lo80": null, "conc_A_hi80": null, "conc_A_lo95": null, "conc_A_hi95": null, "conc_A_status": "unavailable", "conc_A_status_ru": "концентрация недоступна", "conc_A_reasons": "вне бассейна профиля: nw_atlantic_subtropical", "conc_A_model": "conc-A-c6bce5631d2b", "conc_B_items_km2": null, "conc_B_lo80": null, "conc_B_hi80": null, "conc_B_lo95": null, "conc_B_hi95": null, "conc_B_status": "unavailable", "conc_B_status_ru": "концентрация недоступна", "conc_B_reasons": "вне бассейна профиля: black_sea", "conc_B_model": "conc-B-c6bce5631d2b"}}, {"type": "Feature", "geometry": {"type": "Polygon", "coordinates": [[[44.70427929788283, 48.837555389095414], [44.70427982740515, 48.83746543158206], [44.7041435527267, 48.837465081954605], [44.70414461225148, 48.837285166925845], [44.70441768990545, 48.837195908496575], [44.704417160634996, 48.83728586601528], [44.70455343483069, 48.83728621531838], [44.70455237676993, 48.83746613035374], [44.70427929788283, 48.837555389095414]]]}, "properties": {"zone_id": "volgograd-2026-05-23-011", "aoi": "volgograd", "date": "2026-05-23", "scene_id": "S2A_MSIL2A_20260523T081021_R078_T38UMV_20260523T113615", "scene_datetime_utc": "2026-05-23T08:10:21.024000+00:00", "detection_status": "detected", "detection_status_ru": "обнаружено", "lon": 44.70435, "lat": 48.83738, "n_pixels": 2, "zone_area_km2": 0.0008, "cover_m2": 5.5, "p_mean": 0.745, "p_max": 0.749, "cover_m2_km2": 6875.0, "h3": "882d48ae69fffff", "valid_frac_scene": 1.0, "wind_ms": 3.2, "sea": "спокойное", "scene_reliable": true, "field_event_id": "S4:DOORS3:T23", "field_profile": "B", "field_date": "2024-06-10", "field_distance_km": 762.8, "field_date_gap_days": 712, "field_conc_items_km2": 102.37, "conc_A_items_km2": null, "conc_A_lo80": null, "conc_A_hi80": null, "conc_A_lo95": null, "conc_A_hi95": null, "conc_A_status": "unavailable", "conc_A_status_ru": "концентрация недоступна", "conc_A_reasons": "вне бассейна профиля: nw_atlantic_subtropical", "conc_A_model": "conc-A-c6bce5631d2b", "conc_B_items_km2": null, "conc_B_lo80": null, "conc_B_hi80": null, "conc_B_lo95": null, "conc_B_hi95": null, "conc_B_status": "unavailable", "conc_B_status_ru": "концентрация недоступна", "conc_B_reasons": "вне бассейна профиля: black_sea", "conc_B_model": "conc-B-c6bce5631d2b"}}, {"type": "Feature", "geometry": {"type": "Polygon", "coordinates": [[[44.53155333012061, 48.69799443845148], [44.53155416481825, 48.697904480559345], [44.531418269986176, 48.697903927938285], [44.53141910492181, 48.69781397004648], [44.53169172855312, 48.69772511722813], [44.53169089410585, 48.69781507512483], [44.53182678870406, 48.69781562742359], [44.53182595449479, 48.697905585320605], [44.53169005965446, 48.69790503302011], [44.53168922519894, 48.697994990913976], [44.53155333012061, 48.69799443845148]]]}, "properties": {"zone_id": "volgograd-2026-05-23-012", "aoi": "volgograd", "date": "2026-05-23", "scene_id": "S2A_MSIL2A_20260523T081021_R078_T38UMV_20260523T113615", "scene_datetime_utc": "2026-05-23T08:10:21.024000+00:00", "detection_status": "detected", "detection_status_ru": "обнаружено", "lon": 44.53162, "lat": 48.69786, "n_pixels": 1, "zone_area_km2": 0.0005, "cover_m2": 3.5, "p_mean": 0.643, "p_max": 0.643, "cover_m2_km2": 7000.0, "h3": "882d48b9bdfffff", "valid_frac_scene": 1.0, "wind_ms": 3.2, "sea": "спокойное", "scene_reliable": true, "field_event_id": "S4:DOORS3:T23", "field_profile": "B", "field_date": "2024-06-10", "field_distance_km": 744.0, "field_date_gap_days": 712, "field_conc_items_km2": 102.37, "conc_A_items_km2": null, "conc_A_lo80": null, "conc_A_hi80": null, "conc_A_lo95": null, "conc_A_hi95": null, "conc_A_status": "unavailable", "conc_A_status_ru": "концентрация недоступна", "conc_A_reasons": "вне бассейна профиля: nw_atlantic_subtropical", "conc_A_model": "conc-A-c6bce5631d2b", "conc_B_items_km2": null, "conc_B_lo80": null, "conc_B_hi80": null, "conc_B_lo95": null, "conc_B_hi95": null, "conc_B_status": "unavailable", "conc_B_status_ru": "концентрация недоступна", "conc_B_reasons": "вне бассейна профиля: black_sea", "conc_B_model": "conc-B-c6bce5631d2b"}}, {"type": "Feature", "geometry": {"type": "Polygon", "coordinates": [[[44.53644638151172, 48.69792426816901], [44.53644720748887, 48.69783431021324], [44.53631131275113, 48.69783376336409], [44.53631213896633, 48.6977438054086], [44.536584753688516, 48.69765494098284], [44.536583927961644, 48.6977448989432], [44.53671982246543, 48.69774544547007], [44.536718996976596, 48.697835403430716], [44.53658310223069, 48.69783485690212], [44.536582276495665, 48.69792481485962], [44.53644638151172, 48.69792426816901]]]}, "properties": {"zone_id": "volgograd-2026-05-23-013", "aoi": "volgograd", "date": "2026-05-23", "scene_id": "S2A_MSIL2A_20260523T081021_R078_T38UMV_20260523T113615", "scene_datetime_utc": "2026-05-23T08:10:21.024000+00:00", "detection_status": "detected", "detection_status_ru": "обнаружено", "lon": 44.53652, "lat": 48.69779, "n_pixels": 1, "zone_area_km2": 0.0005, "cover_m2": 3.1, "p_mean": 0.984, "p_max": 0.984, "cover_m2_km2": 6200.0, "h3": "882d48b9b1fffff", "valid_frac_scene": 1.0, "wind_ms": 3.2, "sea": "спокойное", "scene_reliable": true, "field_event_id": "S4:DOORS3:T23", "field_profile": "B", "field_date": "2024-06-10", "field_distance_km": 744.1, "field_date_gap_days": 712, "field_conc_items_km2": 102.37, "conc_A_items_km2": null, "conc_A_lo80": null, "conc_A_hi80": null, "conc_A_lo95": null, "conc_A_hi95": null, "conc_A_status": "unavailable", "conc_A_status_ru": "концентрация недоступна", "conc_A_reasons": "вне бассейна профиля: nw_atlantic_subtropical", "conc_A_model": "conc-A-c6bce5631d2b", "conc_B_items_km2": null, "conc_B_lo80": null, "conc_B_hi80": null, "conc_B_lo95": null, "conc_B_hi95": null, "conc_B_status": "unavailable", "conc_B_status_ru": "концентрация недоступна", "conc_B_reasons": "вне бассейна профиля: black_sea", "conc_B_model": "conc-B-c6bce5631d2b"}}]}