{"type": "FeatureCollection", "features": [{"type": "Feature", "geometry": {"type": "Polygon", "coordinates": [[[36.648139890848675, 45.124664209193895], [36.64814358851467, 45.124574267846974], [36.64801654104748, 45.124571650075545], [36.64802393672586, 45.12439176739303], [36.64815098379445, 45.12439438514812], [36.64815468140825, 45.124304443796206], [36.64828172829495, 45.12430706140192], [36.64828542569204, 45.124217120040186], [36.64853582212053, 45.124312296189714], [36.64852473102063, 45.124582120313946], [36.648397683501244, 45.12457950296616], [36.64839398623385, 45.12466944432943], [36.648139890848675, 45.124664209193895]]]}, "properties": {"zone_id": "kerch-2025-06-06-001", "aoi": "kerch", "date": "2025-06-06", "scene_id": "S2B_MSIL2A_20250606T082559_R021_T37TCK_20250606T112504", "scene_datetime_utc": "2025-06-06T08:25:59.024000+00:00", "detection_status": "detected", "detection_status_ru": "обнаружено", "lon": 36.64829, "lat": 45.12446, "n_pixels": 5, "zone_area_km2": 0.0014, "cover_m2": 36.9, "p_mean": 0.979, "p_max": 1.0, "cover_m2_km2": 26357.1, "h3": "882d76a855fffff", "valid_frac_scene": 0.979, "wind_ms": 4.5, "sea": "спокойное", "scene_reliable": false, "field_event_id": "S4:DOORS3:T11", "field_profile": "B", "field_date": "2024-06-04", "field_distance_km": 292.6, "field_date_gap_days": 367, "field_conc_items_km2": 62.52, "conc_A_items_km2": null, "conc_A_lo80": null, "conc_A_hi80": null, "conc_A_lo95": null, "conc_A_hi95": null, "conc_A_status": "unavailable", "conc_A_status_ru": "концентрация недоступна", "conc_A_reasons": "вне бассейна профиля: nw_atlantic_subtropical", "conc_A_model": "conc-A-c6bce5631d2b", "conc_B_items_km2": 621.6, "conc_B_lo80": 132.7, "conc_B_hi80": 2088.3, "conc_B_lo95": 82.8, "conc_B_hi95": 3910.2, "conc_B_status": "research_estimate", "conc_B_status_ru": "исследовательская оценка", "conc_B_reasons": "ближайшее полевое измерение в 293 км (> 60 км); log_dist_coast_km = 1.0 вне диапазона обучения [1.7; 5.0]", "conc_B_model": "conc-B-c6bce5631d2b"}}, {"type": "Feature", "geometry": {"type": "Polygon", "coordinates": [[[36.66673305805686, 45.12396557912201], [36.66673672641695, 45.12387563656804], [36.66660967881097, 45.123873039511246], [36.666617015877954, 45.12369315441453], [36.666744063085325, 45.123695751455145], [36.66674773139362, 45.12360580889621], [36.66687477841896, 45.1236084057875], [36.66687844651069, 45.12351846321881], [36.667128872521396, 45.12361359914645], [36.667117869338426, 45.123883426891176], [36.66699082168068, 45.12388083025801], [36.6669871537192, 45.12397077282817], [36.66673305805686, 45.12396557912201]]]}, "properties": {"zone_id": "kerch-2025-06-06-002", "aoi": "kerch", "date": "2025-06-06", "scene_id": "S2B_MSIL2A_20250606T082559_R021_T37TCK_20250606T112504", "scene_datetime_utc": "2025-06-06T08:25:59.024000+00:00", "detection_status": "detected", "detection_status_ru": "обнаружено", "lon": 36.66688, "lat": 45.12376, "n_pixels": 5, "zone_area_km2": 0.0014, "cover_m2": 65.1, "p_mean": 0.987, "p_max": 1.0, "cover_m2_km2": 46500.0, "h3": "882d76a81dfffff", "valid_frac_scene": 0.979, "wind_ms": 4.5, "sea": "спокойное", "scene_reliable": false, "field_event_id": "S4:DOORS3:T11", "field_profile": "B", "field_date": "2024-06-04", "field_distance_km": 292.6, "field_date_gap_days": 367, "field_conc_items_km2": 62.52, "conc_A_items_km2": null, "conc_A_lo80": null, "conc_A_hi80": null, "conc_A_lo95": null, "conc_A_hi95": null, "conc_A_status": "unavailable", "conc_A_status_ru": "концентрация недоступна", "conc_A_reasons": "вне бассейна профиля: nw_atlantic_subtropical", "conc_A_model": "conc-A-c6bce5631d2b", "conc_B_items_km2": 621.6, "conc_B_lo80": 132.7, "conc_B_hi80": 2088.3, "conc_B_lo95": 82.8, "conc_B_hi95": 3910.2, "conc_B_status": "research_estimate", "conc_B_status_ru": "исследовательская оценка", "conc_B_reasons": "ближайшее полевое измерение в 293 км (> 60 км); log_dist_coast_km = 1.0 вне диапазона обучения [1.7; 5.0]", "conc_B_model": "conc-B-c6bce5631d2b"}}, {"type": "Feature", "geometry": {"type": "Polygon", "coordinates": [[[36.66155837710759, 45.11368769590473], [36.66156205228226, 45.11359775352022], [36.661435027951406, 45.113595151167274], [36.66144605396922, 45.11332532402808], [36.6615730777025, 45.11332792635668], [36.661576752807996, 45.11323798396552], [36.66183079992804, 45.113243188183], [36.66182712522092, 45.113333130590384], [36.66195414900607, 45.11333573249551], [36.66194679993834, 45.11351561732153], [36.66168907663039, 45.11360035573199], [36.661685401654914, 45.11369029812463], [36.66155837710759, 45.11368769590473]]]}, "properties": {"zone_id": "kerch-2025-06-06-003", "aoi": "kerch", "date": "2025-06-06", "scene_id": "S2B_MSIL2A_20250606T082559_R021_T37TCK_20250606T112504", "scene_datetime_utc": "2025-06-06T08:25:59.024000+00:00", "detection_status": "detected", "detection_status_ru": "обнаружено", "lon": 36.66168, "lat": 45.11345, "n_pixels": 5, "zone_area_km2": 0.0014, "cover_m2": 38.8, "p_mean": 0.991, "p_max": 1.0, "cover_m2_km2": 27714.3, "h3": "882d76a801fffff", "valid_frac_scene": 0.979, "wind_ms": 4.5, "sea": "спокойное", "scene_reliable": false, "field_event_id": "S4:DOORS3:T11", "field_profile": "B", "field_date": "2024-06-04", "field_distance_km": 291.4, "field_date_gap_days": 367, "field_conc_items_km2": 62.52, "conc_A_items_km2": null, "conc_A_lo80": null, "conc_A_hi80": null, "conc_A_lo95": null, "conc_A_hi95": null, "conc_A_status": "unavailable", "conc_A_status_ru": "концентрация недоступна", "conc_A_reasons": "вне бассейна профиля: nw_atlantic_subtropical", "conc_A_model": "conc-A-c6bce5631d2b", "conc_B_items_km2": 621.6, "conc_B_lo80": 132.7, "conc_B_hi80": 2088.3, "conc_B_lo95": 82.8, "conc_B_hi95": 3910.2, "conc_B_status": "research_estimate", "conc_B_status_ru": "исследовательская оценка", "conc_B_reasons": "ближайшее полевое измерение в 291 км (> 60 км); log_dist_coast_km = 1.0 вне диапазона обучения [1.7; 5.0]", "conc_B_model": "conc-B-c6bce5631d2b"}}, {"type": "Feature", "geometry": {"type": "Polygon", "coordinates": [[[36.65967140161285, 45.1131989343365], [36.65967507968887, 45.11310899206546], [36.65954805661345, 45.11310638763572], [36.65956276954119, 45.11274661856747], [36.659689791819865, 45.11274922296473], [36.65969346980935, 45.112659280685406], [36.65994751402025, 45.11266448904022], [36.659943836429136, 45.112754431335794], [36.660070858759724, 45.11275703530959], [36.660063503923936, 45.112936919912], [36.659936481194975, 45.11293431592197], [36.6599291258916, 45.1131142005015], [36.65967140161285, 45.1131989343365]]]}, "properties": {"zone_id": "kerch-2025-06-06-004", "aoi": "kerch", "date": "2025-06-06", "scene_id": "S2B_MSIL2A_20250606T082559_R021_T37TCK_20250606T112504", "scene_datetime_utc": "2025-06-06T08:25:59.024000+00:00", "detection_status": "detected", "detection_status_ru": "обнаружено", "lon": 36.65979, "lat": 45.1129, "n_pixels": 6, "zone_area_km2": 0.0017, "cover_m2": 60.4, "p_mean": 0.903, "p_max": 0.996, "cover_m2_km2": 35529.4, "h3": "882d76a801fffff", "valid_frac_scene": 0.979, "wind_ms": 4.5, "sea": "спокойное", "scene_reliable": false, "field_event_id": "S4:DOORS3:T11", "field_profile": "B", "field_date": "2024-06-04", "field_distance_km": 291.3, "field_date_gap_days": 367, "field_conc_items_km2": 62.52, "conc_A_items_km2": null, "conc_A_lo80": null, "conc_A_hi80": null, "conc_A_lo95": null, "conc_A_hi95": null, "conc_A_status": "unavailable", "conc_A_status_ru": "концентрация недоступна", "conc_A_reasons": "вне бассейна профиля: nw_atlantic_subtropical", "conc_A_model": "conc-A-c6bce5631d2b", "conc_B_items_km2": 621.6, "conc_B_lo80": 132.7, "conc_B_hi80": 2088.3, "conc_B_lo95": 82.8, "conc_B_hi95": 3910.2, "conc_B_status": "research_estimate", "conc_B_status_ru": "исследовательская оценка", "conc_B_reasons": "ближайшее полевое измерение в 291 км (> 60 км); log_dist_coast_km = 1.0 вне диапазона обучения [1.7; 5.0]", "conc_B_model": "conc-B-c6bce5631d2b"}}, {"type": "Feature", "geometry": {"type": "Polygon", "coordinates": [[[37.15835588821249, 44.995947388474875], [37.15835877105426, 44.9958574157152], [37.15797835869665, 44.99585127861141], [37.15798124211954, 44.99576130586931], [37.157854438225655, 44.995759259892985], [37.157857321833205, 44.9956692871557], [37.15798412552887, 44.99567133312564], [37.15798700892464, 44.9955813603804], [37.15862102661512, 44.99559158808741], [37.158618144210436, 44.99568156086454], [37.158744947987394, 44.99568360599018], [37.15873918353382, 44.995863551552524], [37.15861237936042, 44.99586150641413], [37.15860949691508, 44.995951479186566], [37.15835588821249, 44.995947388474875]]]}, "properties": {"zone_id": "kerch-2025-06-06-005", "aoi": "kerch", "date": "2025-06-06", "scene_id": "S2B_MSIL2A_20250606T082559_R021_T37TCK_20250606T112504", "scene_datetime_utc": "2025-06-06T08:25:59.024000+00:00", "detection_status": "detected", "detection_status_ru": "обнаружено", "lon": 37.15835, "lat": 44.99575, "n_pixels": 7, "zone_area_km2": 0.002, "cover_m2": 21.2, "p_mean": 0.813, "p_max": 0.965, "cover_m2_km2": 10600.0, "h3": "882d7621e7fffff", "valid_frac_scene": 0.979, "wind_ms": 4.5, "sea": "спокойное", "scene_reliable": false, "field_event_id": "S4:DOORS3:T11", "field_profile": "B", "field_date": "2024-06-04", "field_distance_km": 281.0, "field_date_gap_days": 367, "field_conc_items_km2": 62.52, "conc_A_items_km2": null, "conc_A_lo80": null, "conc_A_hi80": null, "conc_A_lo95": null, "conc_A_hi95": null, "conc_A_status": "unavailable", "conc_A_status_ru": "концентрация недоступна", "conc_A_reasons": "вне бассейна профиля: nw_atlantic_subtropical", "conc_A_model": "conc-A-c6bce5631d2b", "conc_B_items_km2": 541.4, "conc_B_lo80": 115.5, "conc_B_hi80": 1819.3, "conc_B_lo95": 72.0, "conc_B_hi95": 3406.6, "conc_B_status": "research_estimate", "conc_B_status_ru": "исследовательская оценка", "conc_B_reasons": "ближайшее полевое измерение в 281 км (> 60 км)", "conc_B_model": "conc-B-c6bce5631d2b"}}, {"type": "Feature", "geometry": {"type": "Polygon", "coordinates": [[[36.55318115395831, 44.97521775656345], [36.5531849808507, 44.975127819110554], [36.55305827261621, 44.97512510272023], [36.55306975377861, 44.97485529037687], [36.553326995702214, 44.97477078549818], [36.55332316907941, 44.97486072296627], [36.55344987675678, 44.97486343905028], [36.553446050313696, 44.974953376525164], [36.55357275820673, 44.9749560924772], [36.55356510566202, 44.97513596743884], [36.55343839737361, 44.97513325146986], [36.553434570876604, 44.9752231889397], [36.55318115395831, 44.97521775656345]]]}, "properties": {"zone_id": "kerch-2025-06-06-006", "aoi": "kerch", "date": "2025-06-06", "scene_id": "S2B_MSIL2A_20250606T082559_R021_T37TCK_20250606T112504", "scene_datetime_utc": "2025-06-06T08:25:59.024000+00:00", "detection_status": "detected", "detection_status_ru": "обнаружено", "lon": 36.5533, "lat": 44.97501, "n_pixels": 5, "zone_area_km2": 0.0014, "cover_m2": 92.9, "p_mean": 0.909, "p_max": 0.992, "cover_m2_km2": 66357.1, "h3": "882d7615c9fffff", "valid_frac_scene": 0.979, "wind_ms": 4.5, "sea": "спокойное", "scene_reliable": false, "field_event_id": "S4:DOORS3:T11", "field_profile": "B", "field_date": "2024-06-04", "field_distance_km": 276.2, "field_date_gap_days": 367, "field_conc_items_km2": 62.52, "conc_A_items_km2": null, "conc_A_lo80": null, "conc_A_hi80": null, "conc_A_lo95": null, "conc_A_hi95": null, "conc_A_status": "unavailable", "conc_A_status_ru": "концентрация недоступна", "conc_A_reasons": "вне бассейна профиля: nw_atlantic_subtropical", "conc_A_model": "conc-A-c6bce5631d2b", "conc_B_items_km2": 335.1, "conc_B_lo80": 71.2, "conc_B_hi80": 1127.0, "conc_B_lo95": 44.2, "conc_B_hi95": 2110.6, "conc_B_status": "research_estimate", "conc_B_status_ru": "исследовательская оценка", "conc_B_reasons": "ближайшее полевое измерение в 276 км (> 60 км)", "conc_B_model": "conc-B-c6bce5631d2b"}}, {"type": "Feature", "geometry": {"type": "Polygon", "coordinates": [[[36.95576785947586, 44.96675396190188], [36.95577105606058, 44.9666639994902], [36.95551760693359, 44.966659460676816], [36.95552080389894, 44.96656949827768], [36.955394079555795, 44.966567228667294], [36.95539727670395, 44.96647726627362], [36.955524000849266, 44.96647953587694], [36.955527197784576, 44.96638957347461], [36.95590736971718, 44.96639638142016], [36.95590417337534, 44.966486343843734], [36.956284346036554, 44.9664931505458], [36.95628115027316, 44.96658311298901], [36.95640787472142, 44.96658538161573], [36.95640467914084, 44.966675344064406], [36.95627795449475, 44.96667307543062], [36.95627475870133, 44.96676303787062], [36.95576785947586, 44.96675396190188]]]}, "properties": {"zone_id": "kerch-2025-06-06-007", "aoi": "kerch", "date": "2025-06-06", "scene_id": "S2B_MSIL2A_20250606T082559_R021_T37TCK_20250606T112504", "scene_datetime_utc": "2025-06-06T08:25:59.024000+00:00", "detection_status": "detected", "detection_status_ru": "обнаружено", "lon": 36.95589, "lat": 44.96658, "n_pixels": 7, "zone_area_km2": 0.0021, "cover_m2": 6.7, "p_mean": 0.818, "p_max": 0.957, "cover_m2_km2": 3190.5, "h3": "882d763aadfffff", "valid_frac_scene": 0.979, "wind_ms": 4.5, "sea": "спокойное", "scene_reliable": false, "field_event_id": "S4:DOORS3:T11", "field_profile": "B", "field_date": "2024-06-04", "field_distance_km": 276.0, "field_date_gap_days": 367, "field_conc_items_km2": 62.52, "conc_A_items_km2": null, "conc_A_lo80": null, "conc_A_hi80": null, "conc_A_lo95": null, "conc_A_hi95": null, "conc_A_status": "unavailable", "conc_A_status_ru": "концентрация недоступна", "conc_A_reasons": "вне бассейна профиля: nw_atlantic_subtropical", "conc_A_model": "conc-A-c6bce5631d2b", "conc_B_items_km2": 360.2, "conc_B_lo80": 76.5, "conc_B_hi80": 1211.0, "conc_B_lo95": 47.6, "conc_B_hi95": 2267.9, "conc_B_status": "research_estimate", "conc_B_status_ru": "исследовательская оценка", "conc_B_reasons": "ближайшее полевое измерение в 276 км (> 60 км)", "conc_B_model": "conc-B-c6bce5631d2b"}}, {"type": "Feature", "geometry": {"type": "Polygon", "coordinates": [[[37.2775807702628, 44.95468895960357], [37.27758346265839, 44.95459898035639], [37.27733271253453, 44.95450517734794], [37.27733809805383, 44.95432521886966], [37.27746481890522, 44.954327130807876], [37.277467511448044, 44.954237151560456], [37.27771826064593, 44.95433095426266], [37.277715568486144, 44.95442093352046], [37.277842289573314, 44.95442284504299], [37.27783690561147, 44.95460280356587], [37.2775807702628, 44.95468895960357]]]}, "properties": {"zone_id": "kerch-2025-06-06-008", "aoi": "kerch", "date": "2025-06-06", "scene_id": "S2B_MSIL2A_20250606T082559_R021_T37TCK_20250606T112504", "scene_datetime_utc": "2025-06-06T08:25:59.024000+00:00", "detection_status": "detected", "detection_status_ru": "обнаружено", "lon": 37.27759, "lat": 44.95446, "n_pixels": 4, "zone_area_km2": 0.0012, "cover_m2": 7.5, "p_mean": 0.864, "p_max": 0.929, "cover_m2_km2": 6250.0, "h3": "882d762d45fffff", "valid_frac_scene": 0.979, "wind_ms": 4.5, "sea": "спокойное", "scene_reliable": false, "field_event_id": "S4:DOORS3:T11", "field_profile": "B", "field_date": "2024-06-04", "field_distance_km": 277.9, "field_date_gap_days": 367, "field_conc_items_km2": 62.52, "conc_A_items_km2": null, "conc_A_lo80": null, "conc_A_hi80": null, "conc_A_lo95": null, "conc_A_hi95": null, "conc_A_status": "unavailable", "conc_A_status_ru": "концентрация недоступна", "conc_A_reasons": "вне бассейна профиля: nw_atlantic_subtropical", "conc_A_model": "conc-A-c6bce5631d2b", "conc_B_items_km2": 669.7, "conc_B_lo80": 143.0, "conc_B_hi80": 2249.9, "conc_B_lo95": 89.2, "conc_B_hi95": 4212.7, "conc_B_status": "research_estimate", "conc_B_status_ru": "исследовательская оценка", "conc_B_reasons": "ближайшее полевое измерение в 278 км (> 60 км); log_dist_coast_km = 0.8 вне диапазона обучения [1.7; 5.0]", "conc_B_model": "conc-B-c6bce5631d2b"}}, {"type": "Feature", "geometry": {"type": "Polygon", "coordinates": [[[37.2792015693263, 44.89620021395548], [37.27920425371215, 44.8961102337065], [37.279077660670836, 44.896108325623665], [37.27908302979922, 44.89592836513298], [37.279209622446054, 44.8959302732039], [37.2792123067941, 44.895840292950275], [37.279338899256295, 44.89584220087499], [37.2793415833945, 44.89575222061387], [37.27959208421849, 44.895846016303636], [37.27958940046217, 44.89593599657512], [37.27946280777753, 44.895934088924975], [37.27946012381137, 44.89602406918895], [37.279586716693245, 44.896025976845046], [37.27958403291172, 44.89611595711344], [37.2794574398326, 44.896114049451384], [37.27945475584123, 44.89620402971227], [37.2792015693263, 44.89620021395548]]]}, "properties": {"zone_id": "kerch-2025-06-06-009", "aoi": "kerch", "date": "2025-06-06", "scene_id": "S2B_MSIL2A_20250606T082559_R021_T37TCK_20250606T112504", "scene_datetime_utc": "2025-06-06T08:25:59.024000+00:00", "detection_status": "detected", "detection_status_ru": "обнаружено", "lon": 37.27933, "lat": 44.896, "n_pixels": 4, "zone_area_km2": 0.0013, "cover_m2": 22.0, "p_mean": 0.675, "p_max": 0.741, "cover_m2_km2": 16923.1, "h3": "882d729245fffff", "valid_frac_scene": 0.979, "wind_ms": 4.5, "sea": "спокойное", "scene_reliable": false, "field_event_id": "S4:DOORS3:T11", "field_profile": "B", "field_date": "2024-06-04", "field_distance_km": 271.6, "field_date_gap_days": 367, "field_conc_items_km2": 62.52, "conc_A_items_km2": null, "conc_A_lo80": null, "conc_A_hi80": null, "conc_A_lo95": null, "conc_A_hi95": null, "conc_A_status": "unavailable", "conc_A_status_ru": "концентрация недоступна", "conc_A_reasons": "вне бассейна профиля: nw_atlantic_subtropical", "conc_A_model": "conc-A-c6bce5631d2b", "conc_B_items_km2": 541.4, "conc_B_lo80": 115.5, "conc_B_hi80": 1819.3, "conc_B_lo95": 72.0, "conc_B_hi95": 3406.6, "conc_B_status": "research_estimate", "conc_B_status_ru": "исследовательская оценка", "conc_B_reasons": "ближайшее полевое измерение в 272 км (> 60 км)", "conc_B_model": "conc-B-c6bce5631d2b"}}, {"type": "Feature", "geometry": {"type": "Polygon", "coordinates": [[[37.27621711507633, 44.89435477869832], [37.27621980394351, 44.89426479856133], [37.276093215149594, 44.89426288723152], [37.27609590420137, 44.89417290709893], [37.27635177005209, 44.89408674946033], [37.276354458684175, 44.89399676931272], [37.27648104691167, 44.893998680344154], [37.27648373533391, 44.89390870018902], [37.27673422340453, 44.89400250198626], [37.27672884731106, 44.89418246231569], [37.27660225866388, 44.89418055155284], [37.27659957040099, 44.89427053170928], [37.276472981569206, 44.894268620800226], [37.27647029309648, 44.894358600949126], [37.27621711507633, 44.89435477869832]]]}, "properties": {"zone_id": "kerch-2025-06-06-010", "aoi": "kerch", "date": "2025-06-06", "scene_id": "S2B_MSIL2A_20250606T082559_R021_T37TCK_20250606T112504", "scene_datetime_utc": "2025-06-06T08:25:59.024000+00:00", "detection_status": "detected", "detection_status_ru": "обнаружено", "lon": 37.27644, "lat": 44.89415, "n_pixels": 5, "zone_area_km2": 0.0014, "cover_m2": 18.8, "p_mean": 0.776, "p_max": 0.937, "cover_m2_km2": 13428.6, "h3": "882d762993fffff", "valid_frac_scene": 0.979, "wind_ms": 4.5, "sea": "спокойное", "scene_reliable": false, "field_event_id": "S4:DOORS3:T11", "field_profile": "B", "field_date": "2024-06-04", "field_distance_km": 271.3, "field_date_gap_days": 367, "field_conc_items_km2": 62.52, "conc_A_items_km2": null, "conc_A_lo80": null, "conc_A_hi80": null, "conc_A_lo95": null, "conc_A_hi95": null, "conc_A_status": "unavailable", "conc_A_status_ru": "концентрация недоступна", "conc_A_reasons": "вне бассейна профиля: nw_atlantic_subtropical", "conc_A_model": "conc-A-c6bce5631d2b", "conc_B_items_km2": 541.4, "conc_B_lo80": 115.5, "conc_B_hi80": 1819.3, "conc_B_lo95": 72.0, "conc_B_hi95": 3406.6, "conc_B_status": "research_estimate", "conc_B_status_ru": "исследовательская оценка", "conc_B_reasons": "ближайшее полевое измерение в 271 км (> 60 км)", "conc_B_model": "conc-B-c6bce5631d2b"}}]}