{"type": "FeatureCollection", "features": [{"type": "Feature", "geometry": {"type": "Polygon", "coordinates": [[[39.74578537834825, 43.55284128120024], [39.74578426804539, 43.55275124667105], [39.74566047619759, 43.55275205413193], [39.745658255975805, 43.552571985064155], [39.745782047455094, 43.55257117760834], [39.74578093716765, 43.552481143074814], [39.746028519742296, 43.55247952776619], [39.74602963039825, 43.55256956229466], [39.74615342186211, 43.552568754436784], [39.74615564355794, 43.55274882348436], [39.74603185172557, 43.55274963134728], [39.74603296239694, 43.5528396658714], [39.74578537834825, 43.55284128120024]]]}, "properties": {"zone_id": "sochi-2026-03-12-001", "aoi": "sochi", "date": "2026-03-12", "scene_id": "S2C_MSIL2A_20260312T080731_R078_T37TEJ_20260312T115509", "scene_datetime_utc": "2026-03-12T08:07:31.025000+00:00", "detection_status": "detected", "detection_status_ru": "обнаружено", "lon": 39.74591, "lat": 43.55266, "n_pixels": 4, "zone_area_km2": 0.0012, "cover_m2": 22.7, "p_mean": 0.956, "p_max": 1.0, "cover_m2_km2": 18916.7, "h3": "882d568e05fffff", "valid_frac_scene": 0.999, "wind_ms": 3.2, "sea": "спокойное", "scene_reliable": true, "field_event_id": "S4:DOORS3:T17", "field_profile": "B", "field_date": "2024-06-04", "field_distance_km": 183.8, "field_date_gap_days": 646, "field_conc_items_km2": 89.61, "conc_A_items_km2": null, "conc_A_lo80": null, "conc_A_hi80": null, "conc_A_lo95": null, "conc_A_hi95": null, "conc_A_status": "unavailable", "conc_A_status_ru": "концентрация недоступна", "conc_A_reasons": "вне бассейна профиля: nw_atlantic_subtropical", "conc_A_model": "conc-A-c6bce5631d2b", "conc_B_items_km2": 621.6, "conc_B_lo80": 132.7, "conc_B_hi80": 2088.3, "conc_B_lo95": 82.8, "conc_B_hi95": 3910.2, "conc_B_status": "research_estimate", "conc_B_status_ru": "исследовательская оценка", "conc_B_reasons": "ближайшее полевое измерение в 184 км (> 60 км); месяц 3 вне месяцев обучения [6]; log_dist_coast_km = 1.0 вне диапазона обучения [1.7; 5.0]", "conc_B_model": "conc-B-c6bce5631d2b"}}, {"type": "Feature", "geometry": {"type": "Polygon", "coordinates": [[[39.74464131827349, 43.5504176101374], [39.74464020976752, 43.55032757554648], [39.74451642284809, 43.5503283817331], [39.74451420622002, 43.55014831254186], [39.74476067064201, 43.55005666545194], [39.74476177931682, 43.55014670004468], [39.74488556585751, 43.55014589359508], [39.744887783590976, 43.55032596277119], [39.74464131827349, 43.5504176101374]]]}, "properties": {"zone_id": "sochi-2026-03-12-002", "aoi": "sochi", "date": "2026-03-12", "scene_id": "S2C_MSIL2A_20260312T080731_R078_T37TEJ_20260312T115509", "scene_datetime_utc": "2026-03-12T08:07:31.025000+00:00", "detection_status": "detected", "detection_status_ru": "обнаружено", "lon": 39.7447, "lat": 43.55024, "n_pixels": 2, "zone_area_km2": 0.0008, "cover_m2": 15.3, "p_mean": 0.806, "p_max": 0.984, "cover_m2_km2": 19125.0, "h3": "882d568e05fffff", "valid_frac_scene": 0.999, "wind_ms": 3.2, "sea": "спокойное", "scene_reliable": true, "field_event_id": "S4:DOORS3:T17", "field_profile": "B", "field_date": "2024-06-04", "field_distance_km": 183.5, "field_date_gap_days": 646, "field_conc_items_km2": 89.61, "conc_A_items_km2": null, "conc_A_lo80": null, "conc_A_hi80": null, "conc_A_lo95": null, "conc_A_hi95": null, "conc_A_status": "unavailable", "conc_A_status_ru": "концентрация недоступна", "conc_A_reasons": "вне бассейна профиля: nw_atlantic_subtropical", "conc_A_model": "conc-A-c6bce5631d2b", "conc_B_items_km2": 621.6, "conc_B_lo80": 132.7, "conc_B_hi80": 2088.3, "conc_B_lo95": 82.8, "conc_B_hi95": 3910.2, "conc_B_status": "research_estimate", "conc_B_status_ru": "исследовательская оценка", "conc_B_reasons": "ближайшее полевое измерение в 183 км (> 60 км); месяц 3 вне месяцев обучения [6]; log_dist_coast_km = 1.0 вне диапазона обучения [1.7; 5.0]", "conc_B_model": "conc-B-c6bce5631d2b"}}, {"type": "Feature", "geometry": {"type": "Polygon", "coordinates": [[[39.91792689581721, 43.40959143485402], [39.917925536069404, 43.409501401995556], [39.917802041748736, 43.40950239324333], [39.91780068219009, 43.40941236038028], [39.917924176327894, 43.409411369135626], [39.91792281659266, 43.40932133627423], [39.91816980448366, 43.40931935339109], [39.918171164584635, 43.409409386246274], [39.918294658703566, 43.40940839460159], [39.9182960189937, 43.40949842745221], [39.91817252469189, 43.40949941910001], [39.91817388480544, 43.40958945195227], [39.91792689581721, 43.40959143485402]]]}, "properties": {"zone_id": "sochi-2026-03-12-003", "aoi": "sochi", "date": "2026-03-12", "scene_id": "S2C_MSIL2A_20260312T080731_R078_T37TEJ_20260312T115509", "scene_datetime_utc": "2026-03-12T08:07:31.025000+00:00", "detection_status": "detected", "detection_status_ru": "обнаружено", "lon": 39.91805, "lat": 43.40946, "n_pixels": 2, "zone_area_km2": 0.0008, "cover_m2": 20.0, "p_mean": 0.955, "p_max": 0.969, "cover_m2_km2": 25000.0, "h3": "882d5610c1fffff", "valid_frac_scene": 0.999, "wind_ms": 3.2, "sea": "спокойное", "scene_reliable": true, "field_event_id": "S4:DOORS3:T23", "field_profile": "B", "field_date": "2024-06-10", "field_distance_km": 178.2, "field_date_gap_days": 640, "field_conc_items_km2": 102.37, "conc_A_items_km2": null, "conc_A_lo80": null, "conc_A_hi80": null, "conc_A_lo95": null, "conc_A_hi95": null, "conc_A_status": "unavailable", "conc_A_status_ru": "концентрация недоступна", "conc_A_reasons": "вне бассейна профиля: nw_atlantic_subtropical", "conc_A_model": "conc-A-c6bce5631d2b", "conc_B_items_km2": 901.4, "conc_B_lo80": 192.7, "conc_B_hi80": 3027.3, "conc_B_lo95": 120.4, "conc_B_hi95": 5668.0, "conc_B_status": "research_estimate", "conc_B_status_ru": "исследовательская оценка", "conc_B_reasons": "ближайшее полевое измерение в 178 км (> 60 км); месяц 3 вне месяцев обучения [6]; log_dist_coast_km = 0.0 вне диапазона обучения [1.7; 5.0]", "conc_B_model": "conc-B-c6bce5631d2b"}}]}