{"type": "FeatureCollection", "features": [{"type": "Feature", "geometry": {"type": "Polygon", "coordinates": [[[131.80327765381924, 43.14191944590072], [131.80327354133578, 43.14182950519831], [131.8031507187296, 43.1418325166207], [131.80313838193166, 43.141562694474835], [131.80301555984533, 43.14156570573733], [131.80301144779685, 43.14147576500915], [131.80313426970355, 43.14147275375607], [131.8031301574944, 43.14138281303558], [131.80337580089176, 43.14137679015324], [131.80337991346013, 43.1414667308549], [131.80350273531, 43.14146371920681], [131.80351096086278, 43.14164360058612], [131.8036337830529, 43.141640588787546], [131.80363789603732, 43.14173052946517], [131.80351507366757, 43.14173354127318], [131.80351918649131, 43.1418234819585], [131.80327765381924, 43.14191944590072]]]}, "properties": {"zone_id": "vladivostok-2026-06-02-001", "aoi": "vladivostok", "date": "2026-06-02", "scene_id": "S2C_MSIL2A_20260602T020651_R103_T52TGN_20260602T053610", "scene_datetime_utc": "2026-06-02T02:06:51.025000+00:00", "detection_status": "detected", "detection_status_ru": "обнаружено", "lon": 131.80333, "lat": 43.14163, "n_pixels": 6, "zone_area_km2": 0.0017, "cover_m2": 48.2, "p_mean": 0.824, "p_max": 0.988, "cover_m2_km2": 28352.9, "h3": "88316c558bfffff", "valid_frac_scene": 1.0, "wind_ms": 7.5, "sea": "волнение", "scene_reliable": false, "field_event_id": "S4:DOORS3:T23", "field_profile": "B", "field_date": "2024-06-10", "field_distance_km": 6975.4, "field_date_gap_days": 722, "field_conc_items_km2": 102.37, "conc_A_items_km2": null, "conc_A_lo80": null, "conc_A_hi80": null, "conc_A_lo95": null, "conc_A_hi95": null, "conc_A_status": "unavailable", "conc_A_status_ru": "концентрация недоступна", "conc_A_reasons": "вне бассейна профиля: nw_atlantic_subtropical", "conc_A_model": "conc-A-c6bce5631d2b", "conc_B_items_km2": null, "conc_B_lo80": null, "conc_B_hi80": null, "conc_B_lo95": null, "conc_B_hi95": null, "conc_B_status": "unavailable", "conc_B_status_ru": "концентрация недоступна", "conc_B_reasons": "вне бассейна профиля: black_sea", "conc_B_model": "conc-B-c6bce5631d2b"}}, {"type": "Feature", "geometry": {"type": "Polygon", "coordinates": [[[131.80334290102692, 43.140657264477426], [131.80333878862908, 43.14056732376014], [131.80321596855626, 43.140570335182446], [131.80321185635694, 43.14048039445402], [131.8029621046925, 43.14039647613584], [131.80294976934263, 43.140126653878475], [131.80282695011095, 43.140129664858726], [131.80282283854515, 43.1400397240934], [131.8030643647243, 43.139943761271795], [131.80306025283716, 43.139853820521814], [131.80331000237453, 43.1399377386906], [131.8033141146398, 43.14002767942001], [131.80343693361607, 43.14002466792251], [131.80344104607983, 43.140114608640786], [131.80331822692395, 43.14011762014769], [131.8033223392271, 43.14020756087367], [131.80357209056038, 43.14029147841474], [131.80357620326058, 43.14038141911839], [131.80369902291736, 43.14037840731991], [131.80370724873382, 43.14055828870321], [131.80358442871784, 43.14056130052052], [131.80358854147488, 43.14065124121898], [131.80334290102692, 43.140657264477426]]]}, "properties": {"zone_id": "vladivostok-2026-06-02-002", "aoi": "vladivostok", "date": "2026-06-02", "scene_id": "S2C_MSIL2A_20260602T020651_R103_T52TGN_20260602T053610", "scene_datetime_utc": "2026-06-02T02:06:51.025000+00:00", "detection_status": "detected", "detection_status_ru": "обнаружено", "lon": 131.80326, "lat": 43.14027, "n_pixels": 14, "zone_area_km2": 0.0032, "cover_m2": 121.6, "p_mean": 0.94, "p_max": 0.996, "cover_m2_km2": 38000.0, "h3": "88316c558bfffff", "valid_frac_scene": 1.0, "wind_ms": 7.5, "sea": "волнение", "scene_reliable": false, "field_event_id": "S4:DOORS3:T23", "field_profile": "B", "field_date": "2024-06-10", "field_distance_km": 6975.5, "field_date_gap_days": 722, "field_conc_items_km2": 102.37, "conc_A_items_km2": null, "conc_A_lo80": null, "conc_A_hi80": null, "conc_A_lo95": null, "conc_A_hi95": null, "conc_A_status": "unavailable", "conc_A_status_ru": "концентрация недоступна", "conc_A_reasons": "вне бассейна профиля: nw_atlantic_subtropical", "conc_A_model": "conc-A-c6bce5631d2b", "conc_B_items_km2": null, "conc_B_lo80": null, "conc_B_hi80": null, "conc_B_lo95": null, "conc_B_hi95": null, "conc_B_status": "unavailable", "conc_B_status_ru": "концентрация недоступна", "conc_B_reasons": "вне бассейна профиля: black_sea", "conc_B_model": "conc-B-c6bce5631d2b"}}, {"type": "Feature", "geometry": {"type": "Polygon", "coordinates": [[[131.66997423917587, 43.11053382946748], [131.66997032639884, 43.11044387824827], [131.66984755289047, 43.1104467449107], [131.66984364031086, 43.110356793680836], [131.66996641363983, 43.11035392702733], [131.66996250089883, 43.11026397580471], [131.6704535933169, 43.110252507910836], [131.67045750677548, 43.11034245909762], [131.67058028001435, 43.11033959178628], [131.67058419367035, 43.11042954296238], [131.6704614202521, 43.110432410282705], [131.67046533374673, 43.11052236146608], [131.66997423917587, 43.11053382946748]]]}, "properties": {"zone_id": "vladivostok-2026-06-02-003", "aoi": "vladivostok", "date": "2026-06-02", "scene_id": "S2C_MSIL2A_20260602T020651_R103_T52TGN_20260602T053610", "scene_datetime_utc": "2026-06-02T02:06:51.025000+00:00", "detection_status": "detected", "detection_status_ru": "обнаружено", "lon": 131.67021, "lat": 43.11039, "n_pixels": 4, "zone_area_km2": 0.0014, "cover_m2": 16.5, "p_mean": 0.812, "p_max": 0.875, "cover_m2_km2": 11785.7, "h3": "88316c403bfffff", "valid_frac_scene": 1.0, "wind_ms": 7.5, "sea": "волнение", "scene_reliable": false, "field_event_id": "S4:DOORS3:T23", "field_profile": "B", "field_date": "2024-06-10", "field_distance_km": 6968.3, "field_date_gap_days": 722, "field_conc_items_km2": 102.37, "conc_A_items_km2": null, "conc_A_lo80": null, "conc_A_hi80": null, "conc_A_lo95": null, "conc_A_hi95": null, "conc_A_status": "unavailable", "conc_A_status_ru": "концентрация недоступна", "conc_A_reasons": "вне бассейна профиля: nw_atlantic_subtropical", "conc_A_model": "conc-A-c6bce5631d2b", "conc_B_items_km2": null, "conc_B_lo80": null, "conc_B_hi80": null, "conc_B_lo95": null, "conc_B_hi95": null, "conc_B_status": "unavailable", "conc_B_status_ru": "концентрация недоступна", "conc_B_reasons": "вне бассейна профиля: black_sea", "conc_B_model": "conc-B-c6bce5631d2b"}}, {"type": "Feature", "geometry": {"type": "Polygon", "coordinates": [[[131.86955888576372, 43.07895673528782], [131.86955468537025, 43.07886679875761], [131.86943199564294, 43.07886987774334], [131.86942359527202, 43.07869000465841], [131.86954628464133, 43.07868692569192], [131.8695420843059, 43.078596989156466], [131.86978746262852, 43.078590830848675], [131.86979166332196, 43.07868076736488], [131.86991435263326, 43.07867768800431], [131.86992275443612, 43.078857561012256], [131.86980006476682, 43.07886064039207], [131.86980426551827, 43.07895057690303], [131.86955888576372, 43.07895673528782]]]}, "properties": {"zone_id": "vladivostok-2026-06-02-004", "aoi": "vladivostok", "date": "2026-06-02", "scene_id": "S2C_MSIL2A_20260602T020651_R103_T52TGN_20260602T053610", "scene_datetime_utc": "2026-06-02T02:06:51.025000+00:00", "detection_status": "detected", "detection_status_ru": "обнаружено", "lon": 131.86967, "lat": 43.07877, "n_pixels": 4, "zone_area_km2": 0.0012, "cover_m2": 16.1, "p_mean": 0.898, "p_max": 0.988, "cover_m2_km2": 13416.7, "h3": "88316c0927fffff", "valid_frac_scene": 1.0, "wind_ms": 7.5, "sea": "волнение", "scene_reliable": false, "field_event_id": "S4:DOORS3:T23", "field_profile": "B", "field_date": "2024-06-10", "field_distance_km": 6983.8, "field_date_gap_days": 722, "field_conc_items_km2": 102.37, "conc_A_items_km2": null, "conc_A_lo80": null, "conc_A_hi80": null, "conc_A_lo95": null, "conc_A_hi95": null, "conc_A_status": "unavailable", "conc_A_status_ru": "концентрация недоступна", "conc_A_reasons": "вне бассейна профиля: nw_atlantic_subtropical", "conc_A_model": "conc-A-c6bce5631d2b", "conc_B_items_km2": null, "conc_B_lo80": null, "conc_B_hi80": null, "conc_B_lo95": null, "conc_B_hi95": null, "conc_B_status": "unavailable", "conc_B_status_ru": "концентрация недоступна", "conc_B_reasons": "вне бассейна профиля: black_sea", "conc_B_model": "conc-B-c6bce5631d2b"}}, {"type": "Feature", "geometry": {"type": "Polygon", "coordinates": [[[131.8492289549048, 43.074963027408025], [131.84922478482704, 43.07487308921788], [131.8491021008888, 43.07487614618169], [131.84909376114885, 43.07469626977708], [131.8492164447291, 43.07469321283238], [131.84921227470898, 43.07460327463701], [131.84945764145405, 43.07459716037269], [131.84946181183213, 43.07468709854896], [131.84958449535483, 43.074684041210205], [131.8495928365265, 43.07486391753839], [131.8494701526459, 43.07486697489624], [131.84947432308158, 43.07495691306727], [131.8492289549048, 43.074963027408025]]]}, "properties": {"zone_id": "vladivostok-2026-06-02-005", "aoi": "vladivostok", "date": "2026-06-02", "scene_id": "S2C_MSIL2A_20260602T020651_R103_T52TGN_20260602T053610", "scene_datetime_utc": "2026-06-02T02:06:51.025000+00:00", "detection_status": "detected", "detection_status_ru": "обнаружено", "lon": 131.84934, "lat": 43.07478, "n_pixels": 4, "zone_area_km2": 0.0012, "cover_m2": 25.9, "p_mean": 0.975, "p_max": 1.0, "cover_m2_km2": 21583.3, "h3": "88316c4611fffff", "valid_frac_scene": 1.0, "wind_ms": 7.5, "sea": "волнение", "scene_reliable": false, "field_event_id": "S4:DOORS3:T23", "field_profile": "B", "field_date": "2024-06-10", "field_distance_km": 6982.6, "field_date_gap_days": 722, "field_conc_items_km2": 102.37, "conc_A_items_km2": null, "conc_A_lo80": null, "conc_A_hi80": null, "conc_A_lo95": null, "conc_A_hi95": null, "conc_A_status": "unavailable", "conc_A_status_ru": "концентрация недоступна", "conc_A_reasons": "вне бассейна профиля: nw_atlantic_subtropical", "conc_A_model": "conc-A-c6bce5631d2b", "conc_B_items_km2": null, "conc_B_lo80": null, "conc_B_hi80": null, "conc_B_lo95": null, "conc_B_hi95": null, "conc_B_status": "unavailable", "conc_B_status_ru": "концентрация недоступна", "conc_B_reasons": "вне бассейна профиля: black_sea", "conc_B_model": "conc-B-c6bce5631d2b"}}, {"type": "Feature", "geometry": {"type": "Polygon", "coordinates": [[[131.90910848154263, 43.0711141612305], [131.90910422447277, 43.0710242277159], [131.9088546281583, 43.07094053591676], [131.90884611483213, 43.07076066883976], [131.9087234455284, 43.070763789481894], [131.9087191890736, 43.07067385593101], [131.9085965199292, 43.07067697643208], [131.90859226367286, 43.07058704286968], [131.90883334498977, 43.070490868211124], [131.9088376015843, 43.07058080175575], [131.90908719638927, 43.07066449363998], [131.90909145338074, 43.07075442716159], [131.90934104921985, 43.07083811845853], [131.9093453066083, 43.070928051957125], [131.90946797617178, 43.07092493063893], [131.90947223375875, 43.07101486412601], [131.90934956401634, 43.07101798545396], [131.909353821444, 43.07110791894904], [131.90910848154263, 43.0711141612305]]]}, "properties": {"zone_id": "vladivostok-2026-06-02-006", "aoi": "vladivostok", "date": "2026-06-02", "scene_id": "S2C_MSIL2A_20260602T020651_R103_T52TGN_20260602T053610", "scene_datetime_utc": "2026-06-02T02:06:51.025000+00:00", "detection_status": "detected", "detection_status_ru": "обнаружено", "lon": 131.90905, "lat": 43.07084, "n_pixels": 7, "zone_area_km2": 0.002, "cover_m2": 117.6, "p_mean": 0.857, "p_max": 0.992, "cover_m2_km2": 58800.0, "h3": "88316c09edfffff", "valid_frac_scene": 1.0, "wind_ms": 7.5, "sea": "волнение", "scene_reliable": false, "field_event_id": "S4:DOORS3:T23", "field_profile": "B", "field_date": "2024-06-10", "field_distance_km": 6986.9, "field_date_gap_days": 722, "field_conc_items_km2": 102.37, "conc_A_items_km2": null, "conc_A_lo80": null, "conc_A_hi80": null, "conc_A_lo95": null, "conc_A_hi95": null, "conc_A_status": "unavailable", "conc_A_status_ru": "концентрация недоступна", "conc_A_reasons": "вне бассейна профиля: nw_atlantic_subtropical", "conc_A_model": "conc-A-c6bce5631d2b", "conc_B_items_km2": null, "conc_B_lo80": null, "conc_B_hi80": null, "conc_B_lo95": null, "conc_B_hi95": null, "conc_B_status": "unavailable", "conc_B_status_ru": "концентрация недоступна", "conc_B_reasons": "вне бассейна профиля: black_sea", "conc_B_model": "conc-B-c6bce5631d2b"}}, {"type": "Feature", "geometry": {"type": "Polygon", "coordinates": [[[131.98055684777216, 43.06540220639579], [131.9805524871104, 43.06531227857122], [131.98042983658203, 43.06531547575198], [131.9804211156763, 43.06513562007753], [131.9805437658471, 43.065132422916754], [131.98053940524557, 43.06504249508685], [131.98078470516933, 43.06503610039151], [131.98078906612847, 43.06512602820141], [131.98091171623904, 43.065122830646864], [131.98092043857508, 43.065302686241374], [131.98079778810694, 43.06530588381592], [131.98080214912628, 43.06539581162051], [131.98055684777216, 43.06540220639579]]]}, "properties": {"zone_id": "vladivostok-2026-06-02-007", "aoi": "vladivostok", "date": "2026-06-02", "scene_id": "S2C_MSIL2A_20260602T020651_R103_T52TGN_20260602T053610", "scene_datetime_utc": "2026-06-02T02:06:51.025000+00:00", "detection_status": "detected", "detection_status_ru": "обнаружено", "lon": 131.98067, "lat": 43.06522, "n_pixels": 4, "zone_area_km2": 0.0012, "cover_m2": 28.2, "p_mean": 0.814, "p_max": 0.961, "cover_m2_km2": 23500.0, "h3": "88316c08ebfffff", "valid_frac_scene": 1.0, "wind_ms": 7.5, "sea": "волнение", "scene_reliable": false, "field_event_id": "S4:DOORS3:T23", "field_profile": "B", "field_date": "2024-06-10", "field_distance_km": 6992.1, "field_date_gap_days": 722, "field_conc_items_km2": 102.37, "conc_A_items_km2": null, "conc_A_lo80": null, "conc_A_hi80": null, "conc_A_lo95": null, "conc_A_hi95": null, "conc_A_status": "unavailable", "conc_A_status_ru": "концентрация недоступна", "conc_A_reasons": "вне бассейна профиля: nw_atlantic_subtropical", "conc_A_model": "conc-A-c6bce5631d2b", "conc_B_items_km2": null, "conc_B_lo80": null, "conc_B_hi80": null, "conc_B_lo95": null, "conc_B_hi95": null, "conc_B_status": "unavailable", "conc_B_status_ru": "концентрация недоступна", "conc_B_reasons": "вне бассейна профиля: black_sea", "conc_B_model": "conc-B-c6bce5631d2b"}}, {"type": "Feature", "geometry": {"type": "Polygon", "coordinates": [[[131.93713137946722, 43.058692326954194], [131.93712708328968, 43.058602395494134], [131.93700444132244, 43.05860554574215], [131.9369958493843, 43.05842568279704], [131.937118490994, 43.05842253256872], [131.93711419487582, 43.05833260110338], [131.93761335408817, 43.0584998617672], [131.93761765096093, 43.05858979318964], [131.9374950090728, 43.05859294396263], [131.93749930578656, 43.05868287539314], [131.93713137946722, 43.058692326954194]]]}, "properties": {"zone_id": "vladivostok-2026-06-02-008", "aoi": "vladivostok", "date": "2026-06-02", "scene_id": "S2C_MSIL2A_20260602T020651_R103_T52TGN_20260602T053610", "scene_datetime_utc": "2026-06-02T02:06:51.025000+00:00", "detection_status": "detected", "detection_status_ru": "обнаружено", "lon": 131.93728, "lat": 43.05853, "n_pixels": 4, "zone_area_km2": 0.0013, "cover_m2": 25.1, "p_mean": 0.655, "p_max": 0.847, "cover_m2_km2": 19307.7, "h3": "88316c0989fffff", "valid_frac_scene": 1.0, "wind_ms": 7.5, "sea": "волнение", "scene_reliable": false, "field_event_id": "S4:DOORS3:T23", "field_profile": "B", "field_date": "2024-06-10", "field_distance_km": 6989.6, "field_date_gap_days": 722, "field_conc_items_km2": 102.37, "conc_A_items_km2": null, "conc_A_lo80": null, "conc_A_hi80": null, "conc_A_lo95": null, "conc_A_hi95": null, "conc_A_status": "unavailable", "conc_A_status_ru": "концентрация недоступна", "conc_A_reasons": "вне бассейна профиля: nw_atlantic_subtropical", "conc_A_model": "conc-A-c6bce5631d2b", "conc_B_items_km2": null, "conc_B_lo80": null, "conc_B_hi80": null, "conc_B_lo95": null, "conc_B_hi95": null, "conc_B_status": "unavailable", "conc_B_status_ru": "концентрация недоступна", "conc_B_reasons": "вне бассейна профиля: black_sea", "conc_B_model": "conc-B-c6bce5631d2b"}}]}