{"type": "FeatureCollection", "features": [{"type": "Feature", "geometry": {"type": "Polygon", "coordinates": [[[44.718573244344306, 48.86457876051961], [44.71857374875098, 48.86448880331689], [44.7184374005442, 48.86448847044935], [44.71843790519274, 48.864398513246265], [44.718711105277364, 48.864309221611414], [44.71871060112006, 48.86439917881801], [44.71884694908747, 48.86439951136205], [44.71884644517204, 48.86448946856829], [44.71871009696026, 48.86448913602321], [44.71870959279795, 48.86457909322697], [44.718573244344306, 48.86457876051961]]]}, "properties": {"zone_id": "volgograd-2026-08-24-001", "aoi": "volgograd", "date": "2026-08-24", "scene_id": "S2B_MSIL2A_20260824T080559_R078_T38UMV_20260824T103646", "scene_datetime_utc": "2026-08-24T08:05:59.024000+00:00", "detection_status": "detected", "detection_status_ru": "обнаружено", "lon": 44.71864, "lat": 48.86444, "n_pixels": 1, "zone_area_km2": 0.0005, "cover_m2": 4.7, "p_mean": 0.741, "p_max": 0.741, "cover_m2_km2": 9400.0, "h3": "882d48ae43fffff", "valid_frac_scene": 1.0, "wind_ms": 3.9, "sea": "спокойное", "scene_reliable": true, "field_event_id": "S4:DOORS3:T23", "field_profile": "B", "field_date": "2024-06-10", "field_distance_km": 766.0, "field_date_gap_days": 805, "field_conc_items_km2": 102.37, "conc_A_items_km2": null, "conc_A_lo80": null, "conc_A_hi80": null, "conc_A_lo95": null, "conc_A_hi95": null, "conc_A_status": "unavailable", "conc_A_status_ru": "концентрация недоступна", "conc_A_reasons": "вне бассейна профиля: nw_atlantic_subtropical", "conc_A_model": "conc-A-c6bce5631d2b", "conc_B_items_km2": null, "conc_B_lo80": null, "conc_B_hi80": null, "conc_B_lo95": null, "conc_B_hi95": null, "conc_B_status": "unavailable", "conc_B_status_ru": "концентрация недоступна", "conc_B_reasons": "вне бассейна профиля: black_sea", "conc_B_model": "conc-B-c6bce5631d2b"}}]}