{"type": "FeatureCollection", "features": [{"type": "Feature", "geometry": {"type": "Polygon", "coordinates": [[[39.67221925127658, 43.617136813590385], [39.672218248243894, 43.61704677864444], [39.672094322601794, 43.61704750730288], [39.672092316920114, 43.61686743740213], [39.67233916425655, 43.616775945012066], [39.67234016746016, 43.61686597996005], [39.672464092723224, 43.61686525103752], [39.67246609951416, 43.6170453209246], [39.67221925127658, 43.617136813590385]]]}, "properties": {"zone_id": "sochi-2025-08-17-001", "aoi": "sochi", "date": "2025-08-17", "scene_id": "S2C_MSIL2A_20250817T081621_R121_T37TEJ_20250817T140515", "scene_datetime_utc": "2025-08-17T08:16:21.025000+00:00", "detection_status": "detected", "detection_status_ru": "обнаружено", "lon": 39.67228, "lat": 43.61696, "n_pixels": 2, "zone_area_km2": 0.0008, "cover_m2": 9.8, "p_mean": 0.843, "p_max": 0.984, "cover_m2_km2": 12250.0, "h3": "882d5680d3fffff", "valid_frac_scene": 1.0, "wind_ms": 3.9, "sea": "спокойное", "scene_reliable": true, "field_event_id": "S4:DOORS3:T17", "field_profile": "B", "field_date": "2024-06-04", "field_distance_km": 186.2, "field_date_gap_days": 439, "field_conc_items_km2": 89.61, "conc_A_items_km2": null, "conc_A_lo80": null, "conc_A_hi80": null, "conc_A_lo95": null, "conc_A_hi95": null, "conc_A_status": "unavailable", "conc_A_status_ru": "концентрация недоступна", "conc_A_reasons": "вне бассейна профиля: nw_atlantic_subtropical", "conc_A_model": "conc-A-c6bce5631d2b", "conc_B_items_km2": 591.0, "conc_B_lo80": 126.1, "conc_B_hi80": 1985.7, "conc_B_lo95": 78.7, "conc_B_hi95": 3718.2, "conc_B_status": "research_estimate", "conc_B_status_ru": "исследовательская оценка", "conc_B_reasons": "ближайшее полевое измерение в 186 км (> 60 км); месяц 8 вне месяцев обучения [6]; log_dist_coast_km = 1.2 вне диапазона обучения [1.7; 5.0]", "conc_B_model": "conc-B-c6bce5631d2b"}}, {"type": "Feature", "geometry": {"type": "Polygon", "coordinates": [[[39.688515520876344, 43.56814744667347], [39.68851449528328, 43.56805741125769], [39.688390670541786, 43.56805815691791], [39.68838964513788, 43.567968121498346], [39.688513469694975, 43.56796737584045], [39.68851244411142, 43.567877340421774], [39.68876111879491, 43.567965884122394], [39.688762144752026, 43.56805591953496], [39.688638320020026, 43.568056665463374], [39.6886393457975, 43.56814670087684], [39.688515520876344, 43.56814744667347]]]}, "properties": {"zone_id": "sochi-2025-08-17-002", "aoi": "sochi", "date": "2025-08-17", "scene_id": "S2C_MSIL2A_20250817T081621_R121_T37TEJ_20250817T140515", "scene_datetime_utc": "2025-08-17T08:16:21.025000+00:00", "detection_status": "detected", "detection_status_ru": "обнаружено", "lon": 39.68858, "lat": 43.56801, "n_pixels": 1, "zone_area_km2": 0.0005, "cover_m2": 8.6, "p_mean": 0.949, "p_max": 0.949, "cover_m2_km2": 17200.0, "h3": "882d5680a1fffff", "valid_frac_scene": 1.0, "wind_ms": 3.9, "sea": "спокойное", "scene_reliable": true, "field_event_id": "S4:DOORS3:T17", "field_profile": "B", "field_date": "2024-06-04", "field_distance_km": 182.4, "field_date_gap_days": 439, "field_conc_items_km2": 89.61, "conc_A_items_km2": null, "conc_A_lo80": null, "conc_A_hi80": null, "conc_A_lo95": null, "conc_A_hi95": null, "conc_A_status": "unavailable", "conc_A_status_ru": "концентрация недоступна", "conc_A_reasons": "вне бассейна профиля: nw_atlantic_subtropical", "conc_A_model": "conc-A-c6bce5631d2b", "conc_B_items_km2": 508.3, "conc_B_lo80": 108.4, "conc_B_hi80": 1708.2, "conc_B_lo95": 67.5, "conc_B_hi95": 3198.6, "conc_B_status": "research_estimate", "conc_B_status_ru": "исследовательская оценка", "conc_B_reasons": "ближайшее полевое измерение в 182 км (> 60 км); месяц 8 вне месяцев обучения [6]", "conc_B_model": "conc-B-c6bce5631d2b"}}, {"type": "Feature", "geometry": {"type": "Polygon", "coordinates": [[[39.70435982594389, 43.56760071917495], [39.704358776770796, 43.56751068405374], [39.70423495356619, 43.5675114468664], [39.70423180662925, 43.56724134148693], [39.704478402589125, 43.5671497806172], [39.70447945192719, 43.56723981574181], [39.70460327456887, 43.5672390526681], [39.704606423165416, 43.56750915802612], [39.70435982594389, 43.56760071917495]]]}, "properties": {"zone_id": "sochi-2025-08-17-003", "aoi": "sochi", "date": "2025-08-17", "scene_id": "S2C_MSIL2A_20250817T081621_R121_T37TEJ_20250817T140515", "scene_datetime_utc": "2025-08-17T08:16:21.025000+00:00", "detection_status": "detected", "detection_status_ru": "обнаружено", "lon": 39.70442, "lat": 43.56738, "n_pixels": 3, "zone_area_km2": 0.0011, "cover_m2": 11.8, "p_mean": 0.945, "p_max": 0.984, "cover_m2_km2": 10727.3, "h3": "882d568e49fffff", "valid_frac_scene": 1.0, "wind_ms": 3.9, "sea": "спокойное", "scene_reliable": true, "field_event_id": "S4:DOORS3:T17", "field_profile": "B", "field_date": "2024-06-04", "field_distance_km": 183.1, "field_date_gap_days": 439, "field_conc_items_km2": 89.61, "conc_A_items_km2": null, "conc_A_lo80": null, "conc_A_hi80": null, "conc_A_lo95": null, "conc_A_hi95": null, "conc_A_status": "unavailable", "conc_A_status_ru": "концентрация недоступна", "conc_A_reasons": "вне бассейна профиля: nw_atlantic_subtropical", "conc_A_model": "conc-A-c6bce5631d2b", "conc_B_items_km2": 567.5, "conc_B_lo80": 121.1, "conc_B_hi80": 1906.8, "conc_B_lo95": 75.5, "conc_B_hi95": 3570.5, "conc_B_status": "research_estimate", "conc_B_status_ru": "исследовательская оценка", "conc_B_reasons": "ближайшее полевое измерение в 183 км (> 60 км); месяц 8 вне месяцев обучения [6]; log_dist_coast_km = 1.3 вне диапазона обучения [1.7; 5.0]", "conc_B_model": "conc-B-c6bce5631d2b"}}, {"type": "Feature", "geometry": {"type": "Polygon", "coordinates": [[[39.688992347307064, 43.566523825145225], [39.68899132106192, 43.56643378971279], [39.68886749965866, 43.566434535867415], [39.68886544755141, 43.56625446499355], [39.6891120632003, 43.56616293712511], [39.68911308961559, 43.56625297255954], [39.689236910640545, 43.566252226141394], [39.689238963854166, 43.566432297001256], [39.688992347307064, 43.566523825145225]]]}, "properties": {"zone_id": "sochi-2025-08-17-004", "aoi": "sochi", "date": "2025-08-17", "scene_id": "S2C_MSIL2A_20250817T081621_R121_T37TEJ_20250817T140515", "scene_datetime_utc": "2025-08-17T08:16:21.025000+00:00", "detection_status": "detected", "detection_status_ru": "обнаружено", "lon": 39.68905, "lat": 43.56634, "n_pixels": 2, "zone_area_km2": 0.0008, "cover_m2": 13.3, "p_mean": 0.996, "p_max": 1.0, "cover_m2_km2": 16625.0, "h3": "882d5680a7fffff", "valid_frac_scene": 1.0, "wind_ms": 3.9, "sea": "спокойное", "scene_reliable": true, "field_event_id": "S4:DOORS3:T17", "field_profile": "B", "field_date": "2024-06-04", "field_distance_km": 182.3, "field_date_gap_days": 439, "field_conc_items_km2": 89.61, "conc_A_items_km2": null, "conc_A_lo80": null, "conc_A_hi80": null, "conc_A_lo95": null, "conc_A_hi95": null, "conc_A_status": "unavailable", "conc_A_status_ru": "концентрация недоступна", "conc_A_reasons": "вне бассейна профиля: nw_atlantic_subtropical", "conc_A_model": "conc-A-c6bce5631d2b", "conc_B_items_km2": 508.3, "conc_B_lo80": 108.4, "conc_B_hi80": 1708.2, "conc_B_lo95": 67.5, "conc_B_hi95": 3198.6, "conc_B_status": "research_estimate", "conc_B_status_ru": "исследовательская оценка", "conc_B_reasons": "ближайшее полевое измерение в 182 км (> 60 км); месяц 8 вне месяцев обучения [6]", "conc_B_model": "conc-B-c6bce5631d2b"}}, {"type": "Feature", "geometry": {"type": "Polygon", "coordinates": [[[39.72236697653328, 43.56154561139425], [39.72236590076648, 43.561455576530285], [39.72224209044873, 43.56145635875909], [39.722239939298774, 43.56127628902193], [39.72211612934472, 43.56127707111178], [39.72211505396155, 43.56118703623858], [39.72223886373127, 43.56118625415119], [39.72223778816874, 43.561096219278994], [39.72248648325576, 43.5611846895742], [39.72248863513311, 43.56136475930447], [39.722612445256566, 43.561363976809986], [39.72261352138705, 43.5614540116705], [39.72248971107926, 43.561454794167425], [39.7224907870304, 43.56154482902894], [39.72236697653328, 43.56154561139425]]]}, "properties": {"zone_id": "sochi-2025-08-17-005", "aoi": "sochi", "date": "2025-08-17", "scene_id": "S2C_MSIL2A_20250817T081621_R121_T37TEJ_20250817T140515", "scene_datetime_utc": "2025-08-17T08:16:21.025000+00:00", "detection_status": "detected", "detection_status_ru": "обнаружено", "lon": 39.72236, "lat": 43.56132, "n_pixels": 2, "zone_area_km2": 0.001, "cover_m2": 15.7, "p_mean": 0.747, "p_max": 0.988, "cover_m2_km2": 15700.0, "h3": "882d568e47fffff", "valid_frac_scene": 1.0, "wind_ms": 3.9, "sea": "спокойное", "scene_reliable": true, "field_event_id": "S4:DOORS3:T17", "field_profile": "B", "field_date": "2024-06-04", "field_distance_km": 183.4, "field_date_gap_days": 439, "field_conc_items_km2": 89.61, "conc_A_items_km2": null, "conc_A_lo80": null, "conc_A_hi80": null, "conc_A_lo95": null, "conc_A_hi95": null, "conc_A_status": "unavailable", "conc_A_status_ru": "концентрация недоступна", "conc_A_reasons": "вне бассейна профиля: nw_atlantic_subtropical", "conc_A_model": "conc-A-c6bce5631d2b", "conc_B_items_km2": 591.0, "conc_B_lo80": 126.1, "conc_B_hi80": 1985.7, "conc_B_lo95": 78.7, "conc_B_hi95": 3718.2, "conc_B_status": "research_estimate", "conc_B_status_ru": "исследовательская оценка", "conc_B_reasons": "ближайшее полевое измерение в 183 км (> 60 км); месяц 8 вне месяцев обучения [6]; log_dist_coast_km = 1.2 вне диапазона обучения [1.7; 5.0]", "conc_B_model": "conc-B-c6bce5631d2b"}}, {"type": "Feature", "geometry": {"type": "Polygon", "coordinates": [[[39.73140295123376, 43.56130807703675], [39.73140186202012, 43.561218042349516], [39.731278052436934, 43.56121883435998], [39.73127587439346, 43.56103876497621], [39.731522403434596, 43.56094714614203], [39.73152349281744, 43.56103718083112], [39.73164730202187, 43.56103638855748], [39.73164948117137, 43.561216457926385], [39.73140295123376, 43.56130807703675]]]}, "properties": {"zone_id": "sochi-2025-08-17-006", "aoi": "sochi", "date": "2025-08-17", "scene_id": "S2C_MSIL2A_20250817T081621_R121_T37TEJ_20250817T140515", "scene_datetime_utc": "2025-08-17T08:16:21.025000+00:00", "detection_status": "detected", "detection_status_ru": "обнаружено", "lon": 39.73146, "lat": 43.56113, "n_pixels": 2, "zone_area_km2": 0.0008, "cover_m2": 17.3, "p_mean": 0.765, "p_max": 0.996, "cover_m2_km2": 21625.0, "h3": "882d568e09fffff", "valid_frac_scene": 1.0, "wind_ms": 3.9, "sea": "спокойное", "scene_reliable": true, "field_event_id": "S4:DOORS3:T17", "field_profile": "B", "field_date": "2024-06-04", "field_distance_km": 183.8, "field_date_gap_days": 439, "field_conc_items_km2": 89.61, "conc_A_items_km2": null, "conc_A_lo80": null, "conc_A_hi80": null, "conc_A_lo95": null, "conc_A_hi95": null, "conc_A_status": "unavailable", "conc_A_status_ru": "концентрация недоступна", "conc_A_reasons": "вне бассейна профиля: nw_atlantic_subtropical", "conc_A_model": "conc-A-c6bce5631d2b", "conc_B_items_km2": 621.6, "conc_B_lo80": 132.7, "conc_B_hi80": 2088.3, "conc_B_lo95": 82.8, "conc_B_hi95": 3910.2, "conc_B_status": "research_estimate", "conc_B_status_ru": "исследовательская оценка", "conc_B_reasons": "ближайшее полевое измерение в 184 км (> 60 км); месяц 8 вне месяцев обучения [6]; log_dist_coast_km = 1.0 вне диапазона обучения [1.7; 5.0]", "conc_B_model": "conc-B-c6bce5631d2b"}}, {"type": "Feature", "geometry": {"type": "Polygon", "coordinates": [[[39.69908114570296, 43.560879996371646], [39.699080104636444, 43.560789961042396], [39.698956295056426, 43.56079071804564], [39.69895421330653, 43.560610647378084], [39.69920079048801, 43.56051909791578], [39.6992018317244, 43.560609133247006], [39.699325640926105, 43.56060837598037], [39.699327723782034, 43.56078844663373], [39.69908114570296, 43.560879996371646]]]}, "properties": {"zone_id": "sochi-2025-08-17-007", "aoi": "sochi", "date": "2025-08-17", "scene_id": "S2C_MSIL2A_20250817T081621_R121_T37TEJ_20250817T140515", "scene_datetime_utc": "2025-08-17T08:16:21.025000+00:00", "detection_status": "detected", "detection_status_ru": "обнаружено", "lon": 39.69914, "lat": 43.5607, "n_pixels": 2, "zone_area_km2": 0.0008, "cover_m2": 9.8, "p_mean": 0.963, "p_max": 0.996, "cover_m2_km2": 12250.0, "h3": "882d568e4dfffff", "valid_frac_scene": 1.0, "wind_ms": 3.9, "sea": "спокойное", "scene_reliable": true, "field_event_id": "S4:DOORS3:T17", "field_profile": "B", "field_date": "2024-06-04", "field_distance_km": 182.3, "field_date_gap_days": 439, "field_conc_items_km2": 89.61, "conc_A_items_km2": null, "conc_A_lo80": null, "conc_A_hi80": null, "conc_A_lo95": null, "conc_A_hi95": null, "conc_A_status": "unavailable", "conc_A_status_ru": "концентрация недоступна", "conc_A_reasons": "вне бассейна профиля: nw_atlantic_subtropical", "conc_A_model": "conc-A-c6bce5631d2b", "conc_B_items_km2": 539.0, "conc_B_lo80": 114.9, "conc_B_hi80": 1811.2, "conc_B_lo95": 71.7, "conc_B_hi95": 3391.5, "conc_B_status": "research_estimate", "conc_B_status_ru": "исследовательская оценка", "conc_B_reasons": "ближайшее полевое измерение в 182 км (> 60 км); месяц 8 вне месяцев обучения [6]", "conc_B_model": "conc-B-c6bce5631d2b"}}, {"type": "Feature", "geometry": {"type": "Polygon", "coordinates": [[[39.73309698603631, 43.558055726377155], [39.73309589442392, 43.5579656916726], [39.73297209154704, 43.557966485470594], [39.732969908706025, 43.55778641605216], [39.73321642193597, 43.557694793625615], [39.733217513717506, 43.55778482833204], [39.73334131621566, 43.55778403427089], [39.73334350016251, 43.55796410367444], [39.73309698603631, 43.558055726377155]]]}, "properties": {"zone_id": "sochi-2025-08-17-008", "aoi": "sochi", "date": "2025-08-17", "scene_id": "S2C_MSIL2A_20250817T081621_R121_T37TEJ_20250817T140515", "scene_datetime_utc": "2025-08-17T08:16:21.025000+00:00", "detection_status": "detected", "detection_status_ru": "обнаружено", "lon": 39.73316, "lat": 43.55788, "n_pixels": 2, "zone_area_km2": 0.0008, "cover_m2": 10.2, "p_mean": 0.804, "p_max": 0.914, "cover_m2_km2": 12750.0, "h3": "882d568e0dfffff", "valid_frac_scene": 1.0, "wind_ms": 3.9, "sea": "спокойное", "scene_reliable": true, "field_event_id": "S4:DOORS3:T17", "field_profile": "B", "field_date": "2024-06-04", "field_distance_km": 183.6, "field_date_gap_days": 439, "field_conc_items_km2": 89.61, "conc_A_items_km2": null, "conc_A_lo80": null, "conc_A_hi80": null, "conc_A_lo95": null, "conc_A_hi95": null, "conc_A_status": "unavailable", "conc_A_status_ru": "концентрация недоступна", "conc_A_reasons": "вне бассейна профиля: nw_atlantic_subtropical", "conc_A_model": "conc-A-c6bce5631d2b", "conc_B_items_km2": 621.6, "conc_B_lo80": 132.7, "conc_B_hi80": 2088.3, "conc_B_lo95": 82.8, "conc_B_hi95": 3910.2, "conc_B_status": "research_estimate", "conc_B_status_ru": "исследовательская оценка", "conc_B_reasons": "ближайшее полевое измерение в 184 км (> 60 км); месяц 8 вне месяцев обучения [6]; log_dist_coast_km = 1.0 вне диапазона обучения [1.7; 5.0]", "conc_B_model": "conc-B-c6bce5631d2b"}}, {"type": "Feature", "geometry": {"type": "Polygon", "coordinates": [[[39.68542561826763, 43.54682611641948], [39.68542459803627, 43.5467360806083], [39.68530081686715, 43.54673682263437], [39.68529877678701, 43.54655675100303], [39.68554531798231, 43.546465231012974], [39.68554633838371, 43.54655526682616], [39.685670119174965, 43.54655452453673], [39.685672160360355, 43.54673459615415], [39.68542561826763, 43.54682611641948]]]}, "properties": {"zone_id": "sochi-2025-08-17-009", "aoi": "sochi", "date": "2025-08-17", "scene_id": "S2C_MSIL2A_20250817T081621_R121_T37TEJ_20250817T140515", "scene_datetime_utc": "2025-08-17T08:16:21.025000+00:00", "detection_status": "detected", "detection_status_ru": "обнаружено", "lon": 39.68549, "lat": 43.54665, "n_pixels": 2, "zone_area_km2": 0.0008, "cover_m2": 16.9, "p_mean": 0.771, "p_max": 0.847, "cover_m2_km2": 21125.0, "h3": "882d56819dfffff", "valid_frac_scene": 1.0, "wind_ms": 3.9, "sea": "спокойное", "scene_reliable": true, "field_event_id": "S4:DOORS3:T17", "field_profile": "B", "field_date": "2024-06-04", "field_distance_km": 180.3, "field_date_gap_days": 439, "field_conc_items_km2": 89.61, "conc_A_items_km2": null, "conc_A_lo80": null, "conc_A_hi80": null, "conc_A_lo95": null, "conc_A_hi95": null, "conc_A_status": "unavailable", "conc_A_status_ru": "концентрация недоступна", "conc_A_reasons": "вне бассейна профиля: nw_atlantic_subtropical", "conc_A_model": "conc-A-c6bce5631d2b", "conc_B_items_km2": 494.5, "conc_B_lo80": 105.4, "conc_B_hi80": 1661.9, "conc_B_lo95": 65.7, "conc_B_hi95": 3112.0, "conc_B_status": "research_estimate", "conc_B_status_ru": "исследовательская оценка", "conc_B_reasons": "ближайшее полевое измерение в 180 км (> 60 км); месяц 8 вне месяцев обучения [6]", "conc_B_model": "conc-B-c6bce5631d2b"}}, {"type": "Feature", "geometry": {"type": "Polygon", "coordinates": [[[39.69180252100146, 43.541565273887784], [39.69180149146778, 43.54147523811409], [39.69155292182284, 43.54138669991671], [39.69155189266699, 43.54129666413545], [39.691675662543226, 43.54129591541591], [39.691674633207995, 43.541205879635555], [39.6919232022814, 43.54129441757489], [39.69192423198972, 43.54138445334912], [39.692048002035804, 43.54138370422531], [39.69204903193304, 43.541473739995766], [39.69192526170279, 43.54147448912192], [39.691926291420636, 43.54156452489327], [39.69180252100146, 43.541565273887784]]]}, "properties": {"zone_id": "sochi-2025-08-17-010", "aoi": "sochi", "date": "2025-08-17", "scene_id": "S2C_MSIL2A_20250817T081621_R121_T37TEJ_20250817T140515", "scene_datetime_utc": "2025-08-17T08:16:21.025000+00:00", "detection_status": "detected", "detection_status_ru": "обнаружено", "lon": 39.6918, "lat": 43.54139, "n_pixels": 2, "zone_area_km2": 0.0008, "cover_m2": 16.5, "p_mean": 0.988, "p_max": 0.996, "cover_m2_km2": 20625.0, "h3": "882d568195fffff", "valid_frac_scene": 1.0, "wind_ms": 3.9, "sea": "спокойное", "scene_reliable": true, "field_event_id": "S4:DOORS3:T17", "field_profile": "B", "field_date": "2024-06-04", "field_distance_km": 180.2, "field_date_gap_days": 439, "field_conc_items_km2": 89.61, "conc_A_items_km2": null, "conc_A_lo80": null, "conc_A_hi80": null, "conc_A_lo95": null, "conc_A_hi95": null, "conc_A_status": "unavailable", "conc_A_status_ru": "концентрация недоступна", "conc_A_reasons": "вне бассейна профиля: nw_atlantic_subtropical", "conc_A_model": "conc-A-c6bce5631d2b", "conc_B_items_km2": 490.1, "conc_B_lo80": 104.4, "conc_B_hi80": 1647.0, "conc_B_lo95": 65.1, "conc_B_hi95": 3084.0, "conc_B_status": "research_estimate", "conc_B_status_ru": "исследовательская оценка", "conc_B_reasons": "ближайшее полевое измерение в 180 км (> 60 км); месяц 8 вне месяцев обучения [6]", "conc_B_model": "conc-B-c6bce5631d2b"}}, {"type": "Feature", "geometry": {"type": "Polygon", "coordinates": [[[39.69151793319705, 43.5383254825446], [39.69151690420319, 43.5382354467143], [39.69139314058301, 43.53823619522032], [39.6913900541824, 43.537966087713706], [39.691636551154325, 43.537874554748015], [39.691637580313255, 43.53796459058175], [39.69176134337153, 43.53796384181483], [39.69176443142928, 43.538233949300384], [39.69151793319705, 43.5383254825446]]]}, "properties": {"zone_id": "sochi-2025-08-17-011", "aoi": "sochi", "date": "2025-08-17", "scene_id": "S2C_MSIL2A_20250817T081621_R121_T37TEJ_20250817T140515", "scene_datetime_utc": "2025-08-17T08:16:21.025000+00:00", "detection_status": "detected", "detection_status_ru": "обнаружено", "lon": 39.69158, "lat": 43.5381, "n_pixels": 3, "zone_area_km2": 0.0011, "cover_m2": 20.4, "p_mean": 0.995, "p_max": 0.996, "cover_m2_km2": 18545.5, "h3": "882d568195fffff", "valid_frac_scene": 1.0, "wind_ms": 3.9, "sea": "спокойное", "scene_reliable": true, "field_event_id": "S4:DOORS3:T17", "field_profile": "B", "field_date": "2024-06-04", "field_distance_km": 179.9, "field_date_gap_days": 439, "field_conc_items_km2": 89.61, "conc_A_items_km2": null, "conc_A_lo80": null, "conc_A_hi80": null, "conc_A_lo95": null, "conc_A_hi95": null, "conc_A_status": "unavailable", "conc_A_status_ru": "концентрация недоступна", "conc_A_reasons": "вне бассейна профиля: nw_atlantic_subtropical", "conc_A_model": "conc-A-c6bce5631d2b", "conc_B_items_km2": 490.1, "conc_B_lo80": 104.4, "conc_B_hi80": 1647.0, "conc_B_lo95": 65.1, "conc_B_hi95": 3084.0, "conc_B_status": "research_estimate", "conc_B_status_ru": "исследовательская оценка", "conc_B_reasons": "ближайшее полевое измерение в 180 км (> 60 км); месяц 8 вне месяцев обучения [6]", "conc_B_model": "conc-B-c6bce5631d2b"}}, {"type": "Feature", "geometry": {"type": "Polygon", "coordinates": [[[39.75618272160783, 43.53287372017274], [39.756181596610695, 43.532783685542455], [39.7560578459073, 43.53278450396352], [39.75605559629679, 43.5326044346935], [39.756301971796546, 43.53251276309563], [39.756303096962114, 43.532602797727684], [39.75642684728696, 43.532601979043875], [39.75642909800185, 43.53278204829854], [39.75618272160783, 43.53287372017274]]]}, "properties": {"zone_id": "sochi-2025-08-17-012", "aoi": "sochi", "date": "2025-08-17", "scene_id": "S2C_MSIL2A_20250817T081621_R121_T37TEJ_20250817T140515", "scene_datetime_utc": "2025-08-17T08:16:21.025000+00:00", "detection_status": "detected", "detection_status_ru": "обнаружено", "lon": 39.75624, "lat": 43.53269, "n_pixels": 2, "zone_area_km2": 0.0008, "cover_m2": 7.1, "p_mean": 0.794, "p_max": 0.957, "cover_m2_km2": 8875.0, "h3": "882d568e21fffff", "valid_frac_scene": 1.0, "wind_ms": 3.9, "sea": "спокойное", "scene_reliable": true, "field_event_id": "S4:DOORS3:T17", "field_profile": "B", "field_date": "2024-06-04", "field_distance_km": 182.5, "field_date_gap_days": 439, "field_conc_items_km2": 89.61, "conc_A_items_km2": null, "conc_A_lo80": null, "conc_A_hi80": null, "conc_A_lo95": null, "conc_A_hi95": null, "conc_A_status": "unavailable", "conc_A_status_ru": "концентрация недоступна", "conc_A_reasons": "вне бассейна профиля: nw_atlantic_subtropical", "conc_A_model": "conc-A-c6bce5631d2b", "conc_B_items_km2": 591.0, "conc_B_lo80": 126.1, "conc_B_hi80": 1985.7, "conc_B_lo95": 78.7, "conc_B_hi95": 3718.2, "conc_B_status": "research_estimate", "conc_B_status_ru": "исследовательская оценка", "conc_B_reasons": "ближайшее полевое измерение в 182 км (> 60 км); месяц 8 вне месяцев обучения [6]; log_dist_coast_km = 1.2 вне диапазона обучения [1.7; 5.0]", "conc_B_model": "conc-B-c6bce5631d2b"}}, {"type": "Feature", "geometry": {"type": "Polygon", "coordinates": [[[39.69707519617636, 43.52649621444963], [39.69707415934164, 43.52640617853833], [39.69695042005464, 43.52640693289746], [39.696948346767634, 43.52622686106585], [39.69719478759642, 43.526135316309855], [39.69719582460076, 43.526225352223115], [39.69731956351012, 43.5262245976009], [39.69732163790122, 43.52640466941836], [39.69707519617636, 43.52649621444963]]]}, "properties": {"zone_id": "sochi-2025-08-17-013", "aoi": "sochi", "date": "2025-08-17", "scene_id": "S2C_MSIL2A_20250817T081621_R121_T37TEJ_20250817T140515", "scene_datetime_utc": "2025-08-17T08:16:21.025000+00:00", "detection_status": "detected", "detection_status_ru": "обнаружено", "lon": 39.69713, "lat": 43.52632, "n_pixels": 2, "zone_area_km2": 0.0008, "cover_m2": 9.0, "p_mean": 0.929, "p_max": 0.988, "cover_m2_km2": 11250.0, "h3": "882d5681b9fffff", "valid_frac_scene": 1.0, "wind_ms": 3.9, "sea": "спокойное", "scene_reliable": true, "field_event_id": "S4:DOORS3:T17", "field_profile": "B", "field_date": "2024-06-04", "field_distance_km": 179.1, "field_date_gap_days": 439, "field_conc_items_km2": 89.61, "conc_A_items_km2": null, "conc_A_lo80": null, "conc_A_hi80": null, "conc_A_lo95": null, "conc_A_hi95": null, "conc_A_status": "unavailable", "conc_A_status_ru": "концентрация недоступна", "conc_A_reasons": "вне бассейна профиля: nw_atlantic_subtropical", "conc_A_model": "conc-A-c6bce5631d2b", "conc_B_items_km2": 448.2, "conc_B_lo80": 95.5, "conc_B_hi80": 1506.6, "conc_B_lo95": 59.4, "conc_B_hi95": 2821.2, "conc_B_status": "research_estimate", "conc_B_status_ru": "исследовательская оценка", "conc_B_reasons": "ближайшее полевое измерение в 179 км (> 60 км); месяц 8 вне месяцев обучения [6]", "conc_B_model": "conc-B-c6bce5631d2b"}}, {"type": "Feature", "geometry": {"type": "Polygon", "coordinates": [[[39.684357653111974, 43.50712388742621], [39.68435663588039, 43.507033850967325], [39.684232935840825, 43.507034591302116], [39.684230901759456, 43.506854518375356], [39.68435460143135, 43.50685377804519], [39.6843535842139, 43.506763741581956], [39.684602000761046, 43.50685229698341], [39.68460301835087, 43.50694233344057], [39.684726718192486, 43.50694159270665], [39.68472773597086, 43.507031629160046], [39.68460403594541, 43.507032369896294], [39.68460505354466, 43.50712240635056], [39.684357653111974, 43.50712388742621]]]}, "properties": {"zone_id": "sochi-2025-08-17-014", "aoi": "sochi", "date": "2025-08-17", "scene_id": "S2C_MSIL2A_20250817T081621_R121_T37TEJ_20250817T140515", "scene_datetime_utc": "2025-08-17T08:16:21.025000+00:00", "detection_status": "detected", "detection_status_ru": "обнаружено", "lon": 39.68446, "lat": 43.50696, "n_pixels": 3, "zone_area_km2": 0.001, "cover_m2": 36.9, "p_mean": 0.706, "p_max": 0.992, "cover_m2_km2": 36900.0, "h3": "882d5681a1fffff", "valid_frac_scene": 1.0, "wind_ms": 3.9, "sea": "спокойное", "scene_reliable": true, "field_event_id": "S4:DOORS3:T17", "field_profile": "B", "field_date": "2024-06-04", "field_distance_km": 176.7, "field_date_gap_days": 439, "field_conc_items_km2": 89.61, "conc_A_items_km2": null, "conc_A_lo80": null, "conc_A_hi80": null, "conc_A_lo95": null, "conc_A_hi95": null, "conc_A_status": "unavailable", "conc_A_status_ru": "концентрация недоступна", "conc_A_reasons": "вне бассейна профиля: nw_atlantic_subtropical", "conc_A_model": "conc-A-c6bce5631d2b", "conc_B_items_km2": 406.7, "conc_B_lo80": 86.5, "conc_B_hi80": 1367.2, "conc_B_lo95": 53.9, "conc_B_hi95": 2560.3, "conc_B_status": "research_estimate", "conc_B_status_ru": "исследовательская оценка", "conc_B_reasons": "ближайшее полевое измерение в 177 км (> 60 км); месяц 8 вне месяцев обучения [6]", "conc_B_model": "conc-B-c6bce5631d2b"}}, {"type": "Feature", "geometry": {"type": "Polygon", "coordinates": [[[39.8428272555561, 43.50705600742074], [39.84282600279303, 43.50696597428589], [39.84270230745986, 43.506966886055565], [39.84270105488638, 43.506876852916406], [39.84282475003576, 43.50687594114959], [39.84282349728428, 43.50678590801183], [39.843070887198024, 43.50678408408248], [39.84307214031711, 43.50687411721454], [39.84319583544909, 43.50687320504631], [39.84319708875777, 43.50696323817406], [39.84307339344199, 43.506964150345134], [39.84307464657268, 43.5070541834743], [39.8428272555561, 43.50705600742074]]]}, "properties": {"zone_id": "sochi-2025-08-17-015", "aoi": "sochi", "date": "2025-08-17", "scene_id": "S2C_MSIL2A_20250817T081621_R121_T37TEJ_20250817T140515", "scene_datetime_utc": "2025-08-17T08:16:21.025000+00:00", "detection_status": "detected", "detection_status_ru": "обнаружено", "lon": 39.84295, "lat": 43.50692, "n_pixels": 2, "zone_area_km2": 0.0008, "cover_m2": 13.7, "p_mean": 0.786, "p_max": 0.925, "cover_m2_km2": 17125.0, "h3": "882d568dc9fffff", "valid_frac_scene": 1.0, "wind_ms": 3.9, "sea": "спокойное", "scene_reliable": true, "field_event_id": "S4:DOORS3:T17", "field_profile": "B", "field_date": "2024-06-04", "field_distance_km": 184.6, "field_date_gap_days": 439, "field_conc_items_km2": 89.61, "conc_A_items_km2": null, "conc_A_lo80": null, "conc_A_hi80": null, "conc_A_lo95": null, "conc_A_hi95": null, "conc_A_status": "unavailable", "conc_A_status_ru": "концентрация недоступна", "conc_A_reasons": "вне бассейна профиля: nw_atlantic_subtropical", "conc_A_model": "conc-A-c6bce5631d2b", "conc_B_items_km2": 621.6, "conc_B_lo80": 132.7, "conc_B_hi80": 2088.3, "conc_B_lo95": 82.8, "conc_B_hi95": 3910.2, "conc_B_status": "research_estimate", "conc_B_status_ru": "исследовательская оценка", "conc_B_reasons": "ближайшее полевое измерение в 185 км (> 60 км); месяц 8 вне месяцев обучения [6]; log_dist_coast_km = 1.0 вне диапазона обучения [1.7; 5.0]", "conc_B_model": "conc-B-c6bce5631d2b"}}, {"type": "Feature", "geometry": {"type": "Polygon", "coordinates": [[[39.67862169877655, 43.49203090736771], [39.67862069060165, 43.49194087056282], [39.678497021223244, 43.491941604490414], [39.678496013236696, 43.49185156768177], [39.678619682431396, 43.49185083375647], [39.67861867426583, 43.4917607969487], [39.67874234327218, 43.491760062891935], [39.67874133492758, 43.491670026085], [39.67898968127089, 43.4917585943772], [39.678990689987536, 43.4918486311781], [39.67886702080683, 43.49184936550463], [39.67886802934445, 43.49193940230639], [39.67862169877655, 43.49203090736771]]]}, "properties": {"zone_id": "sochi-2025-08-17-016", "aoi": "sochi", "date": "2025-08-17", "scene_id": "S2C_MSIL2A_20250817T081621_R121_T37TEJ_20250817T140515", "scene_datetime_utc": "2025-08-17T08:16:21.025000+00:00", "detection_status": "detected", "detection_status_ru": "обнаружено", "lon": 39.67874, "lat": 43.49185, "n_pixels": 2, "zone_area_km2": 0.0008, "cover_m2": 19.6, "p_mean": 0.802, "p_max": 1.0, "cover_m2_km2": 24500.0, "h3": "882d568ad7fffff", "valid_frac_scene": 1.0, "wind_ms": 3.9, "sea": "спокойное", "scene_reliable": true, "field_event_id": "S4:DOORS3:T17", "field_profile": "B", "field_date": "2024-06-04", "field_distance_km": 175.1, "field_date_gap_days": 439, "field_conc_items_km2": 89.61, "conc_A_items_km2": null, "conc_A_lo80": null, "conc_A_hi80": null, "conc_A_lo95": null, "conc_A_hi95": null, "conc_A_status": "unavailable", "conc_A_status_ru": "концентрация недоступна", "conc_A_reasons": "вне бассейна профиля: nw_atlantic_subtropical", "conc_A_model": "conc-A-c6bce5631d2b", "conc_B_items_km2": 385.1, "conc_B_lo80": 81.9, "conc_B_hi80": 1294.8, "conc_B_lo95": 51.0, "conc_B_hi95": 2424.8, "conc_B_status": "research_estimate", "conc_B_status_ru": "исследовательская оценка", "conc_B_reasons": "ближайшее полевое измерение в 175 км (> 60 км); месяц 8 вне месяцев обучения [6]", "conc_B_model": "conc-B-c6bce5631d2b"}}, {"type": "Feature", "geometry": {"type": "Polygon", "coordinates": [[[39.86066894141853, 43.48288173586427], [39.8606676632166, 43.48279170276489], [39.86054401778928, 43.4827926334257], [39.8605414617703, 43.48261256721677], [39.860787473516986, 43.482520672672266], [39.86078875188474, 43.4826107057731], [39.86091239693309, 43.48260977485073], [39.860914954053506, 43.4827898410422], [39.86066894141853, 43.48288173586427]]]}, "properties": {"zone_id": "sochi-2025-08-17-017", "aoi": "sochi", "date": "2025-08-17", "scene_id": "S2C_MSIL2A_20250817T081621_R121_T37TEJ_20250817T140515", "scene_datetime_utc": "2025-08-17T08:16:21.025000+00:00", "detection_status": "detected", "detection_status_ru": "обнаружено", "lon": 39.86073, "lat": 43.4827, "n_pixels": 2, "zone_area_km2": 0.0008, "cover_m2": 6.7, "p_mean": 0.896, "p_max": 0.953, "cover_m2_km2": 8375.0, "h3": "882d568debfffff", "valid_frac_scene": 1.0, "wind_ms": 3.9, "sea": "спокойное", "scene_reliable": true, "field_event_id": "S4:DOORS3:T17", "field_profile": "B", "field_date": "2024-06-04", "field_distance_km": 183.4, "field_date_gap_days": 439, "field_conc_items_km2": 89.61, "conc_A_items_km2": null, "conc_A_lo80": null, "conc_A_hi80": null, "conc_A_lo95": null, "conc_A_hi95": null, "conc_A_status": "unavailable", "conc_A_status_ru": "концентрация недоступна", "conc_A_reasons": "вне бассейна профиля: nw_atlantic_subtropical", "conc_A_model": "conc-A-c6bce5631d2b", "conc_B_items_km2": 591.0, "conc_B_lo80": 126.1, "conc_B_hi80": 1985.7, "conc_B_lo95": 78.7, "conc_B_hi95": 3718.2, "conc_B_status": "research_estimate", "conc_B_status_ru": "исследовательская оценка", "conc_B_reasons": "ближайшее полевое измерение в 183 км (> 60 км); месяц 8 вне месяцев обучения [6]; log_dist_coast_km = 1.2 вне диапазона обучения [1.7; 5.0]", "conc_B_model": "conc-B-c6bce5631d2b"}}, {"type": "Feature", "geometry": {"type": "Polygon", "coordinates": [[[39.82168977825681, 43.480917433140355], [39.82168855802347, 43.48082739910895], [39.82156491536479, 43.48082828758881], [39.82156125524929, 43.48055818547752], [39.821807319065314, 43.480466374366344], [39.82180853945964, 43.48055640840078], [39.822057044414485, 43.480644664816744], [39.82205826518722, 43.48073469884273], [39.82181220067649, 43.480826510495405], [39.82181342109341, 43.480916544524035], [39.82168977825681, 43.480917433140355]]]}, "properties": {"zone_id": "sochi-2025-08-17-018", "aoi": "sochi", "date": "2025-08-17", "scene_id": "S2C_MSIL2A_20250817T081621_R121_T37TEJ_20250817T140515", "scene_datetime_utc": "2025-08-17T08:16:21.025000+00:00", "detection_status": "detected", "detection_status_ru": "обнаружено", "lon": 39.82178, "lat": 43.48069, "n_pixels": 4, "zone_area_km2": 0.0012, "cover_m2": 29.0, "p_mean": 0.918, "p_max": 0.996, "cover_m2_km2": 24166.7, "h3": "882d568d1dfffff", "valid_frac_scene": 1.0, "wind_ms": 3.9, "sea": "спокойное", "scene_reliable": true, "field_event_id": "S4:DOORS3:T17", "field_profile": "B", "field_date": "2024-06-04", "field_distance_km": 181.2, "field_date_gap_days": 439, "field_conc_items_km2": 89.61, "conc_A_items_km2": null, "conc_A_lo80": null, "conc_A_hi80": null, "conc_A_lo95": null, "conc_A_hi95": null, "conc_A_status": "unavailable", "conc_A_status_ru": "концентрация недоступна", "conc_A_reasons": "вне бассейна профиля: nw_atlantic_subtropical", "conc_A_model": "conc-A-c6bce5631d2b", "conc_B_items_km2": 490.1, "conc_B_lo80": 104.4, "conc_B_hi80": 1647.0, "conc_B_lo95": 65.1, "conc_B_hi95": 3084.0, "conc_B_status": "research_estimate", "conc_B_status_ru": "исследовательская оценка", "conc_B_reasons": "ближайшее полевое измерение в 181 км (> 60 км); месяц 8 вне месяцев обучения [6]", "conc_B_model": "conc-B-c6bce5631d2b"}}, {"type": "Feature", "geometry": {"type": "Polygon", "coordinates": [[[39.87582927573472, 43.47088096386479], [39.875827975564135, 43.470790930937454], [39.875704355100424, 43.47079187778423], [39.8757017551442, 43.47061181191924], [39.87582537524099, 43.47061086507839], [39.87582407508845, 43.47052083214666], [39.87607131489709, 43.47051893807], [39.87607261541654, 43.47060897099579], [39.876196235495286, 43.47060802375406], [39.87619753620422, 43.47069805667544], [39.876073915942015, 43.47069900392013], [39.8760752164735, 43.47078903684301], [39.87582927573472, 43.47088096386479]]]}, "properties": {"zone_id": "sochi-2025-08-17-019", "aoi": "sochi", "date": "2025-08-17", "scene_id": "S2C_MSIL2A_20250817T081621_R121_T37TEJ_20250817T140515", "scene_datetime_utc": "2025-08-17T08:16:21.025000+00:00", "detection_status": "detected", "detection_status_ru": "обнаружено", "lon": 39.87593, "lat": 43.47069, "n_pixels": 3, "zone_area_km2": 0.001, "cover_m2": 16.5, "p_mean": 0.966, "p_max": 0.996, "cover_m2_km2": 16500.0, "h3": "882d568de7fffff", "valid_frac_scene": 1.0, "wind_ms": 3.9, "sea": "спокойное", "scene_reliable": true, "field_event_id": "S4:DOORS3:T17", "field_profile": "B", "field_date": "2024-06-04", "field_distance_km": 183.2, "field_date_gap_days": 439, "field_conc_items_km2": 89.61, "conc_A_items_km2": null, "conc_A_lo80": null, "conc_A_hi80": null, "conc_A_lo95": null, "conc_A_hi95": null, "conc_A_status": "unavailable", "conc_A_status_ru": "концентрация недоступна", "conc_A_reasons": "вне бассейна профиля: nw_atlantic_subtropical", "conc_A_model": "conc-A-c6bce5631d2b", "conc_B_items_km2": 666.4, "conc_B_lo80": 142.3, "conc_B_hi80": 2238.8, "conc_B_lo95": 88.8, "conc_B_hi95": 4191.9, "conc_B_status": "research_estimate", "conc_B_status_ru": "исследовательская оценка", "conc_B_reasons": "ближайшее полевое измерение в 183 км (> 60 км); месяц 8 вне месяцев обучения [6]; log_dist_coast_km = 0.9 вне диапазона обучения [1.7; 5.0]", "conc_B_model": "conc-B-c6bce5631d2b"}}, {"type": "Feature", "geometry": {"type": "Polygon", "coordinates": [[[39.90287263833149, 43.43546375546724], [39.90287129967385, 43.43537372264103], [39.90274775223665, 43.435374698093156], [39.90274641376833, 43.43528466526245], [39.90286996102241, 43.43528368981337], [39.90286862237715, 43.43519365698424], [39.90311571650051, 43.43519170569179], [39.903117055512, 43.43528173851481], [39.9032406027475, 43.435280762665364], [39.9032419419483, 43.43537079548386], [39.90311839452967, 43.435371771336385], [39.90311973355355, 43.435461804156496], [39.90287263833149, 43.43546375546724]]]}, "properties": {"zone_id": "sochi-2025-08-17-020", "aoi": "sochi", "date": "2025-08-17", "scene_id": "S2C_MSIL2A_20250817T081621_R121_T37TEJ_20250817T140515", "scene_datetime_utc": "2025-08-17T08:16:21.025000+00:00", "detection_status": "detected", "detection_status_ru": "обнаружено", "lon": 39.90299, "lat": 43.43533, "n_pixels": 2, "zone_area_km2": 0.0008, "cover_m2": 17.6, "p_mean": 0.906, "p_max": 0.992, "cover_m2_km2": 22000.0, "h3": "882d5612b9fffff", "valid_frac_scene": 1.0, "wind_ms": 3.9, "sea": "спокойное", "scene_reliable": true, "field_event_id": "S4:DOORS3:T23", "field_profile": "B", "field_date": "2024-06-10", "field_distance_km": 181.0, "field_date_gap_days": 433, "field_conc_items_km2": 102.37, "conc_A_items_km2": null, "conc_A_lo80": null, "conc_A_hi80": null, "conc_A_lo95": null, "conc_A_hi95": null, "conc_A_status": "unavailable", "conc_A_status_ru": "концентрация недоступна", "conc_A_reasons": "вне бассейна профиля: nw_atlantic_subtropical", "conc_A_model": "conc-A-c6bce5631d2b", "conc_B_items_km2": 666.4, "conc_B_lo80": 142.3, "conc_B_hi80": 2238.8, "conc_B_lo95": 88.8, "conc_B_hi95": 4191.9, "conc_B_status": "research_estimate", "conc_B_status_ru": "исследовательская оценка", "conc_B_reasons": "ближайшее полевое измерение в 181 км (> 60 км); месяц 8 вне месяцев обучения [6]; log_dist_coast_km = 0.9 вне диапазона обучения [1.7; 5.0]", "conc_B_model": "conc-B-c6bce5631d2b"}}, {"type": "Feature", "geometry": {"type": "Polygon", "coordinates": [[[39.90641915370188, 43.42472052411902], [39.906417810290186, 43.42463049121118], [39.906294284824085, 43.42463147030278], [39.90629294160162, 43.424541437390424], [39.9064164668847, 43.4245404583019], [39.90641512348544, 43.42445042539114], [39.90666217366693, 43.42444846681997], [39.90666351743223, 43.42453849972459], [39.90678704269667, 43.42453752023582], [39.90678838665121, 43.42462755313593], [39.906664861203744, 43.424628532627764], [39.90666620498147, 43.424718565529474], [39.90641915370188, 43.42472052411902]]]}, "properties": {"zone_id": "sochi-2025-08-17-021", "aoi": "sochi", "date": "2025-08-17", "scene_id": "S2C_MSIL2A_20250817T081621_R121_T37TEJ_20250817T140515", "scene_datetime_utc": "2025-08-17T08:16:21.025000+00:00", "detection_status": "detected", "detection_status_ru": "обнаружено", "lon": 39.90654, "lat": 43.42458, "n_pixels": 2, "zone_area_km2": 0.0008, "cover_m2": 21.2, "p_mean": 0.894, "p_max": 0.91, "cover_m2_km2": 26500.0, "h3": "882d5612bdfffff", "valid_frac_scene": 1.0, "wind_ms": 3.9, "sea": "спокойное", "scene_reliable": true, "field_event_id": "S4:DOORS3:T23", "field_profile": "B", "field_date": "2024-06-10", "field_distance_km": 180.0, "field_date_gap_days": 433, "field_conc_items_km2": 102.37, "conc_A_items_km2": null, "conc_A_lo80": null, "conc_A_hi80": null, "conc_A_lo95": null, "conc_A_hi95": null, "conc_A_status": "unavailable", "conc_A_status_ru": "концентрация недоступна", "conc_A_reasons": "вне бассейна профиля: nw_atlantic_subtropical", "conc_A_model": "conc-A-c6bce5631d2b", "conc_B_items_km2": 591.0, "conc_B_lo80": 126.1, "conc_B_hi80": 1985.7, "conc_B_lo95": 78.7, "conc_B_hi95": 3718.2, "conc_B_status": "research_estimate", "conc_B_status_ru": "исследовательская оценка", "conc_B_reasons": "ближайшее полевое измерение в 180 км (> 60 км); месяц 8 вне месяцев обучения [6]; log_dist_coast_km = 1.2 вне диапазона обучения [1.7; 5.0]", "conc_B_model": "conc-B-c6bce5631d2b"}}, {"type": "Feature", "geometry": {"type": "Polygon", "coordinates": [[[39.90402795074491, 43.4217680154601], [39.904026611015, 43.42167798244611], [39.90390309147015, 43.421678958902184], [39.90390175192943, 43.421588925883704], [39.90365471318713, 43.421590878389516], [39.90365337401858, 43.42150084536348], [39.90352985482113, 43.42150182141325], [39.90352851584176, 43.42141178838269], [39.90365203485623, 43.42141081233597], [39.903650695700065, 43.421320779307024], [39.90402125215734, 43.42131785037567], [39.904022591862464, 43.42140788339547], [39.90414611085215, 43.42140690681517], [39.90414745074646, 43.42149693983046], [39.904270969912936, 43.42149596311372], [39.90427365008612, 43.42167602913383], [39.90402795074491, 43.4217680154601]]]}, "properties": {"zone_id": "sochi-2025-08-17-022", "aoi": "sochi", "date": "2025-08-17", "scene_id": "S2C_MSIL2A_20250817T081621_R121_T37TEJ_20250817T140515", "scene_datetime_utc": "2025-08-17T08:16:21.025000+00:00", "detection_status": "detected", "detection_status_ru": "обнаружено", "lon": 39.90394, "lat": 43.42151, "n_pixels": 5, "zone_area_km2": 0.0017, "cover_m2": 21.2, "p_mean": 0.87, "p_max": 0.996, "cover_m2_km2": 12470.6, "h3": "882d5612a3fffff", "valid_frac_scene": 1.0, "wind_ms": 3.9, "sea": "спокойное", "scene_reliable": true, "field_event_id": "S4:DOORS3:T23", "field_profile": "B", "field_date": "2024-06-10", "field_distance_km": 180.0, "field_date_gap_days": 433, "field_conc_items_km2": 102.37, "conc_A_items_km2": null, "conc_A_lo80": null, "conc_A_hi80": null, "conc_A_lo95": null, "conc_A_hi95": null, "conc_A_status": "unavailable", "conc_A_status_ru": "концентрация недоступна", "conc_A_reasons": "вне бассейна профиля: nw_atlantic_subtropical", "conc_A_model": "conc-A-c6bce5631d2b", "conc_B_items_km2": 591.0, "conc_B_lo80": 126.1, "conc_B_hi80": 1985.7, "conc_B_lo95": 78.7, "conc_B_hi95": 3718.2, "conc_B_status": "research_estimate", "conc_B_status_ru": "исследовательская оценка", "conc_B_reasons": "ближайшее полевое измерение в 180 км (> 60 км); месяц 8 вне месяцев обучения [6]; log_dist_coast_km = 1.2 вне диапазона обучения [1.7; 5.0]", "conc_B_model": "conc-B-c6bce5631d2b"}}, {"type": "Feature", "geometry": {"type": "Polygon", "coordinates": [[[39.90657349889423, 43.41850629189504], [39.906572155545184, 43.41841625889284], [39.90644864271766, 43.41841723804], [39.90644595640411, 43.418237172025115], [39.906569468865726, 43.41823619288407], [39.90656812553531, 43.418146159877516], [39.90681649377031, 43.41823423420184], [39.90681783747285, 43.41832426720083], [39.906941350098776, 43.418323287656584], [39.90694269399049, 43.418413320651055], [39.906819181181596, 43.41841430019836], [39.90682052489657, 43.41850433319443], [39.90657349889423, 43.41850629189504]]]}, "properties": {"zone_id": "sochi-2025-08-17-023", "aoi": "sochi", "date": "2025-08-17", "scene_id": "S2C_MSIL2A_20250817T081621_R121_T37TEJ_20250817T140515", "scene_datetime_utc": "2025-08-17T08:16:21.025000+00:00", "detection_status": "detected", "detection_status_ru": "обнаружено", "lon": 39.90667, "lat": 43.41834, "n_pixels": 3, "zone_area_km2": 0.001, "cover_m2": 14.5, "p_mean": 0.974, "p_max": 1.0, "cover_m2_km2": 14500.0, "h3": "882d5612a3fffff", "valid_frac_scene": 1.0, "wind_ms": 3.9, "sea": "спокойное", "scene_reliable": true, "field_event_id": "S4:DOORS3:T23", "field_profile": "B", "field_date": "2024-06-10", "field_distance_km": 179.6, "field_date_gap_days": 433, "field_conc_items_km2": 102.37, "conc_A_items_km2": null, "conc_A_lo80": null, "conc_A_hi80": null, "conc_A_lo95": null, "conc_A_hi95": null, "conc_A_status": "unavailable", "conc_A_status_ru": "концентрация недоступна", "conc_A_reasons": "вне бассейна профиля: nw_atlantic_subtropical", "conc_A_model": "conc-A-c6bce5631d2b", "conc_B_items_km2": 591.0, "conc_B_lo80": 126.1, "conc_B_hi80": 1985.7, "conc_B_lo95": 78.7, "conc_B_hi95": 3718.2, "conc_B_status": "research_estimate", "conc_B_status_ru": "исследовательская оценка", "conc_B_reasons": "ближайшее полевое измерение в 180 км (> 60 км); месяц 8 вне месяцев обучения [6]; log_dist_coast_km = 1.2 вне диапазона обучения [1.7; 5.0]", "conc_B_model": "conc-B-c6bce5631d2b"}}, {"type": "Feature", "geometry": {"type": "Polygon", "coordinates": [[[39.926399972299826, 43.40637157313771], [39.926398600155935, 43.40628154044306], [39.926275112670965, 43.406282540781675], [39.9262723687679, 43.40610247538175], [39.92651797069243, 43.40601044188785], [39.92651934300012, 43.40610047458373], [39.92664283010673, 43.40609947398474], [39.92664557510683, 43.40627953936589], [39.926399972299826, 43.40637157313771]]]}, "properties": {"zone_id": "sochi-2025-08-17-024", "aoi": "sochi", "date": "2025-08-17", "scene_id": "S2C_MSIL2A_20250817T081621_R121_T37TEJ_20250817T140515", "scene_datetime_utc": "2025-08-17T08:16:21.025000+00:00", "detection_status": "detected", "detection_status_ru": "обнаружено", "lon": 39.92646, "lat": 43.40619, "n_pixels": 2, "zone_area_km2": 0.0008, "cover_m2": 8.2, "p_mean": 0.875, "p_max": 0.902, "cover_m2_km2": 10250.0, "h3": "882d5610c1fffff", "valid_frac_scene": 1.0, "wind_ms": 3.9, "sea": "спокойное", "scene_reliable": true, "field_event_id": "S4:DOORS3:T23", "field_profile": "B", "field_date": "2024-06-10", "field_distance_km": 177.5, "field_date_gap_days": 433, "field_conc_items_km2": 102.37, "conc_A_items_km2": null, "conc_A_lo80": null, "conc_A_hi80": null, "conc_A_lo95": null, "conc_A_hi95": null, "conc_A_status": "unavailable", "conc_A_status_ru": "концентрация недоступна", "conc_A_reasons": "вне бассейна профиля: nw_atlantic_subtropical", "conc_A_model": "conc-A-c6bce5631d2b", "conc_B_items_km2": 666.4, "conc_B_lo80": 142.3, "conc_B_hi80": 2238.8, "conc_B_lo95": 88.8, "conc_B_hi95": 4191.9, "conc_B_status": "research_estimate", "conc_B_status_ru": "исследовательская оценка", "conc_B_reasons": "ближайшее полевое измерение в 177 км (> 60 км); месяц 8 вне месяцев обучения [6]; log_dist_coast_km = 0.9 вне диапазона обучения [1.7; 5.0]", "conc_B_model": "conc-B-c6bce5631d2b"}}, {"type": "Feature", "geometry": {"type": "Polygon", "coordinates": [[[39.92817805177964, 43.40149478695199], [39.928176677236344, 43.401404754225595], [39.928053199718754, 43.40140575639482], [39.928051825364605, 43.40131572366382], [39.92817530269941, 43.401314721497734], [39.928173928168825, 43.401224688768416], [39.92842088245377, 43.40122268404259], [39.92842225734994, 43.40131271676564], [39.928545734665676, 43.401311714199636], [39.928547109751, 43.401401746918104], [39.928423632252475, 43.401402749487225], [39.92842500716135, 43.40149278220737], [39.92817805177964, 43.40149478695199]]]}, "properties": {"zone_id": "sochi-2025-08-17-025", "aoi": "sochi", "date": "2025-08-17", "scene_id": "S2C_MSIL2A_20250817T081621_R121_T37TEJ_20250817T140515", "scene_datetime_utc": "2025-08-17T08:16:21.025000+00:00", "detection_status": "detected", "detection_status_ru": "обнаружено", "lon": 39.9283, "lat": 43.40136, "n_pixels": 2, "zone_area_km2": 0.0008, "cover_m2": 11.8, "p_mean": 0.933, "p_max": 1.0, "cover_m2_km2": 14750.0, "h3": "882d5610c5fffff", "valid_frac_scene": 1.0, "wind_ms": 3.9, "sea": "спокойное", "scene_reliable": true, "field_event_id": "S4:DOORS3:T23", "field_profile": "B", "field_date": "2024-06-10", "field_distance_km": 177.0, "field_date_gap_days": 433, "field_conc_items_km2": 102.37, "conc_A_items_km2": null, "conc_A_lo80": null, "conc_A_hi80": null, "conc_A_lo95": null, "conc_A_hi95": null, "conc_A_status": "unavailable", "conc_A_status_ru": "концентрация недоступна", "conc_A_reasons": "вне бассейна профиля: nw_atlantic_subtropical", "conc_A_model": "conc-A-c6bce5631d2b", "conc_B_items_km2": 666.4, "conc_B_lo80": 142.3, "conc_B_hi80": 2238.8, "conc_B_lo95": 88.8, "conc_B_hi95": 4191.9, "conc_B_status": "research_estimate", "conc_B_status_ru": "исследовательская оценка", "conc_B_reasons": "ближайшее полевое измерение в 177 км (> 60 км); месяц 8 вне месяцев обучения [6]; log_dist_coast_km = 0.9 вне диапазона обучения [1.7; 5.0]", "conc_B_model": "conc-B-c6bce5631d2b"}}, {"type": "Feature", "geometry": {"type": "Polygon", "coordinates": [[[39.92725878214602, 43.397900488288975], [39.92725740913622, 43.39781045548234], [39.92713393888527, 43.39781145659326], [39.92713256606457, 43.39772142378204], [39.92725603613276, 43.397720422674254], [39.92725466313565, 43.39763038986469], [39.92750297625009, 43.397718420058816], [39.92750434961907, 43.39780845286065], [39.92738087938081, 43.39780945423814], [39.92738225257338, 43.397899487041634], [39.92725878214602, 43.397900488288975]]]}, "properties": {"zone_id": "sochi-2025-08-17-026", "aoi": "sochi", "date": "2025-08-17", "scene_id": "S2C_MSIL2A_20250817T081621_R121_T37TEJ_20250817T140515", "scene_datetime_utc": "2025-08-17T08:16:21.025000+00:00", "detection_status": "detected", "detection_status_ru": "обнаружено", "lon": 39.92732, "lat": 43.39776, "n_pixels": 1, "zone_area_km2": 0.0005, "cover_m2": 5.1, "p_mean": 0.553, "p_max": 0.553, "cover_m2_km2": 10200.0, "h3": "882d5610ebfffff", "valid_frac_scene": 1.0, "wind_ms": 3.9, "sea": "спокойное", "scene_reliable": true, "field_event_id": "S4:DOORS3:T23", "field_profile": "B", "field_date": "2024-06-10", "field_distance_km": 176.8, "field_date_gap_days": 433, "field_conc_items_km2": 102.37, "conc_A_items_km2": null, "conc_A_lo80": null, "conc_A_hi80": null, "conc_A_lo95": null, "conc_A_hi95": null, "conc_A_status": "unavailable", "conc_A_status_ru": "концентрация недоступна", "conc_A_reasons": "вне бассейна профиля: nw_atlantic_subtropical", "conc_A_model": "conc-A-c6bce5631d2b", "conc_B_items_km2": 666.4, "conc_B_lo80": 142.3, "conc_B_hi80": 2238.8, "conc_B_lo95": 88.8, "conc_B_hi95": 4191.9, "conc_B_status": "research_estimate", "conc_B_status_ru": "исследовательская оценка", "conc_B_reasons": "ближайшее полевое измерение в 177 км (> 60 км); месяц 8 вне месяцев обучения [6]; log_dist_coast_km = 0.9 вне диапазона обучения [1.7; 5.0]", "conc_B_model": "conc-B-c6bce5631d2b"}}, {"type": "Feature", "geometry": {"type": "Polygon", "coordinates": [[[39.92343119575371, 43.397931460847516], [39.92342982840952, 43.39784142794405], [39.92330635796222, 43.397842424923184], [39.92330362365832, 43.39766235910562], [39.923427093740095, 43.39766136213272], [39.92342572641486, 43.39757132922487], [39.92367266619393, 43.39756933488547], [39.92367403388468, 43.39765936778708], [39.92379750394749, 43.397658370414334], [39.923798871827316, 43.39774840331138], [39.923675401581754, 43.39774940068724], [39.923676769285144, 43.39783943358594], [39.92343119575371, 43.397931460847516]]]}, "properties": {"zone_id": "sochi-2025-08-17-027", "aoi": "sochi", "date": "2025-08-17", "scene_id": "S2C_MSIL2A_20250817T081621_R121_T37TEJ_20250817T140515", "scene_datetime_utc": "2025-08-17T08:16:21.025000+00:00", "detection_status": "detected", "detection_status_ru": "обнаружено", "lon": 39.92353, "lat": 43.39774, "n_pixels": 3, "zone_area_km2": 0.001, "cover_m2": 19.2, "p_mean": 0.839, "p_max": 0.988, "cover_m2_km2": 19200.0, "h3": "882d5610c5fffff", "valid_frac_scene": 1.0, "wind_ms": 3.9, "sea": "спокойное", "scene_reliable": true, "field_event_id": "S4:DOORS3:T23", "field_profile": "B", "field_date": "2024-06-10", "field_distance_km": 177.0, "field_date_gap_days": 433, "field_conc_items_km2": 102.37, "conc_A_items_km2": null, "conc_A_lo80": null, "conc_A_hi80": null, "conc_A_lo95": null, "conc_A_hi95": null, "conc_A_status": "unavailable", "conc_A_status_ru": "концентрация недоступна", "conc_A_reasons": "вне бассейна профиля: nw_atlantic_subtropical", "conc_A_model": "conc-A-c6bce5631d2b", "conc_B_items_km2": 591.0, "conc_B_lo80": 126.1, "conc_B_hi80": 1985.7, "conc_B_lo95": 78.7, "conc_B_hi95": 3718.2, "conc_B_status": "research_estimate", "conc_B_status_ru": "исследовательская оценка", "conc_B_reasons": "ближайшее полевое измерение в 177 км (> 60 км); месяц 8 вне месяцев обучения [6]; log_dist_coast_km = 1.2 вне диапазона обучения [1.7; 5.0]", "conc_B_model": "conc-B-c6bce5631d2b"}}, {"type": "Feature", "geometry": {"type": "Polygon", "coordinates": [[[39.91202595692234, 43.39496149605714], [39.91202460660469, 43.394871462819104], [39.91190114179298, 43.39487244743136], [39.9118997916643, 43.394782414188775], [39.91202325629327, 43.3947814295796], [39.9120219059881, 43.39469139633866], [39.91226883486185, 43.394689426726636], [39.9122701855325, 43.394779459961434], [39.91239365014274, 43.39477847495243], [39.91239500100236, 43.394868508182704], [39.91227153620939, 43.39486949319476], [39.91227288689252, 43.394959526426646], [39.91202595692234, 43.39496149605714]]]}, "properties": {"zone_id": "sochi-2025-08-17-028", "aoi": "sochi", "date": "2025-08-17", "scene_id": "S2C_MSIL2A_20250817T081621_R121_T37TEJ_20250817T140515", "scene_datetime_utc": "2025-08-17T08:16:21.025000+00:00", "detection_status": "detected", "detection_status_ru": "обнаружено", "lon": 39.91215, "lat": 43.39483, "n_pixels": 2, "zone_area_km2": 0.0008, "cover_m2": 13.3, "p_mean": 0.751, "p_max": 0.89, "cover_m2_km2": 16625.0, "h3": "882d561013fffff", "valid_frac_scene": 1.0, "wind_ms": 3.9, "sea": "спокойное", "scene_reliable": true, "field_event_id": "S4:DOORS3:T23", "field_profile": "B", "field_date": "2024-06-10", "field_distance_km": 177.5, "field_date_gap_days": 433, "field_conc_items_km2": 102.37, "conc_A_items_km2": null, "conc_A_lo80": null, "conc_A_hi80": null, "conc_A_lo95": null, "conc_A_hi95": null, "conc_A_status": "unavailable", "conc_A_status_ru": "концентрация недоступна", "conc_A_reasons": "вне бассейна профиля: nw_atlantic_subtropical", "conc_A_model": "conc-A-c6bce5631d2b", "conc_B_items_km2": 539.0, "conc_B_lo80": 114.9, "conc_B_hi80": 1811.2, "conc_B_lo95": 71.7, "conc_B_hi95": 3391.5, "conc_B_status": "research_estimate", "conc_B_status_ru": "исследовательская оценка", "conc_B_reasons": "ближайшее полевое измерение в 178 км (> 60 км); месяц 8 вне месяцев обучения [6]", "conc_B_model": "conc-B-c6bce5631d2b"}}, {"type": "Feature", "geometry": {"type": "Polygon", "coordinates": [[[39.92004435721855, 43.394447044993214], [39.920042995054565, 43.394357011948884], [39.91991953156402, 43.39435800520822], [39.91991816958905, 43.394267972159334], [39.92004163289687, 43.39426697890309], [39.920040270745474, 43.394176945855854], [39.920163733864264, 43.39417595246947], [39.92016237153644, 43.39408591942388], [39.92041066008295, 43.394173965296886], [39.92041338548841, 43.39435403137127], [39.92028992201676, 43.39435502503041], [39.9202912845462, 43.39444505806852], [39.92004435721855, 43.394447044993214]]]}, "properties": {"zone_id": "sochi-2025-08-17-029", "aoi": "sochi", "date": "2025-08-17", "scene_id": "S2C_MSIL2A_20250817T081621_R121_T37TEJ_20250817T140515", "scene_datetime_utc": "2025-08-17T08:16:21.025000+00:00", "detection_status": "detected", "detection_status_ru": "обнаружено", "lon": 39.92019, "lat": 43.39428, "n_pixels": 3, "zone_area_km2": 0.001, "cover_m2": 25.9, "p_mean": 0.831, "p_max": 0.945, "cover_m2_km2": 25900.0, "h3": "882d5610e9fffff", "valid_frac_scene": 1.0, "wind_ms": 3.9, "sea": "спокойное", "scene_reliable": true, "field_event_id": "S4:DOORS3:T23", "field_profile": "B", "field_date": "2024-06-10", "field_distance_km": 177.0, "field_date_gap_days": 433, "field_conc_items_km2": 102.37, "conc_A_items_km2": null, "conc_A_lo80": null, "conc_A_hi80": null, "conc_A_lo95": null, "conc_A_hi95": null, "conc_A_status": "unavailable", "conc_A_status_ru": "концентрация недоступна", "conc_A_reasons": "вне бассейна профиля: nw_atlantic_subtropical", "conc_A_model": "conc-A-c6bce5631d2b", "conc_B_items_km2": 539.0, "conc_B_lo80": 114.9, "conc_B_hi80": 1811.2, "conc_B_lo95": 71.7, "conc_B_hi95": 3391.5, "conc_B_status": "research_estimate", "conc_B_status_ru": "исследовательская оценка", "conc_B_reasons": "ближайшее полевое измерение в 177 км (> 60 км); месяц 8 вне месяцев обучения [6]", "conc_B_model": "conc-B-c6bce5631d2b"}}, {"type": "Feature", "geometry": {"type": "Polygon", "coordinates": [[[39.935406639421124, 43.38973017054961], [39.93540525474262, 43.389640137822376], [39.935281801363644, 43.38964114757906], [39.93528041687422, 43.38955111484722], [39.93540387007051, 43.3895501050937], [39.93540248540479, 43.38946007236355], [39.93565077644388, 43.38954808518692], [39.93565216148134, 43.389638117909286], [39.93552870811518, 43.389639127932455], [39.93553009297637, 43.38972916065653], [39.935406639421124, 43.38973017054961]]]}, "properties": {"zone_id": "sochi-2025-08-17-030", "aoi": "sochi", "date": "2025-08-17", "scene_id": "S2C_MSIL2A_20250817T081621_R121_T37TEJ_20250817T140515", "scene_datetime_utc": "2025-08-17T08:16:21.025000+00:00", "detection_status": "detected", "detection_status_ru": "обнаружено", "lon": 39.93547, "lat": 43.38959, "n_pixels": 1, "zone_area_km2": 0.0005, "cover_m2": 9.0, "p_mean": 0.514, "p_max": 0.514, "cover_m2_km2": 18000.0, "h3": "882d5610e1fffff", "valid_frac_scene": 1.0, "wind_ms": 3.9, "sea": "спокойное", "scene_reliable": true, "field_event_id": "S4:DOORS3:T23", "field_profile": "B", "field_date": "2024-06-10", "field_distance_km": 175.7, "field_date_gap_days": 433, "field_conc_items_km2": 102.37, "conc_A_items_km2": null, "conc_A_lo80": null, "conc_A_hi80": null, "conc_A_lo95": null, "conc_A_hi95": null, "conc_A_status": "unavailable", "conc_A_status_ru": "концентрация недоступна", "conc_A_reasons": "вне бассейна профиля: nw_atlantic_subtropical", "conc_A_model": "conc-A-c6bce5631d2b", "conc_B_items_km2": 591.0, "conc_B_lo80": 126.1, "conc_B_hi80": 1985.7, "conc_B_lo95": 78.7, "conc_B_hi95": 3718.2, "conc_B_status": "research_estimate", "conc_B_status_ru": "исследовательская оценка", "conc_B_reasons": "ближайшее полевое измерение в 176 км (> 60 км); месяц 8 вне месяцев обучения [6]; log_dist_coast_km = 1.2 вне диапазона обучения [1.7; 5.0]", "conc_B_model": "conc-B-c6bce5631d2b"}}, {"type": "Feature", "geometry": {"type": "Polygon", "coordinates": [[[39.96591283359827, 43.382543173096245], [39.965911404124384, 43.38245314105238], [39.96566309961102, 43.38236519396675], [39.965661670515566, 43.382275161913434], [39.96578510785931, 43.38227411950346], [39.96578367858785, 43.38218408745194], [39.9660305528903, 43.38218200223887], [39.96603198252697, 43.38227203428386], [39.96615541985089, 43.38227099147424], [39.966158279509266, 43.38245105555333], [39.96591283359827, 43.382543173096245]]]}, "properties": {"zone_id": "sochi-2025-08-17-031", "aoi": "sochi", "date": "2025-08-17", "scene_id": "S2C_MSIL2A_20250817T081621_R121_T37TEJ_20250817T140515", "scene_datetime_utc": "2025-08-17T08:16:21.025000+00:00", "detection_status": "detected", "detection_status_ru": "обнаружено", "lon": 39.96593, "lat": 43.38235, "n_pixels": 3, "zone_area_km2": 0.001, "cover_m2": 9.0, "p_mean": 0.894, "p_max": 0.949, "cover_m2_km2": 9000.0, "h3": "882d5610a1fffff", "valid_frac_scene": 1.0, "wind_ms": 3.9, "sea": "спокойное", "scene_reliable": true, "field_event_id": "S4:DOORS3:T23", "field_profile": "B", "field_date": "2024-06-10", "field_distance_km": 173.3, "field_date_gap_days": 433, "field_conc_items_km2": 102.37, "conc_A_items_km2": null, "conc_A_lo80": null, "conc_A_hi80": null, "conc_A_lo95": null, "conc_A_hi95": null, "conc_A_status": "unavailable", "conc_A_status_ru": "концентрация недоступна", "conc_A_reasons": "вне бассейна профиля: nw_atlantic_subtropical", "conc_A_model": "conc-A-c6bce5631d2b", "conc_B_items_km2": 621.6, "conc_B_lo80": 132.7, "conc_B_hi80": 2088.3, "conc_B_lo95": 82.8, "conc_B_hi95": 3910.2, "conc_B_status": "research_estimate", "conc_B_status_ru": "исследовательская оценка", "conc_B_reasons": "ближайшее полевое измерение в 173 км (> 60 км); месяц 8 вне месяцев обучения [6]; log_dist_coast_km = 1.0 вне диапазона обучения [1.7; 5.0]", "conc_B_model": "conc-B-c6bce5631d2b"}}]}