{"type": "FeatureCollection", "features": [{"type": "Feature", "geometry": {"type": "Polygon", "coordinates": [[[29.712801862712656, 60.06249709297057], [29.712794495630913, 60.06240740187093], [29.712615075402734, 60.0624110844983], [29.712607708853408, 60.06232139338362], [29.712787128595803, 60.06231771076953], [29.712779761607308, 60.06222801966635], [29.713145967940715, 60.06231034481157], [29.7131533359474, 60.062400035886434], [29.712973915812473, 60.062403719000315], [29.712981283380007, 60.0624934100867], [29.712801862712656, 60.06249709297057]]]}, "properties": {"zone_id": "neva-2025-09-02-001", "aoi": "neva", "date": "2025-09-02", "scene_id": "S2B_MSIL2A_20250902T093029_R136_T36VUM_20250902T121133", "scene_datetime_utc": "2025-09-02T09:30:29.025000+00:00", "detection_status": "detected", "detection_status_ru": "обнаружено", "lon": 29.71288, "lat": 60.06236, "n_pixels": 1, "zone_area_km2": 0.0005, "cover_m2": 6.3, "p_mean": 0.839, "p_max": 0.839, "cover_m2_km2": 12600.0, "h3": "8811068615fffff", "valid_frac_scene": 0.996, "wind_ms": 2.1, "sea": "спокойное", "scene_reliable": true, "field_event_id": "S3:HE419_MarLitter_transect28", "field_profile": "B", "field_date": "2014-04-11", "field_distance_km": 1399.9, "field_date_gap_days": 4162, "field_conc_items_km2": 43.1, "conc_A_items_km2": null, "conc_A_lo80": null, "conc_A_hi80": null, "conc_A_lo95": null, "conc_A_hi95": null, "conc_A_status": "unavailable", "conc_A_status_ru": "концентрация недоступна", "conc_A_reasons": "вне бассейна профиля: nw_atlantic_subtropical", "conc_A_model": "conc-A-c6bce5631d2b", "conc_B_items_km2": null, "conc_B_lo80": null, "conc_B_hi80": null, "conc_B_lo95": null, "conc_B_hi95": null, "conc_B_status": "unavailable", "conc_B_status_ru": "концентрация недоступна", "conc_B_reasons": "вне бассейна профиля: black_sea", "conc_B_model": "conc-B-c6bce5631d2b"}}, {"type": "Feature", "geometry": {"type": "Polygon", "coordinates": [[[29.67958141892212, 60.058413206557134], [29.679574143187807, 60.058323512951716], [29.679394740225426, 60.058327150366836], [29.67937291475585, 60.05805806950069], [29.67955231626114, 60.05805443212487], [29.679545040710998, 60.05796473851241], [29.679911119133596, 60.05804715664353], [29.679932948974443, 60.05831623739176], [29.67958141892212, 60.058413206557134]]]}, "properties": {"zone_id": "neva-2025-09-02-002", "aoi": "neva", "date": "2025-09-02", "scene_id": "S2B_MSIL2A_20250902T093029_R136_T36VUM_20250902T121133", "scene_datetime_utc": "2025-09-02T09:30:29.025000+00:00", "detection_status": "detected", "detection_status_ru": "обнаружено", "lon": 29.67965, "lat": 60.05819, "n_pixels": 3, "zone_area_km2": 0.0011, "cover_m2": 14.1, "p_mean": 0.805, "p_max": 0.918, "cover_m2_km2": 12818.2, "h3": "8811068655fffff", "valid_frac_scene": 0.996, "wind_ms": 2.1, "sea": "спокойное", "scene_reliable": true, "field_event_id": "S3:HE419_MarLitter_transect28", "field_profile": "B", "field_date": "2014-04-11", "field_distance_km": 1398.0, "field_date_gap_days": 4162, "field_conc_items_km2": 43.1, "conc_A_items_km2": null, "conc_A_lo80": null, "conc_A_hi80": null, "conc_A_lo95": null, "conc_A_hi95": null, "conc_A_status": "unavailable", "conc_A_status_ru": "концентрация недоступна", "conc_A_reasons": "вне бассейна профиля: nw_atlantic_subtropical", "conc_A_model": "conc-A-c6bce5631d2b", "conc_B_items_km2": null, "conc_B_lo80": null, "conc_B_hi80": null, "conc_B_lo95": null, "conc_B_hi95": null, "conc_B_status": "unavailable", "conc_B_status_ru": "концентрация недоступна", "conc_B_reasons": "вне бассейна профиля: black_sea", "conc_B_model": "conc-B-c6bce5631d2b"}}, {"type": "Feature", "geometry": {"type": "Polygon", "coordinates": [[[29.748117600774215, 60.057095605450066], [29.74811013948401, 60.05700591691426], [29.747930753847033, 60.05700964724836], [29.747923293089585, 60.05691995869733], [29.74810267824102, 60.05691622837665], [29.748095217045236, 60.05682653983729], [29.748274601663915, 60.05682280928686], [29.74826714002981, 60.056733120759134], [29.748633370759634, 60.05681534745646], [29.748648296111668, 60.05699472445283], [29.748468910616335, 60.0569984555165], [29.748476372877633, 60.05708814402543], [29.748117600774215, 60.057095605450066]]]}, "properties": {"zone_id": "neva-2025-09-02-003", "aoi": "neva", "date": "2025-09-02", "scene_id": "S2B_MSIL2A_20250902T093029_R136_T36VUM_20250902T121133", "scene_datetime_utc": "2025-09-02T09:30:29.025000+00:00", "detection_status": "detected", "detection_status_ru": "обнаружено", "lon": 29.74831, "lat": 60.05693, "n_pixels": 3, "zone_area_km2": 0.001, "cover_m2": 12.9, "p_mean": 0.685, "p_max": 0.808, "cover_m2_km2": 12900.0, "h3": "8811068459fffff", "valid_frac_scene": 0.996, "wind_ms": 2.1, "sea": "спокойное", "scene_reliable": true, "field_event_id": "S3:HE419_MarLitter_transect28", "field_profile": "B", "field_date": "2014-04-11", "field_distance_km": 1401.7, "field_date_gap_days": 4162, "field_conc_items_km2": 43.1, "conc_A_items_km2": null, "conc_A_lo80": null, "conc_A_hi80": null, "conc_A_lo95": null, "conc_A_hi95": null, "conc_A_status": "unavailable", "conc_A_status_ru": "концентрация недоступна", "conc_A_reasons": "вне бассейна профиля: nw_atlantic_subtropical", "conc_A_model": "conc-A-c6bce5631d2b", "conc_B_items_km2": null, "conc_B_lo80": null, "conc_B_hi80": null, "conc_B_lo95": null, "conc_B_hi95": null, "conc_B_status": "unavailable", "conc_B_status_ru": "концентрация недоступна", "conc_B_reasons": "вне бассейна профиля: black_sea", "conc_B_model": "conc-B-c6bce5631d2b"}}, {"type": "Feature", "geometry": {"type": "Polygon", "coordinates": [[[29.581733687749594, 60.04571729991427], [29.58172668109902, 60.04562759909439], [29.581547332929766, 60.04563110333194], [29.58154032680894, 60.0455414024977], [29.581719674492778, 60.04553789827276], [29.58171266793086, 60.04544819744939], [29.581892015084957, 60.045444692993925], [29.581885008081958, 60.04535499218148], [29.58225070926016, 60.045437683353484], [29.582257717278328, 60.04552738413898], [29.582078369727476, 60.04553088909339], [29.58208537730456, 60.04562058988978], [29.581733687749594, 60.04571729991427]]]}, "properties": {"zone_id": "neva-2025-09-02-004", "aoi": "neva", "date": "2025-09-02", "scene_id": "S2B_MSIL2A_20250902T093029_R136_T36VUM_20250902T121133", "scene_datetime_utc": "2025-09-02T09:30:29.025000+00:00", "detection_status": "detected", "detection_status_ru": "обнаружено", "lon": 29.5819, "lat": 60.04553, "n_pixels": 2, "zone_area_km2": 0.0008, "cover_m2": 7.1, "p_mean": 0.641, "p_max": 0.78, "cover_m2_km2": 8875.0, "h3": "88110694e1fffff", "valid_frac_scene": 0.996, "wind_ms": 2.1, "sea": "спокойное", "scene_reliable": true, "field_event_id": "S3:HE419_MarLitter_transect28", "field_profile": "B", "field_date": "2014-04-11", "field_distance_km": 1392.4, "field_date_gap_days": 4162, "field_conc_items_km2": 43.1, "conc_A_items_km2": null, "conc_A_lo80": null, "conc_A_hi80": null, "conc_A_lo95": null, "conc_A_hi95": null, "conc_A_status": "unavailable", "conc_A_status_ru": "концентрация недоступна", "conc_A_reasons": "вне бассейна профиля: nw_atlantic_subtropical", "conc_A_model": "conc-A-c6bce5631d2b", "conc_B_items_km2": null, "conc_B_lo80": null, "conc_B_hi80": null, "conc_B_lo95": null, "conc_B_hi95": null, "conc_B_status": "unavailable", "conc_B_status_ru": "концентрация недоступна", "conc_B_reasons": "вне бассейна профиля: black_sea", "conc_B_model": "conc-B-c6bce5631d2b"}}, {"type": "Feature", "geometry": {"type": "Polygon", "coordinates": [[[29.6202483962703, 60.026272561145426], [29.620241290733837, 60.02618286279999], [29.620062053408038, 60.02618641859486], [29.620054948401197, 60.02609672023489], [29.620234185242296, 60.02609316445281], [29.620227079795686, 60.026003466103894], [29.62076478859534, 60.02599279733842], [29.620771895496027, 60.02608249564892], [29.620951132157405, 60.02607893889508], [29.620958239587722, 60.02616863719105], [29.620779002441644, 60.02617219395771], [29.6207861094322, 60.02626189226475], [29.6202483962703, 60.026272561145426]]]}, "properties": {"zone_id": "neva-2025-09-02-005", "aoi": "neva", "date": "2025-09-02", "scene_id": "S2B_MSIL2A_20250902T093029_R136_T36VUM_20250902T121133", "scene_datetime_utc": "2025-09-02T09:30:29.025000+00:00", "detection_status": "detected", "detection_status_ru": "обнаружено", "lon": 29.62051, "lat": 60.02613, "n_pixels": 3, "zone_area_km2": 0.0011, "cover_m2": 11.8, "p_mean": 0.752, "p_max": 0.788, "cover_m2_km2": 10727.3, "h3": "881106959dfffff", "valid_frac_scene": 0.996, "wind_ms": 2.1, "sea": "спокойное", "scene_reliable": true, "field_event_id": "S3:HE419_MarLitter_transect28", "field_profile": "B", "field_date": "2014-04-11", "field_distance_km": 1394.0, "field_date_gap_days": 4162, "field_conc_items_km2": 43.1, "conc_A_items_km2": null, "conc_A_lo80": null, "conc_A_hi80": null, "conc_A_lo95": null, "conc_A_hi95": null, "conc_A_status": "unavailable", "conc_A_status_ru": "концентрация недоступна", "conc_A_reasons": "вне бассейна профиля: nw_atlantic_subtropical", "conc_A_model": "conc-A-c6bce5631d2b", "conc_B_items_km2": null, "conc_B_lo80": null, "conc_B_hi80": null, "conc_B_lo95": null, "conc_B_hi95": null, "conc_B_status": "unavailable", "conc_B_status_ru": "концентрация недоступна", "conc_B_reasons": "вне бассейна профиля: black_sea", "conc_B_model": "conc-B-c6bce5631d2b"}}, {"type": "Feature", "geometry": {"type": "Polygon", "coordinates": [[[29.89778363199202, 60.00762555633312], [29.897775780349452, 60.007535878677714], [29.897596685756586, 60.00753981008087], [29.897580983587474, 60.00736045473622], [29.89776007721314, 60.007356523361324], [29.89775222571938, 60.00726684570036], [29.898118264315638, 60.00734865988368], [29.89813396938637, 60.0075280151435], [29.89778363199202, 60.00762555633312]]]}, "properties": {"zone_id": "neva-2025-09-02-006", "aoi": "neva", "date": "2025-09-02", "scene_id": "S2B_MSIL2A_20250902T093029_R136_T36VUM_20250902T121133", "scene_datetime_utc": "2025-09-02T09:30:29.025000+00:00", "detection_status": "detected", "detection_status_ru": "обнаружено", "lon": 29.89786, "lat": 60.00744, "n_pixels": 2, "zone_area_km2": 0.0008, "cover_m2": 7.8, "p_mean": 0.933, "p_max": 0.969, "cover_m2_km2": 9750.0, "h3": "88110685abfffff", "valid_frac_scene": 0.996, "wind_ms": 2.1, "sea": "спокойное", "scene_reliable": true, "field_event_id": "S3:HE419_MarLitter_transect28", "field_profile": "B", "field_date": "2014-04-11", "field_distance_km": 1408.4, "field_date_gap_days": 4162, "field_conc_items_km2": 43.1, "conc_A_items_km2": null, "conc_A_lo80": null, "conc_A_hi80": null, "conc_A_lo95": null, "conc_A_hi95": null, "conc_A_status": "unavailable", "conc_A_status_ru": "концентрация недоступна", "conc_A_reasons": "вне бассейна профиля: nw_atlantic_subtropical", "conc_A_model": "conc-A-c6bce5631d2b", "conc_B_items_km2": null, "conc_B_lo80": null, "conc_B_hi80": null, "conc_B_lo95": null, "conc_B_hi95": null, "conc_B_status": "unavailable", "conc_B_status_ru": "концентрация недоступна", "conc_B_reasons": "вне бассейна профиля: black_sea", "conc_B_model": "conc-B-c6bce5631d2b"}}, {"type": "Feature", "geometry": {"type": "Polygon", "coordinates": [[[30.17907198453697, 60.00294719314793], [30.179063373102927, 60.0028575388047], [30.17888435047489, 60.00286185126766], [30.17886712873583, 60.00268254254425], [30.179046150397987, 60.00267823011229], [30.17903753912709, 60.00258857576314], [30.179574602338466, 60.002575637059316], [30.179583215058166, 60.00266529136195], [30.179762236502775, 60.00266097796033], [30.179779463071213, 60.002840286528645], [30.17960044066073, 60.00284459996129], [30.1796090535436, 60.002934254258015], [30.17907198453697, 60.00294719314793]]]}, "properties": {"zone_id": "neva-2025-09-02-007", "aoi": "neva", "date": "2025-09-02", "scene_id": "S2B_MSIL2A_20250902T093029_R136_T36VUM_20250902T121133", "scene_datetime_utc": "2025-09-02T09:30:29.025000+00:00", "detection_status": "detected", "detection_status_ru": "обнаружено", "lon": 30.17932, "lat": 60.00276, "n_pixels": 6, "zone_area_km2": 0.0016, "cover_m2": 31.4, "p_mean": 0.784, "p_max": 0.992, "cover_m2_km2": 19625.0, "h3": "881106b9a7fffff", "valid_frac_scene": 0.996, "wind_ms": 2.1, "sea": "спокойное", "scene_reliable": true, "field_event_id": "S3:HE419_MarLitter_transect28", "field_profile": "B", "field_date": "2014-04-11", "field_distance_km": 1423.5, "field_date_gap_days": 4162, "field_conc_items_km2": 43.1, "conc_A_items_km2": null, "conc_A_lo80": null, "conc_A_hi80": null, "conc_A_lo95": null, "conc_A_hi95": null, "conc_A_status": "unavailable", "conc_A_status_ru": "концентрация недоступна", "conc_A_reasons": "вне бассейна профиля: nw_atlantic_subtropical", "conc_A_model": "conc-A-c6bce5631d2b", "conc_B_items_km2": null, "conc_B_lo80": null, "conc_B_hi80": null, "conc_B_lo95": null, "conc_B_hi95": null, "conc_B_status": "unavailable", "conc_B_status_ru": "концентрация недоступна", "conc_B_reasons": "вне бассейна профиля: black_sea", "conc_B_model": "conc-B-c6bce5631d2b"}}, {"type": "Feature", "geometry": {"type": "Polygon", "coordinates": [[[30.17750433177294, 59.96605170858171], [30.17749573735135, 59.965962053597714], [30.17731691355285, 59.96596636235744], [30.177299725835695, 59.96578705235258], [30.177478548670816, 59.9657827436238], [30.177469954411876, 59.965693088633905], [30.177836194178408, 59.96577412544009], [30.177853384785696, 59.96595343535207], [30.17750433177294, 59.96605170858171]]]}, "properties": {"zone_id": "neva-2025-09-02-008", "aoi": "neva", "date": "2025-09-02", "scene_id": "S2B_MSIL2A_20250902T093029_R136_T36VUM_20250902T121133", "scene_datetime_utc": "2025-09-02T09:30:29.025000+00:00", "detection_status": "detected", "detection_status_ru": "обнаружено", "lon": 30.17758, "lat": 59.96587, "n_pixels": 2, "zone_area_km2": 0.0008, "cover_m2": 10.2, "p_mean": 0.847, "p_max": 0.922, "cover_m2_km2": 12750.0, "h3": "8811061687fffff", "valid_frac_scene": 0.996, "wind_ms": 2.1, "sea": "спокойное", "scene_reliable": true, "field_event_id": "S3:HE419_MarLitter_transect28", "field_profile": "B", "field_date": "2014-04-11", "field_distance_km": 1422.4, "field_date_gap_days": 4162, "field_conc_items_km2": 43.1, "conc_A_items_km2": null, "conc_A_lo80": null, "conc_A_hi80": null, "conc_A_lo95": null, "conc_A_hi95": null, "conc_A_status": "unavailable", "conc_A_status_ru": "концентрация недоступна", "conc_A_reasons": "вне бассейна профиля: nw_atlantic_subtropical", "conc_A_model": "conc-A-c6bce5631d2b", "conc_B_items_km2": null, "conc_B_lo80": null, "conc_B_hi80": null, "conc_B_lo95": null, "conc_B_hi95": null, "conc_B_status": "unavailable", "conc_B_status_ru": "концентрация недоступна", "conc_B_reasons": "вне бассейна профиля: black_sea", "conc_B_model": "conc-B-c6bce5631d2b"}}, {"type": "Feature", "geometry": {"type": "Polygon", "coordinates": [[[30.12982935874929, 59.95847539773236], [30.12982089572804, 59.95838573853259], [30.129642104550378, 59.958389982387445], [30.129633642064032, 59.95830032317047], [30.129812432760172, 59.95829607933087], [30.12980396984568, 59.95820642012718], [30.130170013992302, 59.958287590925615], [30.130178477923213, 59.958377250096845], [30.129999686852322, 59.95838149443572], [30.130008150355096, 59.95847115362024], [30.12982935874929, 59.95847539773236]]]}, "properties": {"zone_id": "neva-2025-09-02-009", "aoi": "neva", "date": "2025-09-02", "scene_id": "S2B_MSIL2A_20250902T093029_R136_T36VUM_20250902T121133", "scene_datetime_utc": "2025-09-02T09:30:29.025000+00:00", "detection_status": "detected", "detection_status_ru": "обнаружено", "lon": 30.12991, "lat": 59.95834, "n_pixels": 1, "zone_area_km2": 0.0005, "cover_m2": 3.5, "p_mean": 0.561, "p_max": 0.561, "cover_m2_km2": 7000.0, "h3": "88110616c5fffff", "valid_frac_scene": 0.996, "wind_ms": 2.1, "sea": "спокойное", "scene_reliable": true, "field_event_id": "S3:HE419_MarLitter_transect28", "field_profile": "B", "field_date": "2014-04-11", "field_distance_km": 1419.6, "field_date_gap_days": 4162, "field_conc_items_km2": 43.1, "conc_A_items_km2": null, "conc_A_lo80": null, "conc_A_hi80": null, "conc_A_lo95": null, "conc_A_hi95": null, "conc_A_status": "unavailable", "conc_A_status_ru": "концентрация недоступна", "conc_A_reasons": "вне бассейна профиля: nw_atlantic_subtropical", "conc_A_model": "conc-A-c6bce5631d2b", "conc_B_items_km2": null, "conc_B_lo80": null, "conc_B_hi80": null, "conc_B_lo95": null, "conc_B_hi95": null, "conc_B_status": "unavailable", "conc_B_status_ru": "концентрация недоступна", "conc_B_reasons": "вне бассейна профиля: black_sea", "conc_B_model": "conc-B-c6bce5631d2b"}}, {"type": "Feature", "geometry": {"type": "Polygon", "coordinates": [[[29.770846563431363, 59.933802574321035], [29.77083907772099, 59.933712885814515], [29.77066036161195, 59.93371664237873], [29.770652876430088, 59.93362695385691], [29.770831592057814, 59.93362319730619], [29.770824106441843, 59.93353350879607], [29.771189023171676, 59.93361568347883], [29.771196509797466, 59.93370537196018], [29.771017793782825, 59.93370912900832], [29.77102527997451, 59.93379881750135], [29.770846563431363, 59.933802574321035]]]}, "properties": {"zone_id": "neva-2025-09-02-010", "aoi": "neva", "date": "2025-09-02", "scene_id": "S2B_MSIL2A_20250902T093029_R136_T36VUM_20250902T121133", "scene_datetime_utc": "2025-09-02T09:30:29.025000+00:00", "detection_status": "detected", "detection_status_ru": "обнаружено", "lon": 29.77092, "lat": 59.93367, "n_pixels": 1, "zone_area_km2": 0.0005, "cover_m2": 5.9, "p_mean": 0.941, "p_max": 0.941, "cover_m2_km2": 11800.0, "h3": "88110680b5fffff", "valid_frac_scene": 0.996, "wind_ms": 2.1, "sea": "спокойное", "scene_reliable": true, "field_event_id": "S3:HE419_MarLitter_transect28", "field_profile": "B", "field_date": "2014-04-11", "field_distance_km": 1399.6, "field_date_gap_days": 4162, "field_conc_items_km2": 43.1, "conc_A_items_km2": null, "conc_A_lo80": null, "conc_A_hi80": null, "conc_A_lo95": null, "conc_A_hi95": null, "conc_A_status": "unavailable", "conc_A_status_ru": "концентрация недоступна", "conc_A_reasons": "вне бассейна профиля: nw_atlantic_subtropical", "conc_A_model": "conc-A-c6bce5631d2b", "conc_B_items_km2": null, "conc_B_lo80": null, "conc_B_hi80": null, "conc_B_lo95": null, "conc_B_hi95": null, "conc_B_status": "unavailable", "conc_B_status_ru": "концентрация недоступна", "conc_B_reasons": "вне бассейна профиля: black_sea", "conc_B_model": "conc-B-c6bce5631d2b"}}, {"type": "Feature", "geometry": {"type": "Polygon", "coordinates": [[[29.817990239311065, 59.91339602209329], [29.81798263258093, 59.91330633691076], [29.81780403333739, 59.91331015656491], [29.81779642713573, 59.913220471366856], [29.817975025898726, 59.91321665172641], [29.817967419264455, 59.91312696654027], [29.818332223280922, 59.91320901172031], [29.81833983092421, 59.91329869687721], [29.81816123177654, 59.91330251701487], [29.81816883898722, 59.913392202183665], [29.817990239311065, 59.91339602209329]]]}, "properties": {"zone_id": "neva-2025-09-02-011", "aoi": "neva", "date": "2025-09-02", "scene_id": "S2B_MSIL2A_20250902T093029_R136_T36VUM_20250902T121133", "scene_datetime_utc": "2025-09-02T09:30:29.025000+00:00", "detection_status": "detected", "detection_status_ru": "обнаружено", "lon": 29.81807, "lat": 59.91326, "n_pixels": 1, "zone_area_km2": 0.0005, "cover_m2": 5.5, "p_mean": 0.824, "p_max": 0.824, "cover_m2_km2": 11000.0, "h3": "8811068e63fffff", "valid_frac_scene": 0.996, "wind_ms": 2.1, "sea": "спокойное", "scene_reliable": true, "field_event_id": "S3:HE419_MarLitter_transect28", "field_profile": "B", "field_date": "2014-04-11", "field_distance_km": 1401.6, "field_date_gap_days": 4162, "field_conc_items_km2": 43.1, "conc_A_items_km2": null, "conc_A_lo80": null, "conc_A_hi80": null, "conc_A_lo95": null, "conc_A_hi95": null, "conc_A_status": "unavailable", "conc_A_status_ru": "концентрация недоступна", "conc_A_reasons": "вне бассейна профиля: nw_atlantic_subtropical", "conc_A_model": "conc-A-c6bce5631d2b", "conc_B_items_km2": null, "conc_B_lo80": null, "conc_B_hi80": null, "conc_B_lo95": null, "conc_B_hi95": null, "conc_B_status": "unavailable", "conc_B_status_ru": "концентрация недоступна", "conc_B_reasons": "вне бассейна профиля: black_sea", "conc_B_model": "conc-B-c6bce5631d2b"}}, {"type": "Feature", "geometry": {"type": "Polygon", "coordinates": [[[29.819745788060636, 59.91299907192611], [29.8197381767169, 59.91290938687353], [29.81955957987495, 59.91291320889029], [29.81955196905971, 59.91282352382215], [29.81973056542113, 59.91281970181909], [29.819722954173315, 59.912730016762865], [29.820087758000092, 59.91281205708779], [29.820095370256922, 59.91290174211476], [29.819916773510894, 59.912905564615], [29.819924385335156, 59.91299524965389], [29.819745788060636, 59.91299907192611]]]}, "properties": {"zone_id": "neva-2025-09-02-012", "aoi": "neva", "date": "2025-09-02", "scene_id": "S2B_MSIL2A_20250902T093029_R136_T36VUM_20250902T121133", "scene_datetime_utc": "2025-09-02T09:30:29.025000+00:00", "detection_status": "detected", "detection_status_ru": "обнаружено", "lon": 29.81982, "lat": 59.91286, "n_pixels": 1, "zone_area_km2": 0.0005, "cover_m2": 5.5, "p_mean": 0.973, "p_max": 0.973, "cover_m2_km2": 11000.0, "h3": "8811068e63fffff", "valid_frac_scene": 0.996, "wind_ms": 2.1, "sea": "спокойное", "scene_reliable": true, "field_event_id": "S3:HE419_MarLitter_transect28", "field_profile": "B", "field_date": "2014-04-11", "field_distance_km": 1401.7, "field_date_gap_days": 4162, "field_conc_items_km2": 43.1, "conc_A_items_km2": null, "conc_A_lo80": null, "conc_A_hi80": null, "conc_A_lo95": null, "conc_A_hi95": null, "conc_A_status": "unavailable", "conc_A_status_ru": "концентрация недоступна", "conc_A_reasons": "вне бассейна профиля: nw_atlantic_subtropical", "conc_A_model": "conc-A-c6bce5631d2b", "conc_B_items_km2": null, "conc_B_lo80": null, "conc_B_hi80": null, "conc_B_lo95": null, "conc_B_hi95": null, "conc_B_status": "unavailable", "conc_B_status_ru": "концентрация недоступна", "conc_B_reasons": "вне бассейна профиля: black_sea", "conc_B_model": "conc-B-c6bce5631d2b"}}, {"type": "Feature", "geometry": {"type": "Polygon", "coordinates": [[[29.826512679636377, 59.910518026149276], [29.826505050802172, 59.91042834158522], [29.826326468325192, 59.91043217267236], [29.82631884001949, 59.91034248809277], [29.826497422016033, 59.91033865701938], [29.826489793277958, 59.91024897245171], [29.82685458586492, 59.91033099414746], [29.826862215611925, 59.910420678685796], [29.82668363323108, 59.91042451025638], [29.826691262545722, 59.91051419480666], [29.826512679636377, 59.910518026149276]]]}, "properties": {"zone_id": "neva-2025-09-02-013", "aoi": "neva", "date": "2025-09-02", "scene_id": "S2B_MSIL2A_20250902T093029_R136_T36VUM_20250902T121133", "scene_datetime_utc": "2025-09-02T09:30:29.025000+00:00", "detection_status": "detected", "detection_status_ru": "обнаружено", "lon": 29.82659, "lat": 59.91038, "n_pixels": 1, "zone_area_km2": 0.0005, "cover_m2": 5.5, "p_mean": 0.91, "p_max": 0.91, "cover_m2_km2": 11000.0, "h3": "8811068e29fffff", "valid_frac_scene": 0.996, "wind_ms": 2.1, "sea": "спокойное", "scene_reliable": true, "field_event_id": "S3:HE419_MarLitter_transect28", "field_profile": "B", "field_date": "2014-04-11", "field_distance_km": 1402.0, "field_date_gap_days": 4162, "field_conc_items_km2": 43.1, "conc_A_items_km2": null, "conc_A_lo80": null, "conc_A_hi80": null, "conc_A_lo95": null, "conc_A_hi95": null, "conc_A_status": "unavailable", "conc_A_status_ru": "концентрация недоступна", "conc_A_reasons": "вне бассейна профиля: nw_atlantic_subtropical", "conc_A_model": "conc-A-c6bce5631d2b", "conc_B_items_km2": null, "conc_B_lo80": null, "conc_B_hi80": null, "conc_B_lo95": null, "conc_B_hi95": null, "conc_B_status": "unavailable", "conc_B_status_ru": "концентрация недоступна", "conc_B_reasons": "вне бассейна профиля: black_sea", "conc_B_model": "conc-B-c6bce5631d2b"}}, {"type": "Feature", "geometry": {"type": "Polygon", "coordinates": [[[30.13947882497495, 59.89192870625184], [30.139470358564374, 59.89183904696833], [30.139291926662167, 59.89184330107589], [30.139274994959422, 59.89166398247242], [30.139453425903117, 59.891659728395375], [30.13944495965244, 59.89157006910596], [30.139810287630606, 59.89165121951721], [30.139827222208886, 59.89183053802909], [30.13947882497495, 59.89192870625184]]]}, "properties": {"zone_id": "neva-2025-09-02-014", "aoi": "neva", "date": "2025-09-02", "scene_id": "S2B_MSIL2A_20250902T093029_R136_T36VUM_20250902T121133", "scene_datetime_utc": "2025-09-02T09:30:29.025000+00:00", "detection_status": "detected", "detection_status_ru": "обнаружено", "lon": 30.13955, "lat": 59.89175, "n_pixels": 2, "zone_area_km2": 0.0008, "cover_m2": 8.2, "p_mean": 0.659, "p_max": 0.745, "cover_m2_km2": 10250.0, "h3": "8811061717fffff", "valid_frac_scene": 0.996, "wind_ms": 2.1, "sea": "спокойное", "scene_reliable": true, "field_event_id": "S3:HE419_MarLitter_transect28", "field_profile": "B", "field_date": "2014-04-11", "field_distance_km": 1418.5, "field_date_gap_days": 4162, "field_conc_items_km2": 43.1, "conc_A_items_km2": null, "conc_A_lo80": null, "conc_A_hi80": null, "conc_A_lo95": null, "conc_A_hi95": null, "conc_A_status": "unavailable", "conc_A_status_ru": "концентрация недоступна", "conc_A_reasons": "вне бассейна профиля: nw_atlantic_subtropical", "conc_A_model": "conc-A-c6bce5631d2b", "conc_B_items_km2": null, "conc_B_lo80": null, "conc_B_hi80": null, "conc_B_lo95": null, "conc_B_hi95": null, "conc_B_status": "unavailable", "conc_B_status_ru": "концентрация недоступна", "conc_B_reasons": "вне бассейна профиля: black_sea", "conc_B_model": "conc-B-c6bce5631d2b"}}, {"type": "Feature", "geometry": {"type": "Polygon", "coordinates": [[[30.05282899242409, 59.88309327322927], [30.052820762384137, 59.883003606486874], [30.052642363239862, 59.88300774292565], [30.05262590427359, 59.88282840940543], [30.05280430245963, 59.88282427299633], [30.052796072575088, 59.88273460624821], [30.05316109867631, 59.882815999454145], [30.05317756051727, 59.88299533288533], [30.05282899242409, 59.88309327322927]]]}, "properties": {"zone_id": "neva-2025-09-02-015", "aoi": "neva", "date": "2025-09-02", "scene_id": "S2B_MSIL2A_20250902T093029_R136_T36VUM_20250902T121133", "scene_datetime_utc": "2025-09-02T09:30:29.025000+00:00", "detection_status": "detected", "detection_status_ru": "обнаружено", "lon": 30.0529, "lat": 59.88291, "n_pixels": 2, "zone_area_km2": 0.0008, "cover_m2": 9.0, "p_mean": 0.8, "p_max": 0.976, "cover_m2_km2": 11250.0, "h3": "8811068db5fffff", "valid_frac_scene": 0.996, "wind_ms": 2.1, "sea": "спокойное", "scene_reliable": true, "field_event_id": "S3:HE419_MarLitter_transect28", "field_profile": "B", "field_date": "2014-04-11", "field_distance_km": 1413.5, "field_date_gap_days": 4162, "field_conc_items_km2": 43.1, "conc_A_items_km2": null, "conc_A_lo80": null, "conc_A_hi80": null, "conc_A_lo95": null, "conc_A_hi95": null, "conc_A_status": "unavailable", "conc_A_status_ru": "концентрация недоступна", "conc_A_reasons": "вне бассейна профиля: nw_atlantic_subtropical", "conc_A_model": "conc-A-c6bce5631d2b", "conc_B_items_km2": null, "conc_B_lo80": null, "conc_B_hi80": null, "conc_B_lo95": null, "conc_B_hi95": null, "conc_B_status": "unavailable", "conc_B_status_ru": "концентрация недоступна", "conc_B_reasons": "вне бассейна профиля: black_sea", "conc_B_model": "conc-B-c6bce5631d2b"}}, {"type": "Feature", "geometry": {"type": "Polygon", "coordinates": [[[30.100268253370125, 59.86841591235497], [30.100259900488073, 59.868326249403324], [30.099894923369654, 59.868244986261644], [30.09987821978244, 59.868065660288416], [30.100056530996106, 59.868061460533184], [30.10004817880279, 59.86797179755874], [30.100226489485376, 59.86796759757741], [30.100218136866076, 59.867877934616075], [30.100583110692888, 59.867959196891256], [30.1005914643218, 59.868048859820526], [30.10076977532525, 59.868044659100654], [30.10077812948525, 59.86813432201292], [30.100599818003264, 59.868138522747856], [30.10061652552386, 59.868317848596675], [30.100268253370125, 59.86841591235497]]]}, "properties": {"zone_id": "neva-2025-09-02-016", "aoi": "neva", "date": "2025-09-02", "scene_id": "S2B_MSIL2A_20250902T093029_R136_T36VUM_20250902T121133", "scene_datetime_utc": "2025-09-02T09:30:29.025000+00:00", "detection_status": "detected", "detection_status_ru": "обнаружено", "lon": 30.10031, "lat": 59.86814, "n_pixels": 7, "zone_area_km2": 0.0017, "cover_m2": 28.2, "p_mean": 0.994, "p_max": 1.0, "cover_m2_km2": 16588.2, "h3": "8811061705fffff", "valid_frac_scene": 0.996, "wind_ms": 2.1, "sea": "спокойное", "scene_reliable": true, "field_event_id": "S3:HE419_MarLitter_transect28", "field_profile": "B", "field_date": "2014-04-11", "field_distance_km": 1415.8, "field_date_gap_days": 4162, "field_conc_items_km2": 43.1, "conc_A_items_km2": null, "conc_A_lo80": null, "conc_A_hi80": null, "conc_A_lo95": null, "conc_A_hi95": null, "conc_A_status": "unavailable", "conc_A_status_ru": "концентрация недоступна", "conc_A_reasons": "вне бассейна профиля: nw_atlantic_subtropical", "conc_A_model": "conc-A-c6bce5631d2b", "conc_B_items_km2": null, "conc_B_lo80": null, "conc_B_hi80": null, "conc_B_lo95": null, "conc_B_hi95": null, "conc_B_status": "unavailable", "conc_B_status_ru": "концентрация недоступна", "conc_B_reasons": "вне бассейна профиля: black_sea", "conc_B_model": "conc-B-c6bce5631d2b"}}, {"type": "Feature", "geometry": {"type": "Polygon", "coordinates": [[[30.088636185949678, 59.86824009474717], [30.088627864435626, 59.868150430808605], [30.088449550822247, 59.86815461509931], [30.088432908908313, 59.867975287186404], [30.08861122156458, 59.86797110292571], [30.088602900207594, 59.86788143898138], [30.088967846720053, 59.86796273368085], [30.0889761690865, 59.86805239759327], [30.08915448206425, 59.86804821259406], [30.08916280496161, 59.86813787648953], [30.088984491505308, 59.86814206150372], [30.088992813976475, 59.86823172541225], [30.088636185949678, 59.86824009474717]]]}, "properties": {"zone_id": "neva-2025-09-02-017", "aoi": "neva", "date": "2025-09-02", "scene_id": "S2B_MSIL2A_20250902T093029_R136_T36VUM_20250902T121133", "scene_datetime_utc": "2025-09-02T09:30:29.025000+00:00", "detection_status": "detected", "detection_status_ru": "обнаружено", "lon": 30.08877, "lat": 59.86807, "n_pixels": 3, "zone_area_km2": 0.001, "cover_m2": 9.4, "p_mean": 0.91, "p_max": 0.98, "cover_m2_km2": 9400.0, "h3": "881106170dfffff", "valid_frac_scene": 0.996, "wind_ms": 2.1, "sea": "спокойное", "scene_reliable": true, "field_event_id": "S3:HE419_MarLitter_transect28", "field_profile": "B", "field_date": "2014-04-11", "field_distance_km": 1415.1, "field_date_gap_days": 4162, "field_conc_items_km2": 43.1, "conc_A_items_km2": null, "conc_A_lo80": null, "conc_A_hi80": null, "conc_A_lo95": null, "conc_A_hi95": null, "conc_A_status": "unavailable", "conc_A_status_ru": "концентрация недоступна", "conc_A_reasons": "вне бассейна профиля: nw_atlantic_subtropical", "conc_A_model": "conc-A-c6bce5631d2b", "conc_B_items_km2": null, "conc_B_lo80": null, "conc_B_hi80": null, "conc_B_lo95": null, "conc_B_hi95": null, "conc_B_status": "unavailable", "conc_B_status_ru": "концентрация недоступна", "conc_B_reasons": "вне бассейна профиля: black_sea", "conc_B_model": "conc-B-c6bce5631d2b"}}, {"type": "Feature", "geometry": {"type": "Polygon", "coordinates": [[[30.106450591565487, 59.86764112143245], [30.106442222303336, 59.86755145899493], [30.106263914897315, 59.867555667371484], [30.106255546166324, 59.86746600491694], [30.106433853093836, 59.86746179655551], [30.106425483936988, 59.86737213411411], [30.10678209667706, 59.86736371669797], [30.106790466790905, 59.86745337910918], [30.106968773560446, 59.86744917002428], [30.106977144205448, 59.86753883241844], [30.1067988369574, 59.867543041518424], [30.106807207176566, 59.867632703925736], [30.106450591565487, 59.86764112143245]]]}, "properties": {"zone_id": "neva-2025-09-02-018", "aoi": "neva", "date": "2025-09-02", "scene_id": "S2B_MSIL2A_20250902T093029_R136_T36VUM_20250902T121133", "scene_datetime_utc": "2025-09-02T09:30:29.025000+00:00", "detection_status": "detected", "detection_status_ru": "обнаружено", "lon": 30.10662, "lat": 59.8675, "n_pixels": 2, "zone_area_km2": 0.0008, "cover_m2": 8.6, "p_mean": 0.996, "p_max": 1.0, "cover_m2_km2": 10750.0, "h3": "8811061705fffff", "valid_frac_scene": 0.996, "wind_ms": 2.1, "sea": "спокойное", "scene_reliable": true, "field_event_id": "S3:HE419_MarLitter_transect28", "field_profile": "B", "field_date": "2014-04-11", "field_distance_km": 1416.1, "field_date_gap_days": 4162, "field_conc_items_km2": 43.1, "conc_A_items_km2": null, "conc_A_lo80": null, "conc_A_hi80": null, "conc_A_lo95": null, "conc_A_hi95": null, "conc_A_status": "unavailable", "conc_A_status_ru": "концентрация недоступна", "conc_A_reasons": "вне бассейна профиля: nw_atlantic_subtropical", "conc_A_model": "conc-A-c6bce5631d2b", "conc_B_items_km2": null, "conc_B_lo80": null, "conc_B_hi80": null, "conc_B_lo95": null, "conc_B_hi95": null, "conc_B_status": "unavailable", "conc_B_status_ru": "концентрация недоступна", "conc_B_reasons": "вне бассейна профиля: black_sea", "conc_B_model": "conc-B-c6bce5631d2b"}}, {"type": "Feature", "geometry": {"type": "Polygon", "coordinates": [[[30.089112868362893, 59.86759989308777], [30.08910454577971, 59.86751022918071], [30.088926235673213, 59.867514414089854], [30.088917913620925, 59.86742475016584], [30.089096223248884, 59.86742056527172], [30.08908790077042, 59.86733090136081], [30.0894445189122, 59.86732253087908], [30.089452842347722, 59.86741219475998], [30.08963115181859, 59.86740800914237], [30.089639475785003, 59.86749767300632], [30.0894611658356, 59.867501858638946], [30.08946948937586, 59.86759152251598], [30.089112868362893, 59.86759989308777]]]}, "properties": {"zone_id": "neva-2025-09-02-019", "aoi": "neva", "date": "2025-09-02", "scene_id": "S2B_MSIL2A_20250902T093029_R136_T36VUM_20250902T121133", "scene_datetime_utc": "2025-09-02T09:30:29.025000+00:00", "detection_status": "detected", "detection_status_ru": "обнаружено", "lon": 30.08928, "lat": 59.86746, "n_pixels": 2, "zone_area_km2": 0.0008, "cover_m2": 5.5, "p_mean": 0.976, "p_max": 0.98, "cover_m2_km2": 6875.0, "h3": "881106170dfffff", "valid_frac_scene": 0.996, "wind_ms": 2.1, "sea": "спокойное", "scene_reliable": true, "field_event_id": "S3:HE419_MarLitter_transect28", "field_profile": "B", "field_date": "2014-04-11", "field_distance_km": 1415.1, "field_date_gap_days": 4162, "field_conc_items_km2": 43.1, "conc_A_items_km2": null, "conc_A_lo80": null, "conc_A_hi80": null, "conc_A_lo95": null, "conc_A_hi95": null, "conc_A_status": "unavailable", "conc_A_status_ru": "концентрация недоступна", "conc_A_reasons": "вне бассейна профиля: nw_atlantic_subtropical", "conc_A_model": "conc-A-c6bce5631d2b", "conc_B_items_km2": null, "conc_B_lo80": null, "conc_B_hi80": null, "conc_B_lo95": null, "conc_B_hi95": null, "conc_B_status": "unavailable", "conc_B_status_ru": "концентрация недоступна", "conc_B_reasons": "вне бассейна профиля: black_sea", "conc_B_model": "conc-B-c6bce5631d2b"}}]}