{"type": "FeatureCollection", "features": [{"type": "Feature", "geometry": {"type": "Polygon", "coordinates": [[[29.801643338132884, 60.0017046212585], [29.801635748584108, 60.00161493602829], [29.80145667103427, 60.00161873687689], [29.80144149304768, 60.00143936638369], [29.801620569630387, 60.00143556556244], [29.801612980225443, 60.00134588032681], [29.801971132279903, 60.00133827798378], [29.801978722651967, 60.00142796319209], [29.802157799090836, 60.001424161642994], [29.802172980945937, 60.00160353202681], [29.80199390353994, 60.00160733360325], [29.802001494055855, 60.00169701880611], [29.801643338132884, 60.0017046212585]]]}, "properties": {"zone_id": "neva-2026-09-07-001", "aoi": "neva", "date": "2026-09-07", "scene_id": "S2B_MSIL2A_20260907T093029_R136_T36VUM_20260907T113613", "scene_datetime_utc": "2026-09-07T09:30:29.024000+00:00", "detection_status": "detected", "detection_status_ru": "обнаружено", "lon": 29.80181, "lat": 60.00152, "n_pixels": 4, "zone_area_km2": 0.0012, "cover_m2": 13.3, "p_mean": 0.975, "p_max": 0.992, "cover_m2_km2": 11083.3, "h3": "8811068553fffff", "valid_frac_scene": 0.998, "wind_ms": 8.5, "sea": "шторм", "scene_reliable": false, "field_event_id": "S3:HE419_MarLitter_transect28", "field_profile": "B", "field_date": "2014-04-11", "field_distance_km": 1403.0, "field_date_gap_days": 4532, "field_conc_items_km2": 43.1, "conc_A_items_km2": null, "conc_A_lo80": null, "conc_A_hi80": null, "conc_A_lo95": null, "conc_A_hi95": null, "conc_A_status": "unavailable", "conc_A_status_ru": "концентрация недоступна", "conc_A_reasons": "вне бассейна профиля: nw_atlantic_subtropical", "conc_A_model": "conc-A-c6bce5631d2b", "conc_B_items_km2": null, "conc_B_lo80": null, "conc_B_hi80": null, "conc_B_lo95": null, "conc_B_hi95": null, "conc_B_status": "unavailable", "conc_B_status_ru": "концентрация недоступна", "conc_B_reasons": "вне бассейна профиля: black_sea", "conc_B_model": "conc-B-c6bce5631d2b"}}, {"type": "Feature", "geometry": {"type": "Polygon", "coordinates": [[[30.10081990107364, 59.86858263654514], [30.10081154665084, 59.86849297364259], [30.100633233254694, 59.86849717443776], [30.10061652552386, 59.868317848596675], [30.100268253370125, 59.86841591235497], [30.100259900488073, 59.868326249403324], [30.099894923369654, 59.868244986261644], [30.099869868067657, 59.86797599729891], [30.10004817880279, 59.86797179755874], [30.10003982666202, 59.867882134582345], [30.10057475711654, 59.867869533960054], [30.100583110692888, 59.867959196891256], [30.101118042109988, 59.86794659405335], [30.10112639717448, 59.86803625693741], [30.101304708020244, 59.86803205549407], [30.10133813071802, 59.86839070695068], [30.10098985999442, 59.8684887726062], [30.100998214895768, 59.8685784354937], [30.10081990107364, 59.86858263654514]], [[30.10061652552386, 59.868317848596675], [30.10079483796292, 59.86831364783161], [30.100786483697803, 59.86822398492325], [30.100608171737285, 59.86822818567323], [30.10061652552386, 59.868317848596675]]]}, "properties": {"zone_id": "neva-2026-09-07-002", "aoi": "neva", "date": "2026-09-07", "scene_id": "S2B_MSIL2A_20260907T093029_R136_T36VUM_20260907T113613", "scene_datetime_utc": "2026-09-07T09:30:29.024000+00:00", "detection_status": "detected", "detection_status_ru": "обнаружено", "lon": 30.10063, "lat": 59.86818, "n_pixels": 15, "zone_area_km2": 0.0041, "cover_m2": 235.7, "p_mean": 0.894, "p_max": 1.0, "cover_m2_km2": 57487.8, "h3": "8811061705fffff", "valid_frac_scene": 0.998, "wind_ms": 8.5, "sea": "шторм", "scene_reliable": false, "field_event_id": "S3:HE419_MarLitter_transect28", "field_profile": "B", "field_date": "2014-04-11", "field_distance_km": 1415.8, "field_date_gap_days": 4532, "field_conc_items_km2": 43.1, "conc_A_items_km2": null, "conc_A_lo80": null, "conc_A_hi80": null, "conc_A_lo95": null, "conc_A_hi95": null, "conc_A_status": "unavailable", "conc_A_status_ru": "концентрация недоступна", "conc_A_reasons": "вне бассейна профиля: nw_atlantic_subtropical", "conc_A_model": "conc-A-c6bce5631d2b", "conc_B_items_km2": null, "conc_B_lo80": null, "conc_B_hi80": null, "conc_B_lo95": null, "conc_B_hi95": null, "conc_B_status": "unavailable", "conc_B_status_ru": "концентрация недоступна", "conc_B_reasons": "вне бассейна профиля: black_sea", "conc_B_model": "conc-B-c6bce5631d2b"}}, {"type": "Feature", "geometry": {"type": "Polygon", "coordinates": [[[30.102408006173363, 59.86836549286454], [30.10239964754884, 59.86827583009372], [30.10222133558294, 59.868280033029244], [30.10220461944872, 59.868100707451624], [30.10238293045755, 59.868096504546266], [30.10237457199079, 59.86800684176961], [30.102731192893646, 59.867998435265534], [30.102739552317463, 59.86808809801204], [30.10291786316853, 59.868083894383176], [30.102934583131002, 59.8682632198402], [30.10275627132287, 59.8682674234992], [30.102764630904467, 59.86835708623987], [30.102408006173363, 59.86836549286454]]]}, "properties": {"zone_id": "neva-2026-09-07-003", "aoi": "neva", "date": "2026-09-07", "scene_id": "S2B_MSIL2A_20260907T093029_R136_T36VUM_20260907T113613", "scene_datetime_utc": "2026-09-07T09:30:29.024000+00:00", "detection_status": "detected", "detection_status_ru": "обнаружено", "lon": 30.10257, "lat": 59.86818, "n_pixels": 4, "zone_area_km2": 0.0012, "cover_m2": 53.7, "p_mean": 0.86, "p_max": 1.0, "cover_m2_km2": 44750.0, "h3": "8811061705fffff", "valid_frac_scene": 0.998, "wind_ms": 8.5, "sea": "шторм", "scene_reliable": false, "field_event_id": "S3:HE419_MarLitter_transect28", "field_profile": "B", "field_date": "2014-04-11", "field_distance_km": 1415.9, "field_date_gap_days": 4532, "field_conc_items_km2": 43.1, "conc_A_items_km2": null, "conc_A_lo80": null, "conc_A_hi80": null, "conc_A_lo95": null, "conc_A_hi95": null, "conc_A_status": "unavailable", "conc_A_status_ru": "концентрация недоступна", "conc_A_reasons": "вне бассейна профиля: nw_atlantic_subtropical", "conc_A_model": "conc-A-c6bce5631d2b", "conc_B_items_km2": null, "conc_B_lo80": null, "conc_B_hi80": null, "conc_B_lo95": null, "conc_B_hi95": null, "conc_B_status": "unavailable", "conc_B_status_ru": "концентрация недоступна", "conc_B_reasons": "вне бассейна профиля: black_sea", "conc_B_model": "conc-B-c6bce5631d2b"}}, {"type": "Feature", "geometry": {"type": "Polygon", "coordinates": [[[30.10487927905824, 59.86803763854937], [30.10487091389213, 59.86794797598383], [30.10469260409831, 59.867952182250335], [30.104675874881025, 59.86777285708328], [30.104854183717812, 59.86776865084693], [30.1048458187096, 59.867678988275586], [30.105202435268268, 59.86767057510963], [30.105210801233504, 59.86776023765079], [30.105389109912398, 59.86775603069101], [30.10540584295781, 59.86793535573739], [30.10522753332189, 59.86793956272737], [30.10523589944503, 59.86802922526273], [30.10487927905824, 59.86803763854937]]]}, "properties": {"zone_id": "neva-2026-09-07-004", "aoi": "neva", "date": "2026-09-07", "scene_id": "S2B_MSIL2A_20260907T093029_R136_T36VUM_20260907T113613", "scene_datetime_utc": "2026-09-07T09:30:29.024000+00:00", "detection_status": "detected", "detection_status_ru": "обнаружено", "lon": 30.10504, "lat": 59.86785, "n_pixels": 4, "zone_area_km2": 0.0012, "cover_m2": 59.2, "p_mean": 0.995, "p_max": 1.0, "cover_m2_km2": 49333.3, "h3": "8811061705fffff", "valid_frac_scene": 0.998, "wind_ms": 8.5, "sea": "шторм", "scene_reliable": false, "field_event_id": "S3:HE419_MarLitter_transect28", "field_profile": "B", "field_date": "2014-04-11", "field_distance_km": 1416.0, "field_date_gap_days": 4532, "field_conc_items_km2": 43.1, "conc_A_items_km2": null, "conc_A_lo80": null, "conc_A_hi80": null, "conc_A_lo95": null, "conc_A_hi95": null, "conc_A_status": "unavailable", "conc_A_status_ru": "концентрация недоступна", "conc_A_reasons": "вне бассейна профиля: nw_atlantic_subtropical", "conc_A_model": "conc-A-c6bce5631d2b", "conc_B_items_km2": null, "conc_B_lo80": null, "conc_B_hi80": null, "conc_B_lo95": null, "conc_B_hi95": null, "conc_B_status": "unavailable", "conc_B_status_ru": "концентрация недоступна", "conc_B_reasons": "вне бассейна профиля: black_sea", "conc_B_model": "conc-B-c6bce5631d2b"}}, {"type": "Feature", "geometry": {"type": "MultiPolygon", "coordinates": [[[[30.106263914897315, 59.867555667371484], [30.106272283680962, 59.86764532982407], [30.106450591565487, 59.86764112143245], [30.106442222303336, 59.86755145899493], [30.106807207176566, 59.867632703925736], [30.1067988369574, 59.867543041518424], [30.106977144205448, 59.86753883241844], [30.106960402968102, 59.86735950762817], [30.10678209667706, 59.86736371669797], [30.106773726615877, 59.86727405428483], [30.106417114832798, 59.8672824716708], [30.106425483936988, 59.86737213411411], [30.106247177487973, 59.867376342460474], [30.106255546166324, 59.86746600491694], [30.106077239186153, 59.86747021303725], [30.10608560743865, 59.867559875506856], [30.106263914897315, 59.867555667371484]]], [[[30.105907299927335, 59.86756408340108], [30.105898932153345, 59.86747442091639], [30.105720625067885, 59.86747862855437], [30.105703890634835, 59.86729930354894], [30.105525584453734, 59.86730351091562], [30.105517217794663, 59.86721384839491], [30.105160606231546, 59.86722226237462], [30.105168971933626, 59.867311924925474], [30.104990665594624, 59.86731613156871], [30.10499903087084, 59.86740579413272], [30.105177337688335, 59.86740158747443], [30.105194069355655, 59.86758091256651], [30.105559051616396, 59.86766216097905], [30.105567418538655, 59.86775182349006], [30.10574572711228, 59.86774761604795], [30.10575409456569, 59.86783727854193], [30.106102344101583, 59.86773920044028], [30.10608560743865, 59.867559875506856], [30.105907299927335, 59.86756408340108]]]]}, "properties": {"zone_id": "neva-2026-09-07-005", "aoi": "neva", "date": "2026-09-07", "scene_id": "S2B_MSIL2A_20260907T093029_R136_T36VUM_20260907T113613", "scene_datetime_utc": "2026-09-07T09:30:29.024000+00:00", "detection_status": "detected", "detection_status_ru": "обнаружено", "lon": 30.1059, "lat": 59.8675, "n_pixels": 12, "zone_area_km2": 0.0034, "cover_m2": 176.1, "p_mean": 0.931, "p_max": 1.0, "cover_m2_km2": 51794.1, "h3": "8811061705fffff", "valid_frac_scene": 0.998, "wind_ms": 8.5, "sea": "шторм", "scene_reliable": false, "field_event_id": "S3:HE419_MarLitter_transect28", "field_profile": "B", "field_date": "2014-04-11", "field_distance_km": 1416.0, "field_date_gap_days": 4532, "field_conc_items_km2": 43.1, "conc_A_items_km2": null, "conc_A_lo80": null, "conc_A_hi80": null, "conc_A_lo95": null, "conc_A_hi95": null, "conc_A_status": "unavailable", "conc_A_status_ru": "концентрация недоступна", "conc_A_reasons": "вне бассейна профиля: nw_atlantic_subtropical", "conc_A_model": "conc-A-c6bce5631d2b", "conc_B_items_km2": null, "conc_B_lo80": null, "conc_B_hi80": null, "conc_B_lo95": null, "conc_B_hi95": null, "conc_B_status": "unavailable", "conc_B_status_ru": "концентрация недоступна", "conc_B_reasons": "вне бассейна профиля: black_sea", "conc_B_model": "conc-B-c6bce5631d2b"}}, {"type": "Feature", "geometry": {"type": "Polygon", "coordinates": [[[30.101092977231897, 59.867677605389545], [30.101084622377666, 59.867587942497714], [30.100719651469017, 59.867506681586384], [30.100711297676927, 59.86741701866056], [30.10088960527819, 59.867412817805], [30.10088125106015, 59.86732315489232], [30.101059558130338, 59.86731895381064], [30.10105120348636, 59.86722929091106], [30.101416172113037, 59.867310550923854], [30.101441239231416, 59.86757953952053], [30.101092977231897, 59.867677605389545]]]}, "properties": {"zone_id": "neva-2026-09-07-006", "aoi": "neva", "date": "2026-09-07", "scene_id": "S2B_MSIL2A_20260907T093029_R136_T36VUM_20260907T113613", "scene_datetime_utc": "2026-09-07T09:30:29.024000+00:00", "detection_status": "detected", "detection_status_ru": "обнаружено", "lon": 30.10112, "lat": 59.86745, "n_pixels": 4, "zone_area_km2": 0.0012, "cover_m2": 54.1, "p_mean": 0.98, "p_max": 1.0, "cover_m2_km2": 45083.3, "h3": "8811061705fffff", "valid_frac_scene": 0.998, "wind_ms": 8.5, "sea": "шторм", "scene_reliable": false, "field_event_id": "S3:HE419_MarLitter_transect28", "field_profile": "B", "field_date": "2014-04-11", "field_distance_km": 1415.8, "field_date_gap_days": 4532, "field_conc_items_km2": 43.1, "conc_A_items_km2": null, "conc_A_lo80": null, "conc_A_hi80": null, "conc_A_lo95": null, "conc_A_hi95": null, "conc_A_status": "unavailable", "conc_A_status_ru": "концентрация недоступна", "conc_A_reasons": "вне бассейна профиля: nw_atlantic_subtropical", "conc_A_model": "conc-A-c6bce5631d2b", "conc_B_items_km2": null, "conc_B_lo80": null, "conc_B_hi80": null, "conc_B_lo95": null, "conc_B_hi95": null, "conc_B_status": "unavailable", "conc_B_status_ru": "концентрация недоступна", "conc_B_reasons": "вне бассейна профиля: black_sea", "conc_B_model": "conc-B-c6bce5631d2b"}}, {"type": "Feature", "geometry": {"type": "Polygon", "coordinates": [[[30.10360602075529, 59.86779808943703], [30.10359765909666, 59.867708426760124], [30.103419350370082, 59.86771263129329], [30.103402628167682, 59.867533305903464], [30.10375088167488, 59.867435233988616], [30.103742519748177, 59.86734557131901], [30.103564212988235, 59.86734977603301], [30.103547490249653, 59.86717045065784], [30.103725796052597, 59.867166245973976], [30.10371743428372, 59.867076583298584], [30.104074044774805, 59.86706817323758], [30.104082407500673, 59.86715783588283], [30.104260713145795, 59.86715363047552], [30.10427743971236, 59.867332955730056], [30.103929188860725, 59.86743102901836], [30.103937551318545, 59.86752069167096], [30.104115858930278, 59.867516486444494], [30.10413258496076, 59.86769581171367], [30.103954276392006, 59.8677000169703], [30.103962639007662, 59.86778967961707], [30.10360602075529, 59.86779808943703]]]}, "properties": {"zone_id": "neva-2026-09-07-007", "aoi": "neva", "date": "2026-09-07", "scene_id": "S2B_MSIL2A_20260907T093029_R136_T36VUM_20260907T113613", "scene_datetime_utc": "2026-09-07T09:30:29.024000+00:00", "detection_status": "detected", "detection_status_ru": "обнаружено", "lon": 30.10384, "lat": 59.86743, "n_pixels": 8, "zone_area_km2": 0.0024, "cover_m2": 109.8, "p_mean": 0.979, "p_max": 1.0, "cover_m2_km2": 45750.0, "h3": "8811061705fffff", "valid_frac_scene": 0.998, "wind_ms": 8.5, "sea": "шторм", "scene_reliable": false, "field_event_id": "S3:HE419_MarLitter_transect28", "field_profile": "B", "field_date": "2014-04-11", "field_distance_km": 1415.9, "field_date_gap_days": 4532, "field_conc_items_km2": 43.1, "conc_A_items_km2": null, "conc_A_lo80": null, "conc_A_hi80": null, "conc_A_lo95": null, "conc_A_hi95": null, "conc_A_status": "unavailable", "conc_A_status_ru": "концентрация недоступна", "conc_A_reasons": "вне бассейна профиля: nw_atlantic_subtropical", "conc_A_model": "conc-A-c6bce5631d2b", "conc_B_items_km2": null, "conc_B_lo80": null, "conc_B_hi80": null, "conc_B_lo95": null, "conc_B_hi95": null, "conc_B_status": "unavailable", "conc_B_status_ru": "концентрация недоступна", "conc_B_reasons": "вне бассейна профиля: black_sea", "conc_B_model": "conc-B-c6bce5631d2b"}}, {"type": "Feature", "geometry": {"type": "Polygon", "coordinates": [[[30.102324422294522, 59.86746886506907], [30.102316064195854, 59.86737920227886], [30.102137757015154, 59.86738340506365], [30.102121041932588, 59.8672040794473], [30.10229934815628, 59.867199876692645], [30.10229099021536, 59.86711021389663], [30.102647601548, 59.86710180769401], [30.102655960445915, 59.86719147045988], [30.102834266511845, 59.867187266981766], [30.102850985422435, 59.86736659247755], [30.1026726783995, 59.867370795985806], [30.102681037455174, 59.867460458745875], [30.102324422294522, 59.86746886506907]]]}, "properties": {"zone_id": "neva-2026-09-07-008", "aoi": "neva", "date": "2026-09-07", "scene_id": "S2B_MSIL2A_20260907T093029_R136_T36VUM_20260907T113613", "scene_datetime_utc": "2026-09-07T09:30:29.024000+00:00", "detection_status": "detected", "detection_status_ru": "обнаружено", "lon": 30.10249, "lat": 59.86729, "n_pixels": 4, "zone_area_km2": 0.0012, "cover_m2": 53.3, "p_mean": 0.99, "p_max": 0.996, "cover_m2_km2": 44416.7, "h3": "8811061705fffff", "valid_frac_scene": 0.998, "wind_ms": 8.5, "sea": "шторм", "scene_reliable": false, "field_event_id": "S3:HE419_MarLitter_transect28", "field_profile": "B", "field_date": "2014-04-11", "field_distance_km": 1415.9, "field_date_gap_days": 4532, "field_conc_items_km2": 43.1, "conc_A_items_km2": null, "conc_A_lo80": null, "conc_A_hi80": null, "conc_A_lo95": null, "conc_A_hi95": null, "conc_A_status": "unavailable", "conc_A_status_ru": "концентрация недоступна", "conc_A_reasons": "вне бассейна профиля: nw_atlantic_subtropical", "conc_A_model": "conc-A-c6bce5631d2b", "conc_B_items_km2": null, "conc_B_lo80": null, "conc_B_hi80": null, "conc_B_lo95": null, "conc_B_hi95": null, "conc_B_status": "unavailable", "conc_B_status_ru": "концентрация недоступна", "conc_B_reasons": "вне бассейна профиля: black_sea", "conc_B_model": "conc-B-c6bce5631d2b"}}]}