{"type": "FeatureCollection", "features": [{"type": "Feature", "geometry": {"type": "Polygon", "coordinates": [[[39.71971174418148, 43.56732502123817], [39.719710672152566, 43.56723498641294], [39.71958684992574, 43.56723576584824], [39.71958470625159, 43.56705569618863], [39.71983127776426, 43.56696410236659], [39.71983234996268, 43.5670541371937], [39.71995617181077, 43.567053357495084], [39.71995831659131, 43.56723342714009], [39.71971174418148, 43.56732502123817]]]}, "properties": {"zone_id": "sochi-2026-08-21-001", "aoi": "sochi", "date": "2026-08-21", "scene_id": "S2A_MSIL2A_20260821T081641_R078_T37TEJ_20260821T144125", "scene_datetime_utc": "2026-08-21T08:16:41.024000+00:00", "detection_status": "detected", "detection_status_ru": "обнаружено", "lon": 39.71977, "lat": 43.56714, "n_pixels": 2, "zone_area_km2": 0.0008, "cover_m2": 13.3, "p_mean": 0.871, "p_max": 0.922, "cover_m2_km2": 16625.0, "h3": "882d568e43fffff", "valid_frac_scene": 1.0, "wind_ms": 3.2, "sea": "спокойное", "scene_reliable": true, "field_event_id": "S4:DOORS3:T17", "field_profile": "B", "field_date": "2024-06-04", "field_distance_km": 183.8, "field_date_gap_days": 808, "field_conc_items_km2": 89.61, "conc_A_items_km2": null, "conc_A_lo80": null, "conc_A_hi80": null, "conc_A_lo95": null, "conc_A_hi95": null, "conc_A_status": "unavailable", "conc_A_status_ru": "концентрация недоступна", "conc_A_reasons": "вне бассейна профиля: nw_atlantic_subtropical", "conc_A_model": "conc-A-c6bce5631d2b", "conc_B_items_km2": 901.4, "conc_B_lo80": 192.7, "conc_B_hi80": 3027.3, "conc_B_lo95": 120.4, "conc_B_hi95": 5668.0, "conc_B_status": "research_estimate", "conc_B_status_ru": "исследовательская оценка", "conc_B_reasons": "ближайшее полевое измерение в 184 км (> 60 км); месяц 8 вне месяцев обучения [6]; log_dist_coast_km = 0.0 вне диапазона обучения [1.7; 5.0]", "conc_B_model": "conc-B-c6bce5631d2b"}}, {"type": "Feature", "geometry": {"type": "Polygon", "coordinates": [[[39.71128545208907, 43.56683750758171], [39.7112843926287, 43.56674747258313], [39.71116057117268, 43.56674824288576], [39.71115951190161, 43.566658207883314], [39.71128333317324, 43.566657437583096], [39.71128227372269, 43.566567402581626], [39.71152991588244, 43.56656586158375], [39.71153097570177, 43.56665589658039], [39.711654796958676, 43.56665512587791], [39.71165585696732, 43.56674516087071], [39.71153203552603, 43.5667459315756], [39.71153309535518, 43.56683596656938], [39.71128545208907, 43.56683750758171]]]}, "properties": {"zone_id": "sochi-2026-08-21-002", "aoi": "sochi", "date": "2026-08-21", "scene_id": "S2A_MSIL2A_20260821T081641_R078_T37TEJ_20260821T144125", "scene_datetime_utc": "2026-08-21T08:16:41.024000+00:00", "detection_status": "detected", "detection_status_ru": "обнаружено", "lon": 39.71141, "lat": 43.5667, "n_pixels": 2, "zone_area_km2": 0.0008, "cover_m2": 11.4, "p_mean": 0.843, "p_max": 0.98, "cover_m2_km2": 14250.0, "h3": "882d568e41fffff", "valid_frac_scene": 1.0, "wind_ms": 3.2, "sea": "спокойное", "scene_reliable": true, "field_event_id": "S4:DOORS3:T17", "field_profile": "B", "field_date": "2024-06-04", "field_distance_km": 183.4, "field_date_gap_days": 808, "field_conc_items_km2": 89.61, "conc_A_items_km2": null, "conc_A_lo80": null, "conc_A_hi80": null, "conc_A_lo95": null, "conc_A_hi95": null, "conc_A_status": "unavailable", "conc_A_status_ru": "концентрация недоступна", "conc_A_reasons": "вне бассейна профиля: nw_atlantic_subtropical", "conc_A_model": "conc-A-c6bce5631d2b", "conc_B_items_km2": 666.4, "conc_B_lo80": 142.3, "conc_B_hi80": 2238.6, "conc_B_lo95": 88.8, "conc_B_hi95": 4191.5, "conc_B_status": "research_estimate", "conc_B_status_ru": "исследовательская оценка", "conc_B_reasons": "ближайшее полевое измерение в 183 км (> 60 км); месяц 8 вне месяцев обучения [6]; log_dist_coast_km = 0.9 вне диапазона обучения [1.7; 5.0]", "conc_B_model": "conc-B-c6bce5631d2b"}}, {"type": "Feature", "geometry": {"type": "Polygon", "coordinates": [[[39.73046992865402, 43.555821498689376], [39.730468841038004, 43.55573146389666], [39.730345042662606, 43.555732254817876], [39.73034286781426, 43.55555218522316], [39.73046666582108, 43.555551394306896], [39.730465578220176, 43.555461359509856], [39.73071317385016, 43.55545977728014], [39.73071426181963, 43.55554981207224], [39.730838059811354, 43.55554902075387], [39.73083914797015, 43.55563905554205], [39.730715349794146, 43.55563984686291], [39.730716437773694, 43.55572988165212], [39.73046992865402, 43.555821498689376]]]}, "properties": {"zone_id": "sochi-2026-08-21-003", "aoi": "sochi", "date": "2026-08-21", "scene_id": "S2A_MSIL2A_20260821T081641_R078_T37TEJ_20260821T144125", "scene_datetime_utc": "2026-08-21T08:16:41.024000+00:00", "detection_status": "detected", "detection_status_ru": "обнаружено", "lon": 39.73057, "lat": 43.55563, "n_pixels": 3, "zone_area_km2": 0.001, "cover_m2": 18.8, "p_mean": 0.835, "p_max": 0.973, "cover_m2_km2": 18800.0, "h3": "882d568e0dfffff", "valid_frac_scene": 1.0, "wind_ms": 3.2, "sea": "спокойное", "scene_reliable": true, "field_event_id": "S4:DOORS3:T17", "field_profile": "B", "field_date": "2024-06-04", "field_distance_km": 183.3, "field_date_gap_days": 808, "field_conc_items_km2": 89.61, "conc_A_items_km2": null, "conc_A_lo80": null, "conc_A_hi80": null, "conc_A_lo95": null, "conc_A_hi95": null, "conc_A_status": "unavailable", "conc_A_status_ru": "концентрация недоступна", "conc_A_reasons": "вне бассейна профиля: nw_atlantic_subtropical", "conc_A_model": "conc-A-c6bce5631d2b", "conc_B_items_km2": 621.6, "conc_B_lo80": 132.7, "conc_B_hi80": 2088.3, "conc_B_lo95": 82.8, "conc_B_hi95": 3910.2, "conc_B_status": "research_estimate", "conc_B_status_ru": "исследовательская оценка", "conc_B_reasons": "ближайшее полевое измерение в 183 км (> 60 км); месяц 8 вне месяцев обучения [6]; log_dist_coast_km = 1.0 вне диапазона обучения [1.7; 5.0]", "conc_B_model": "conc-B-c6bce5631d2b"}}, {"type": "Feature", "geometry": {"type": "Polygon", "coordinates": [[[39.717936318629995, 43.55337972341898], [39.717935249765695, 43.553289688338246], [39.717811456045816, 43.55329046565367], [39.71781038737073, 43.553200430569056], [39.71793418090635, 43.55319965325607], [39.717933112051945, 43.55310961817244], [39.718181767962726, 43.553198098228], [39.718182837190604, 43.553288133305315], [39.71805904348063, 43.55328891088879], [39.718060112529194, 43.553378945967104], [39.717936318629995, 43.55337972341898]]]}, "properties": {"zone_id": "sochi-2026-08-21-004", "aoi": "sochi", "date": "2026-08-21", "scene_id": "S2A_MSIL2A_20260821T081641_R078_T37TEJ_20260821T144125", "scene_datetime_utc": "2026-08-21T08:16:41.024000+00:00", "detection_status": "detected", "detection_status_ru": "обнаружено", "lon": 39.718, "lat": 43.55324, "n_pixels": 1, "zone_area_km2": 0.0005, "cover_m2": 3.9, "p_mean": 0.769, "p_max": 0.769, "cover_m2_km2": 7800.0, "h3": "882d568e45fffff", "valid_frac_scene": 1.0, "wind_ms": 3.2, "sea": "спокойное", "scene_reliable": true, "field_event_id": "S4:DOORS3:T17", "field_profile": "B", "field_date": "2024-06-04", "field_distance_km": 182.5, "field_date_gap_days": 808, "field_conc_items_km2": 89.61, "conc_A_items_km2": null, "conc_A_lo80": null, "conc_A_hi80": null, "conc_A_lo95": null, "conc_A_hi95": null, "conc_A_status": "unavailable", "conc_A_status_ru": "концентрация недоступна", "conc_A_reasons": "вне бассейна профиля: nw_atlantic_subtropical", "conc_A_model": "conc-A-c6bce5631d2b", "conc_B_items_km2": 621.6, "conc_B_lo80": 132.7, "conc_B_hi80": 2088.3, "conc_B_lo95": 82.8, "conc_B_hi95": 3910.2, "conc_B_status": "research_estimate", "conc_B_status_ru": "исследовательская оценка", "conc_B_reasons": "ближайшее полевое измерение в 182 км (> 60 км); месяц 8 вне месяцев обучения [6]; log_dist_coast_km = 1.0 вне диапазона обучения [1.7; 5.0]", "conc_B_model": "conc-B-c6bce5631d2b"}}, {"type": "Feature", "geometry": {"type": "Polygon", "coordinates": [[[39.71966300417828, 43.552828616594546], [39.71966193276403, 43.5527385815392], [39.71953814021909, 43.55273936071637], [39.71953599777399, 43.55255929059649], [39.71978251053824, 43.55246769706063], [39.71978358212186, 43.55255773211787], [39.71990737428837, 43.55255695267751], [39.71990951783903, 43.55273702278278], [39.71966300417828, 43.552828616594546]]]}, "properties": {"zone_id": "sochi-2026-08-21-005", "aoi": "sochi", "date": "2026-08-21", "scene_id": "S2A_MSIL2A_20260821T081641_R078_T37TEJ_20260821T144125", "scene_datetime_utc": "2026-08-21T08:16:41.024000+00:00", "detection_status": "detected", "detection_status_ru": "обнаружено", "lon": 39.71972, "lat": 43.55265, "n_pixels": 2, "zone_area_km2": 0.0008, "cover_m2": 16.1, "p_mean": 0.816, "p_max": 0.906, "cover_m2_km2": 20125.0, "h3": "882d568e6bfffff", "valid_frac_scene": 1.0, "wind_ms": 3.2, "sea": "спокойное", "scene_reliable": true, "field_event_id": "S4:DOORS3:T17", "field_profile": "B", "field_date": "2024-06-04", "field_distance_km": 182.5, "field_date_gap_days": 808, "field_conc_items_km2": 89.61, "conc_A_items_km2": null, "conc_A_lo80": null, "conc_A_hi80": null, "conc_A_lo95": null, "conc_A_hi95": null, "conc_A_status": "unavailable", "conc_A_status_ru": "концентрация недоступна", "conc_A_reasons": "вне бассейна профиля: nw_atlantic_subtropical", "conc_A_model": "conc-A-c6bce5631d2b", "conc_B_items_km2": 621.6, "conc_B_lo80": 132.7, "conc_B_hi80": 2088.3, "conc_B_lo95": 82.8, "conc_B_hi95": 3910.2, "conc_B_status": "research_estimate", "conc_B_status_ru": "исследовательская оценка", "conc_B_reasons": "ближайшее полевое измерение в 182 км (> 60 км); месяц 8 вне месяцев обучения [6]; log_dist_coast_km = 1.0 вне диапазона обучения [1.7; 5.0]", "conc_B_model": "conc-B-c6bce5631d2b"}}, {"type": "Feature", "geometry": {"type": "Polygon", "coordinates": [[[39.7290658099798, 43.55231883243164], [39.72906472458696, 43.552228797555394], [39.72894093334276, 43.55222958690599], [39.728939848139206, 43.55213955202582], [39.729063639199154, 43.55213876267771], [39.72906255381637, 43.55204872779858], [39.72931013555268, 43.55204714870523], [39.729311221303966, 43.55213718357942], [39.72943501234884, 43.55213639382925], [39.729436098289405, 43.552226428699534], [39.72931230706029, 43.55222721845216], [39.72931339282163, 43.55231725332347], [39.7290658099798, 43.55231883243164]]]}, "properties": {"zone_id": "sochi-2026-08-21-006", "aoi": "sochi", "date": "2026-08-21", "scene_id": "S2A_MSIL2A_20260821T081641_R078_T37TEJ_20260821T144125", "scene_datetime_utc": "2026-08-21T08:16:41.024000+00:00", "detection_status": "detected", "detection_status_ru": "обнаружено", "lon": 39.72919, "lat": 43.55218, "n_pixels": 2, "zone_area_km2": 0.0008, "cover_m2": 9.8, "p_mean": 0.986, "p_max": 0.996, "cover_m2_km2": 12250.0, "h3": "882d568e0dfffff", "valid_frac_scene": 1.0, "wind_ms": 3.2, "sea": "спокойное", "scene_reliable": true, "field_event_id": "S4:DOORS3:T17", "field_profile": "B", "field_date": "2024-06-04", "field_distance_km": 182.9, "field_date_gap_days": 808, "field_conc_items_km2": 89.61, "conc_A_items_km2": null, "conc_A_lo80": null, "conc_A_hi80": null, "conc_A_lo95": null, "conc_A_hi95": null, "conc_A_status": "unavailable", "conc_A_status_ru": "концентрация недоступна", "conc_A_reasons": "вне бассейна профиля: nw_atlantic_subtropical", "conc_A_model": "conc-A-c6bce5631d2b", "conc_B_items_km2": 621.6, "conc_B_lo80": 132.7, "conc_B_hi80": 2088.3, "conc_B_lo95": 82.8, "conc_B_hi95": 3910.2, "conc_B_status": "research_estimate", "conc_B_status_ru": "исследовательская оценка", "conc_B_reasons": "ближайшее полевое измерение в 183 км (> 60 км); месяц 8 вне месяцев обучения [6]; log_dist_coast_km = 1.0 вне диапазона обучения [1.7; 5.0]", "conc_B_model": "conc-B-c6bce5631d2b"}}, {"type": "Feature", "geometry": {"type": "Polygon", "coordinates": [[[39.75588794339884, 43.53899852702875], [39.75588681859987, 43.53890849248917], [39.755763055362465, 43.53890931068236], [39.755761930752826, 43.53881927613875], [39.75588569380611, 43.538818457948146], [39.75588456901755, 43.53872842340567], [39.75613209474025, 43.53872678662768], [39.756133219897045, 43.53881682116504], [39.7562569829347, 43.538816002572545], [39.75625810828083, 43.538906037105896], [39.75613434505905, 43.53890685570096], [39.75613547022627, 43.53899689023541], [39.75588794339884, 43.53899852702875]]]}, "properties": {"zone_id": "sochi-2026-08-21-007", "aoi": "sochi", "date": "2026-08-21", "scene_id": "S2A_MSIL2A_20260821T081641_R078_T37TEJ_20260821T144125", "scene_datetime_utc": "2026-08-21T08:16:41.024000+00:00", "detection_status": "detected", "detection_status_ru": "обнаружено", "lon": 39.75601, "lat": 43.53886, "n_pixels": 2, "zone_area_km2": 0.0008, "cover_m2": 10.6, "p_mean": 0.673, "p_max": 0.831, "cover_m2_km2": 13250.0, "h3": "882d568e21fffff", "valid_frac_scene": 1.0, "wind_ms": 3.2, "sea": "спокойное", "scene_reliable": true, "field_event_id": "S4:DOORS3:T17", "field_profile": "B", "field_date": "2024-06-04", "field_distance_km": 183.0, "field_date_gap_days": 808, "field_conc_items_km2": 89.61, "conc_A_items_km2": null, "conc_A_lo80": null, "conc_A_hi80": null, "conc_A_lo95": null, "conc_A_hi95": null, "conc_A_status": "unavailable", "conc_A_status_ru": "концентрация недоступна", "conc_A_reasons": "вне бассейна профиля: nw_atlantic_subtropical", "conc_A_model": "conc-A-c6bce5631d2b", "conc_B_items_km2": 621.6, "conc_B_lo80": 132.7, "conc_B_hi80": 2088.3, "conc_B_lo95": 82.8, "conc_B_hi95": 3910.2, "conc_B_status": "research_estimate", "conc_B_status_ru": "исследовательская оценка", "conc_B_reasons": "ближайшее полевое измерение в 183 км (> 60 км); месяц 8 вне месяцев обучения [6]; log_dist_coast_km = 1.0 вне диапазона обучения [1.7; 5.0]", "conc_B_model": "conc-B-c6bce5631d2b"}}, {"type": "Feature", "geometry": {"type": "Polygon", "coordinates": [[[39.88057771762493, 43.49137423338038], [39.88057640947062, 43.49128420089151], [39.88045274737387, 43.491285153227395], [39.8804501314507, 43.49110508823937], [39.88057379318015, 43.49110413590945], [39.88057248504399, 43.49101410341622], [39.88081980811744, 43.49101219836116], [39.880821116620886, 43.49110223084843], [39.88094477833217, 43.49110127811735], [39.88094739572453, 43.49128134308154], [39.880823733645954, 43.491282295818586], [39.880825042167565, 43.49137232830148], [39.88057771762493, 43.49137423338038]]]}, "properties": {"zone_id": "sochi-2026-08-21-008", "aoi": "sochi", "date": "2026-08-21", "scene_id": "S2A_MSIL2A_20260821T081641_R078_T37TEJ_20260821T144125", "scene_datetime_utc": "2026-08-21T08:16:41.024000+00:00", "detection_status": "detected", "detection_status_ru": "обнаружено", "lon": 39.8807, "lat": 43.49119, "n_pixels": 4, "zone_area_km2": 0.0012, "cover_m2": 41.6, "p_mean": 0.811, "p_max": 0.969, "cover_m2_km2": 34666.7, "h3": "882d568d81fffff", "valid_frac_scene": 1.0, "wind_ms": 3.2, "sea": "спокойное", "scene_reliable": true, "field_event_id": "S4:DOORS3:T17", "field_profile": "B", "field_date": "2024-06-04", "field_distance_km": 185.2, "field_date_gap_days": 808, "field_conc_items_km2": 89.61, "conc_A_items_km2": null, "conc_A_lo80": null, "conc_A_hi80": null, "conc_A_lo95": null, "conc_A_hi95": null, "conc_A_status": "unavailable", "conc_A_status_ru": "концентрация недоступна", "conc_A_reasons": "вне бассейна профиля: nw_atlantic_subtropical", "conc_A_model": "conc-A-c6bce5631d2b", "conc_B_items_km2": 666.4, "conc_B_lo80": 142.3, "conc_B_hi80": 2238.6, "conc_B_lo95": 88.8, "conc_B_hi95": 4191.5, "conc_B_status": "research_estimate", "conc_B_status_ru": "исследовательская оценка", "conc_B_reasons": "ближайшее полевое измерение в 185 км (> 60 км); месяц 8 вне месяцев обучения [6]; log_dist_coast_km = 0.9 вне диапазона обучения [1.7; 5.0]", "conc_B_model": "conc-B-c6bce5631d2b"}}, {"type": "Feature", "geometry": {"type": "Polygon", "coordinates": [[[39.86556696246629, 43.48815727928149], [39.86556567675405, 43.48806724638166], [39.86544202072576, 43.4880681824288], [39.86543944968637, 43.48788811661893], [39.86568547512451, 43.48779621150141], [39.86568676100252, 43.48788624440267], [39.86581041665168, 43.487885308093986], [39.86581298879279, 43.488065373886286], [39.86556696246629, 43.48815727928149]]]}, "properties": {"zone_id": "sochi-2026-08-21-009", "aoi": "sochi", "date": "2026-08-21", "scene_id": "S2A_MSIL2A_20260821T081641_R078_T37TEJ_20260821T144125", "scene_datetime_utc": "2026-08-21T08:16:41.024000+00:00", "detection_status": "detected", "detection_status_ru": "обнаружено", "lon": 39.86563, "lat": 43.48798, "n_pixels": 2, "zone_area_km2": 0.0008, "cover_m2": 13.3, "p_mean": 0.994, "p_max": 0.996, "cover_m2_km2": 16625.0, "h3": "882d568debfffff", "valid_frac_scene": 1.0, "wind_ms": 3.2, "sea": "спокойное", "scene_reliable": true, "field_event_id": "S4:DOORS3:T17", "field_profile": "B", "field_date": "2024-06-04", "field_distance_km": 184.1, "field_date_gap_days": 808, "field_conc_items_km2": 89.61, "conc_A_items_km2": null, "conc_A_lo80": null, "conc_A_hi80": null, "conc_A_lo95": null, "conc_A_hi95": null, "conc_A_status": "unavailable", "conc_A_status_ru": "концентрация недоступна", "conc_A_reasons": "вне бассейна профиля: nw_atlantic_subtropical", "conc_A_model": "conc-A-c6bce5631d2b", "conc_B_items_km2": 591.0, "conc_B_lo80": 126.1, "conc_B_hi80": 1985.7, "conc_B_lo95": 78.7, "conc_B_hi95": 3718.0, "conc_B_status": "research_estimate", "conc_B_status_ru": "исследовательская оценка", "conc_B_reasons": "ближайшее полевое измерение в 184 км (> 60 км); месяц 8 вне месяцев обучения [6]; log_dist_coast_km = 1.2 вне диапазона обучения [1.7; 5.0]", "conc_B_model": "conc-B-c6bce5631d2b"}}, {"type": "Feature", "geometry": {"type": "Polygon", "coordinates": [[[39.870965905656114, 43.476590812555074], [39.870964612447, 43.476500779601245], [39.870840980183786, 43.476501721288365], [39.870839687164164, 43.47641168833014], [39.870963319243856, 43.47641074664597], [39.870962026046705, 43.47632071368924], [39.871209289821124, 43.47631882992582], [39.8712105833853, 43.476408862876674], [39.87133421544704, 43.47640792079154], [39.87133550920071, 43.47649795373797], [39.871211876955456, 43.47649889582605], [39.871213170531604, 43.476588928773985], [39.870965905656114, 43.476590812555074]]]}, "properties": {"zone_id": "sochi-2026-08-21-010", "aoi": "sochi", "date": "2026-08-21", "scene_id": "S2A_MSIL2A_20260821T081641_R078_T37TEJ_20260821T144125", "scene_datetime_utc": "2026-08-21T08:16:41.024000+00:00", "detection_status": "detected", "detection_status_ru": "обнаружено", "lon": 39.87109, "lat": 43.47645, "n_pixels": 2, "zone_area_km2": 0.0008, "cover_m2": 11.0, "p_mean": 0.943, "p_max": 1.0, "cover_m2_km2": 13750.0, "h3": "882d568de7fffff", "valid_frac_scene": 1.0, "wind_ms": 3.2, "sea": "спокойное", "scene_reliable": true, "field_event_id": "S4:DOORS3:T17", "field_profile": "B", "field_date": "2024-06-04", "field_distance_km": 183.4, "field_date_gap_days": 808, "field_conc_items_km2": 89.61, "conc_A_items_km2": null, "conc_A_lo80": null, "conc_A_hi80": null, "conc_A_lo95": null, "conc_A_hi95": null, "conc_A_status": "unavailable", "conc_A_status_ru": "концентрация недоступна", "conc_A_reasons": "вне бассейна профиля: nw_atlantic_subtropical", "conc_A_model": "conc-A-c6bce5631d2b", "conc_B_items_km2": 666.4, "conc_B_lo80": 142.3, "conc_B_hi80": 2238.6, "conc_B_lo95": 88.8, "conc_B_hi95": 4191.5, "conc_B_status": "research_estimate", "conc_B_status_ru": "исследовательская оценка", "conc_B_reasons": "ближайшее полевое измерение в 183 км (> 60 км); месяц 8 вне месяцев обучения [6]; log_dist_coast_km = 0.9 вне диапазона обучения [1.7; 5.0]", "conc_B_model": "conc-B-c6bce5631d2b"}}, {"type": "Feature", "geometry": {"type": "Polygon", "coordinates": [[[39.864186559523176, 43.434682151018706], [39.86418527825457, 43.43459211724089], [39.863936903080486, 43.43450395060878], [39.86393434130536, 43.434323883034224], [39.864057887897786, 43.43432294953322], [39.86405660683599, 43.43423291574666], [39.864304981064855, 43.43432108213083], [39.864307543938686, 43.43450114968787], [39.86443109087957, 43.434500215780645], [39.86443237250849, 43.43459024955408], [39.864308825384484, 43.434591183464214], [39.86431010683622, 43.43468121723911], [39.864186559523176, 43.434682151018706]]]}, "properties": {"zone_id": "sochi-2026-08-21-011", "aoi": "sochi", "date": "2026-08-21", "scene_id": "S2A_MSIL2A_20260821T081641_R078_T37TEJ_20260821T144125", "scene_datetime_utc": "2026-08-21T08:16:41.024000+00:00", "detection_status": "detected", "detection_status_ru": "обнаружено", "lon": 39.86416, "lat": 43.43446, "n_pixels": 3, "zone_area_km2": 0.0011, "cover_m2": 49.4, "p_mean": 0.65, "p_max": 0.702, "cover_m2_km2": 44909.1, "h3": "882d5612c7fffff", "valid_frac_scene": 1.0, "wind_ms": 3.2, "sea": "спокойное", "scene_reliable": true, "field_event_id": "S4:DOORS3:T17", "field_profile": "B", "field_date": "2024-06-04", "field_distance_km": 179.6, "field_date_gap_days": 808, "field_conc_items_km2": 89.61, "conc_A_items_km2": null, "conc_A_lo80": null, "conc_A_hi80": null, "conc_A_lo95": null, "conc_A_hi95": null, "conc_A_status": "unavailable", "conc_A_status_ru": "концентрация недоступна", "conc_A_reasons": "вне бассейна профиля: nw_atlantic_subtropical", "conc_A_model": "conc-A-c6bce5631d2b", "conc_B_items_km2": 508.2, "conc_B_lo80": 108.3, "conc_B_hi80": 1708.0, "conc_B_lo95": 67.5, "conc_B_hi95": 3198.2, "conc_B_status": "research_estimate", "conc_B_status_ru": "исследовательская оценка", "conc_B_reasons": "ближайшее полевое измерение в 180 км (> 60 км); месяц 8 вне месяцев обучения [6]", "conc_B_model": "conc-B-c6bce5631d2b"}}, {"type": "Feature", "geometry": {"type": "Polygon", "coordinates": [[[39.9037213926357, 43.434376529789766], [39.903720052770595, 43.43428649696744], [39.903596507574115, 43.434287473317156], [39.9035938282287, 43.43410740766203], [39.90383957785342, 43.43401542201771], [39.903840917883045, 43.43410545484135], [39.90396446270092, 43.43410447823082], [39.903967143144975, 43.43428454386763], [39.9037213926357, 43.434376529789766]]]}, "properties": {"zone_id": "sochi-2026-08-21-012", "aoi": "sochi", "date": "2026-08-21", "scene_id": "S2A_MSIL2A_20260821T081641_R078_T37TEJ_20260821T144125", "scene_datetime_utc": "2026-08-21T08:16:41.024000+00:00", "detection_status": "detected", "detection_status_ru": "обнаружено", "lon": 39.90378, "lat": 43.4342, "n_pixels": 2, "zone_area_km2": 0.0008, "cover_m2": 12.5, "p_mean": 0.61, "p_max": 0.651, "cover_m2_km2": 15625.0, "h3": "882d5612b9fffff", "valid_frac_scene": 1.0, "wind_ms": 3.2, "sea": "спокойное", "scene_reliable": true, "field_event_id": "S4:DOORS3:T23", "field_profile": "B", "field_date": "2024-06-10", "field_distance_km": 180.9, "field_date_gap_days": 802, "field_conc_items_km2": 102.37, "conc_A_items_km2": null, "conc_A_lo80": null, "conc_A_hi80": null, "conc_A_lo95": null, "conc_A_hi95": null, "conc_A_status": "unavailable", "conc_A_status_ru": "концентрация недоступна", "conc_A_reasons": "вне бассейна профиля: nw_atlantic_subtropical", "conc_A_model": "conc-A-c6bce5631d2b", "conc_B_items_km2": 901.4, "conc_B_lo80": 192.7, "conc_B_hi80": 3027.3, "conc_B_lo95": 120.4, "conc_B_hi95": 5668.0, "conc_B_status": "research_estimate", "conc_B_status_ru": "исследовательская оценка", "conc_B_reasons": "ближайшее полевое измерение в 181 км (> 60 км); месяц 8 вне месяцев обучения [6]; log_dist_coast_km = 0.0 вне диапазона обучения [1.7; 5.0]", "conc_B_model": "conc-B-c6bce5631d2b"}}, {"type": "Feature", "geometry": {"type": "Polygon", "coordinates": [[[39.779331123368785, 43.39855407162931], [39.77932996935726, 43.398464035364356], [39.77920649302282, 43.39846487677596], [39.77920533919942, 43.39837484050693], [39.77932881535107, 43.39837399909798], [39.779327661350216, 43.39828396283012], [39.77957576763836, 43.39837231588012], [39.77957692201014, 43.398462352141244], [39.77945344568637, 43.398463193819445], [39.77945459988069, 43.39855323008178], [39.779331123368785, 43.39855407162931]]]}, "properties": {"zone_id": "sochi-2026-08-21-013", "aoi": "sochi", "date": "2026-08-21", "scene_id": "S2A_MSIL2A_20260821T081641_R078_T37TEJ_20260821T144125", "scene_datetime_utc": "2026-08-21T08:16:41.024000+00:00", "detection_status": "detected", "detection_status_ru": "обнаружено", "lon": 39.77939, "lat": 43.39842, "n_pixels": 1, "zone_area_km2": 0.0005, "cover_m2": 26.3, "p_mean": 0.58, "p_max": 0.58, "cover_m2_km2": 52600.0, "h3": "882d561269fffff", "valid_frac_scene": 1.0, "wind_ms": 3.2, "sea": "спокойное", "scene_reliable": true, "field_event_id": "S4:DOORS3:T17", "field_profile": "B", "field_date": "2024-06-04", "field_distance_km": 172.0, "field_date_gap_days": 808, "field_conc_items_km2": 89.61, "conc_A_items_km2": null, "conc_A_lo80": null, "conc_A_hi80": null, "conc_A_lo95": null, "conc_A_hi95": null, "conc_A_status": "unavailable", "conc_A_status_ru": "концентрация недоступна", "conc_A_reasons": "вне бассейна профиля: nw_atlantic_subtropical", "conc_A_model": "conc-A-c6bce5631d2b", "conc_B_items_km2": 369.4, "conc_B_lo80": 78.5, "conc_B_hi80": 1242.0, "conc_B_lo95": 48.8, "conc_B_hi95": 2326.0, "conc_B_status": "research_estimate", "conc_B_status_ru": "исследовательская оценка", "conc_B_reasons": "ближайшее полевое измерение в 172 км (> 60 км); месяц 8 вне месяцев обучения [6]", "conc_B_model": "conc-B-c6bce5631d2b"}}, {"type": "Feature", "geometry": {"type": "Polygon", "coordinates": [[[39.957967259463985, 43.395396261688624], [39.95796584111167, 43.39530622963784], [39.95784237703584, 43.39530726385486], [39.957839540716336, 43.39512719974243], [39.958085049615164, 43.395035099136116], [39.95808646813054, 43.395125131188045], [39.958209931827795, 43.395124096710944], [39.95821276924367, 43.39530416080397], [39.957967259463985, 43.395396261688624]]]}, "properties": {"zone_id": "sochi-2026-08-21-014", "aoi": "sochi", "date": "2026-08-21", "scene_id": "S2A_MSIL2A_20260821T081641_R078_T37TEJ_20260821T144125", "scene_datetime_utc": "2026-08-21T08:16:41.024000+00:00", "detection_status": "detected", "detection_status_ru": "обнаружено", "lon": 39.95803, "lat": 43.39522, "n_pixels": 2, "zone_area_km2": 0.0008, "cover_m2": 12.2, "p_mean": 0.792, "p_max": 0.922, "cover_m2_km2": 15250.0, "h3": "882d561085fffff", "valid_frac_scene": 1.0, "wind_ms": 3.2, "sea": "спокойное", "scene_reliable": true, "field_event_id": "S4:DOORS3:T23", "field_profile": "B", "field_date": "2024-06-10", "field_distance_km": 174.8, "field_date_gap_days": 802, "field_conc_items_km2": 102.37, "conc_A_items_km2": null, "conc_A_lo80": null, "conc_A_hi80": null, "conc_A_lo95": null, "conc_A_hi95": null, "conc_A_status": "unavailable", "conc_A_status_ru": "концентрация недоступна", "conc_A_reasons": "вне бассейна профиля: nw_atlantic_subtropical", "conc_A_model": "conc-A-c6bce5631d2b", "conc_B_items_km2": 621.6, "conc_B_lo80": 132.7, "conc_B_hi80": 2088.3, "conc_B_lo95": 82.8, "conc_B_hi95": 3910.2, "conc_B_status": "research_estimate", "conc_B_status_ru": "исследовательская оценка", "conc_B_reasons": "ближайшее полевое измерение в 175 км (> 60 км); месяц 8 вне месяцев обучения [6]; log_dist_coast_km = 1.0 вне диапазона обучения [1.7; 5.0]", "conc_B_model": "conc-B-c6bce5631d2b"}}, {"type": "Feature", "geometry": {"type": "Polygon", "coordinates": [[[39.92894060179077, 43.39482534394526], [39.92893922643851, 43.39473531113291], [39.92881576248986, 43.394736314003175], [39.92881438732668, 43.39464628118624], [39.9289378510926, 43.3946452783191], [39.92893647575305, 43.39455524550385], [39.92918340290034, 43.39455323937606], [39.929184778605354, 43.394643272185036], [39.929308242352185, 43.39464226891809], [39.929309618246286, 43.39473230172249], [39.92918615431672, 43.39473330499257], [39.929187530034454, 43.39482333779864], [39.92894060179077, 43.39482534394526]]]}, "properties": {"zone_id": "sochi-2026-08-21-015", "aoi": "sochi", "date": "2026-08-21", "scene_id": "S2A_MSIL2A_20260821T081641_R078_T37TEJ_20260821T144125", "scene_datetime_utc": "2026-08-21T08:16:41.024000+00:00", "detection_status": "detected", "detection_status_ru": "обнаружено", "lon": 39.92906, "lat": 43.39469, "n_pixels": 2, "zone_area_km2": 0.0008, "cover_m2": 22.0, "p_mean": 0.908, "p_max": 0.914, "cover_m2_km2": 27500.0, "h3": "882d5610ebfffff", "valid_frac_scene": 1.0, "wind_ms": 3.2, "sea": "спокойное", "scene_reliable": true, "field_event_id": "S4:DOORS3:T23", "field_profile": "B", "field_date": "2024-06-10", "field_distance_km": 176.5, "field_date_gap_days": 802, "field_conc_items_km2": 102.37, "conc_A_items_km2": null, "conc_A_lo80": null, "conc_A_hi80": null, "conc_A_lo95": null, "conc_A_hi95": null, "conc_A_status": "unavailable", "conc_A_status_ru": "концентрация недоступна", "conc_A_reasons": "вне бассейна профиля: nw_atlantic_subtropical", "conc_A_model": "conc-A-c6bce5631d2b", "conc_B_items_km2": 591.0, "conc_B_lo80": 126.1, "conc_B_hi80": 1985.7, "conc_B_lo95": 78.7, "conc_B_hi95": 3718.0, "conc_B_status": "research_estimate", "conc_B_status_ru": "исследовательская оценка", "conc_B_reasons": "ближайшее полевое измерение в 176 км (> 60 км); месяц 8 вне месяцев обучения [6]; log_dist_coast_km = 1.2 вне диапазона обучения [1.7; 5.0]", "conc_B_model": "conc-B-c6bce5631d2b"}}, {"type": "Feature", "geometry": {"type": "Polygon", "coordinates": [[[39.9476074694256, 43.388279058424025], [39.94760606675892, 43.38818902598953], [39.94748261675782, 43.388190048889356], [39.94748121428029, 43.388100016450196], [39.947604664098726, 43.38809899355358], [39.94760326144502, 43.38800896111616], [39.947850160697115, 43.3880069149296], [39.94785156371615, 43.38809694736062], [39.94797501351513, 43.388095924064295], [39.94797641672332, 43.38818595649066], [39.94785296674168, 43.38818697979019], [39.94785436977369, 43.38827701221829], [39.9476074694256, 43.388279058424025]]]}, "properties": {"zone_id": "sochi-2026-08-21-016", "aoi": "sochi", "date": "2026-08-21", "scene_id": "S2A_MSIL2A_20260821T081641_R078_T37TEJ_20260821T144125", "scene_datetime_utc": "2026-08-21T08:16:41.024000+00:00", "detection_status": "detected", "detection_status_ru": "обнаружено", "lon": 39.94773, "lat": 43.38814, "n_pixels": 2, "zone_area_km2": 0.0008, "cover_m2": 7.8, "p_mean": 0.876, "p_max": 0.953, "cover_m2_km2": 9750.0, "h3": "882d5610a9fffff", "valid_frac_scene": 1.0, "wind_ms": 3.2, "sea": "спокойное", "scene_reliable": true, "field_event_id": "S4:DOORS3:T23", "field_profile": "B", "field_date": "2024-06-10", "field_distance_km": 174.9, "field_date_gap_days": 802, "field_conc_items_km2": 102.37, "conc_A_items_km2": null, "conc_A_lo80": null, "conc_A_hi80": null, "conc_A_lo95": null, "conc_A_hi95": null, "conc_A_status": "unavailable", "conc_A_status_ru": "концентрация недоступна", "conc_A_reasons": "вне бассейна профиля: nw_atlantic_subtropical", "conc_A_model": "conc-A-c6bce5631d2b", "conc_B_items_km2": 621.6, "conc_B_lo80": 132.7, "conc_B_hi80": 2088.3, "conc_B_lo95": 82.8, "conc_B_hi95": 3910.2, "conc_B_status": "research_estimate", "conc_B_status_ru": "исследовательская оценка", "conc_B_reasons": "ближайшее полевое измерение в 175 км (> 60 км); месяц 8 вне месяцев обучения [6]; log_dist_coast_km = 1.0 вне диапазона обучения [1.7; 5.0]", "conc_B_model": "conc-B-c6bce5631d2b"}}, {"type": "Feature", "geometry": {"type": "Polygon", "coordinates": [[[39.942882862264895, 43.38615705333271], [39.9428814666944, 43.38606702074196], [39.94275802083132, 43.386068038502415], [39.942755230075, 43.38588797331016], [39.94287867557279, 43.38588695555609], [39.94287728002166, 43.38579692296096], [39.94312556654902, 43.385884919648234], [39.943126962471894, 43.38597495223555], [39.94325040813298, 43.385973934078606], [39.94325180424495, 43.386063966661254], [39.943128358401225, 43.38606498482139], [39.943129754337, 43.38615501740578], [39.942882862264895, 43.38615705333271]]]}, "properties": {"zone_id": "sochi-2026-08-21-017", "aoi": "sochi", "date": "2026-08-21", "scene_id": "S2A_MSIL2A_20260821T081641_R078_T37TEJ_20260821T144125", "scene_datetime_utc": "2026-08-21T08:16:41.024000+00:00", "detection_status": "detected", "detection_status_ru": "обнаружено", "lon": 39.94298, "lat": 43.38599, "n_pixels": 3, "zone_area_km2": 0.001, "cover_m2": 22.0, "p_mean": 0.831, "p_max": 0.98, "cover_m2_km2": 22000.0, "h3": "882d5610e7fffff", "valid_frac_scene": 1.0, "wind_ms": 3.2, "sea": "спокойное", "scene_reliable": true, "field_event_id": "S4:DOORS3:T23", "field_profile": "B", "field_date": "2024-06-10", "field_distance_km": 175.0, "field_date_gap_days": 802, "field_conc_items_km2": 102.37, "conc_A_items_km2": null, "conc_A_lo80": null, "conc_A_hi80": null, "conc_A_lo95": null, "conc_A_hi95": null, "conc_A_status": "unavailable", "conc_A_status_ru": "концентрация недоступна", "conc_A_reasons": "вне бассейна профиля: nw_atlantic_subtropical", "conc_A_model": "conc-A-c6bce5631d2b", "conc_B_items_km2": 621.6, "conc_B_lo80": 132.7, "conc_B_hi80": 2088.3, "conc_B_lo95": 82.8, "conc_B_hi95": 3910.2, "conc_B_status": "research_estimate", "conc_B_status_ru": "исследовательская оценка", "conc_B_reasons": "ближайшее полевое измерение в 175 км (> 60 км); месяц 8 вне месяцев обучения [6]; log_dist_coast_km = 1.0 вне диапазона обучения [1.7; 5.0]", "conc_B_model": "conc-B-c6bce5631d2b"}}, {"type": "Feature", "geometry": {"type": "Polygon", "coordinates": [[[39.9419573970601, 43.382202738527496], [39.9419560030517, 43.382112705850275], [39.941707733663435, 43.382024706408004], [39.941706340033136, 43.381934673721524], [39.94182977754691, 43.38193365717311], [39.94182838374044, 43.381843624488354], [39.9420766525551, 43.38193162367666], [39.94207804673323, 43.3820216563536], [39.94220148441027, 43.38202063940238], [39.942202878777444, 43.38211067207469], [39.942079440917794, 43.382111689029095], [39.942080835108804, 43.382201721703126], [39.9419573970601, 43.382202738527496]]]}, "properties": {"zone_id": "sochi-2026-08-21-018", "aoi": "sochi", "date": "2026-08-21", "scene_id": "S2A_MSIL2A_20260821T081641_R078_T37TEJ_20260821T144125", "scene_datetime_utc": "2026-08-21T08:16:41.024000+00:00", "detection_status": "detected", "detection_status_ru": "обнаружено", "lon": 39.94195, "lat": 43.38202, "n_pixels": 2, "zone_area_km2": 0.0008, "cover_m2": 9.8, "p_mean": 0.953, "p_max": 0.988, "cover_m2_km2": 12250.0, "h3": "882d5610e7fffff", "valid_frac_scene": 1.0, "wind_ms": 3.2, "sea": "спокойное", "scene_reliable": true, "field_event_id": "S4:DOORS3:T23", "field_profile": "B", "field_date": "2024-06-10", "field_distance_km": 174.8, "field_date_gap_days": 802, "field_conc_items_km2": 102.37, "conc_A_items_km2": null, "conc_A_lo80": null, "conc_A_hi80": null, "conc_A_lo95": null, "conc_A_hi95": null, "conc_A_status": "unavailable", "conc_A_status_ru": "концентрация недоступна", "conc_A_reasons": "вне бассейна профиля: nw_atlantic_subtropical", "conc_A_model": "conc-A-c6bce5631d2b", "conc_B_items_km2": 621.6, "conc_B_lo80": 132.7, "conc_B_hi80": 2088.3, "conc_B_lo95": 82.8, "conc_B_hi95": 3910.2, "conc_B_status": "research_estimate", "conc_B_status_ru": "исследовательская оценка", "conc_B_reasons": "ближайшее полевое измерение в 175 км (> 60 км); месяц 8 вне месяцев обучения [6]; log_dist_coast_km = 1.0 вне диапазона обучения [1.7; 5.0]", "conc_B_model": "conc-B-c6bce5631d2b"}}]}