{"type": "FeatureCollection", "features": [{"type": "Feature", "geometry": {"type": "Polygon", "coordinates": [[[49.05648050334917, 53.71107187407366], [49.056484645052336, 53.710982042294205], [49.05633322344254, 53.7109795851151], [49.05633736544547, 53.7108897533421], [49.05664434937925, 53.71080483570235], [49.0566402080431, 53.71089466749298], [49.05679162937553, 53.7108971242815], [49.05678748833916, 53.71098695607858], [49.05663606668454, 53.71098449928203], [49.05663192530357, 53.711074331069504], [49.05648050334917, 53.71107187407366]]]}, "properties": {"zone_id": "kuibyshev-2026-09-05-001", "aoi": "kuibyshev", "date": "2026-09-05", "scene_id": "S2C_MSIL2A_20260905T075611_R035_T39UUV_20260905T113814", "scene_datetime_utc": "2026-09-05T07:56:11.025000+00:00", "detection_status": "detected", "detection_status_ru": "обнаружено", "lon": 49.05656, "lat": 53.71094, "n_pixels": 1, "zone_area_km2": 0.0005, "cover_m2": 6.3, "p_mean": 0.631, "p_max": 0.631, "cover_m2_km2": 12600.0, "h3": "88108575a7fffff", "valid_frac_scene": 1.0, "wind_ms": 4.8, "sea": "спокойное", "scene_reliable": true, "field_event_id": "S4:DOORS3:T23", "field_profile": "B", "field_date": "2024-06-10", "field_distance_km": 1380.3, "field_date_gap_days": 817, "field_conc_items_km2": 102.37, "conc_A_items_km2": null, "conc_A_lo80": null, "conc_A_hi80": null, "conc_A_lo95": null, "conc_A_hi95": null, "conc_A_status": "unavailable", "conc_A_status_ru": "концентрация недоступна", "conc_A_reasons": "вне бассейна профиля: nw_atlantic_subtropical", "conc_A_model": "conc-A-c6bce5631d2b", "conc_B_items_km2": null, "conc_B_lo80": null, "conc_B_hi80": null, "conc_B_lo95": null, "conc_B_hi95": null, "conc_B_status": "unavailable", "conc_B_status_ru": "концентрация недоступна", "conc_B_reasons": "вне бассейна профиля: black_sea", "conc_B_model": "conc-B-c6bce5631d2b"}}, {"type": "Feature", "geometry": {"type": "Polygon", "coordinates": [[[49.23688617516873, 53.49505225795077], [49.236889903050745, 53.49496241374829], [49.236739236711486, 53.494960190677304], [49.23674296489159, 53.49487034648055], [49.23689363091268, 53.494872569544285], [49.23689735875453, 53.494782725338744], [49.237198690220666, 53.4947871708822], [49.23719496301513, 53.49487701510224], [49.23734562909648, 53.49487923759645], [49.23734190218903, 53.494969081822184], [49.237191235789524, 53.494966859320726], [49.237187508543826, 53.4950567035377], [49.23688617516873, 53.49505225795077]]]}, "properties": {"zone_id": "kuibyshev-2026-09-05-002", "aoi": "kuibyshev", "date": "2026-09-05", "scene_id": "S2C_MSIL2A_20260905T075611_R035_T39UUV_20260905T113814", "scene_datetime_utc": "2026-09-05T07:56:11.025000+00:00", "detection_status": "detected", "detection_status_ru": "обнаружено", "lon": 49.23704, "lat": 53.49492, "n_pixels": 2, "zone_area_km2": 0.0008, "cover_m2": 23.1, "p_mean": 0.633, "p_max": 0.737, "cover_m2_km2": 28875.0, "h3": "8810856d67fffff", "valid_frac_scene": 1.0, "wind_ms": 4.8, "sea": "спокойное", "scene_reliable": true, "field_event_id": "S4:DOORS3:T23", "field_profile": "B", "field_date": "2024-06-10", "field_distance_km": 1364.4, "field_date_gap_days": 817, "field_conc_items_km2": 102.37, "conc_A_items_km2": null, "conc_A_lo80": null, "conc_A_hi80": null, "conc_A_lo95": null, "conc_A_hi95": null, "conc_A_status": "unavailable", "conc_A_status_ru": "концентрация недоступна", "conc_A_reasons": "вне бассейна профиля: nw_atlantic_subtropical", "conc_A_model": "conc-A-c6bce5631d2b", "conc_B_items_km2": null, "conc_B_lo80": null, "conc_B_hi80": null, "conc_B_lo95": null, "conc_B_hi95": null, "conc_B_status": "unavailable", "conc_B_status_ru": "концентрация недоступна", "conc_B_reasons": "вне бассейна профиля: black_sea", "conc_B_model": "conc-B-c6bce5631d2b"}}, {"type": "Feature", "geometry": {"type": "MultiPolygon", "coordinates": [[[[49.21741274717652, 53.49206636764427], [49.217115207489606, 53.49197202909252], [49.21711143822058, 53.492061872379566], [49.21696078377307, 53.49205962446249], [49.21695701416563, 53.49214946774065], [49.2172545547256, 53.4922438066909], [49.21725832371715, 53.49215396339964], [49.217408978523366, 53.49215621094441], [49.21741274717652, 53.49206636764427]]], [[[49.217250785713745, 53.492333649980644], [49.217548328222904, 53.4924279882125], [49.21755209661887, 53.492338144909645], [49.217702752101886, 53.492340392089424], [49.21770652015945, 53.492250548777726], [49.217408978523366, 53.49215621094441], [49.21740520984991, 53.49224605424299], [49.2172545547256, 53.4922438066909], [49.217250785713745, 53.492333649980644]]]]}, "properties": {"zone_id": "kuibyshev-2026-09-05-003", "aoi": "kuibyshev", "date": "2026-09-05", "scene_id": "S2C_MSIL2A_20260905T075611_R035_T39UUV_20260905T113814", "scene_datetime_utc": "2026-09-05T07:56:11.025000+00:00", "detection_status": "detected", "detection_status_ru": "обнаружено", "lon": 49.21733, "lat": 53.4922, "n_pixels": 2, "zone_area_km2": 0.001, "cover_m2": 19.2, "p_mean": 0.661, "p_max": 0.741, "cover_m2_km2": 19200.0, "h3": "8810856d6dfffff", "valid_frac_scene": 1.0, "wind_ms": 4.8, "sea": "спокойное", "scene_reliable": true, "field_event_id": "S4:DOORS3:T23", "field_profile": "B", "field_date": "2024-06-10", "field_distance_km": 1363.5, "field_date_gap_days": 817, "field_conc_items_km2": 102.37, "conc_A_items_km2": null, "conc_A_lo80": null, "conc_A_hi80": null, "conc_A_lo95": null, "conc_A_hi95": null, "conc_A_status": "unavailable", "conc_A_status_ru": "концентрация недоступна", "conc_A_reasons": "вне бассейна профиля: nw_atlantic_subtropical", "conc_A_model": "conc-A-c6bce5631d2b", "conc_B_items_km2": null, "conc_B_lo80": null, "conc_B_hi80": null, "conc_B_lo95": null, "conc_B_hi95": null, "conc_B_status": "unavailable", "conc_B_status_ru": "концентрация недоступна", "conc_B_reasons": "вне бассейна профиля: black_sea", "conc_B_model": "conc-B-c6bce5631d2b"}}, {"type": "Feature", "geometry": {"type": "Polygon", "coordinates": [[[49.51805630950817, 53.44717956338027], [49.51805943757543, 53.44708970595334], [49.5179089197426, 53.44708783844324], [49.51791204811045, 53.446997981020886], [49.518216210874236, 53.446911858403354], [49.51821308315808, 53.44700171583934], [49.51836360070716, 53.44700358296419], [49.518360473291594, 53.447093440404785], [49.51820995542509, 53.44709157327385], [49.51820682767526, 53.44718143070688], [49.51805630950817, 53.44717956338027]]]}, "properties": {"zone_id": "kuibyshev-2026-09-05-004", "aoi": "kuibyshev", "date": "2026-09-05", "scene_id": "S2C_MSIL2A_20260905T075611_R035_T39UUV_20260905T113814", "scene_datetime_utc": "2026-09-05T07:56:11.025000+00:00", "detection_status": "detected", "detection_status_ru": "обнаружено", "lon": 49.51814, "lat": 53.44705, "n_pixels": 1, "zone_area_km2": 0.0005, "cover_m2": 6.3, "p_mean": 0.682, "p_max": 0.682, "cover_m2_km2": 12600.0, "h3": "881081d521fffff", "valid_frac_scene": 1.0, "wind_ms": 4.8, "sea": "спокойное", "scene_reliable": true, "field_event_id": "S4:DOORS3:T23", "field_profile": "B", "field_date": "2024-06-10", "field_distance_km": 1368.5, "field_date_gap_days": 817, "field_conc_items_km2": 102.37, "conc_A_items_km2": null, "conc_A_lo80": null, "conc_A_hi80": null, "conc_A_lo95": null, "conc_A_hi95": null, "conc_A_status": "unavailable", "conc_A_status_ru": "концентрация недоступна", "conc_A_reasons": "вне бассейна профиля: nw_atlantic_subtropical", "conc_A_model": "conc-A-c6bce5631d2b", "conc_B_items_km2": null, "conc_B_lo80": null, "conc_B_hi80": null, "conc_B_lo95": null, "conc_B_hi95": null, "conc_B_status": "unavailable", "conc_B_status_ru": "концентрация недоступна", "conc_B_reasons": "вне бассейна профиля: black_sea", "conc_B_model": "conc-B-c6bce5631d2b"}}]}