{"type": "FeatureCollection", "features": [{"type": "Feature", "geometry": {"type": "Polygon", "coordinates": [[[49.06117350779763, 53.694696413788165], [49.06117763703313, 53.694606581512105], [49.06102627377337, 53.69460413077165], [49.06103040330841, 53.694514298502014], [49.06133725807547, 53.69442936748854], [49.06133312920652, 53.69451919977575], [49.061484492189074, 53.69452165012585], [49.061480363619665, 53.6946114824195], [49.061329000315226, 53.694609032061386], [49.0613248714016, 53.69469886434545], [49.06117350779763, 53.694696413788165]]]}, "properties": {"zone_id": "kuibyshev-2025-08-31-001", "aoi": "kuibyshev", "date": "2025-08-31", "scene_id": "S2C_MSIL2A_20250831T075631_R035_T39UUV_20250831T112513", "scene_datetime_utc": "2025-08-31T07:56:31.025000+00:00", "detection_status": "detected", "detection_status_ru": "обнаружено", "lon": 49.06126, "lat": 53.69456, "n_pixels": 1, "zone_area_km2": 0.0005, "cover_m2": 5.5, "p_mean": 0.839, "p_max": 0.839, "cover_m2_km2": 11000.0, "h3": "8810856297fffff", "valid_frac_scene": 1.0, "wind_ms": 4.9, "sea": "спокойное", "scene_reliable": true, "field_event_id": "S4:DOORS3:T23", "field_profile": "B", "field_date": "2024-06-10", "field_distance_km": 1378.8, "field_date_gap_days": 447, "field_conc_items_km2": 102.37, "conc_A_items_km2": null, "conc_A_lo80": null, "conc_A_hi80": null, "conc_A_lo95": null, "conc_A_hi95": null, "conc_A_status": "unavailable", "conc_A_status_ru": "концентрация недоступна", "conc_A_reasons": "вне бассейна профиля: nw_atlantic_subtropical", "conc_A_model": "conc-A-c6bce5631d2b", "conc_B_items_km2": null, "conc_B_lo80": null, "conc_B_hi80": null, "conc_B_lo95": null, "conc_B_hi95": null, "conc_B_status": "unavailable", "conc_B_status_ru": "концентрация недоступна", "conc_B_reasons": "вне бассейна профиля: black_sea", "conc_B_model": "conc-B-c6bce5631d2b"}}, {"type": "Feature", "geometry": {"type": "Polygon", "coordinates": [[[49.05468339229727, 53.69090528985929], [49.05468753477627, 53.69081545787137], [49.054536185696236, 53.690812999048646], [49.05454032847462, 53.69072316706717], [49.0548471681259, 53.690638252506304], [49.05484302601351, 53.69072808450542], [49.05499437481656, 53.690730542937835], [49.05499023300356, 53.6908203749434], [49.05483888387871, 53.69081791650295], [49.05483474172151, 53.690907748498915], [49.05468339229727, 53.69090528985929]]]}, "properties": {"zone_id": "kuibyshev-2025-08-31-002", "aoi": "kuibyshev", "date": "2025-08-31", "scene_id": "S2C_MSIL2A_20250831T075631_R035_T39UUV_20250831T112513", "scene_datetime_utc": "2025-08-31T07:56:31.025000+00:00", "detection_status": "detected", "detection_status_ru": "обнаружено", "lon": 49.05477, "lat": 53.69077, "n_pixels": 1, "zone_area_km2": 0.0005, "cover_m2": 7.1, "p_mean": 0.694, "p_max": 0.694, "cover_m2_km2": 14200.0, "h3": "8810856295fffff", "valid_frac_scene": 1.0, "wind_ms": 4.9, "sea": "спокойное", "scene_reliable": true, "field_event_id": "S4:DOORS3:T23", "field_profile": "B", "field_date": "2024-06-10", "field_distance_km": 1378.2, "field_date_gap_days": 447, "field_conc_items_km2": 102.37, "conc_A_items_km2": null, "conc_A_lo80": null, "conc_A_hi80": null, "conc_A_lo95": null, "conc_A_hi95": null, "conc_A_status": "unavailable", "conc_A_status_ru": "концентрация недоступна", "conc_A_reasons": "вне бассейна профиля: nw_atlantic_subtropical", "conc_A_model": "conc-A-c6bce5631d2b", "conc_B_items_km2": null, "conc_B_lo80": null, "conc_B_hi80": null, "conc_B_lo95": null, "conc_B_hi95": null, "conc_B_status": "unavailable", "conc_B_status_ru": "концентрация недоступна", "conc_B_reasons": "вне бассейна профиля: black_sea", "conc_B_model": "conc-B-c6bce5631d2b"}}, {"type": "Feature", "geometry": {"type": "Polygon", "coordinates": [[[49.05669645658024, 53.68994908416348], [49.05670059462963, 53.6898592520539], [49.056549248798106, 53.68985679580428], [49.05655338714689, 53.68976696370113], [49.05670473265664, 53.68976941994272], [49.05670887066126, 53.689679587829986], [49.057011561104346, 53.68968449972374], [49.05700742374328, 53.689774331852504], [49.057158769320175, 53.68977678752069], [49.057154632258495, 53.689866619655916], [49.05700328635983, 53.68986416397971], [49.056999148954, 53.68995399610534], [49.05669645658024, 53.68994908416348]]]}, "properties": {"zone_id": "kuibyshev-2025-08-31-003", "aoi": "kuibyshev", "date": "2025-08-31", "scene_id": "S2C_MSIL2A_20250831T075631_R035_T39UUV_20250831T112513", "scene_datetime_utc": "2025-08-31T07:56:31.025000+00:00", "detection_status": "detected", "detection_status_ru": "обнаружено", "lon": 49.05685, "lat": 53.68982, "n_pixels": 2, "zone_area_km2": 0.0008, "cover_m2": 18.4, "p_mean": 0.657, "p_max": 0.808, "cover_m2_km2": 23000.0, "h3": "8810856297fffff", "valid_frac_scene": 1.0, "wind_ms": 4.9, "sea": "спокойное", "scene_reliable": true, "field_event_id": "S4:DOORS3:T23", "field_profile": "B", "field_date": "2024-06-10", "field_distance_km": 1378.2, "field_date_gap_days": 447, "field_conc_items_km2": 102.37, "conc_A_items_km2": null, "conc_A_lo80": null, "conc_A_hi80": null, "conc_A_lo95": null, "conc_A_hi95": null, "conc_A_status": "unavailable", "conc_A_status_ru": "концентрация недоступна", "conc_A_reasons": "вне бассейна профиля: nw_atlantic_subtropical", "conc_A_model": "conc-A-c6bce5631d2b", "conc_B_items_km2": null, "conc_B_lo80": null, "conc_B_hi80": null, "conc_B_lo95": null, "conc_B_hi95": null, "conc_B_status": "unavailable", "conc_B_status_ru": "концентрация недоступна", "conc_B_reasons": "вне бассейна профиля: black_sea", "conc_B_model": "conc-B-c6bce5631d2b"}}, {"type": "Feature", "geometry": {"type": "Polygon", "coordinates": [[[49.04323384111907, 53.666715538116996], [49.04323800429103, 53.66662570637611], [49.04308674293107, 53.66662323384517], [49.043090906401844, 53.66653340211077], [49.04339759130727, 53.666448515213425], [49.04339342850164, 53.666538346965545], [49.043544689585296, 53.66654081910647], [49.04354052707848, 53.66663065086508], [49.043389265673504, 53.66662817871608], [49.04338510282286, 53.66671801046504], [49.04323384111907, 53.666715538116996]]]}, "properties": {"zone_id": "kuibyshev-2025-08-31-004", "aoi": "kuibyshev", "date": "2025-08-31", "scene_id": "S2C_MSIL2A_20250831T075631_R035_T39UUV_20250831T112513", "scene_datetime_utc": "2025-08-31T07:56:31.025000+00:00", "detection_status": "detected", "detection_status_ru": "обнаружено", "lon": 49.04332, "lat": 53.66658, "n_pixels": 1, "zone_area_km2": 0.0005, "cover_m2": 6.3, "p_mean": 0.682, "p_max": 0.682, "cover_m2_km2": 12600.0, "h3": "88108562bdfffff", "valid_frac_scene": 1.0, "wind_ms": 4.9, "sea": "спокойное", "scene_reliable": true, "field_event_id": "S4:DOORS3:T23", "field_profile": "B", "field_date": "2024-06-10", "field_distance_km": 1375.5, "field_date_gap_days": 447, "field_conc_items_km2": 102.37, "conc_A_items_km2": null, "conc_A_lo80": null, "conc_A_hi80": null, "conc_A_lo95": null, "conc_A_hi95": null, "conc_A_status": "unavailable", "conc_A_status_ru": "концентрация недоступна", "conc_A_reasons": "вне бассейна профиля: nw_atlantic_subtropical", "conc_A_model": "conc-A-c6bce5631d2b", "conc_B_items_km2": null, "conc_B_lo80": null, "conc_B_hi80": null, "conc_B_lo95": null, "conc_B_hi95": null, "conc_B_status": "unavailable", "conc_B_status_ru": "концентрация недоступна", "conc_B_reasons": "вне бассейна профиля: black_sea", "conc_B_model": "conc-B-c6bce5631d2b"}}, {"type": "Feature", "geometry": {"type": "Polygon", "coordinates": [[[49.213486880639216, 53.50297547691394], [49.21349065907111, 53.50288563396916], [49.21333996654898, 53.50288338117773], [49.21334374527882, 53.50279353823875], [49.213648907779735, 53.50270820066182], [49.213645129706855, 53.50279804361702], [49.21379582195141, 53.50280029602133], [49.213792044176465, 53.50289013898233], [49.21364135161361, 53.50288788657069], [49.21363757350001, 53.502977729522804], [49.213486880639216, 53.50297547691394]]]}, "properties": {"zone_id": "kuibyshev-2025-08-31-005", "aoi": "kuibyshev", "date": "2025-08-31", "scene_id": "S2C_MSIL2A_20250831T075631_R035_T39UUV_20250831T112513", "scene_datetime_utc": "2025-08-31T07:56:31.025000+00:00", "detection_status": "detected", "detection_status_ru": "обнаружено", "lon": 49.21357, "lat": 53.50284, "n_pixels": 1, "zone_area_km2": 0.0005, "cover_m2": 6.7, "p_mean": 0.855, "p_max": 0.855, "cover_m2_km2": 13400.0, "h3": "8810856d69fffff", "valid_frac_scene": 1.0, "wind_ms": 4.9, "sea": "спокойное", "scene_reliable": true, "field_event_id": "S4:DOORS3:T23", "field_profile": "B", "field_date": "2024-06-10", "field_distance_km": 1364.4, "field_date_gap_days": 447, "field_conc_items_km2": 102.37, "conc_A_items_km2": null, "conc_A_lo80": null, "conc_A_hi80": null, "conc_A_lo95": null, "conc_A_hi95": null, "conc_A_status": "unavailable", "conc_A_status_ru": "концентрация недоступна", "conc_A_reasons": "вне бассейна профиля: nw_atlantic_subtropical", "conc_A_model": "conc-A-c6bce5631d2b", "conc_B_items_km2": null, "conc_B_lo80": null, "conc_B_hi80": null, "conc_B_lo95": null, "conc_B_hi95": null, "conc_B_status": "unavailable", "conc_B_status_ru": "концентрация недоступна", "conc_B_reasons": "вне бассейна профиля: black_sea", "conc_B_model": "conc-B-c6bce5631d2b"}}, {"type": "Feature", "geometry": {"type": "Polygon", "coordinates": [[[49.34771549247173, 53.46732932319704], [49.34771898255874, 53.467239473389455], [49.34756840571375, 53.46723739075142], [49.34757189609967, 53.46714754094911], [49.34772247262695, 53.46714962358036], [49.34772596267637, 53.467059773769755], [49.34802711515191, 53.467063938449655], [49.348023625737895, 53.46715378827383], [49.34817420232156, 53.46715587033605], [49.34817071320647, 53.467245720165515], [49.3480201363051, 53.467243638096505], [49.34801664685351, 53.467333487917664], [49.34771549247173, 53.46732932319704]]]}, "properties": {"zone_id": "kuibyshev-2025-08-31-006", "aoi": "kuibyshev", "date": "2025-08-31", "scene_id": "S2C_MSIL2A_20250831T075631_R035_T39UUV_20250831T112513", "scene_datetime_utc": "2025-08-31T07:56:31.025000+00:00", "detection_status": "detected", "detection_status_ru": "обнаружено", "lon": 49.34787, "lat": 53.4672, "n_pixels": 2, "zone_area_km2": 0.0008, "cover_m2": 11.8, "p_mean": 0.986, "p_max": 0.992, "cover_m2_km2": 14750.0, "h3": "881081d2abfffff", "valid_frac_scene": 1.0, "wind_ms": 4.9, "sea": "спокойное", "scene_reliable": true, "field_event_id": "S4:DOORS3:T23", "field_profile": "B", "field_date": "2024-06-10", "field_distance_km": 1365.1, "field_date_gap_days": 447, "field_conc_items_km2": 102.37, "conc_A_items_km2": null, "conc_A_lo80": null, "conc_A_hi80": null, "conc_A_lo95": null, "conc_A_hi95": null, "conc_A_status": "unavailable", "conc_A_status_ru": "концентрация недоступна", "conc_A_reasons": "вне бассейна профиля: nw_atlantic_subtropical", "conc_A_model": "conc-A-c6bce5631d2b", "conc_B_items_km2": null, "conc_B_lo80": null, "conc_B_hi80": null, "conc_B_lo95": null, "conc_B_hi95": null, "conc_B_status": "unavailable", "conc_B_status_ru": "концентрация недоступна", "conc_B_reasons": "вне бассейна профиля: black_sea", "conc_B_model": "conc-B-c6bce5631d2b"}}, {"type": "Feature", "geometry": {"type": "Polygon", "coordinates": [[[49.34696959017851, 53.4671392085273], [49.34697308181646, 53.46704935875062], [49.34682250570088, 53.467047275177755], [49.346825997637715, 53.466957425406335], [49.347130640534914, 53.46687174256231], [49.34712714925228, 53.46696159234881], [49.34727772508776, 53.466963675535524], [49.34727423410403, 53.46705352532731], [49.34712365795084, 53.46705144213381], [49.3471201666306, 53.46714129191727], [49.34696959017851, 53.4671392085273]]]}, "properties": {"zone_id": "kuibyshev-2025-08-31-007", "aoi": "kuibyshev", "date": "2025-08-31", "scene_id": "S2C_MSIL2A_20250831T075631_R035_T39UUV_20250831T112513", "scene_datetime_utc": "2025-08-31T07:56:31.025000+00:00", "detection_status": "detected", "detection_status_ru": "обнаружено", "lon": 49.34705, "lat": 53.46701, "n_pixels": 1, "zone_area_km2": 0.0005, "cover_m2": 6.7, "p_mean": 0.831, "p_max": 0.831, "cover_m2_km2": 13400.0, "h3": "881081d2abfffff", "valid_frac_scene": 1.0, "wind_ms": 4.9, "sea": "спокойное", "scene_reliable": true, "field_event_id": "S4:DOORS3:T23", "field_profile": "B", "field_date": "2024-06-10", "field_distance_km": 1365.0, "field_date_gap_days": 447, "field_conc_items_km2": 102.37, "conc_A_items_km2": null, "conc_A_lo80": null, "conc_A_hi80": null, "conc_A_lo95": null, "conc_A_hi95": null, "conc_A_status": "unavailable", "conc_A_status_ru": "концентрация недоступна", "conc_A_reasons": "вне бассейна профиля: nw_atlantic_subtropical", "conc_A_model": "conc-A-c6bce5631d2b", "conc_B_items_km2": null, "conc_B_lo80": null, "conc_B_hi80": null, "conc_B_lo95": null, "conc_B_hi95": null, "conc_B_status": "unavailable", "conc_B_status_ru": "концентрация недоступна", "conc_B_reasons": "вне бассейна профиля: black_sea", "conc_B_model": "conc-B-c6bce5631d2b"}}, {"type": "Feature", "geometry": {"type": "Polygon", "coordinates": [[[49.34969391275564, 53.466817280921646], [49.3496973985998, 53.4667274310168], [49.349546823416844, 53.46672535088526], [49.34955030955992, 53.46663550098568], [49.34985494479814, 53.46654981113086], [49.34985145930923, 53.46663966104551], [49.35000203421203, 53.46664174079093], [49.34999854902204, 53.466731590710836], [49.34984797380154, 53.46672951095865], [49.34984448827508, 53.46681936087027], [49.34969391275564, 53.466817280921646]]]}, "properties": {"zone_id": "kuibyshev-2025-08-31-008", "aoi": "kuibyshev", "date": "2025-08-31", "scene_id": "S2C_MSIL2A_20250831T075631_R035_T39UUV_20250831T112513", "scene_datetime_utc": "2025-08-31T07:56:31.025000+00:00", "detection_status": "detected", "detection_status_ru": "обнаружено", "lon": 49.34977, "lat": 53.46668, "n_pixels": 1, "zone_area_km2": 0.0005, "cover_m2": 4.7, "p_mean": 0.608, "p_max": 0.608, "cover_m2_km2": 9400.0, "h3": "881081d2abfffff", "valid_frac_scene": 1.0, "wind_ms": 4.9, "sea": "спокойное", "scene_reliable": true, "field_event_id": "S4:DOORS3:T23", "field_profile": "B", "field_date": "2024-06-10", "field_distance_km": 1365.1, "field_date_gap_days": 447, "field_conc_items_km2": 102.37, "conc_A_items_km2": null, "conc_A_lo80": null, "conc_A_hi80": null, "conc_A_lo95": null, "conc_A_hi95": null, "conc_A_status": "unavailable", "conc_A_status_ru": "концентрация недоступна", "conc_A_reasons": "вне бассейна профиля: nw_atlantic_subtropical", "conc_A_model": "conc-A-c6bce5631d2b", "conc_B_items_km2": null, "conc_B_lo80": null, "conc_B_hi80": null, "conc_B_lo95": null, "conc_B_hi95": null, "conc_B_status": "unavailable", "conc_B_status_ru": "концентрация недоступна", "conc_B_reasons": "вне бассейна профиля: black_sea", "conc_B_model": "conc-B-c6bce5631d2b"}}, {"type": "Feature", "geometry": {"type": "Polygon", "coordinates": [[[49.33596406175208, 53.463480388555034], [49.33596757616162, 53.463390539223155], [49.33581701383093, 53.46338844188076], [49.33582052853917, 53.463298592554196], [49.335971090552235, 53.46330068988976], [49.33597460492393, 53.463210840554844], [49.336275728371575, 53.46321503464334], [49.33627221463514, 53.46330488399194], [49.336422776704964, 53.46330698075854], [49.336419263267224, 53.46339683011243], [49.33626870087977, 53.463394733338994], [49.33626518710548, 53.463484582684536], [49.33596406175208, 53.463480388555034]]]}, "properties": {"zone_id": "kuibyshev-2025-08-31-009", "aoi": "kuibyshev", "date": "2025-08-31", "scene_id": "S2C_MSIL2A_20250831T075631_R035_T39UUV_20250831T112513", "scene_datetime_utc": "2025-08-31T07:56:31.025000+00:00", "detection_status": "detected", "detection_status_ru": "обнаружено", "lon": 49.33612, "lat": 53.46335, "n_pixels": 2, "zone_area_km2": 0.0008, "cover_m2": 8.2, "p_mean": 0.814, "p_max": 0.933, "cover_m2_km2": 10250.0, "h3": "881081d2a9fffff", "valid_frac_scene": 1.0, "wind_ms": 4.9, "sea": "спокойное", "scene_reliable": true, "field_event_id": "S4:DOORS3:T23", "field_profile": "B", "field_date": "2024-06-10", "field_distance_km": 1364.3, "field_date_gap_days": 447, "field_conc_items_km2": 102.37, "conc_A_items_km2": null, "conc_A_lo80": null, "conc_A_hi80": null, "conc_A_lo95": null, "conc_A_hi95": null, "conc_A_status": "unavailable", "conc_A_status_ru": "концентрация недоступна", "conc_A_reasons": "вне бассейна профиля: nw_atlantic_subtropical", "conc_A_model": "conc-A-c6bce5631d2b", "conc_B_items_km2": null, "conc_B_lo80": null, "conc_B_hi80": null, "conc_B_lo95": null, "conc_B_hi95": null, "conc_B_status": "unavailable", "conc_B_status_ru": "концентрация недоступна", "conc_B_reasons": "вне бассейна профиля: black_sea", "conc_B_model": "conc-B-c6bce5631d2b"}}, {"type": "Feature", "geometry": {"type": "Polygon", "coordinates": [[[49.46870100470804, 53.46291823040922], [49.46870423878313, 53.46282837525796], [49.4685536687034, 53.46282644518135], [49.46855690307878, 53.46273659003488], [49.46886127634283, 53.46265059482531], [49.468858042620255, 53.46274044998586], [49.46900861241713, 53.462742379676826], [49.469005378994844, 53.462832234842146], [49.46885480888028, 53.4628303051449], [49.46885157512289, 53.46292016030244], [49.46870100470804, 53.46291823040922]]]}, "properties": {"zone_id": "kuibyshev-2025-08-31-010", "aoi": "kuibyshev", "date": "2025-08-31", "scene_id": "S2C_MSIL2A_20250831T075631_R035_T39UUV_20250831T112513", "scene_datetime_utc": "2025-08-31T07:56:31.025000+00:00", "detection_status": "detected", "detection_status_ru": "обнаружено", "lon": 49.46878, "lat": 53.46278, "n_pixels": 1, "zone_area_km2": 0.0005, "cover_m2": 9.4, "p_mean": 0.506, "p_max": 0.506, "cover_m2_km2": 18800.0, "h3": "881081d569fffff", "valid_frac_scene": 1.0, "wind_ms": 4.9, "sea": "спокойное", "scene_reliable": true, "field_event_id": "S4:DOORS3:T23", "field_profile": "B", "field_date": "2024-06-10", "field_distance_km": 1368.5, "field_date_gap_days": 447, "field_conc_items_km2": 102.37, "conc_A_items_km2": null, "conc_A_lo80": null, "conc_A_hi80": null, "conc_A_lo95": null, "conc_A_hi95": null, "conc_A_status": "unavailable", "conc_A_status_ru": "концентрация недоступна", "conc_A_reasons": "вне бассейна профиля: nw_atlantic_subtropical", "conc_A_model": "conc-A-c6bce5631d2b", "conc_B_items_km2": null, "conc_B_lo80": null, "conc_B_hi80": null, "conc_B_lo95": null, "conc_B_hi95": null, "conc_B_status": "unavailable", "conc_B_status_ru": "концентрация недоступна", "conc_B_reasons": "вне бассейна профиля: black_sea", "conc_B_model": "conc-B-c6bce5631d2b"}}, {"type": "Feature", "geometry": {"type": "Polygon", "coordinates": [[[49.46993788306619, 53.4620351121612], [49.469941114425666, 53.46194525694471], [49.46979054738357, 53.46194332844837], [49.46979701068569, 53.46176361802346], [49.47010137450618, 53.46167761957407], [49.47009814351658, 53.461767474801334], [49.47024870995811, 53.46176940290575], [49.47024224856207, 53.46194911336836], [49.46993788306619, 53.4620351121612]]]}, "properties": {"zone_id": "kuibyshev-2025-08-31-011", "aoi": "kuibyshev", "date": "2025-08-31", "scene_id": "S2C_MSIL2A_20250831T075631_R035_T39UUV_20250831T112513", "scene_datetime_utc": "2025-08-31T07:56:31.025000+00:00", "detection_status": "detected", "detection_status_ru": "обнаружено", "lon": 49.47002, "lat": 53.46186, "n_pixels": 2, "zone_area_km2": 0.0008, "cover_m2": 16.1, "p_mean": 0.549, "p_max": 0.557, "cover_m2_km2": 20125.0, "h3": "881081d569fffff", "valid_frac_scene": 1.0, "wind_ms": 4.9, "sea": "спокойное", "scene_reliable": true, "field_event_id": "S4:DOORS3:T23", "field_profile": "B", "field_date": "2024-06-10", "field_distance_km": 1368.4, "field_date_gap_days": 447, "field_conc_items_km2": 102.37, "conc_A_items_km2": null, "conc_A_lo80": null, "conc_A_hi80": null, "conc_A_lo95": null, "conc_A_hi95": null, "conc_A_status": "unavailable", "conc_A_status_ru": "концентрация недоступна", "conc_A_reasons": "вне бассейна профиля: nw_atlantic_subtropical", "conc_A_model": "conc-A-c6bce5631d2b", "conc_B_items_km2": null, "conc_B_lo80": null, "conc_B_hi80": null, "conc_B_lo95": null, "conc_B_hi95": null, "conc_B_status": "unavailable", "conc_B_status_ru": "концентрация недоступна", "conc_B_reasons": "вне бассейна профиля: black_sea", "conc_B_model": "conc-B-c6bce5631d2b"}}, {"type": "Feature", "geometry": {"type": "Polygon", "coordinates": [[[49.469499110184735, 53.46166990528478], [49.469502342427646, 53.46158005008115], [49.46935177670847, 53.461578121040944], [49.469358241777414, 53.46139841064179], [49.46950880686125, 53.461400339669424], [49.46951203905194, 53.46131048446133], [49.46981316863648, 53.46131434193504], [49.46980993708112, 53.46140419715571], [49.46996050221716, 53.46140612561434], [49.46995727096208, 53.461495980839814], [49.46980670550837, 53.46149405237489], [49.46980347391821, 53.461583907592576], [49.469499110184735, 53.46166990528478]]]}, "properties": {"zone_id": "kuibyshev-2025-08-31-012", "aoi": "kuibyshev", "date": "2025-08-31", "scene_id": "S2C_MSIL2A_20250831T075631_R035_T39UUV_20250831T112513", "scene_datetime_utc": "2025-08-31T07:56:31.025000+00:00", "detection_status": "detected", "detection_status_ru": "обнаружено", "lon": 49.46963, "lat": 53.46148, "n_pixels": 3, "zone_area_km2": 0.001, "cover_m2": 30.2, "p_mean": 0.796, "p_max": 0.918, "cover_m2_km2": 30200.0, "h3": "881081d569fffff", "valid_frac_scene": 1.0, "wind_ms": 4.9, "sea": "спокойное", "scene_reliable": true, "field_event_id": "S4:DOORS3:T23", "field_profile": "B", "field_date": "2024-06-10", "field_distance_km": 1368.4, "field_date_gap_days": 447, "field_conc_items_km2": 102.37, "conc_A_items_km2": null, "conc_A_lo80": null, "conc_A_hi80": null, "conc_A_lo95": null, "conc_A_hi95": null, "conc_A_status": "unavailable", "conc_A_status_ru": "концентрация недоступна", "conc_A_reasons": "вне бассейна профиля: nw_atlantic_subtropical", "conc_A_model": "conc-A-c6bce5631d2b", "conc_B_items_km2": null, "conc_B_lo80": null, "conc_B_hi80": null, "conc_B_lo95": null, "conc_B_hi95": null, "conc_B_status": "unavailable", "conc_B_status_ru": "концентрация недоступна", "conc_B_reasons": "вне бассейна профиля: black_sea", "conc_B_model": "conc-B-c6bce5631d2b"}}, {"type": "Feature", "geometry": {"type": "Polygon", "coordinates": [[[49.4681796016436, 53.4606641303385], [49.468182836553964, 53.46057427517503], [49.468032274485815, 53.460572344496974], [49.46803550969642, 53.46048248933828], [49.4683398677727, 53.46039649531941], [49.468336633214825, 53.460486350492154], [49.46848719500016, 53.4604882807846], [49.46848396074252, 53.46057813596214], [49.46833339863953, 53.46057620566342], [49.46833016404682, 53.460666060833184], [49.4681796016436, 53.4606641303385]]]}, "properties": {"zone_id": "kuibyshev-2025-08-31-013", "aoi": "kuibyshev", "date": "2025-08-31", "scene_id": "S2C_MSIL2A_20250831T075631_R035_T39UUV_20250831T112513", "scene_datetime_utc": "2025-08-31T07:56:31.025000+00:00", "detection_status": "detected", "detection_status_ru": "обнаружено", "lon": 49.46826, "lat": 53.46053, "n_pixels": 1, "zone_area_km2": 0.0005, "cover_m2": 11.0, "p_mean": 0.608, "p_max": 0.608, "cover_m2_km2": 22000.0, "h3": "881081d569fffff", "valid_frac_scene": 1.0, "wind_ms": 4.9, "sea": "спокойное", "scene_reliable": true, "field_event_id": "S4:DOORS3:T23", "field_profile": "B", "field_date": "2024-06-10", "field_distance_km": 1368.2, "field_date_gap_days": 447, "field_conc_items_km2": 102.37, "conc_A_items_km2": null, "conc_A_lo80": null, "conc_A_hi80": null, "conc_A_lo95": null, "conc_A_hi95": null, "conc_A_status": "unavailable", "conc_A_status_ru": "концентрация недоступна", "conc_A_reasons": "вне бассейна профиля: nw_atlantic_subtropical", "conc_A_model": "conc-A-c6bce5631d2b", "conc_B_items_km2": null, "conc_B_lo80": null, "conc_B_hi80": null, "conc_B_lo95": null, "conc_B_hi95": null, "conc_B_status": "unavailable", "conc_B_status_ru": "концентрация недоступна", "conc_B_reasons": "вне бассейна профиля: black_sea", "conc_B_model": "conc-B-c6bce5631d2b"}}, {"type": "Feature", "geometry": {"type": "Polygon", "coordinates": [[[49.34617754297861, 53.46038588558969], [49.346181035429744, 53.46029603574674], [49.346030483268706, 53.460293951355546], [49.3460339760186, 53.46020410151787], [49.34618452786207, 53.46020618590227], [49.34618802027559, 53.46011633605628], [49.34648912338379, 53.46012050424261], [49.34648563160541, 53.46021035410219], [49.34663618350528, 53.46021243791769], [49.34663269202568, 53.46030228778253], [49.34648213980823, 53.46030020396024], [49.34647864799225, 53.46039005381677], [49.34617754297861, 53.46038588558969]]]}, "properties": {"zone_id": "kuibyshev-2025-08-31-014", "aoi": "kuibyshev", "date": "2025-08-31", "scene_id": "S2C_MSIL2A_20250831T075631_R035_T39UUV_20250831T112513", "scene_datetime_utc": "2025-08-31T07:56:31.025000+00:00", "detection_status": "detected", "detection_status_ru": "обнаружено", "lon": 49.34633, "lat": 53.46025, "n_pixels": 2, "zone_area_km2": 0.0008, "cover_m2": 11.4, "p_mean": 0.69, "p_max": 0.843, "cover_m2_km2": 14250.0, "h3": "881081d2a1fffff", "valid_frac_scene": 1.0, "wind_ms": 4.9, "sea": "спокойное", "scene_reliable": true, "field_event_id": "S4:DOORS3:T23", "field_profile": "B", "field_date": "2024-06-10", "field_distance_km": 1364.4, "field_date_gap_days": 447, "field_conc_items_km2": 102.37, "conc_A_items_km2": null, "conc_A_lo80": null, "conc_A_hi80": null, "conc_A_lo95": null, "conc_A_hi95": null, "conc_A_status": "unavailable", "conc_A_status_ru": "концентрация недоступна", "conc_A_reasons": "вне бассейна профиля: nw_atlantic_subtropical", "conc_A_model": "conc-A-c6bce5631d2b", "conc_B_items_km2": null, "conc_B_lo80": null, "conc_B_hi80": null, "conc_B_lo95": null, "conc_B_hi95": null, "conc_B_status": "unavailable", "conc_B_status_ru": "концентрация недоступна", "conc_B_reasons": "вне бассейна профиля: black_sea", "conc_B_model": "conc-B-c6bce5631d2b"}}, {"type": "Feature", "geometry": {"type": "Polygon", "coordinates": [[[49.441262984023325, 53.45528172420914], [49.44126627511719, 53.455191870103945], [49.441115733997016, 53.45518990564562], [49.441119025390684, 53.45510005154532], [49.44142339775456, 53.45501412614494], [49.441420107013684, 53.45510398025954], [49.441570647851755, 53.45510594433221], [49.44156735741068, 53.45519579845171], [49.44141681625508, 53.455193834372636], [49.44141352547876, 53.455283688484236], [49.441262984023325, 53.45528172420914]]]}, "properties": {"zone_id": "kuibyshev-2025-08-31-015", "aoi": "kuibyshev", "date": "2025-08-31", "scene_id": "S2C_MSIL2A_20250831T075631_R035_T39UUV_20250831T112513", "scene_datetime_utc": "2025-08-31T07:56:31.025000+00:00", "detection_status": "detected", "detection_status_ru": "обнаружено", "lon": 49.44134, "lat": 53.45515, "n_pixels": 1, "zone_area_km2": 0.0005, "cover_m2": 8.6, "p_mean": 0.58, "p_max": 0.58, "cover_m2_km2": 17200.0, "h3": "881081d095fffff", "valid_frac_scene": 1.0, "wind_ms": 4.9, "sea": "спокойное", "scene_reliable": true, "field_event_id": "S4:DOORS3:T23", "field_profile": "B", "field_date": "2024-06-10", "field_distance_km": 1366.8, "field_date_gap_days": 447, "field_conc_items_km2": 102.37, "conc_A_items_km2": null, "conc_A_lo80": null, "conc_A_hi80": null, "conc_A_lo95": null, "conc_A_hi95": null, "conc_A_status": "unavailable", "conc_A_status_ru": "концентрация недоступна", "conc_A_reasons": "вне бассейна профиля: nw_atlantic_subtropical", "conc_A_model": "conc-A-c6bce5631d2b", "conc_B_items_km2": null, "conc_B_lo80": null, "conc_B_hi80": null, "conc_B_lo95": null, "conc_B_hi95": null, "conc_B_status": "unavailable", "conc_B_status_ru": "концентрация недоступна", "conc_B_reasons": "вне бассейна профиля: black_sea", "conc_B_model": "conc-B-c6bce5631d2b"}}, {"type": "Feature", "geometry": {"type": "Polygon", "coordinates": [[[49.390979742672044, 53.454704900216505], [49.3909831398344, 53.45461504828485], [49.39083260441055, 53.454613020489504], [49.390836001872096, 53.45452316856294], [49.39114046891139, 53.454437372009565], [49.391137072103106, 53.45452722395084], [49.39128760724604, 53.45452925136038], [49.39128421073697, 53.45461910330674], [49.39113367527654, 53.4546170758906], [49.39113027843169, 53.454706927828866], [49.390979742672044, 53.454704900216505]]]}, "properties": {"zone_id": "kuibyshev-2025-08-31-016", "aoi": "kuibyshev", "date": "2025-08-31", "scene_id": "S2C_MSIL2A_20250831T075631_R035_T39UUV_20250831T112513", "scene_datetime_utc": "2025-08-31T07:56:31.025000+00:00", "detection_status": "detected", "detection_status_ru": "обнаружено", "lon": 49.39106, "lat": 53.45457, "n_pixels": 1, "zone_area_km2": 0.0005, "cover_m2": 7.8, "p_mean": 0.6, "p_max": 0.6, "cover_m2_km2": 15600.0, "h3": "881081d0c3fffff", "valid_frac_scene": 1.0, "wind_ms": 4.9, "sea": "спокойное", "scene_reliable": true, "field_event_id": "S4:DOORS3:T23", "field_profile": "B", "field_date": "2024-06-10", "field_distance_km": 1365.2, "field_date_gap_days": 447, "field_conc_items_km2": 102.37, "conc_A_items_km2": null, "conc_A_lo80": null, "conc_A_hi80": null, "conc_A_lo95": null, "conc_A_hi95": null, "conc_A_status": "unavailable", "conc_A_status_ru": "концентрация недоступна", "conc_A_reasons": "вне бассейна профиля: nw_atlantic_subtropical", "conc_A_model": "conc-A-c6bce5631d2b", "conc_B_items_km2": null, "conc_B_lo80": null, "conc_B_hi80": null, "conc_B_lo95": null, "conc_B_hi95": null, "conc_B_status": "unavailable", "conc_B_status_ru": "концентрация недоступна", "conc_B_reasons": "вне бассейна профиля: black_sea", "conc_B_model": "conc-B-c6bce5631d2b"}}]}