{"type": "FeatureCollection", "features": [{"type": "Feature", "geometry": {"type": "MultiPolygon", "coordinates": [[[[49.07530217684414, 53.50100958872325], [49.07500489962433, 53.50091489876253], [49.07500082869618, 53.50100473469559], [49.0748501546551, 53.501002307397016], [49.07484608338686, 53.501092143320584], [49.07514336147341, 53.50118683368156], [49.07514743212727, 53.50109699774373], [49.075298106530376, 53.50109942467055], [49.07530217684414, 53.50100958872325]]], [[[49.07513929079762, 53.50127666961781], [49.07543657083704, 53.50137135926374], [49.07543250075373, 53.50146119521266], [49.075583176473366, 53.50146362179144], [49.07557910668629, 53.501553457746695], [49.07588452797843, 53.50146847437947], [49.07588859710724, 53.50137863840683], [49.07573792166191, 53.50137621221563], [49.075741991086964, 53.501286376249325], [49.07544471093789, 53.50119168736117], [49.07544878095542, 53.501101851407526], [49.07514336147341, 53.50118683368156], [49.07513929079762, 53.50127666961781]]]]}, "properties": {"zone_id": "kuibyshev-2026-08-06-001", "aoi": "kuibyshev", "date": "2026-08-06", "scene_id": "S2C_MSIL2A_20260806T075611_R035_T39UUV_20260806T113012", "scene_datetime_utc": "2026-08-06T07:56:11.026000+00:00", "detection_status": "detected", "detection_status_ru": "обнаружено", "lon": 49.0754, "lat": 53.50126, "n_pixels": 4, "zone_area_km2": 0.0016, "cover_m2": 26.3, "p_mean": 0.679, "p_max": 0.886, "cover_m2_km2": 16437.5, "h3": "8810856ae7fffff", "valid_frac_scene": 0.999, "wind_ms": 1.2, "sea": "спокойное", "scene_reliable": true, "field_event_id": "S4:DOORS3:T23", "field_profile": "B", "field_date": "2024-06-10", "field_distance_km": 1360.1, "field_date_gap_days": 787, "field_conc_items_km2": 102.37, "conc_A_items_km2": null, "conc_A_lo80": null, "conc_A_hi80": null, "conc_A_lo95": null, "conc_A_hi95": null, "conc_A_status": "unavailable", "conc_A_status_ru": "концентрация недоступна", "conc_A_reasons": "вне бассейна профиля: nw_atlantic_subtropical", "conc_A_model": "conc-A-c6bce5631d2b", "conc_B_items_km2": null, "conc_B_lo80": null, "conc_B_hi80": null, "conc_B_lo95": null, "conc_B_hi95": null, "conc_B_status": "unavailable", "conc_B_status_ru": "концентрация недоступна", "conc_B_reasons": "вне бассейна профиля: black_sea", "conc_B_model": "conc-B-c6bce5631d2b"}}, {"type": "Feature", "geometry": {"type": "Polygon", "coordinates": [[[49.08691223867846, 53.501016218281904], [49.08691628442779, 53.50092638172272], [49.08676560961366, 53.50092396944498], [49.08676965565936, 53.50083413289208], [49.087075050060655, 53.50074912067182], [49.08707100467309, 53.500838957241996], [49.08722167921265, 53.50084136913219], [49.08721763412145, 53.50093120570866], [49.08706695926372, 53.50092879381062], [49.087062913832554, 53.50101863037766], [49.08691223867846, 53.501016218281904]]]}, "properties": {"zone_id": "kuibyshev-2026-08-06-002", "aoi": "kuibyshev", "date": "2026-08-06", "scene_id": "S2C_MSIL2A_20260806T075611_R035_T39UUV_20260806T113012", "scene_datetime_utc": "2026-08-06T07:56:11.026000+00:00", "detection_status": "detected", "detection_status_ru": "обнаружено", "lon": 49.08699, "lat": 53.50088, "n_pixels": 1, "zone_area_km2": 0.0005, "cover_m2": 9.0, "p_mean": 0.647, "p_max": 0.647, "cover_m2_km2": 18000.0, "h3": "8810856aadfffff", "valid_frac_scene": 0.999, "wind_ms": 1.2, "sea": "спокойное", "scene_reliable": true, "field_event_id": "S4:DOORS3:T23", "field_profile": "B", "field_date": "2024-06-10", "field_distance_km": 1360.4, "field_date_gap_days": 787, "field_conc_items_km2": 102.37, "conc_A_items_km2": null, "conc_A_lo80": null, "conc_A_hi80": null, "conc_A_lo95": null, "conc_A_hi95": null, "conc_A_status": "unavailable", "conc_A_status_ru": "концентрация недоступна", "conc_A_reasons": "вне бассейна профиля: nw_atlantic_subtropical", "conc_A_model": "conc-A-c6bce5631d2b", "conc_B_items_km2": null, "conc_B_lo80": null, "conc_B_hi80": null, "conc_B_lo95": null, "conc_B_hi95": null, "conc_B_status": "unavailable", "conc_B_status_ru": "концентрация недоступна", "conc_B_reasons": "вне бассейна профиля: black_sea", "conc_B_model": "conc-B-c6bce5631d2b"}}, {"type": "Feature", "geometry": {"type": "Polygon", "coordinates": [[[49.1021542685661, 53.49397726567158], [49.102158281064334, 53.49388742821023], [49.10200762986775, 53.493885035358616], [49.102011642662404, 53.4937951979035], [49.10231695657804, 53.49371014592901], [49.102312944441096, 53.4937999834013], [49.102463595362856, 53.49380237586552], [49.10245958352235, 53.49389221334405], [49.10230893228253, 53.493889820872035], [49.102304920102355, 53.49397965834119], [49.1021542685661, 53.49397726567158]]]}, "properties": {"zone_id": "kuibyshev-2026-08-06-003", "aoi": "kuibyshev", "date": "2026-08-06", "scene_id": "S2C_MSIL2A_20260806T075611_R035_T39UUV_20260806T113012", "scene_datetime_utc": "2026-08-06T07:56:11.026000+00:00", "detection_status": "detected", "detection_status_ru": "обнаружено", "lon": 49.10224, "lat": 53.49384, "n_pixels": 1, "zone_area_km2": 0.0005, "cover_m2": 8.6, "p_mean": 0.624, "p_max": 0.624, "cover_m2_km2": 17200.0, "h3": "8810856aa7fffff", "valid_frac_scene": 0.999, "wind_ms": 1.2, "sea": "спокойное", "scene_reliable": true, "field_event_id": "S4:DOORS3:T23", "field_profile": "B", "field_date": "2024-06-10", "field_distance_km": 1360.2, "field_date_gap_days": 787, "field_conc_items_km2": 102.37, "conc_A_items_km2": null, "conc_A_lo80": null, "conc_A_hi80": null, "conc_A_lo95": null, "conc_A_hi95": null, "conc_A_status": "unavailable", "conc_A_status_ru": "концентрация недоступна", "conc_A_reasons": "вне бассейна профиля: nw_atlantic_subtropical", "conc_A_model": "conc-A-c6bce5631d2b", "conc_B_items_km2": null, "conc_B_lo80": null, "conc_B_hi80": null, "conc_B_lo95": null, "conc_B_hi95": null, "conc_B_status": "unavailable", "conc_B_status_ru": "концентрация недоступна", "conc_B_reasons": "вне бассейна профиля: black_sea", "conc_B_model": "conc-B-c6bce5631d2b"}}, {"type": "Feature", "geometry": {"type": "Polygon", "coordinates": [[[49.096361651778786, 53.48867084602322], [49.09636567574128, 53.4885810087833], [49.09621504385422, 53.48857860879359], [49.09621906811298, 53.48848877155991], [49.096524354874106, 53.48840373408308], [49.0965203312729, 53.48849357133395], [49.09667096288537, 53.48849597093632], [49.09666693958043, 53.488585808193456], [49.09651630765002, 53.48858340858326], [49.09651228400546, 53.488673245830995], [49.096361651778786, 53.48867084602322]]]}, "properties": {"zone_id": "kuibyshev-2026-08-06-004", "aoi": "kuibyshev", "date": "2026-08-06", "scene_id": "S2C_MSIL2A_20260806T075611_R035_T39UUV_20260806T113012", "scene_datetime_utc": "2026-08-06T07:56:11.026000+00:00", "detection_status": "detected", "detection_status_ru": "обнаружено", "lon": 49.09644, "lat": 53.48854, "n_pixels": 1, "zone_area_km2": 0.0005, "cover_m2": 7.8, "p_mean": 0.718, "p_max": 0.718, "cover_m2_km2": 15600.0, "h3": "8810856aa5fffff", "valid_frac_scene": 0.999, "wind_ms": 1.2, "sea": "спокойное", "scene_reliable": true, "field_event_id": "S4:DOORS3:T23", "field_profile": "B", "field_date": "2024-06-10", "field_distance_km": 1359.5, "field_date_gap_days": 787, "field_conc_items_km2": 102.37, "conc_A_items_km2": null, "conc_A_lo80": null, "conc_A_hi80": null, "conc_A_lo95": null, "conc_A_hi95": null, "conc_A_status": "unavailable", "conc_A_status_ru": "концентрация недоступна", "conc_A_reasons": "вне бассейна профиля: nw_atlantic_subtropical", "conc_A_model": "conc-A-c6bce5631d2b", "conc_B_items_km2": null, "conc_B_lo80": null, "conc_B_hi80": null, "conc_B_lo95": null, "conc_B_hi95": null, "conc_B_status": "unavailable", "conc_B_status_ru": "концентрация недоступна", "conc_B_reasons": "вне бассейна профиля: black_sea", "conc_B_model": "conc-B-c6bce5631d2b"}}, {"type": "Feature", "geometry": {"type": "Polygon", "coordinates": [[[49.06647677206312, 53.48288676357836], [49.066480858312, 53.48279692782195], [49.06633024954821, 53.48279449035069], [49.06634250911621, 53.482524983095836], [49.06649311692659, 53.48252742054326], [49.06649720308743, 53.48243758478057], [49.06664781060201, 53.48244002203034], [49.066651896423046, 53.4823501862581], [49.06694902569718, 53.48244489596079], [49.0669408552603, 53.48262456753228], [49.0667902470661, 53.482622130646014], [49.0667820759056, 53.48280180219533], [49.06647677206312, 53.48288676357836]]]}, "properties": {"zone_id": "kuibyshev-2026-08-06-005", "aoi": "kuibyshev", "date": "2026-08-06", "scene_id": "S2C_MSIL2A_20260806T075611_R035_T39UUV_20260806T113012", "scene_datetime_utc": "2026-08-06T07:56:11.026000+00:00", "detection_status": "detected", "detection_status_ru": "обнаружено", "lon": 49.06662, "lat": 53.48261, "n_pixels": 5, "zone_area_km2": 0.0015, "cover_m2": 500.0, "p_mean": 0.565, "p_max": 0.639, "cover_m2_km2": 333333.3, "h3": "8810856851fffff", "valid_frac_scene": 0.999, "wind_ms": 1.2, "sea": "спокойное", "scene_reliable": true, "field_event_id": "S4:DOORS3:T23", "field_profile": "B", "field_date": "2024-06-10", "field_distance_km": 1358.0, "field_date_gap_days": 787, "field_conc_items_km2": 102.37, "conc_A_items_km2": null, "conc_A_lo80": null, "conc_A_hi80": null, "conc_A_lo95": null, "conc_A_hi95": null, "conc_A_status": "unavailable", "conc_A_status_ru": "концентрация недоступна", "conc_A_reasons": "вне бассейна профиля: nw_atlantic_subtropical", "conc_A_model": "conc-A-c6bce5631d2b", "conc_B_items_km2": null, "conc_B_lo80": null, "conc_B_hi80": null, "conc_B_lo95": null, "conc_B_hi95": null, "conc_B_status": "unavailable", "conc_B_status_ru": "концентрация недоступна", "conc_B_reasons": "вне бассейна профиля: black_sea", "conc_B_model": "conc-B-c6bce5631d2b"}}, {"type": "Feature", "geometry": {"type": "Polygon", "coordinates": [[[49.11114185131652, 53.481713318293096], [49.11114584303541, 53.48162348018005], [49.11099523450622, 53.48162109902811], [49.110999226521436, 53.48153126092127], [49.11130443432376, 53.481446184896], [49.111300442965685, 53.48153602301993], [49.11145105122005, 53.481538403784675], [49.11144706015829, 53.481628241914805], [49.11129645158611, 53.48162586114228], [49.11129246018502, 53.481715699263084], [49.11114185131652, 53.481713318293096]]]}, "properties": {"zone_id": "kuibyshev-2026-08-06-006", "aoi": "kuibyshev", "date": "2026-08-06", "scene_id": "S2C_MSIL2A_20260806T075611_R035_T39UUV_20260806T113012", "scene_datetime_utc": "2026-08-06T07:56:11.026000+00:00", "detection_status": "detected", "detection_status_ru": "обнаружено", "lon": 49.11122, "lat": 53.48158, "n_pixels": 1, "zone_area_km2": 0.0005, "cover_m2": 8.2, "p_mean": 0.525, "p_max": 0.525, "cover_m2_km2": 16400.0, "h3": "8810856813fffff", "valid_frac_scene": 0.999, "wind_ms": 1.2, "sea": "спокойное", "scene_reliable": true, "field_event_id": "S4:DOORS3:T23", "field_profile": "B", "field_date": "2024-06-10", "field_distance_km": 1359.2, "field_date_gap_days": 787, "field_conc_items_km2": 102.37, "conc_A_items_km2": null, "conc_A_lo80": null, "conc_A_hi80": null, "conc_A_lo95": null, "conc_A_hi95": null, "conc_A_status": "unavailable", "conc_A_status_ru": "концентрация недоступна", "conc_A_reasons": "вне бассейна профиля: nw_atlantic_subtropical", "conc_A_model": "conc-A-c6bce5631d2b", "conc_B_items_km2": null, "conc_B_lo80": null, "conc_B_hi80": null, "conc_B_lo95": null, "conc_B_hi95": null, "conc_B_status": "unavailable", "conc_B_status_ru": "концентрация недоступна", "conc_B_reasons": "вне бассейна профиля: black_sea", "conc_B_model": "conc-B-c6bce5631d2b"}}, {"type": "Feature", "geometry": {"type": "Polygon", "coordinates": [[[49.07835430394944, 53.48020153770966], [49.078358364708784, 53.48011170128536], [49.07820776440283, 53.480109278864134], [49.07821182545807, 53.480019442446135], [49.0779146872162, 53.479924760646625], [49.07791874886321, 53.479834924241274], [49.078069348172136, 53.479837347018204], [49.078073409479515, 53.47974751060338], [49.078374607527444, 53.47975235557239], [49.07837054685559, 53.479842192002984], [49.078521146230116, 53.47984461421084], [49.07851302545631, 53.480024287083104], [49.07866362548824, 53.48002670911704], [49.0786595653863, 53.48011654555873], [49.07835430394944, 53.48020153770966]]]}, "properties": {"zone_id": "kuibyshev-2026-08-06-007", "aoi": "kuibyshev", "date": "2026-08-06", "scene_id": "S2C_MSIL2A_20260806T075611_R035_T39UUV_20260806T113012", "scene_datetime_utc": "2026-08-06T07:56:11.026000+00:00", "detection_status": "detected", "detection_status_ru": "обнаружено", "lon": 49.07829, "lat": 53.47995, "n_pixels": 4, "zone_area_km2": 0.0013, "cover_m2": 400.0, "p_mean": 0.662, "p_max": 0.761, "cover_m2_km2": 307692.3, "h3": "8810856857fffff", "valid_frac_scene": 0.999, "wind_ms": 1.2, "sea": "спокойное", "scene_reliable": true, "field_event_id": "S4:DOORS3:T23", "field_profile": "B", "field_date": "2024-06-10", "field_distance_km": 1358.1, "field_date_gap_days": 787, "field_conc_items_km2": 102.37, "conc_A_items_km2": null, "conc_A_lo80": null, "conc_A_hi80": null, "conc_A_lo95": null, "conc_A_hi95": null, "conc_A_status": "unavailable", "conc_A_status_ru": "концентрация недоступна", "conc_A_reasons": "вне бассейна профиля: nw_atlantic_subtropical", "conc_A_model": "conc-A-c6bce5631d2b", "conc_B_items_km2": null, "conc_B_lo80": null, "conc_B_hi80": null, "conc_B_lo95": null, "conc_B_hi95": null, "conc_B_status": "unavailable", "conc_B_status_ru": "концентрация недоступна", "conc_B_reasons": "вне бассейна профиля: black_sea", "conc_B_model": "conc-B-c6bce5631d2b"}}, {"type": "Feature", "geometry": {"type": "Polygon", "coordinates": [[[49.08808975340426, 53.478200091897094], [49.08809379330397, 53.47811025493123], [49.087943199227894, 53.47810784483899], [49.08794723942358, 53.47801800787941], [49.087344864607815, 53.478008365645024], [49.08734890605267, 53.477918528715286], [49.08719831272087, 53.47791611769034], [49.087206396180754, 53.477736443841884], [49.08735698887709, 53.477738854851104], [49.08736103025666, 53.47764901791667], [49.08811399247618, 53.47766107007836], [49.08810995268525, 53.47775090705208], [49.088260545512156, 53.477753316923234], [49.0882565060172, 53.47784315390322], [49.08855365349049, 53.47793781008633], [49.08854557566274, 53.47811748406987], [49.0883949815214, 53.47811507454668], [49.088390942257156, 53.478204911528245], [49.08808975340426, 53.478200091897094]]]}, "properties": {"zone_id": "kuibyshev-2026-08-06-008", "aoi": "kuibyshev", "date": "2026-08-06", "scene_id": "S2C_MSIL2A_20260806T075611_R035_T39UUV_20260806T113012", "scene_datetime_utc": "2026-08-06T07:56:11.026000+00:00", "detection_status": "detected", "detection_status_ru": "обнаружено", "lon": 49.08791, "lat": 53.47789, "n_pixels": 15, "zone_area_km2": 0.0034, "cover_m2": 1500.0, "p_mean": 0.633, "p_max": 0.741, "cover_m2_km2": 441176.5, "h3": "881085681dfffff", "valid_frac_scene": 0.999, "wind_ms": 1.2, "sea": "спокойное", "scene_reliable": true, "field_event_id": "S4:DOORS3:T23", "field_profile": "B", "field_date": "2024-06-10", "field_distance_km": 1358.1, "field_date_gap_days": 787, "field_conc_items_km2": 102.37, "conc_A_items_km2": null, "conc_A_lo80": null, "conc_A_hi80": null, "conc_A_lo95": null, "conc_A_hi95": null, "conc_A_status": "unavailable", "conc_A_status_ru": "концентрация недоступна", "conc_A_reasons": "вне бассейна профиля: nw_atlantic_subtropical", "conc_A_model": "conc-A-c6bce5631d2b", "conc_B_items_km2": null, "conc_B_lo80": null, "conc_B_hi80": null, "conc_B_lo95": null, "conc_B_hi95": null, "conc_B_status": "unavailable", "conc_B_status_ru": "концентрация недоступна", "conc_B_reasons": "вне бассейна профиля: black_sea", "conc_B_model": "conc-B-c6bce5631d2b"}}, {"type": "Feature", "geometry": {"type": "Polygon", "coordinates": [[[49.086298796834434, 53.47781181068107], [49.08630284045986, 53.477721973803206], [49.086152247915926, 53.47771956146621], [49.08615629183729, 53.477629724594635], [49.08646151957564, 53.47754471217434], [49.086457476311494, 53.47763454906322], [49.08660806858126, 53.47763696101298], [49.08660402561306, 53.47772679790814], [49.086453433025575, 53.477724385950516], [49.08644938971788, 53.47781422283624], [49.086298796834434, 53.47781181068107]]]}, "properties": {"zone_id": "kuibyshev-2026-08-06-009", "aoi": "kuibyshev", "date": "2026-08-06", "scene_id": "S2C_MSIL2A_20260806T075611_R035_T39UUV_20260806T113012", "scene_datetime_utc": "2026-08-06T07:56:11.026000+00:00", "detection_status": "detected", "detection_status_ru": "обнаружено", "lon": 49.08638, "lat": 53.47768, "n_pixels": 1, "zone_area_km2": 0.0005, "cover_m2": 100.0, "p_mean": 0.533, "p_max": 0.533, "cover_m2_km2": 200000.0, "h3": "881085681dfffff", "valid_frac_scene": 0.999, "wind_ms": 1.2, "sea": "спокойное", "scene_reliable": true, "field_event_id": "S4:DOORS3:T23", "field_profile": "B", "field_date": "2024-06-10", "field_distance_km": 1358.1, "field_date_gap_days": 787, "field_conc_items_km2": 102.37, "conc_A_items_km2": null, "conc_A_lo80": null, "conc_A_hi80": null, "conc_A_lo95": null, "conc_A_hi95": null, "conc_A_status": "unavailable", "conc_A_status_ru": "концентрация недоступна", "conc_A_reasons": "вне бассейна профиля: nw_atlantic_subtropical", "conc_A_model": "conc-A-c6bce5631d2b", "conc_B_items_km2": null, "conc_B_lo80": null, "conc_B_hi80": null, "conc_B_lo95": null, "conc_B_hi95": null, "conc_B_status": "unavailable", "conc_B_status_ru": "концентрация недоступна", "conc_B_reasons": "вне бассейна профиля: black_sea", "conc_B_model": "conc-B-c6bce5631d2b"}}, {"type": "Feature", "geometry": {"type": "Polygon", "coordinates": [[[49.085704515289336, 53.47762248646917], [49.085708560142095, 53.4775326496196], [49.085557968320735, 53.47753023653962], [49.085562013469435, 53.477440399696334], [49.08586724098998, 53.47735538879033], [49.08586319649851, 53.4774452256509], [49.08601378804571, 53.47744763834366], [49.08600974385017, 53.47753747521053], [49.08585915198525, 53.477535062509894], [49.0858551074502, 53.47762489936733], [49.085704515289336, 53.47762248646917]]]}, "properties": {"zone_id": "kuibyshev-2026-08-06-010", "aoi": "kuibyshev", "date": "2026-08-06", "scene_id": "S2C_MSIL2A_20260806T075611_R035_T39UUV_20260806T113012", "scene_datetime_utc": "2026-08-06T07:56:11.026000+00:00", "detection_status": "detected", "detection_status_ru": "обнаружено", "lon": 49.08579, "lat": 53.47749, "n_pixels": 1, "zone_area_km2": 0.0005, "cover_m2": 100.0, "p_mean": 0.639, "p_max": 0.639, "cover_m2_km2": 200000.0, "h3": "881085681dfffff", "valid_frac_scene": 0.999, "wind_ms": 1.2, "sea": "спокойное", "scene_reliable": true, "field_event_id": "S4:DOORS3:T23", "field_profile": "B", "field_date": "2024-06-10", "field_distance_km": 1358.0, "field_date_gap_days": 787, "field_conc_items_km2": 102.37, "conc_A_items_km2": null, "conc_A_lo80": null, "conc_A_hi80": null, "conc_A_lo95": null, "conc_A_hi95": null, "conc_A_status": "unavailable", "conc_A_status_ru": "концентрация недоступна", "conc_A_reasons": "вне бассейна профиля: nw_atlantic_subtropical", "conc_A_model": "conc-A-c6bce5631d2b", "conc_B_items_km2": null, "conc_B_lo80": null, "conc_B_hi80": null, "conc_B_lo95": null, "conc_B_hi95": null, "conc_B_status": "unavailable", "conc_B_status_ru": "концентрация недоступна", "conc_B_reasons": "вне бассейна профиля: black_sea", "conc_B_model": "conc-B-c6bce5631d2b"}}, {"type": "Feature", "geometry": {"type": "Polygon", "coordinates": [[[49.08857788645171, 53.477398788098014], [49.08858192520245, 53.47730895109446], [49.08843133392066, 53.47730654164192], [49.08843537296737, 53.47721670464465], [49.08874059330679, 53.47713168632982], [49.08873655491727, 53.47722152334434], [49.08888714592484, 53.477223932409686], [49.08888310783129, 53.4773137694305], [49.088732516506, 53.47731136035732], [49.08872847807297, 53.477401197368714], [49.08857788645171, 53.477398788098014]]]}, "properties": {"zone_id": "kuibyshev-2026-08-06-011", "aoi": "kuibyshev", "date": "2026-08-06", "scene_id": "S2C_MSIL2A_20260806T075611_R035_T39UUV_20260806T113012", "scene_datetime_utc": "2026-08-06T07:56:11.026000+00:00", "detection_status": "detected", "detection_status_ru": "обнаружено", "lon": 49.08866, "lat": 53.47727, "n_pixels": 1, "zone_area_km2": 0.0005, "cover_m2": 100.0, "p_mean": 0.545, "p_max": 0.545, "cover_m2_km2": 200000.0, "h3": "881085681dfffff", "valid_frac_scene": 0.999, "wind_ms": 1.2, "sea": "спокойное", "scene_reliable": true, "field_event_id": "S4:DOORS3:T23", "field_profile": "B", "field_date": "2024-06-10", "field_distance_km": 1358.1, "field_date_gap_days": 787, "field_conc_items_km2": 102.37, "conc_A_items_km2": null, "conc_A_lo80": null, "conc_A_hi80": null, "conc_A_lo95": null, "conc_A_hi95": null, "conc_A_status": "unavailable", "conc_A_status_ru": "концентрация недоступна", "conc_A_reasons": "вне бассейна профиля: nw_atlantic_subtropical", "conc_A_model": "conc-A-c6bce5631d2b", "conc_B_items_km2": null, "conc_B_lo80": null, "conc_B_hi80": null, "conc_B_lo95": null, "conc_B_hi95": null, "conc_B_status": "unavailable", "conc_B_status_ru": "концентрация недоступна", "conc_B_reasons": "вне бассейна профиля: black_sea", "conc_B_model": "conc-B-c6bce5631d2b"}}, {"type": "Feature", "geometry": {"type": "Polygon", "coordinates": [[[49.08495560125314, 53.4775205823229], [49.084959647672726, 53.477430745511086], [49.084809056278026, 53.47742833149057], [49.08481310299354, 53.47733849468504], [49.084662511938355, 53.477336080482736], [49.084658464905125, 53.47742591728039], [49.08436132989336, 53.47733125150907], [49.084369425165306, 53.477151577940504], [49.08452001554147, 53.477153992506445], [49.084528110090794, 53.47697431891585], [49.08467869985333, 53.47697673327638], [49.08468274677759, 53.47688689647086], [49.08483333624421, 53.47688931063385], [49.084837382828965, 53.47679947381889], [49.08513451524283, 53.4768941383908], [49.0851142851693, 53.477343322520646], [49.08526487628986, 53.47734573615394], [49.0852608305275, 53.47743557298306], [49.08511023908922, 53.477433159341906], [49.085106192987354, 53.477522996161596], [49.08495560125314, 53.4775205823229]]]}, "properties": {"zone_id": "kuibyshev-2026-08-06-012", "aoi": "kuibyshev", "date": "2026-08-06", "scene_id": "S2C_MSIL2A_20260806T075611_R035_T39UUV_20260806T113012", "scene_datetime_utc": "2026-08-06T07:56:11.026000+00:00", "detection_status": "detected", "detection_status_ru": "обнаружено", "lon": 49.08481, "lat": 53.47716, "n_pixels": 11, "zone_area_km2": 0.0027, "cover_m2": 1100.0, "p_mean": 0.662, "p_max": 0.765, "cover_m2_km2": 407407.4, "h3": "881085681dfffff", "valid_frac_scene": 0.999, "wind_ms": 1.2, "sea": "спокойное", "scene_reliable": true, "field_event_id": "S4:DOORS3:T23", "field_profile": "B", "field_date": "2024-06-10", "field_distance_km": 1358.0, "field_date_gap_days": 787, "field_conc_items_km2": 102.37, "conc_A_items_km2": null, "conc_A_lo80": null, "conc_A_hi80": null, "conc_A_lo95": null, "conc_A_hi95": null, "conc_A_status": "unavailable", "conc_A_status_ru": "концентрация недоступна", "conc_A_reasons": "вне бассейна профиля: nw_atlantic_subtropical", "conc_A_model": "conc-A-c6bce5631d2b", "conc_B_items_km2": null, "conc_B_lo80": null, "conc_B_hi80": null, "conc_B_lo95": null, "conc_B_hi95": null, "conc_B_status": "unavailable", "conc_B_status_ru": "концентрация недоступна", "conc_B_reasons": "вне бассейна профиля: black_sea", "conc_B_model": "conc-B-c6bce5631d2b"}}, {"type": "Feature", "geometry": {"type": "Polygon", "coordinates": [[[49.088923487788186, 53.47641539915168], [49.08892752566428, 53.476325562115164], [49.088776937833806, 53.47632315312833], [49.08878097600584, 53.476233316098096], [49.08908618856803, 53.476148296818906], [49.089082151053134, 53.47623813386642], [49.08923273860939, 53.476240542466066], [49.089228701390454, 53.476330379519844], [49.08907811351649, 53.476327970912344], [49.08907407595811, 53.476417807956715], [49.088923487788186, 53.47641539915168]]]}, "properties": {"zone_id": "kuibyshev-2026-08-06-013", "aoi": "kuibyshev", "date": "2026-08-06", "scene_id": "S2C_MSIL2A_20260806T075611_R035_T39UUV_20260806T113012", "scene_datetime_utc": "2026-08-06T07:56:11.026000+00:00", "detection_status": "detected", "detection_status_ru": "обнаружено", "lon": 49.089, "lat": 53.47628, "n_pixels": 1, "zone_area_km2": 0.0005, "cover_m2": 100.0, "p_mean": 0.537, "p_max": 0.537, "cover_m2_km2": 200000.0, "h3": "881085681dfffff", "valid_frac_scene": 0.999, "wind_ms": 1.2, "sea": "спокойное", "scene_reliable": true, "field_event_id": "S4:DOORS3:T23", "field_profile": "B", "field_date": "2024-06-10", "field_distance_km": 1358.0, "field_date_gap_days": 787, "field_conc_items_km2": 102.37, "conc_A_items_km2": null, "conc_A_lo80": null, "conc_A_hi80": null, "conc_A_lo95": null, "conc_A_hi95": null, "conc_A_status": "unavailable", "conc_A_status_ru": "концентрация недоступна", "conc_A_reasons": "вне бассейна профиля: nw_atlantic_subtropical", "conc_A_model": "conc-A-c6bce5631d2b", "conc_B_items_km2": null, "conc_B_lo80": null, "conc_B_hi80": null, "conc_B_lo95": null, "conc_B_hi95": null, "conc_B_status": "unavailable", "conc_B_status_ru": "концентрация недоступна", "conc_B_reasons": "вне бассейна профиля: black_sea", "conc_B_model": "conc-B-c6bce5631d2b"}}, {"type": "Feature", "geometry": {"type": "Polygon", "coordinates": [[[49.16005505272162, 53.47285723487253], [49.16005893985377, 53.472767394126905], [49.159908358492174, 53.4727650748746], [49.159912245921085, 53.47267523413499], [49.160062826964996, 53.47267755337973], [49.16006671405528, 53.472587712631], [49.16036787557054, 53.47259235053639], [49.160363989115616, 53.47268219130022], [49.160514570222325, 53.47268450997598], [49.160510684064164, 53.472774350745816], [49.16036010263977, 53.47277203206251], [49.160356216142986, 53.472861872823245], [49.16005505272162, 53.47285723487253]]]}, "properties": {"zone_id": "kuibyshev-2026-08-06-014", "aoi": "kuibyshev", "date": "2026-08-06", "scene_id": "S2C_MSIL2A_20260806T075611_R035_T39UUV_20260806T113012", "scene_datetime_utc": "2026-08-06T07:56:11.026000+00:00", "detection_status": "detected", "detection_status_ru": "обнаружено", "lon": 49.16021, "lat": 53.47272, "n_pixels": 2, "zone_area_km2": 0.0008, "cover_m2": 17.3, "p_mean": 0.625, "p_max": 0.667, "cover_m2_km2": 21625.0, "h3": "88108568a9fffff", "valid_frac_scene": 0.999, "wind_ms": 1.2, "sea": "спокойное", "scene_reliable": true, "field_event_id": "S4:DOORS3:T23", "field_profile": "B", "field_date": "2024-06-10", "field_distance_km": 1359.8, "field_date_gap_days": 787, "field_conc_items_km2": 102.37, "conc_A_items_km2": null, "conc_A_lo80": null, "conc_A_hi80": null, "conc_A_lo95": null, "conc_A_hi95": null, "conc_A_status": "unavailable", "conc_A_status_ru": "концентрация недоступна", "conc_A_reasons": "вне бассейна профиля: nw_atlantic_subtropical", "conc_A_model": "conc-A-c6bce5631d2b", "conc_B_items_km2": null, "conc_B_lo80": null, "conc_B_hi80": null, "conc_B_lo95": null, "conc_B_hi95": null, "conc_B_status": "unavailable", "conc_B_status_ru": "концентрация недоступна", "conc_B_reasons": "вне бассейна профиля: black_sea", "conc_B_model": "conc-B-c6bce5631d2b"}}, {"type": "Feature", "geometry": {"type": "Polygon", "coordinates": [[[49.14321749370359, 53.47196741950804], [49.14322141626782, 53.471877579601674], [49.14307083948517, 53.47187523916043], [49.14307476234594, 53.47178539926016], [49.14337983750138, 53.47170024002063], [49.14337591529704, 53.47179007993773], [49.14352649180429, 53.471792419992035], [49.14352256989649, 53.4718822599152], [49.14337199307159, 53.47187991985326], [49.14336807082501, 53.471969759767234], [49.14321749370359, 53.47196741950804]]]}, "properties": {"zone_id": "kuibyshev-2026-08-06-015", "aoi": "kuibyshev", "date": "2026-08-06", "scene_id": "S2C_MSIL2A_20260806T075611_R035_T39UUV_20260806T113012", "scene_datetime_utc": "2026-08-06T07:56:11.026000+00:00", "detection_status": "detected", "detection_status_ru": "обнаружено", "lon": 49.1433, "lat": 53.47183, "n_pixels": 1, "zone_area_km2": 0.0005, "cover_m2": 7.1, "p_mean": 0.549, "p_max": 0.549, "cover_m2_km2": 14200.0, "h3": "88108568e1fffff", "valid_frac_scene": 0.999, "wind_ms": 1.2, "sea": "спокойное", "scene_reliable": true, "field_event_id": "S4:DOORS3:T23", "field_profile": "B", "field_date": "2024-06-10", "field_distance_km": 1359.2, "field_date_gap_days": 787, "field_conc_items_km2": 102.37, "conc_A_items_km2": null, "conc_A_lo80": null, "conc_A_hi80": null, "conc_A_lo95": null, "conc_A_hi95": null, "conc_A_status": "unavailable", "conc_A_status_ru": "концентрация недоступна", "conc_A_reasons": "вне бассейна профиля: nw_atlantic_subtropical", "conc_A_model": "conc-A-c6bce5631d2b", "conc_B_items_km2": null, "conc_B_lo80": null, "conc_B_hi80": null, "conc_B_lo95": null, "conc_B_hi95": null, "conc_B_status": "unavailable", "conc_B_status_ru": "концентрация недоступна", "conc_B_reasons": "вне бассейна профиля: black_sea", "conc_B_model": "conc-B-c6bce5631d2b"}}, {"type": "Feature", "geometry": {"type": "Polygon", "coordinates": [[[49.14084361069389, 53.471121391452904], [49.14084753815028, 53.471031551654605], [49.140696964564654, 53.47102920824759], [49.14070089231753, 53.47093936845538], [49.14100596597111, 53.47085421525542], [49.14100203887465, 53.47094405506448], [49.14115261218494, 53.470946398084564], [49.141148685384984, 53.47103623789967], [49.14099811175706, 53.47103389487196], [49.14099418461831, 53.4711237346779], [49.14084361069389, 53.471121391452904]]]}, "properties": {"zone_id": "kuibyshev-2026-08-06-016", "aoi": "kuibyshev", "date": "2026-08-06", "scene_id": "S2C_MSIL2A_20260806T075611_R035_T39UUV_20260806T113012", "scene_datetime_utc": "2026-08-06T07:56:11.026000+00:00", "detection_status": "detected", "detection_status_ru": "обнаружено", "lon": 49.14092, "lat": 53.47099, "n_pixels": 1, "zone_area_km2": 0.0005, "cover_m2": 9.0, "p_mean": 0.549, "p_max": 0.549, "cover_m2_km2": 18000.0, "h3": "88108568e1fffff", "valid_frac_scene": 0.999, "wind_ms": 1.2, "sea": "спокойное", "scene_reliable": true, "field_event_id": "S4:DOORS3:T23", "field_profile": "B", "field_date": "2024-06-10", "field_distance_km": 1359.1, "field_date_gap_days": 787, "field_conc_items_km2": 102.37, "conc_A_items_km2": null, "conc_A_lo80": null, "conc_A_hi80": null, "conc_A_lo95": null, "conc_A_hi95": null, "conc_A_status": "unavailable", "conc_A_status_ru": "концентрация недоступна", "conc_A_reasons": "вне бассейна профиля: nw_atlantic_subtropical", "conc_A_model": "conc-A-c6bce5631d2b", "conc_B_items_km2": null, "conc_B_lo80": null, "conc_B_hi80": null, "conc_B_lo95": null, "conc_B_hi95": null, "conc_B_status": "unavailable", "conc_B_status_ru": "концентрация недоступна", "conc_B_reasons": "вне бассейна профиля: black_sea", "conc_B_model": "conc-B-c6bce5631d2b"}}, {"type": "Feature", "geometry": {"type": "Polygon", "coordinates": [[[49.18111675850542, 53.470123144772664], [49.1811206007741, 53.47003330292998], [49.180970027320235, 53.47003101029592], [49.180973869885875, 53.46994116845914], [49.18127885808869, 53.46985591166939], [49.18127501617902, 53.46994575352266], [49.18142558935663, 53.46994804576993], [49.181421747743926, 53.47003788762911], [49.18127117424867, 53.47003559537436], [49.18126733229763, 53.47012543722453], [49.18111675850542, 53.470123144772664]]]}, "properties": {"zone_id": "kuibyshev-2026-08-06-017", "aoi": "kuibyshev", "date": "2026-08-06", "scene_id": "S2C_MSIL2A_20260806T075611_R035_T39UUV_20260806T113012", "scene_datetime_utc": "2026-08-06T07:56:11.026000+00:00", "detection_status": "detected", "detection_status_ru": "обнаружено", "lon": 49.1812, "lat": 53.46999, "n_pixels": 1, "zone_area_km2": 0.0005, "cover_m2": 7.8, "p_mean": 0.584, "p_max": 0.584, "cover_m2_km2": 15600.0, "h3": "88108568a1fffff", "valid_frac_scene": 0.999, "wind_ms": 1.2, "sea": "спокойное", "scene_reliable": true, "field_event_id": "S4:DOORS3:T23", "field_profile": "B", "field_date": "2024-06-10", "field_distance_km": 1360.2, "field_date_gap_days": 787, "field_conc_items_km2": 102.37, "conc_A_items_km2": null, "conc_A_lo80": null, "conc_A_hi80": null, "conc_A_lo95": null, "conc_A_hi95": null, "conc_A_status": "unavailable", "conc_A_status_ru": "концентрация недоступна", "conc_A_reasons": "вне бассейна профиля: nw_atlantic_subtropical", "conc_A_model": "conc-A-c6bce5631d2b", "conc_B_items_km2": null, "conc_B_lo80": null, "conc_B_hi80": null, "conc_B_lo95": null, "conc_B_hi95": null, "conc_B_status": "unavailable", "conc_B_status_ru": "концентрация недоступна", "conc_B_reasons": "вне бассейна профиля: black_sea", "conc_B_model": "conc-B-c6bce5631d2b"}}, {"type": "Feature", "geometry": {"type": "Polygon", "coordinates": [[[49.18203556289609, 53.46977752907975], [49.182039403176155, 53.469687687186045], [49.18188883086874, 53.46968539571977], [49.181896512002126, 53.46950571194267], [49.182201495267456, 53.46942045274985], [49.18219765536706, 53.46951029465568], [49.182348227080546, 53.469512585727706], [49.18234054785301, 53.469692269549604], [49.18203556289609, 53.46977752907975]]]}, "properties": {"zone_id": "kuibyshev-2026-08-06-018", "aoi": "kuibyshev", "date": "2026-08-06", "scene_id": "S2C_MSIL2A_20260806T075611_R035_T39UUV_20260806T113012", "scene_datetime_utc": "2026-08-06T07:56:11.026000+00:00", "detection_status": "detected", "detection_status_ru": "обнаружено", "lon": 49.18212, "lat": 53.4696, "n_pixels": 2, "zone_area_km2": 0.0008, "cover_m2": 16.5, "p_mean": 0.749, "p_max": 0.769, "cover_m2_km2": 20625.0, "h3": "88108568a3fffff", "valid_frac_scene": 0.999, "wind_ms": 1.2, "sea": "спокойное", "scene_reliable": true, "field_event_id": "S4:DOORS3:T23", "field_profile": "B", "field_date": "2024-06-10", "field_distance_km": 1360.2, "field_date_gap_days": 787, "field_conc_items_km2": 102.37, "conc_A_items_km2": null, "conc_A_lo80": null, "conc_A_hi80": null, "conc_A_lo95": null, "conc_A_hi95": null, "conc_A_status": "unavailable", "conc_A_status_ru": "концентрация недоступна", "conc_A_reasons": "вне бассейна профиля: nw_atlantic_subtropical", "conc_A_model": "conc-A-c6bce5631d2b", "conc_B_items_km2": null, "conc_B_lo80": null, "conc_B_hi80": null, "conc_B_lo95": null, "conc_B_hi95": null, "conc_B_status": "unavailable", "conc_B_status_ru": "концентрация недоступна", "conc_B_reasons": "вне бассейна профиля: black_sea", "conc_B_model": "conc-B-c6bce5631d2b"}}, {"type": "Feature", "geometry": {"type": "Polygon", "coordinates": [[[49.18700325702618, 53.46634691179524], [49.18700708633731, 53.466257069602555], [49.18685652575596, 53.46625478449557], [49.18686418495152, 53.46607510012042], [49.187169133796246, 53.4659898279102], [49.18716530486454, 53.46607967011499], [49.18731586485198, 53.466081954827835], [49.18730820756189, 53.466261639247655], [49.18700325702618, 53.46634691179524]]]}, "properties": {"zone_id": "kuibyshev-2026-08-06-019", "aoi": "kuibyshev", "date": "2026-08-06", "scene_id": "S2C_MSIL2A_20260806T075611_R035_T39UUV_20260806T113012", "scene_datetime_utc": "2026-08-06T07:56:11.026000+00:00", "detection_status": "detected", "detection_status_ru": "обнаружено", "lon": 49.18709, "lat": 53.46617, "n_pixels": 2, "zone_area_km2": 0.0008, "cover_m2": 13.7, "p_mean": 0.539, "p_max": 0.549, "cover_m2_km2": 17125.0, "h3": "88108568a7fffff", "valid_frac_scene": 0.999, "wind_ms": 1.2, "sea": "спокойное", "scene_reliable": true, "field_event_id": "S4:DOORS3:T23", "field_profile": "B", "field_date": "2024-06-10", "field_distance_km": 1360.0, "field_date_gap_days": 787, "field_conc_items_km2": 102.37, "conc_A_items_km2": null, "conc_A_lo80": null, "conc_A_hi80": null, "conc_A_lo95": null, "conc_A_hi95": null, "conc_A_status": "unavailable", "conc_A_status_ru": "концентрация недоступна", "conc_A_reasons": "вне бассейна профиля: nw_atlantic_subtropical", "conc_A_model": "conc-A-c6bce5631d2b", "conc_B_items_km2": null, "conc_B_lo80": null, "conc_B_hi80": null, "conc_B_lo95": null, "conc_B_hi95": null, "conc_B_status": "unavailable", "conc_B_status_ru": "концентрация недоступна", "conc_B_reasons": "вне бассейна профиля: black_sea", "conc_B_model": "conc-B-c6bce5631d2b"}}, {"type": "Feature", "geometry": {"type": "Polygon", "coordinates": [[[49.19442652993772, 53.46538053932128], [49.19443034344076, 53.46529069674596], [49.194279785662, 53.46528842101987], [49.19428359946206, 53.46519857845042], [49.19458852754938, 53.46511328711232], [49.19458471440499, 53.465203129698146], [49.19473527190724, 53.46520540503758], [49.19473145905988, 53.465295247629264], [49.19458090124005, 53.46529297228242], [49.19457708805459, 53.465382814865144], [49.19442652993772, 53.46538053932128]]]}, "properties": {"zone_id": "kuibyshev-2026-08-06-020", "aoi": "kuibyshev", "date": "2026-08-06", "scene_id": "S2C_MSIL2A_20260806T075611_R035_T39UUV_20260806T113012", "scene_datetime_utc": "2026-08-06T07:56:11.026000+00:00", "detection_status": "detected", "detection_status_ru": "обнаружено", "lon": 49.19451, "lat": 53.46525, "n_pixels": 1, "zone_area_km2": 0.0005, "cover_m2": 7.1, "p_mean": 0.835, "p_max": 0.835, "cover_m2_km2": 14200.0, "h3": "881081d249fffff", "valid_frac_scene": 0.999, "wind_ms": 1.2, "sea": "спокойное", "scene_reliable": true, "field_event_id": "S4:DOORS3:T23", "field_profile": "B", "field_date": "2024-06-10", "field_distance_km": 1360.2, "field_date_gap_days": 787, "field_conc_items_km2": 102.37, "conc_A_items_km2": null, "conc_A_lo80": null, "conc_A_hi80": null, "conc_A_lo95": null, "conc_A_hi95": null, "conc_A_status": "unavailable", "conc_A_status_ru": "концентрация недоступна", "conc_A_reasons": "вне бассейна профиля: nw_atlantic_subtropical", "conc_A_model": "conc-A-c6bce5631d2b", "conc_B_items_km2": null, "conc_B_lo80": null, "conc_B_hi80": null, "conc_B_lo95": null, "conc_B_hi95": null, "conc_B_status": "unavailable", "conc_B_status_ru": "концентрация недоступна", "conc_B_reasons": "вне бассейна профиля: black_sea", "conc_B_model": "conc-B-c6bce5631d2b"}}, {"type": "Feature", "geometry": {"type": "Polygon", "coordinates": [[[49.19400918507259, 53.464565128518544], [49.194012999343485, 53.46447528595154], [49.193862444484374, 53.464473009723314], [49.19386625905227, 53.46438316716219], [49.1941711820682, 53.46429787683667], [49.194167368155945, 53.464387719414184], [49.19431792273858, 53.464389995255765], [49.19431410912332, 53.46447983783913], [49.19416355422313, 53.464477561990144], [49.1941597402698, 53.46456740456456], [49.19400918507259, 53.464565128518544]]]}, "properties": {"zone_id": "kuibyshev-2026-08-06-021", "aoi": "kuibyshev", "date": "2026-08-06", "scene_id": "S2C_MSIL2A_20260806T075611_R035_T39UUV_20260806T113012", "scene_datetime_utc": "2026-08-06T07:56:11.026000+00:00", "detection_status": "detected", "detection_status_ru": "обнаружено", "lon": 49.19409, "lat": 53.46443, "n_pixels": 1, "zone_area_km2": 0.0005, "cover_m2": 8.6, "p_mean": 0.706, "p_max": 0.706, "cover_m2_km2": 17200.0, "h3": "881081d249fffff", "valid_frac_scene": 0.999, "wind_ms": 1.2, "sea": "спокойное", "scene_reliable": true, "field_event_id": "S4:DOORS3:T23", "field_profile": "B", "field_date": "2024-06-10", "field_distance_km": 1360.1, "field_date_gap_days": 787, "field_conc_items_km2": 102.37, "conc_A_items_km2": null, "conc_A_lo80": null, "conc_A_hi80": null, "conc_A_lo95": null, "conc_A_hi95": null, "conc_A_status": "unavailable", "conc_A_status_ru": "концентрация недоступна", "conc_A_reasons": "вне бассейна профиля: nw_atlantic_subtropical", "conc_A_model": "conc-A-c6bce5631d2b", "conc_B_items_km2": null, "conc_B_lo80": null, "conc_B_hi80": null, "conc_B_lo95": null, "conc_B_hi95": null, "conc_B_status": "unavailable", "conc_B_status_ru": "концентрация недоступна", "conc_B_reasons": "вне бассейна профиля: black_sea", "conc_B_model": "conc-B-c6bce5631d2b"}}, {"type": "Feature", "geometry": {"type": "Polygon", "coordinates": [[[49.19315164707907, 53.463473357888354], [49.193155463008715, 53.46338351534728], [49.193004912083346, 53.463381238070376], [49.19300872830998, 53.46329139553517], [49.192711443997084, 53.46319699790548], [49.192715260817664, 53.463107155382026], [49.19302017686657, 53.463021867920304], [49.193016360701584, 53.46311171046014], [49.193166910674364, 53.46311398771479], [49.19316309480636, 53.463203830260504], [49.19346038019511, 53.4632982267748], [49.19345656492108, 53.463388069332254], [49.19330601395462, 53.46338579243457], [49.19330219834251, 53.463475634983055], [49.19315164707907, 53.463473357888354]]]}, "properties": {"zone_id": "kuibyshev-2026-08-06-022", "aoi": "kuibyshev", "date": "2026-08-06", "scene_id": "S2C_MSIL2A_20260806T075611_R035_T39UUV_20260806T113012", "scene_datetime_utc": "2026-08-06T07:56:11.026000+00:00", "detection_status": "detected", "detection_status_ru": "обнаружено", "lon": 49.19309, "lat": 53.46325, "n_pixels": 3, "zone_area_km2": 0.0011, "cover_m2": 20.0, "p_mean": 0.659, "p_max": 0.749, "cover_m2_km2": 18181.8, "h3": "88108568a7fffff", "valid_frac_scene": 0.999, "wind_ms": 1.2, "sea": "спокойное", "scene_reliable": true, "field_event_id": "S4:DOORS3:T23", "field_profile": "B", "field_date": "2024-06-10", "field_distance_km": 1359.9, "field_date_gap_days": 787, "field_conc_items_km2": 102.37, "conc_A_items_km2": null, "conc_A_lo80": null, "conc_A_hi80": null, "conc_A_lo95": null, "conc_A_hi95": null, "conc_A_status": "unavailable", "conc_A_status_ru": "концентрация недоступна", "conc_A_reasons": "вне бассейна профиля: nw_atlantic_subtropical", "conc_A_model": "conc-A-c6bce5631d2b", "conc_B_items_km2": null, "conc_B_lo80": null, "conc_B_hi80": null, "conc_B_lo95": null, "conc_B_hi95": null, "conc_B_status": "unavailable", "conc_B_status_ru": "концентрация недоступна", "conc_B_reasons": "вне бассейна профиля: black_sea", "conc_B_model": "conc-B-c6bce5631d2b"}}, {"type": "Feature", "geometry": {"type": "Polygon", "coordinates": [[[49.23992387947487, 53.46174436503349], [49.23992759642231, 53.46165452018066], [49.23977704778337, 53.4616523018813], [49.239780765028314, 53.46156245703418], [49.240085578281025, 53.46147704856569], [49.240081861691145, 53.46156689342883], [49.240232410052585, 53.46156911134174], [49.24022869376022, 53.46165895621055], [49.240078145081256, 53.461656738290415], [49.24007442845136, 53.461746583150465], [49.23992387947487, 53.46174436503349]]]}, "properties": {"zone_id": "kuibyshev-2026-08-06-023", "aoi": "kuibyshev", "date": "2026-08-06", "scene_id": "S2C_MSIL2A_20260806T075611_R035_T39UUV_20260806T113012", "scene_datetime_utc": "2026-08-06T07:56:11.026000+00:00", "detection_status": "detected", "detection_status_ru": "обнаружено", "lon": 49.24, "lat": 53.46161, "n_pixels": 1, "zone_area_km2": 0.0005, "cover_m2": 7.8, "p_mean": 0.992, "p_max": 0.992, "cover_m2_km2": 15600.0, "h3": "881081d209fffff", "valid_frac_scene": 0.999, "wind_ms": 1.2, "sea": "спокойное", "scene_reliable": true, "field_event_id": "S4:DOORS3:T23", "field_profile": "B", "field_date": "2024-06-10", "field_distance_km": 1361.2, "field_date_gap_days": 787, "field_conc_items_km2": 102.37, "conc_A_items_km2": null, "conc_A_lo80": null, "conc_A_hi80": null, "conc_A_lo95": null, "conc_A_hi95": null, "conc_A_status": "unavailable", "conc_A_status_ru": "концентрация недоступна", "conc_A_reasons": "вне бассейна профиля: nw_atlantic_subtropical", "conc_A_model": "conc-A-c6bce5631d2b", "conc_B_items_km2": null, "conc_B_lo80": null, "conc_B_hi80": null, "conc_B_lo95": null, "conc_B_hi95": null, "conc_B_status": "unavailable", "conc_B_status_ru": "концентрация недоступна", "conc_B_reasons": "вне бассейна профиля: black_sea", "conc_B_model": "conc-B-c6bce5631d2b"}}, {"type": "Feature", "geometry": {"type": "Polygon", "coordinates": [[[49.18574671769925, 53.46048431121057], [49.18575054884515, 53.46039446899165], [49.18560000910912, 53.46039218247261], [49.185603840551856, 53.46030234025958], [49.185908750196774, 53.460217070863685], [49.1859049194096, 53.46030691309317], [49.186055458869404, 53.46030919922557], [49.186051628379076, 53.460399041460946], [49.1859010886018, 53.460396755321085], [49.18589725777338, 53.460486597547465], [49.18574671769925, 53.46048431121057]]]}, "properties": {"zone_id": "kuibyshev-2026-08-06-024", "aoi": "kuibyshev", "date": "2026-08-06", "scene_id": "S2C_MSIL2A_20260806T075611_R035_T39UUV_20260806T113012", "scene_datetime_utc": "2026-08-06T07:56:11.026000+00:00", "detection_status": "detected", "detection_status_ru": "обнаружено", "lon": 49.18583, "lat": 53.46035, "n_pixels": 1, "zone_area_km2": 0.0005, "cover_m2": 6.7, "p_mean": 0.773, "p_max": 0.773, "cover_m2_km2": 13400.0, "h3": "88108568a7fffff", "valid_frac_scene": 0.999, "wind_ms": 1.2, "sea": "спокойное", "scene_reliable": true, "field_event_id": "S4:DOORS3:T23", "field_profile": "B", "field_date": "2024-06-10", "field_distance_km": 1359.4, "field_date_gap_days": 787, "field_conc_items_km2": 102.37, "conc_A_items_km2": null, "conc_A_lo80": null, "conc_A_hi80": null, "conc_A_lo95": null, "conc_A_hi95": null, "conc_A_status": "unavailable", "conc_A_status_ru": "концентрация недоступна", "conc_A_reasons": "вне бассейна профиля: nw_atlantic_subtropical", "conc_A_model": "conc-A-c6bce5631d2b", "conc_B_items_km2": null, "conc_B_lo80": null, "conc_B_hi80": null, "conc_B_lo95": null, "conc_B_hi95": null, "conc_B_status": "unavailable", "conc_B_status_ru": "концентрация недоступна", "conc_B_reasons": "вне бассейна профиля: black_sea", "conc_B_model": "conc-B-c6bce5631d2b"}}, {"type": "Feature", "geometry": {"type": "MultiPolygon", "coordinates": [[[[49.15371334428375, 53.459274275617865], [49.153709445667225, 53.45936411624711], [49.1538599790873, 53.459366442912234], [49.15386387738639, 53.4592766022754], [49.15401441051003, 53.459278928743366], [49.15401830847071, 53.459189088097425], [49.15416884129791, 53.45919141436824], [49.15417273892019, 53.45910157371314], [49.15447770096913, 53.459016384999096], [49.15448159791461, 53.45892654432575], [49.15433106599771, 53.45892421845681], [49.15433496323962, 53.45883437778947], [49.15388336856707, 53.45882739906798], [49.15388726674024, 53.45873755842182], [49.15359010315199, 53.45864306437559], [49.153594001918016, 53.45855322374148], [49.15329294089635, 53.45854856959985], [49.1532890414955, 53.458638410218796], [49.153138510698746, 53.45863608285604], [49.1531346109595, 53.45872592346584], [49.15328514207366, 53.45872825083618], [49.153281242630825, 53.45881809145201], [49.1534317740834, 53.458820418640364], [49.153423975769584, 53.45900009988251], [49.15372114145382, 53.45909459435473], [49.15371724287928, 53.45918443498709], [49.153566710115044, 53.45918210814755], [49.15356281120209, 53.45927194877076], [49.15371334428375, 53.459274275617865]]], [[[49.153412278141424, 53.45926962173409], [49.15340837889005, 53.45935946234817], [49.15310341228963, 53.459444648288276], [49.153099512361415, 53.459534488884074], [49.15294897841145, 53.45953216125593], [49.15294507814481, 53.4596220018426], [49.15324224704782, 53.459716497524745], [49.153246146700596, 53.45962665692448], [49.15339668100998, 53.45962898418105], [49.15340058032433, 53.45953914357163], [49.153705547029716, 53.459453956874796], [49.153709445667225, 53.45936411624711], [49.153412278141424, 53.45926962173409]]]]}, "properties": {"zone_id": "kuibyshev-2026-08-06-025", "aoi": "kuibyshev", "date": "2026-08-06", "scene_id": "S2C_MSIL2A_20260806T075611_R035_T39UUV_20260806T113012", "scene_datetime_utc": "2026-08-06T07:56:11.026000+00:00", "detection_status": "detected", "detection_status_ru": "обнаружено", "lon": 49.15373, "lat": 53.45904, "n_pixels": 18, "zone_area_km2": 0.0046, "cover_m2": 1800.0, "p_mean": 0.654, "p_max": 0.835, "cover_m2_km2": 391304.3, "h3": "88108569dbfffff", "valid_frac_scene": 0.999, "wind_ms": 1.2, "sea": "спокойное", "scene_reliable": true, "field_event_id": "S4:DOORS3:T23", "field_profile": "B", "field_date": "2024-06-10", "field_distance_km": 1358.3, "field_date_gap_days": 787, "field_conc_items_km2": 102.37, "conc_A_items_km2": null, "conc_A_lo80": null, "conc_A_hi80": null, "conc_A_lo95": null, "conc_A_hi95": null, "conc_A_status": "unavailable", "conc_A_status_ru": "концентрация недоступна", "conc_A_reasons": "вне бассейна профиля: nw_atlantic_subtropical", "conc_A_model": "conc-A-c6bce5631d2b", "conc_B_items_km2": null, "conc_B_lo80": null, "conc_B_hi80": null, "conc_B_lo95": null, "conc_B_hi95": null, "conc_B_status": "unavailable", "conc_B_status_ru": "концентрация недоступна", "conc_B_reasons": "вне бассейна профиля: black_sea", "conc_B_model": "conc-B-c6bce5631d2b"}}, {"type": "Feature", "geometry": {"type": "Polygon", "coordinates": [[[49.194276134444976, 53.4582761450912], [49.1942799472786, 53.45818630241587], [49.19412941464394, 53.458184026706675], [49.194133227774465, 53.458094184037215], [49.1944381049046, 53.458008892565346], [49.19443429242946, 53.45809873525118], [49.19458482478775, 53.458101010573806], [49.194581012609525, 53.458190853265506], [49.1944304799338, 53.45818857793547], [49.19442666741761, 53.458278420618214], [49.194276134444976, 53.4582761450912]]]}, "properties": {"zone_id": "kuibyshev-2026-08-06-026", "aoi": "kuibyshev", "date": "2026-08-06", "scene_id": "S2C_MSIL2A_20260806T075611_R035_T39UUV_20260806T113012", "scene_datetime_utc": "2026-08-06T07:56:11.026000+00:00", "detection_status": "detected", "detection_status_ru": "обнаружено", "lon": 49.19436, "lat": 53.45814, "n_pixels": 1, "zone_area_km2": 0.0005, "cover_m2": 8.2, "p_mean": 0.522, "p_max": 0.522, "cover_m2_km2": 16400.0, "h3": "881081d24dfffff", "valid_frac_scene": 0.999, "wind_ms": 1.2, "sea": "спокойное", "scene_reliable": true, "field_event_id": "S4:DOORS3:T23", "field_profile": "B", "field_date": "2024-06-10", "field_distance_km": 1359.4, "field_date_gap_days": 787, "field_conc_items_km2": 102.37, "conc_A_items_km2": null, "conc_A_lo80": null, "conc_A_hi80": null, "conc_A_lo95": null, "conc_A_hi95": null, "conc_A_status": "unavailable", "conc_A_status_ru": "концентрация недоступна", "conc_A_reasons": "вне бассейна профиля: nw_atlantic_subtropical", "conc_A_model": "conc-A-c6bce5631d2b", "conc_B_items_km2": null, "conc_B_lo80": null, "conc_B_hi80": null, "conc_B_lo95": null, "conc_B_hi95": null, "conc_B_status": "unavailable", "conc_B_status_ru": "концентрация недоступна", "conc_B_reasons": "вне бассейна профиля: black_sea", "conc_B_model": "conc-B-c6bce5631d2b"}}, {"type": "Feature", "geometry": {"type": "Polygon", "coordinates": [[[49.28020667769194, 53.45648765889533], [49.28021030890008, 53.456397812042525], [49.280059775636204, 53.4563956446412], [49.280063407142244, 53.45630579779392], [49.28021394008867, 53.456307965188195], [49.28021757125771, 53.45621811833233], [49.28051863657429, 53.45622245253798], [49.28051500604016, 53.456312299407955], [49.28066553904523, 53.45631446623346], [49.28066190880901, 53.45640431310898], [49.28051137548649, 53.45640214627641], [49.280507744913265, 53.45649199314334], [49.28020667769194, 53.45648765889533]]]}, "properties": {"zone_id": "kuibyshev-2026-08-06-027", "aoi": "kuibyshev", "date": "2026-08-06", "scene_id": "S2C_MSIL2A_20260806T075611_R035_T39UUV_20260806T113012", "scene_datetime_utc": "2026-08-06T07:56:11.026000+00:00", "detection_status": "detected", "detection_status_ru": "обнаружено", "lon": 49.28036, "lat": 53.45636, "n_pixels": 2, "zone_area_km2": 0.0008, "cover_m2": 9.0, "p_mean": 0.643, "p_max": 0.702, "cover_m2_km2": 11250.0, "h3": "881081d23bfffff", "valid_frac_scene": 0.999, "wind_ms": 1.2, "sea": "спокойное", "scene_reliable": true, "field_event_id": "S4:DOORS3:T23", "field_profile": "B", "field_date": "2024-06-10", "field_distance_km": 1361.9, "field_date_gap_days": 787, "field_conc_items_km2": 102.37, "conc_A_items_km2": null, "conc_A_lo80": null, "conc_A_hi80": null, "conc_A_lo95": null, "conc_A_hi95": null, "conc_A_status": "unavailable", "conc_A_status_ru": "концентрация недоступна", "conc_A_reasons": "вне бассейна профиля: nw_atlantic_subtropical", "conc_A_model": "conc-A-c6bce5631d2b", "conc_B_items_km2": null, "conc_B_lo80": null, "conc_B_hi80": null, "conc_B_lo95": null, "conc_B_hi95": null, "conc_B_status": "unavailable", "conc_B_status_ru": "концентрация недоступна", "conc_B_reasons": "вне бассейна профиля: black_sea", "conc_B_model": "conc-B-c6bce5631d2b"}}, {"type": "Feature", "geometry": {"type": "Polygon", "coordinates": [[[49.12390028669572, 53.455573289408086], [49.1239042476878, 53.45548345024165], [49.12360717505755, 53.45538888232791], [49.123615098204404, 53.45520920401804], [49.12346458207055, 53.455206839376274], [49.123468543929306, 53.45511700022669], [49.12377353678648, 53.455031890138756], [49.1237695755837, 53.4551217293053], [49.123920091442876, 53.45512409356031], [49.123916130536095, 53.45521393273298], [49.12421320265962, 53.455308499876296], [49.12420528200875, 53.455488178244664], [49.12390028669572, 53.455573289408086]]]}, "properties": {"zone_id": "kuibyshev-2026-08-06-028", "aoi": "kuibyshev", "date": "2026-08-06", "scene_id": "S2C_MSIL2A_20260806T075611_R035_T39UUV_20260806T113012", "scene_datetime_utc": "2026-08-06T07:56:11.026000+00:00", "detection_status": "detected", "detection_status_ru": "обнаружено", "lon": 49.12387, "lat": 53.45531, "n_pixels": 5, "zone_area_km2": 0.0015, "cover_m2": 500.0, "p_mean": 0.642, "p_max": 0.675, "cover_m2_km2": 333333.3, "h3": "8810856837fffff", "valid_frac_scene": 0.999, "wind_ms": 1.2, "sea": "спокойное", "scene_reliable": true, "field_event_id": "S4:DOORS3:T23", "field_profile": "B", "field_date": "2024-06-10", "field_distance_km": 1357.0, "field_date_gap_days": 787, "field_conc_items_km2": 102.37, "conc_A_items_km2": null, "conc_A_lo80": null, "conc_A_hi80": null, "conc_A_lo95": null, "conc_A_hi95": null, "conc_A_status": "unavailable", "conc_A_status_ru": "концентрация недоступна", "conc_A_reasons": "вне бассейна профиля: nw_atlantic_subtropical", "conc_A_model": "conc-A-c6bce5631d2b", "conc_B_items_km2": null, "conc_B_lo80": null, "conc_B_hi80": null, "conc_B_lo95": null, "conc_B_hi95": null, "conc_B_status": "unavailable", "conc_B_status_ru": "концентрация недоступна", "conc_B_reasons": "вне бассейна профиля: black_sea", "conc_B_model": "conc-B-c6bce5631d2b"}}, {"type": "Feature", "geometry": {"type": "Polygon", "coordinates": [[[49.27799957782411, 53.455197273267984], [49.27800321352006, 53.45510742649972], [49.27785268499383, 53.455105256353576], [49.27785632098764, 53.45501540959087], [49.27800684919644, 53.45501757972994], [49.27801048485324, 53.45492773295863], [49.2783115406947, 53.45493207265393], [49.27830790567276, 53.45502191943938], [49.27845843394027, 53.455024089009726], [49.278454799216185, 53.45511393580072], [49.27830427063124, 53.4551117662233], [49.278300635570154, 53.45520161300568], [49.27799957782411, 53.455197273267984]]]}, "properties": {"zone_id": "kuibyshev-2026-08-06-029", "aoi": "kuibyshev", "date": "2026-08-06", "scene_id": "S2C_MSIL2A_20260806T075611_R035_T39UUV_20260806T113012", "scene_datetime_utc": "2026-08-06T07:56:11.026000+00:00", "detection_status": "detected", "detection_status_ru": "обнаружено", "lon": 49.27816, "lat": 53.45506, "n_pixels": 2, "zone_area_km2": 0.0008, "cover_m2": 9.4, "p_mean": 0.639, "p_max": 0.776, "cover_m2_km2": 11750.0, "h3": "881081d239fffff", "valid_frac_scene": 0.999, "wind_ms": 1.2, "sea": "спокойное", "scene_reliable": true, "field_event_id": "S4:DOORS3:T23", "field_profile": "B", "field_date": "2024-06-10", "field_distance_km": 1361.7, "field_date_gap_days": 787, "field_conc_items_km2": 102.37, "conc_A_items_km2": null, "conc_A_lo80": null, "conc_A_hi80": null, "conc_A_lo95": null, "conc_A_hi95": null, "conc_A_status": "unavailable", "conc_A_status_ru": "концентрация недоступна", "conc_A_reasons": "вне бассейна профиля: nw_atlantic_subtropical", "conc_A_model": "conc-A-c6bce5631d2b", "conc_B_items_km2": null, "conc_B_lo80": null, "conc_B_hi80": null, "conc_B_lo95": null, "conc_B_hi95": null, "conc_B_status": "unavailable", "conc_B_status_ru": "концентрация недоступна", "conc_B_reasons": "вне бассейна профиля: black_sea", "conc_B_model": "conc-B-c6bce5631d2b"}}, {"type": "Feature", "geometry": {"type": "Polygon", "coordinates": [[[49.28635105535984, 53.453519396328886], [49.286354673207256, 53.45342954914216], [49.28620414995547, 53.453427389563615], [49.28620776810082, 53.45333754238238], [49.286512431480126, 53.45325201413903], [49.286508813989066, 53.45334186133586], [49.2866593369624, 53.453344020528235], [49.286655719769264, 53.453433867730574], [49.28650519647852, 53.453431708531156], [49.28650157894851, 53.45352155572492], [49.28635105535984, 53.453519396328886]]]}, "properties": {"zone_id": "kuibyshev-2026-08-06-030", "aoi": "kuibyshev", "date": "2026-08-06", "scene_id": "S2C_MSIL2A_20260806T075611_R035_T39UUV_20260806T113012", "scene_datetime_utc": "2026-08-06T07:56:11.026000+00:00", "detection_status": "detected", "detection_status_ru": "обнаружено", "lon": 49.28643, "lat": 53.45339, "n_pixels": 1, "zone_area_km2": 0.0005, "cover_m2": 5.1, "p_mean": 0.584, "p_max": 0.584, "cover_m2_km2": 10200.0, "h3": "881081d23bfffff", "valid_frac_scene": 0.999, "wind_ms": 1.2, "sea": "спокойное", "scene_reliable": true, "field_event_id": "S4:DOORS3:T23", "field_profile": "B", "field_date": "2024-06-10", "field_distance_km": 1361.8, "field_date_gap_days": 787, "field_conc_items_km2": 102.37, "conc_A_items_km2": null, "conc_A_lo80": null, "conc_A_hi80": null, "conc_A_lo95": null, "conc_A_hi95": null, "conc_A_status": "unavailable", "conc_A_status_ru": "концентрация недоступна", "conc_A_reasons": "вне бассейна профиля: nw_atlantic_subtropical", "conc_A_model": "conc-A-c6bce5631d2b", "conc_B_items_km2": null, "conc_B_lo80": null, "conc_B_hi80": null, "conc_B_lo95": null, "conc_B_hi95": null, "conc_B_status": "unavailable", "conc_B_status_ru": "концентрация недоступна", "conc_B_reasons": "вне бассейна профиля: black_sea", "conc_B_model": "conc-B-c6bce5631d2b"}}, {"type": "Feature", "geometry": {"type": "Polygon", "coordinates": [[[49.29065954984482, 53.45124375529317], [49.29066315829973, 53.45115390786995], [49.290512642755296, 53.45115175378181], [49.290516251508144, 53.451061906364096], [49.29082089008041, 53.45097636690353], [49.29081728198172, 53.45106621433681], [49.29096779724763, 53.45106836803883], [49.29096418944688, 53.45115821547759], [49.290813673863596, 53.45115606176854], [49.29081006572604, 53.45124590919878], [49.29065954984482, 53.45124375529317]]]}, "properties": {"zone_id": "kuibyshev-2026-08-06-031", "aoi": "kuibyshev", "date": "2026-08-06", "scene_id": "S2C_MSIL2A_20260806T075611_R035_T39UUV_20260806T113012", "scene_datetime_utc": "2026-08-06T07:56:11.026000+00:00", "detection_status": "detected", "detection_status_ru": "обнаружено", "lon": 49.29074, "lat": 53.45111, "n_pixels": 1, "zone_area_km2": 0.0005, "cover_m2": 3.9, "p_mean": 0.541, "p_max": 0.541, "cover_m2_km2": 7800.0, "h3": "881081d233fffff", "valid_frac_scene": 0.999, "wind_ms": 1.2, "sea": "спокойное", "scene_reliable": true, "field_event_id": "S4:DOORS3:T23", "field_profile": "B", "field_date": "2024-06-10", "field_distance_km": 1361.7, "field_date_gap_days": 787, "field_conc_items_km2": 102.37, "conc_A_items_km2": null, "conc_A_lo80": null, "conc_A_hi80": null, "conc_A_lo95": null, "conc_A_hi95": null, "conc_A_status": "unavailable", "conc_A_status_ru": "концентрация недоступна", "conc_A_reasons": "вне бассейна профиля: nw_atlantic_subtropical", "conc_A_model": "conc-A-c6bce5631d2b", "conc_B_items_km2": null, "conc_B_lo80": null, "conc_B_hi80": null, "conc_B_lo95": null, "conc_B_hi95": null, "conc_B_status": "unavailable", "conc_B_status_ru": "концентрация недоступна", "conc_B_reasons": "вне бассейна профиля: black_sea", "conc_B_model": "conc-B-c6bce5631d2b"}}, {"type": "Feature", "geometry": {"type": "Polygon", "coordinates": [[[49.15394480492686, 53.45046756029946], [49.153948701783456, 53.45037771952374], [49.153798200139434, 53.45037539323741], [49.15380209729231, 53.450285552467705], [49.15395259861909, 53.45028787874647], [49.15395649543375, 53.45019803796764], [49.154257497515715, 53.45020268994146], [49.15425360133557, 53.45029253073545], [49.15440410272526, 53.450294856445666], [49.154400206841395, 53.45038469724567], [49.15424970513445, 53.45038237152787], [49.15424580891236, 53.45047221231874], [49.15394480492686, 53.45046756029946]]]}, "properties": {"zone_id": "kuibyshev-2026-08-06-032", "aoi": "kuibyshev", "date": "2026-08-06", "scene_id": "S2C_MSIL2A_20260806T075611_R035_T39UUV_20260806T113012", "scene_datetime_utc": "2026-08-06T07:56:11.026000+00:00", "detection_status": "detected", "detection_status_ru": "обнаружено", "lon": 49.1541, "lat": 53.45034, "n_pixels": 2, "zone_area_km2": 0.0008, "cover_m2": 200.0, "p_mean": 0.594, "p_max": 0.62, "cover_m2_km2": 250000.0, "h3": "88108569d1fffff", "valid_frac_scene": 0.999, "wind_ms": 1.2, "sea": "спокойное", "scene_reliable": true, "field_event_id": "S4:DOORS3:T23", "field_profile": "B", "field_date": "2024-06-10", "field_distance_km": 1357.4, "field_date_gap_days": 787, "field_conc_items_km2": 102.37, "conc_A_items_km2": null, "conc_A_lo80": null, "conc_A_hi80": null, "conc_A_lo95": null, "conc_A_hi95": null, "conc_A_status": "unavailable", "conc_A_status_ru": "концентрация недоступна", "conc_A_reasons": "вне бассейна профиля: nw_atlantic_subtropical", "conc_A_model": "conc-A-c6bce5631d2b", "conc_B_items_km2": null, "conc_B_lo80": null, "conc_B_hi80": null, "conc_B_lo95": null, "conc_B_hi95": null, "conc_B_status": "unavailable", "conc_B_status_ru": "концентрация недоступна", "conc_B_reasons": "вне бассейна профиля: black_sea", "conc_B_model": "conc-B-c6bce5631d2b"}}, {"type": "Feature", "geometry": {"type": "Polygon", "coordinates": [[[49.28175195650992, 53.44805937517816], [49.28175558334264, 53.447969528125064], [49.281605079755934, 53.44796736290358], [49.28160870688642, 53.447877515856014], [49.28191333992113, 53.447791999032134], [49.28190971344476, 53.44788184609533], [49.28206021675321, 53.4478840109307], [49.28205659057461, 53.447973857999436], [49.281906086948865, 53.447971693157015], [49.28190246043344, 53.44806154021716], [49.28175195650992, 53.44805937517816]]]}, "properties": {"zone_id": "kuibyshev-2026-08-06-033", "aoi": "kuibyshev", "date": "2026-08-06", "scene_id": "S2C_MSIL2A_20260806T075611_R035_T39UUV_20260806T113012", "scene_datetime_utc": "2026-08-06T07:56:11.026000+00:00", "detection_status": "detected", "detection_status_ru": "обнаружено", "lon": 49.28183, "lat": 53.44793, "n_pixels": 1, "zone_area_km2": 0.0005, "cover_m2": 5.9, "p_mean": 0.541, "p_max": 0.541, "cover_m2_km2": 11800.0, "h3": "881081d231fffff", "valid_frac_scene": 0.999, "wind_ms": 1.2, "sea": "спокойное", "scene_reliable": true, "field_event_id": "S4:DOORS3:T23", "field_profile": "B", "field_date": "2024-06-10", "field_distance_km": 1361.1, "field_date_gap_days": 787, "field_conc_items_km2": 102.37, "conc_A_items_km2": null, "conc_A_lo80": null, "conc_A_hi80": null, "conc_A_lo95": null, "conc_A_hi95": null, "conc_A_status": "unavailable", "conc_A_status_ru": "концентрация недоступна", "conc_A_reasons": "вне бассейна профиля: nw_atlantic_subtropical", "conc_A_model": "conc-A-c6bce5631d2b", "conc_B_items_km2": null, "conc_B_lo80": null, "conc_B_hi80": null, "conc_B_lo95": null, "conc_B_hi95": null, "conc_B_status": "unavailable", "conc_B_status_ru": "концентрация недоступна", "conc_B_reasons": "вне бассейна профиля: black_sea", "conc_B_model": "conc-B-c6bce5631d2b"}}, {"type": "Feature", "geometry": {"type": "Polygon", "coordinates": [[[49.274079925349774, 53.447858860180006], [49.274083568344935, 53.44776901348589], [49.273933066073425, 53.44776683860554], [49.27393670936626, 53.44767699191697], [49.27408721132047, 53.447679166790245], [49.27409085427641, 53.44758932009307], [49.27439185760908, 53.44759366925686], [49.27438821528772, 53.447683515968215], [49.27453871730076, 53.4476856902729], [49.27453507527708, 53.44777553698979], [49.27438457294676, 53.44777336267802], [49.27438093058618, 53.447863209386306], [49.274079925349774, 53.447858860180006]]]}, "properties": {"zone_id": "kuibyshev-2026-08-06-034", "aoi": "kuibyshev", "date": "2026-08-06", "scene_id": "S2C_MSIL2A_20260806T075611_R035_T39UUV_20260806T113012", "scene_datetime_utc": "2026-08-06T07:56:11.026000+00:00", "detection_status": "detected", "detection_status_ru": "обнаружено", "lon": 49.27424, "lat": 53.44773, "n_pixels": 2, "zone_area_km2": 0.0008, "cover_m2": 12.2, "p_mean": 0.604, "p_max": 0.698, "cover_m2_km2": 15250.0, "h3": "881081d23dfffff", "valid_frac_scene": 0.999, "wind_ms": 1.2, "sea": "спокойное", "scene_reliable": true, "field_event_id": "S4:DOORS3:T23", "field_profile": "B", "field_date": "2024-06-10", "field_distance_km": 1360.9, "field_date_gap_days": 787, "field_conc_items_km2": 102.37, "conc_A_items_km2": null, "conc_A_lo80": null, "conc_A_hi80": null, "conc_A_lo95": null, "conc_A_hi95": null, "conc_A_status": "unavailable", "conc_A_status_ru": "концентрация недоступна", "conc_A_reasons": "вне бассейна профиля: nw_atlantic_subtropical", "conc_A_model": "conc-A-c6bce5631d2b", "conc_B_items_km2": null, "conc_B_lo80": null, "conc_B_hi80": null, "conc_B_lo95": null, "conc_B_hi95": null, "conc_B_status": "unavailable", "conc_B_status_ru": "концентрация недоступна", "conc_B_reasons": "вне бассейна профиля: black_sea", "conc_B_model": "conc-B-c6bce5631d2b"}}, {"type": "Feature", "geometry": {"type": "Polygon", "coordinates": [[[49.29593537960785, 53.44736358319555], [49.29593897642025, 53.447273735466915], [49.295788474178906, 53.447271588131464], [49.295792071289235, 53.447181740408304], [49.29609667161309, 53.44709618713703], [49.2960930751567, 53.44718603487569], [49.296243577119476, 53.44718818182509], [49.296239980961026, 53.44727802956925], [49.29608947868096, 53.44727588261285], [49.29608588218585, 53.44736573034847], [49.29593537960785, 53.44736358319555]]]}, "properties": {"zone_id": "kuibyshev-2026-08-06-035", "aoi": "kuibyshev", "date": "2026-08-06", "scene_id": "S2C_MSIL2A_20260806T075611_R035_T39UUV_20260806T113012", "scene_datetime_utc": "2026-08-06T07:56:11.026000+00:00", "detection_status": "detected", "detection_status_ru": "обнаружено", "lon": 49.29602, "lat": 53.44723, "n_pixels": 1, "zone_area_km2": 0.0005, "cover_m2": 3.1, "p_mean": 0.635, "p_max": 0.635, "cover_m2_km2": 6200.0, "h3": "881081d237fffff", "valid_frac_scene": 0.999, "wind_ms": 1.2, "sea": "спокойное", "scene_reliable": true, "field_event_id": "S4:DOORS3:T23", "field_profile": "B", "field_date": "2024-06-10", "field_distance_km": 1361.5, "field_date_gap_days": 787, "field_conc_items_km2": 102.37, "conc_A_items_km2": null, "conc_A_lo80": null, "conc_A_hi80": null, "conc_A_lo95": null, "conc_A_hi95": null, "conc_A_status": "unavailable", "conc_A_status_ru": "концентрация недоступна", "conc_A_reasons": "вне бассейна профиля: nw_atlantic_subtropical", "conc_A_model": "conc-A-c6bce5631d2b", "conc_B_items_km2": null, "conc_B_lo80": null, "conc_B_hi80": null, "conc_B_lo95": null, "conc_B_hi95": null, "conc_B_status": "unavailable", "conc_B_status_ru": "концентрация недоступна", "conc_B_reasons": "вне бассейна профиля: black_sea", "conc_B_model": "conc-B-c6bce5631d2b"}}, {"type": "Feature", "geometry": {"type": "Polygon", "coordinates": [[[49.29262432779315, 53.44731629788038], [49.292627931586004, 53.44722645030578], [49.29247742977103, 53.44722429880069], [49.292484637933114, 53.44704460366094], [49.292635139113514, 53.44704675515201], [49.292638742848176, 53.44695690757283], [49.29278924373068, 53.446959058867364], [49.29278564031331, 53.447048906453546], [49.29309024555389, 53.44696336088784], [49.29308664277109, 53.44705320848804], [49.2939896506098, 53.44706611004288], [49.29398604971135, 53.44715595768358], [49.29413655140294, 53.44715810728638], [49.29414015198411, 53.44706825963868], [49.29459165622329, 53.4470747072889], [49.294588056594, 53.4471645549576], [49.29473855836311, 53.44716670380228], [49.29473495903172, 53.44725655147648], [49.29458445694532, 53.44725440262478], [49.29458085727728, 53.447344250290435], [49.29412935018247, 53.4473378025772], [49.2941329508024, 53.44724795493255], [49.293982448793514, 53.44724580532275], [49.293978847856295, 53.4473356529604], [49.29322633651619, 53.44732490203345], [49.293229939039875, 53.447235054430834], [49.292928935274155, 53.44723075274736], [49.29292533211588, 53.44732060033596], [49.29262432779315, 53.44731629788038]]]}, "properties": {"zone_id": "kuibyshev-2026-08-06-036", "aoi": "kuibyshev", "date": "2026-08-06", "scene_id": "S2C_MSIL2A_20260806T075611_R035_T39UUV_20260806T113012", "scene_datetime_utc": "2026-08-06T07:56:11.026000+00:00", "detection_status": "detected", "detection_status_ru": "обнаружено", "lon": 49.29353, "lat": 53.44718, "n_pixels": 12, "zone_area_km2": 0.004, "cover_m2": 51.0, "p_mean": 0.723, "p_max": 0.965, "cover_m2_km2": 12750.0, "h3": "881081d237fffff", "valid_frac_scene": 0.999, "wind_ms": 1.2, "sea": "спокойное", "scene_reliable": true, "field_event_id": "S4:DOORS3:T23", "field_profile": "B", "field_date": "2024-06-10", "field_distance_km": 1361.4, "field_date_gap_days": 787, "field_conc_items_km2": 102.37, "conc_A_items_km2": null, "conc_A_lo80": null, "conc_A_hi80": null, "conc_A_lo95": null, "conc_A_hi95": null, "conc_A_status": "unavailable", "conc_A_status_ru": "концентрация недоступна", "conc_A_reasons": "вне бассейна профиля: nw_atlantic_subtropical", "conc_A_model": "conc-A-c6bce5631d2b", "conc_B_items_km2": null, "conc_B_lo80": null, "conc_B_hi80": null, "conc_B_lo95": null, "conc_B_hi95": null, "conc_B_status": "unavailable", "conc_B_status_ru": "концентрация недоступна", "conc_B_reasons": "вне бассейна профиля: black_sea", "conc_B_model": "conc-B-c6bce5631d2b"}}, {"type": "Feature", "geometry": {"type": "Polygon", "coordinates": [[[49.11025042635401, 53.4441204002511], [49.1102544144904, 53.44403056161563], [49.110103939025066, 53.44402818048327], [49.1101079274571, 53.443938341854], [49.11041286555139, 53.4438532652674], [49.110408877775015, 53.443943103913746], [49.11055935296617, 53.44394548465944], [49.110555365485446, 53.44403532331198], [49.1104048899772, 53.44403294255852], [49.1104009021579, 53.44412278120175], [49.11025042635401, 53.4441204002511]]]}, "properties": {"zone_id": "kuibyshev-2026-08-06-037", "aoi": "kuibyshev", "date": "2026-08-06", "scene_id": "S2C_MSIL2A_20260806T075611_R035_T39UUV_20260806T113012", "scene_datetime_utc": "2026-08-06T07:56:11.026000+00:00", "detection_status": "detected", "detection_status_ru": "обнаружено", "lon": 49.11033, "lat": 53.44399, "n_pixels": 1, "zone_area_km2": 0.0005, "cover_m2": 100.0, "p_mean": 0.502, "p_max": 0.502, "cover_m2_km2": 200000.0, "h3": "8810856835fffff", "valid_frac_scene": 0.999, "wind_ms": 1.2, "sea": "спокойное", "scene_reliable": true, "field_event_id": "S4:DOORS3:T23", "field_profile": "B", "field_date": "2024-06-10", "field_distance_km": 1355.5, "field_date_gap_days": 787, "field_conc_items_km2": 102.37, "conc_A_items_km2": null, "conc_A_lo80": null, "conc_A_hi80": null, "conc_A_lo95": null, "conc_A_hi95": null, "conc_A_status": "unavailable", "conc_A_status_ru": "концентрация недоступна", "conc_A_reasons": "вне бассейна профиля: nw_atlantic_subtropical", "conc_A_model": "conc-A-c6bce5631d2b", "conc_B_items_km2": null, "conc_B_lo80": null, "conc_B_hi80": null, "conc_B_lo95": null, "conc_B_hi95": null, "conc_B_status": "unavailable", "conc_B_status_ru": "концентрация недоступна", "conc_B_reasons": "вне бассейна профиля: black_sea", "conc_B_model": "conc-B-c6bce5631d2b"}}, {"type": "Feature", "geometry": {"type": "Polygon", "coordinates": [[[49.31263680143243, 53.44391484425701], [49.31264036255557, 53.443824995700204], [49.312489871203, 53.44382286949727], [49.3124934326242, 53.44373302094586], [49.312643923659536, 53.443735147141865], [49.31264748474433, 53.443645298582005], [49.31294846623802, 53.44364955039164], [49.312944905787695, 53.443739398965356], [49.31309539688053, 53.44374152459283], [49.31309183672827, 53.44383137317194], [49.31294134531821, 53.443829247537536], [49.31293778482955, 53.443919096108196], [49.31263680143243, 53.44391484425701]]]}, "properties": {"zone_id": "kuibyshev-2026-08-06-038", "aoi": "kuibyshev", "date": "2026-08-06", "scene_id": "S2C_MSIL2A_20260806T075611_R035_T39UUV_20260806T113012", "scene_datetime_utc": "2026-08-06T07:56:11.026000+00:00", "detection_status": "detected", "detection_status_ru": "обнаружено", "lon": 49.31279, "lat": 53.44378, "n_pixels": 2, "zone_area_km2": 0.0008, "cover_m2": 17.3, "p_mean": 0.625, "p_max": 0.694, "cover_m2_km2": 21625.0, "h3": "881081d051fffff", "valid_frac_scene": 0.999, "wind_ms": 1.2, "sea": "спокойное", "scene_reliable": true, "field_event_id": "S4:DOORS3:T23", "field_profile": "B", "field_date": "2024-06-10", "field_distance_km": 1361.7, "field_date_gap_days": 787, "field_conc_items_km2": 102.37, "conc_A_items_km2": null, "conc_A_lo80": null, "conc_A_hi80": null, "conc_A_lo95": null, "conc_A_hi95": null, "conc_A_status": "unavailable", "conc_A_status_ru": "концентрация недоступна", "conc_A_reasons": "вне бассейна профиля: nw_atlantic_subtropical", "conc_A_model": "conc-A-c6bce5631d2b", "conc_B_items_km2": null, "conc_B_lo80": null, "conc_B_hi80": null, "conc_B_lo95": null, "conc_B_hi95": null, "conc_B_status": "unavailable", "conc_B_status_ru": "концентрация недоступна", "conc_B_reasons": "вне бассейна профиля: black_sea", "conc_B_model": "conc-B-c6bce5631d2b"}}, {"type": "Feature", "geometry": {"type": "Polygon", "coordinates": [[[49.30977746298566, 53.44387441386346], [49.309781030136335, 53.44378456543835], [49.30963053914827, 53.44378243563473], [49.30963410659698, 53.44369258721504], [49.30993865475288, 53.44360699818378], [49.30993508795783, 53.44369684661887], [49.310085578667056, 53.44369897603653], [49.31008201217006, 53.44378882447704], [49.3099315211436, 53.443786695052445], [49.309927954310155, 53.4438765434845], [49.30977746298566, 53.44387441386346]]]}, "properties": {"zone_id": "kuibyshev-2026-08-06-039", "aoi": "kuibyshev", "date": "2026-08-06", "scene_id": "S2C_MSIL2A_20260806T075611_R035_T39UUV_20260806T113012", "scene_datetime_utc": "2026-08-06T07:56:11.026000+00:00", "detection_status": "detected", "detection_status_ru": "обнаружено", "lon": 49.30986, "lat": 53.44374, "n_pixels": 1, "zone_area_km2": 0.0005, "cover_m2": 5.5, "p_mean": 0.686, "p_max": 0.686, "cover_m2_km2": 11000.0, "h3": "881081d059fffff", "valid_frac_scene": 0.999, "wind_ms": 1.2, "sea": "спокойное", "scene_reliable": true, "field_event_id": "S4:DOORS3:T23", "field_profile": "B", "field_date": "2024-06-10", "field_distance_km": 1361.6, "field_date_gap_days": 787, "field_conc_items_km2": 102.37, "conc_A_items_km2": null, "conc_A_lo80": null, "conc_A_hi80": null, "conc_A_lo95": null, "conc_A_hi95": null, "conc_A_status": "unavailable", "conc_A_status_ru": "концентрация недоступна", "conc_A_reasons": "вне бассейна профиля: nw_atlantic_subtropical", "conc_A_model": "conc-A-c6bce5631d2b", "conc_B_items_km2": null, "conc_B_lo80": null, "conc_B_hi80": null, "conc_B_lo95": null, "conc_B_hi95": null, "conc_B_status": "unavailable", "conc_B_status_ru": "концентрация недоступна", "conc_B_reasons": "вне бассейна профиля: black_sea", "conc_B_model": "conc-B-c6bce5631d2b"}}, {"type": "Feature", "geometry": {"type": "Polygon", "coordinates": [[[49.31700817201505, 53.44379672438935], [49.31701172389992, 53.44370687562891], [49.31686123262667, 53.4437047549356], [49.31686478480966, 53.44361490618054], [49.31701527576568, 53.443617026866946], [49.317018827612316, 53.44352717810346], [49.31731980894722, 53.44353141889391], [49.31731625773506, 53.44362126767122], [49.31746674874842, 53.44362338778909], [49.31746319783438, 53.44371323657178], [49.31731270650378, 53.443711116447], [49.31730915525339, 53.44380096522124], [49.31700817201505, 53.44379672438935]]]}, "properties": {"zone_id": "kuibyshev-2026-08-06-040", "aoi": "kuibyshev", "date": "2026-08-06", "scene_id": "S2C_MSIL2A_20260806T075611_R035_T39UUV_20260806T113012", "scene_datetime_utc": "2026-08-06T07:56:11.026000+00:00", "detection_status": "detected", "detection_status_ru": "обнаружено", "lon": 49.31716, "lat": 53.44366, "n_pixels": 2, "zone_area_km2": 0.0008, "cover_m2": 9.0, "p_mean": 0.553, "p_max": 0.557, "cover_m2_km2": 11250.0, "h3": "881081d051fffff", "valid_frac_scene": 0.999, "wind_ms": 1.2, "sea": "спокойное", "scene_reliable": true, "field_event_id": "S4:DOORS3:T23", "field_profile": "B", "field_date": "2024-06-10", "field_distance_km": 1361.8, "field_date_gap_days": 787, "field_conc_items_km2": 102.37, "conc_A_items_km2": null, "conc_A_lo80": null, "conc_A_hi80": null, "conc_A_lo95": null, "conc_A_hi95": null, "conc_A_status": "unavailable", "conc_A_status_ru": "концентрация недоступна", "conc_A_reasons": "вне бассейна профиля: nw_atlantic_subtropical", "conc_A_model": "conc-A-c6bce5631d2b", "conc_B_items_km2": null, "conc_B_lo80": null, "conc_B_hi80": null, "conc_B_lo95": null, "conc_B_hi95": null, "conc_B_status": "unavailable", "conc_B_status_ru": "концентрация недоступна", "conc_B_reasons": "вне бассейна профиля: black_sea", "conc_B_model": "conc-B-c6bce5631d2b"}}, {"type": "Feature", "geometry": {"type": "Polygon", "coordinates": [[[49.46053257957671, 53.44303594350795], [49.460535828545304, 53.44294608839952], [49.4603853293467, 53.44294414852282], [49.460388578615124, 53.442854293419224], [49.46069282501148, 53.44276831785272], [49.460689576395175, 53.44285817297044], [49.46084007531143, 53.44286011246173], [49.46083682699496, 53.442949967584305], [49.46068632776138, 53.442948028086676], [49.460683079110105, 53.44303788320142], [49.46053257957671, 53.44303594350795]]]}, "properties": {"zone_id": "kuibyshev-2026-08-06-041", "aoi": "kuibyshev", "date": "2026-08-06", "scene_id": "S2C_MSIL2A_20260806T075611_R035_T39UUV_20260806T113012", "scene_datetime_utc": "2026-08-06T07:56:11.026000+00:00", "detection_status": "detected", "detection_status_ru": "обнаружено", "lon": 49.46061, "lat": 53.4429, "n_pixels": 1, "zone_area_km2": 0.0005, "cover_m2": 8.6, "p_mean": 0.765, "p_max": 0.765, "cover_m2_km2": 17200.0, "h3": "881081d0b1fffff", "valid_frac_scene": 0.999, "wind_ms": 1.2, "sea": "спокойное", "scene_reliable": true, "field_event_id": "S4:DOORS3:T23", "field_profile": "B", "field_date": "2024-06-10", "field_distance_km": 1366.3, "field_date_gap_days": 787, "field_conc_items_km2": 102.37, "conc_A_items_km2": null, "conc_A_lo80": null, "conc_A_hi80": null, "conc_A_lo95": null, "conc_A_hi95": null, "conc_A_status": "unavailable", "conc_A_status_ru": "концентрация недоступна", "conc_A_reasons": "вне бассейна профиля: nw_atlantic_subtropical", "conc_A_model": "conc-A-c6bce5631d2b", "conc_B_items_km2": null, "conc_B_lo80": null, "conc_B_hi80": null, "conc_B_lo95": null, "conc_B_hi95": null, "conc_B_status": "unavailable", "conc_B_status_ru": "концентрация недоступна", "conc_B_reasons": "вне бассейна профиля: black_sea", "conc_B_model": "conc-B-c6bce5631d2b"}}, {"type": "Feature", "geometry": {"type": "Polygon", "coordinates": [[[49.46128507741855, 53.4430456400799], [49.46128832480056, 53.44295578493988], [49.46113782551455, 53.4429538460109], [49.461141073196394, 53.44286399087571], [49.4612915721651, 53.44286592979838], [49.461294819512155, 53.44277607465538], [49.4617463155712, 53.44278189026721], [49.46174956194884, 53.44269203510376], [49.46235155566962, 53.44269978657405], [49.462348310561225, 53.442789641762765], [49.46249880935241, 53.442791579162794], [49.462495564543865, 53.4428814343563], [49.46234506543537, 53.44287949694995], [49.46234182029204, 53.442969352135655], [49.46158932342504, 53.44295966222924], [49.46158607667766, 53.44304951738189], [49.46128507741855, 53.4430456400799]]]}, "properties": {"zone_id": "kuibyshev-2026-08-06-042", "aoi": "kuibyshev", "date": "2026-08-06", "scene_id": "S2C_MSIL2A_20260806T075611_R035_T39UUV_20260806T113012", "scene_datetime_utc": "2026-08-06T07:56:11.026000+00:00", "detection_status": "detected", "detection_status_ru": "обнаружено", "lon": 49.46184, "lat": 53.44286, "n_pixels": 6, "zone_area_km2": 0.0022, "cover_m2": 59.2, "p_mean": 0.764, "p_max": 0.875, "cover_m2_km2": 26909.1, "h3": "881081d0b1fffff", "valid_frac_scene": 0.999, "wind_ms": 1.2, "sea": "спокойное", "scene_reliable": true, "field_event_id": "S4:DOORS3:T23", "field_profile": "B", "field_date": "2024-06-10", "field_distance_km": 1366.3, "field_date_gap_days": 787, "field_conc_items_km2": 102.37, "conc_A_items_km2": null, "conc_A_lo80": null, "conc_A_hi80": null, "conc_A_lo95": null, "conc_A_hi95": null, "conc_A_status": "unavailable", "conc_A_status_ru": "концентрация недоступна", "conc_A_reasons": "вне бассейна профиля: nw_atlantic_subtropical", "conc_A_model": "conc-A-c6bce5631d2b", "conc_B_items_km2": null, "conc_B_lo80": null, "conc_B_hi80": null, "conc_B_lo95": null, "conc_B_hi95": null, "conc_B_status": "unavailable", "conc_B_status_ru": "концентрация недоступна", "conc_B_reasons": "вне бассейна профиля: black_sea", "conc_B_model": "conc-B-c6bce5631d2b"}}, {"type": "Feature", "geometry": {"type": "Polygon", "coordinates": [[[49.52859117948177, 53.44299478590262], [49.528594284843685, 53.442904927986085], [49.528443781087894, 53.44290307384729], [49.528449992396276, 53.44272335802187], [49.528754103649575, 53.44263720815869], [49.52875099865517, 53.44272706608573], [49.528901501809685, 53.44272891983332], [49.528895292405416, 53.442908635695], [49.52859117948177, 53.44299478590262]]]}, "properties": {"zone_id": "kuibyshev-2026-08-06-043", "aoi": "kuibyshev", "date": "2026-08-06", "scene_id": "S2C_MSIL2A_20260806T075611_R035_T39UUV_20260806T113012", "scene_datetime_utc": "2026-08-06T07:56:11.026000+00:00", "detection_status": "detected", "detection_status_ru": "обнаружено", "lon": 49.52867, "lat": 53.44282, "n_pixels": 2, "zone_area_km2": 0.0008, "cover_m2": 7.5, "p_mean": 0.69, "p_max": 0.871, "cover_m2_km2": 9375.0, "h3": "881081d527fffff", "valid_frac_scene": 0.999, "wind_ms": 1.2, "sea": "спокойное", "scene_reliable": true, "field_event_id": "S4:DOORS3:T23", "field_profile": "B", "field_date": "2024-06-10", "field_distance_km": 1368.4, "field_date_gap_days": 787, "field_conc_items_km2": 102.37, "conc_A_items_km2": null, "conc_A_lo80": null, "conc_A_hi80": null, "conc_A_lo95": null, "conc_A_hi95": null, "conc_A_status": "unavailable", "conc_A_status_ru": "концентрация недоступна", "conc_A_reasons": "вне бассейна профиля: nw_atlantic_subtropical", "conc_A_model": "conc-A-c6bce5631d2b", "conc_B_items_km2": null, "conc_B_lo80": null, "conc_B_hi80": null, "conc_B_lo95": null, "conc_B_hi95": null, "conc_B_status": "unavailable", "conc_B_status_ru": "концентрация недоступна", "conc_B_reasons": "вне бассейна профиля: black_sea", "conc_B_model": "conc-B-c6bce5631d2b"}}, {"type": "Feature", "geometry": {"type": "Polygon", "coordinates": [[[49.457689366579544, 53.44254977836289], [49.457692621489514, 53.44245992336717], [49.45754212421006, 53.44245797992085], [49.45754537941981, 53.44236812492995], [49.45769587638196, 53.442370068369925], [49.457699131256895, 53.442280213371205], [49.458000124599145, 53.4422840996699], [49.45799687035882, 53.44237395468128], [49.45814736737352, 53.44237589755265], [49.45814411343298, 53.44246575256887], [49.45799361610097, 53.44246380969117], [49.457990361825615, 53.44255366469956], [49.457689366579544, 53.44254977836289]]]}, "properties": {"zone_id": "kuibyshev-2026-08-06-044", "aoi": "kuibyshev", "date": "2026-08-06", "scene_id": "S2C_MSIL2A_20260806T075611_R035_T39UUV_20260806T113012", "scene_datetime_utc": "2026-08-06T07:56:11.026000+00:00", "detection_status": "detected", "detection_status_ru": "обнаружено", "lon": 49.45784, "lat": 53.44242, "n_pixels": 2, "zone_area_km2": 0.0008, "cover_m2": 15.3, "p_mean": 0.827, "p_max": 0.847, "cover_m2_km2": 19125.0, "h3": "881081d0b1fffff", "valid_frac_scene": 0.999, "wind_ms": 1.2, "sea": "спокойное", "scene_reliable": true, "field_event_id": "S4:DOORS3:T23", "field_profile": "B", "field_date": "2024-06-10", "field_distance_km": 1366.1, "field_date_gap_days": 787, "field_conc_items_km2": 102.37, "conc_A_items_km2": null, "conc_A_lo80": null, "conc_A_hi80": null, "conc_A_lo95": null, "conc_A_hi95": null, "conc_A_status": "unavailable", "conc_A_status_ru": "концентрация недоступна", "conc_A_reasons": "вне бассейна профиля: nw_atlantic_subtropical", "conc_A_model": "conc-A-c6bce5631d2b", "conc_B_items_km2": null, "conc_B_lo80": null, "conc_B_hi80": null, "conc_B_lo95": null, "conc_B_hi95": null, "conc_B_status": "unavailable", "conc_B_status_ru": "концентрация недоступна", "conc_B_reasons": "вне бассейна профиля: black_sea", "conc_B_model": "conc-B-c6bce5631d2b"}}, {"type": "Feature", "geometry": {"type": "Polygon", "coordinates": [[[49.148821690697666, 53.44013953475793], [49.148825596895215, 53.440049694085474], [49.148675132183875, 53.44004736165353], [49.14867903867746, 53.43995752098709], [49.14882950307174, 53.43995985341145], [49.148833409227244, 53.43987001273587], [49.149134337444764, 53.43987467700108], [49.14913043192337, 53.43996451769184], [49.14928089638071, 53.439966849547886], [49.149276991155354, 53.4400566902447], [49.149126526380954, 53.44005435838107], [49.14912262081752, 53.44014419906871], [49.148821690697666, 53.44013953475793]]]}, "properties": {"zone_id": "kuibyshev-2026-08-06-045", "aoi": "kuibyshev", "date": "2026-08-06", "scene_id": "S2C_MSIL2A_20260806T075611_R035_T39UUV_20260806T113012", "scene_datetime_utc": "2026-08-06T07:56:11.026000+00:00", "detection_status": "detected", "detection_status_ru": "обнаружено", "lon": 49.14898, "lat": 53.44001, "n_pixels": 2, "zone_area_km2": 0.0008, "cover_m2": 200.0, "p_mean": 0.518, "p_max": 0.522, "cover_m2_km2": 250000.0, "h3": "88108569d5fffff", "valid_frac_scene": 0.999, "wind_ms": 1.2, "sea": "спокойное", "scene_reliable": true, "field_event_id": "S4:DOORS3:T23", "field_profile": "B", "field_date": "2024-06-10", "field_distance_km": 1356.3, "field_date_gap_days": 787, "field_conc_items_km2": 102.37, "conc_A_items_km2": null, "conc_A_lo80": null, "conc_A_hi80": null, "conc_A_lo95": null, "conc_A_hi95": null, "conc_A_status": "unavailable", "conc_A_status_ru": "концентрация недоступна", "conc_A_reasons": "вне бассейна профиля: nw_atlantic_subtropical", "conc_A_model": "conc-A-c6bce5631d2b", "conc_B_items_km2": null, "conc_B_lo80": null, "conc_B_hi80": null, "conc_B_lo95": null, "conc_B_hi95": null, "conc_B_status": "unavailable", "conc_B_status_ru": "концентрация недоступна", "conc_B_reasons": "вне бассейна профиля: black_sea", "conc_B_model": "conc-B-c6bce5631d2b"}}, {"type": "Feature", "geometry": {"type": "Polygon", "coordinates": [[[49.12241940687096, 53.43792932127091], [49.122423368441666, 53.43783948191373], [49.122272913796856, 53.4378371162956], [49.122276875663246, 53.43774727694456], [49.12242732999106, 53.437749642554984], [49.122431291519135, 53.43765980319468], [49.122732199604734, 53.43766453383188], [49.12272823871064, 53.43775437320759], [49.122878693102415, 53.43775673824977], [49.122874732504, 53.43784657763162], [49.12272427779524, 53.43784421258175], [49.122720316858526, 53.43793405195433], [49.12241940687096, 53.43792932127091]]]}, "properties": {"zone_id": "kuibyshev-2026-08-06-046", "aoi": "kuibyshev", "date": "2026-08-06", "scene_id": "S2C_MSIL2A_20260806T075611_R035_T39UUV_20260806T113012", "scene_datetime_utc": "2026-08-06T07:56:11.026000+00:00", "detection_status": "detected", "detection_status_ru": "обнаружено", "lon": 49.12258, "lat": 53.4378, "n_pixels": 2, "zone_area_km2": 0.0008, "cover_m2": 200.0, "p_mean": 0.631, "p_max": 0.651, "cover_m2_km2": 250000.0, "h3": "88108569c1fffff", "valid_frac_scene": 0.999, "wind_ms": 1.2, "sea": "спокойное", "scene_reliable": true, "field_event_id": "S4:DOORS3:T23", "field_profile": "B", "field_date": "2024-06-10", "field_distance_km": 1355.2, "field_date_gap_days": 787, "field_conc_items_km2": 102.37, "conc_A_items_km2": null, "conc_A_lo80": null, "conc_A_hi80": null, "conc_A_lo95": null, "conc_A_hi95": null, "conc_A_status": "unavailable", "conc_A_status_ru": "концентрация недоступна", "conc_A_reasons": "вне бассейна профиля: nw_atlantic_subtropical", "conc_A_model": "conc-A-c6bce5631d2b", "conc_B_items_km2": null, "conc_B_lo80": null, "conc_B_hi80": null, "conc_B_lo95": null, "conc_B_hi95": null, "conc_B_status": "unavailable", "conc_B_status_ru": "концентрация недоступна", "conc_B_reasons": "вне бассейна профиля: black_sea", "conc_B_model": "conc-B-c6bce5631d2b"}}]}