{"type": "FeatureCollection", "features": [{"type": "Feature", "geometry": {"type": "Polygon", "coordinates": [[[131.80098557682751, 43.31485339493243], [131.8009814428181, 43.314763456780504], [131.80085827225182, 43.31476647532781], [131.80085000465272, 43.31458659899992], [131.80060366418772, 43.31459263565939], [131.80059953077918, 43.31450269747396], [131.80047636069926, 43.31450571559557], [131.80046809430186, 43.314325839200684], [131.80059126401935, 43.31432282109794], [131.80058713066802, 43.314232882907305], [131.80095663916245, 43.31422382783255], [131.80096077305734, 43.31431376599489], [131.80108394269854, 43.31431074736227], [131.8010963450414, 43.314580561810565], [131.80121951520715, 43.3145775430172], [131.80122778389352, 43.31475741928852], [131.80098557682751, 43.31485339493243]]]}, "properties": {"zone_id": "vladivostok-2025-09-25-001", "aoi": "vladivostok", "date": "2025-09-25", "scene_id": "S2C_MSIL2A_20250925T020711_R103_T52TGN_20250925T055015", "scene_datetime_utc": "2025-09-25T02:07:11.025000+00:00", "detection_status": "detected", "detection_status_ru": "обнаружено", "lon": 131.80086, "lat": 43.31449, "n_pixels": 8, "zone_area_km2": 0.0024, "cover_m2": 127.8, "p_mean": 0.781, "p_max": 0.976, "cover_m2_km2": 53250.0, "h3": "88316ccd11fffff", "valid_frac_scene": 1.0, "wind_ms": 7.7, "sea": "волнение", "scene_reliable": true, "field_event_id": "S4:DOORS3:T23", "field_profile": "B", "field_date": "2024-06-10", "field_distance_km": 6964.6, "field_date_gap_days": 472, "field_conc_items_km2": 102.37, "conc_A_items_km2": null, "conc_A_lo80": null, "conc_A_hi80": null, "conc_A_lo95": null, "conc_A_hi95": null, "conc_A_status": "unavailable", "conc_A_status_ru": "концентрация недоступна", "conc_A_reasons": "вне бассейна профиля: nw_atlantic_subtropical", "conc_A_model": "conc-A-c6bce5631d2b", "conc_B_items_km2": null, "conc_B_lo80": null, "conc_B_hi80": null, "conc_B_lo95": null, "conc_B_hi95": null, "conc_B_status": "unavailable", "conc_B_status_ru": "концентрация недоступна", "conc_B_reasons": "вне бассейна профиля: black_sea", "conc_B_model": "conc-B-c6bce5631d2b"}}, {"type": "Feature", "geometry": {"type": "Polygon", "coordinates": [[[131.80106740650848, 43.31395099474023], [131.80106327250866, 43.31386105658037], [131.80094010377348, 43.31386407516583], [131.80093596997392, 43.313774136994816], [131.80068549939068, 43.3136902355579], [131.80068136599166, 43.31360029736454], [131.8008045342214, 43.31359727907229], [131.80080040066025, 43.31350734088664], [131.80104673670007, 43.3135013039236], [131.8010508706236, 43.313591242090396], [131.8014203750839, 43.313582185624064], [131.8014245095701, 43.313672123760846], [131.80154767786658, 43.3136691046644], [131.8015559472586, 43.31384898091385], [131.80143277859975, 43.31385200002918], [131.80143691314316, 43.31394193816074], [131.80106740650848, 43.31395099474023]]]}, "properties": {"zone_id": "vladivostok-2025-09-25-002", "aoi": "vladivostok", "date": "2025-09-25", "scene_id": "S2C_MSIL2A_20250925T020711_R103_T52TGN_20250925T055015", "scene_datetime_utc": "2025-09-25T02:07:11.025000+00:00", "detection_status": "detected", "detection_status_ru": "обнаружено", "lon": 131.80115, "lat": 43.31373, "n_pixels": 9, "zone_area_km2": 0.0022, "cover_m2": 129.0, "p_mean": 0.898, "p_max": 0.992, "cover_m2_km2": 58636.4, "h3": "88316ccd11fffff", "valid_frac_scene": 1.0, "wind_ms": 7.7, "sea": "волнение", "scene_reliable": true, "field_event_id": "S4:DOORS3:T23", "field_profile": "B", "field_date": "2024-06-10", "field_distance_km": 6964.6, "field_date_gap_days": 472, "field_conc_items_km2": 102.37, "conc_A_items_km2": null, "conc_A_lo80": null, "conc_A_hi80": null, "conc_A_lo95": null, "conc_A_hi95": null, "conc_A_status": "unavailable", "conc_A_status_ru": "концентрация недоступна", "conc_A_reasons": "вне бассейна профиля: nw_atlantic_subtropical", "conc_A_model": "conc-A-c6bce5631d2b", "conc_B_items_km2": null, "conc_B_lo80": null, "conc_B_hi80": null, "conc_B_lo95": null, "conc_B_hi95": null, "conc_B_status": "unavailable", "conc_B_status_ru": "концентрация недоступна", "conc_B_reasons": "вне бассейна профиля: black_sea", "conc_B_model": "conc-B-c6bce5631d2b"}}, {"type": "Feature", "geometry": {"type": "Polygon", "coordinates": [[[131.79834116600398, 43.313657619749286], [131.79833703606684, 43.31356768137515], [131.79821386763703, 43.3135706970087], [131.79820973790012, 43.313480758623385], [131.79833290614874, 43.313477742999254], [131.79832877624972, 43.31338780462163], [131.79857924258883, 43.31347171135358], [131.7985833728693, 43.313561649710635], [131.7984602044776, 43.31356466560912], [131.79846433459596, 43.313654603973845], [131.79834116600398, 43.313657619749286]]]}, "properties": {"zone_id": "vladivostok-2025-09-25-003", "aoi": "vladivostok", "date": "2025-09-25", "scene_id": "S2C_MSIL2A_20250925T020711_R103_T52TGN_20250925T055015", "scene_datetime_utc": "2025-09-25T02:07:11.025000+00:00", "detection_status": "detected", "detection_status_ru": "обнаружено", "lon": 131.7984, "lat": 43.31352, "n_pixels": 1, "zone_area_km2": 0.0005, "cover_m2": 15.3, "p_mean": 0.592, "p_max": 0.592, "cover_m2_km2": 30600.0, "h3": "88316ccd11fffff", "valid_frac_scene": 1.0, "wind_ms": 7.7, "sea": "волнение", "scene_reliable": true, "field_event_id": "S4:DOORS3:T23", "field_profile": "B", "field_date": "2024-06-10", "field_distance_km": 6964.5, "field_date_gap_days": 472, "field_conc_items_km2": 102.37, "conc_A_items_km2": null, "conc_A_lo80": null, "conc_A_hi80": null, "conc_A_lo95": null, "conc_A_hi95": null, "conc_A_status": "unavailable", "conc_A_status_ru": "концентрация недоступна", "conc_A_reasons": "вне бассейна профиля: nw_atlantic_subtropical", "conc_A_model": "conc-A-c6bce5631d2b", "conc_B_items_km2": null, "conc_B_lo80": null, "conc_B_hi80": null, "conc_B_lo95": null, "conc_B_hi95": null, "conc_B_status": "unavailable", "conc_B_status_ru": "концентрация недоступна", "conc_B_reasons": "вне бассейна профиля: black_sea", "conc_B_model": "conc-B-c6bce5631d2b"}}, {"type": "Feature", "geometry": {"type": "Polygon", "coordinates": [[[131.80190477706577, 43.313390232277875], [131.80190064191203, 43.313300294173615], [131.8017774743976, 43.313303313629746], [131.8017733394441, 43.31321337551431], [131.80189650677738, 43.31321035606762], [131.80189237166178, 43.313120417959894], [131.80214284138663, 43.31320431677686], [131.80214697688368, 43.31329425486398], [131.80202380940742, 43.31329727458503], [131.80202794474235, 43.313387212679864], [131.80190477706577, 43.313390232277875]]]}, "properties": {"zone_id": "vladivostok-2025-09-25-004", "aoi": "vladivostok", "date": "2025-09-25", "scene_id": "S2C_MSIL2A_20250925T020711_R103_T52TGN_20250925T055015", "scene_datetime_utc": "2025-09-25T02:07:11.025000+00:00", "detection_status": "detected", "detection_status_ru": "обнаружено", "lon": 131.80196, "lat": 43.31325, "n_pixels": 1, "zone_area_km2": 0.0005, "cover_m2": 9.0, "p_mean": 0.941, "p_max": 0.941, "cover_m2_km2": 18000.0, "h3": "88316ccd11fffff", "valid_frac_scene": 1.0, "wind_ms": 7.7, "sea": "волнение", "scene_reliable": true, "field_event_id": "S4:DOORS3:T23", "field_profile": "B", "field_date": "2024-06-10", "field_distance_km": 6964.7, "field_date_gap_days": 472, "field_conc_items_km2": 102.37, "conc_A_items_km2": null, "conc_A_lo80": null, "conc_A_hi80": null, "conc_A_lo95": null, "conc_A_hi95": null, "conc_A_status": "unavailable", "conc_A_status_ru": "концентрация недоступна", "conc_A_reasons": "вне бассейна профиля: nw_atlantic_subtropical", "conc_A_model": "conc-A-c6bce5631d2b", "conc_B_items_km2": null, "conc_B_lo80": null, "conc_B_hi80": null, "conc_B_lo95": null, "conc_B_hi95": null, "conc_B_status": "unavailable", "conc_B_status_ru": "концентрация недоступна", "conc_B_reasons": "вне бассейна профиля: black_sea", "conc_B_model": "conc-B-c6bce5631d2b"}}, {"type": "Feature", "geometry": {"type": "Polygon", "coordinates": [[[131.8005499313645, 43.31342343911357], [131.80054579820387, 43.313333500905586], [131.80042263047957, 43.31333651890462], [131.80041849751927, 43.31324658068549], [131.80017629497382, 43.31334255450533], [131.8001721623759, 43.313252616267334], [131.8000489947756, 43.31325563385956], [131.80004486237792, 43.313165695610394], [131.80016802979705, 43.313162678027595], [131.80016389723724, 43.313072739786094], [131.80041436457802, 43.313156642464584], [131.80041023165583, 43.31306670424196], [131.80065243273265, 43.31297072996247], [131.80065656599814, 43.31306066816798], [131.8007797331407, 43.3130576499323], [131.80079213359522, 43.31332746451011], [131.8005499313645, 43.31342343911357]]]}, "properties": {"zone_id": "vladivostok-2025-09-25-005", "aoi": "vladivostok", "date": "2025-09-25", "scene_id": "S2C_MSIL2A_20250925T020711_R103_T52TGN_20250925T055015", "scene_datetime_utc": "2025-09-25T02:07:11.025000+00:00", "detection_status": "detected", "detection_status_ru": "обнаружено", "lon": 131.80051, "lat": 43.3132, "n_pixels": 4, "zone_area_km2": 0.0016, "cover_m2": 55.3, "p_mean": 0.745, "p_max": 0.984, "cover_m2_km2": 34562.5, "h3": "88316ccd11fffff", "valid_frac_scene": 1.0, "wind_ms": 7.7, "sea": "волнение", "scene_reliable": true, "field_event_id": "S4:DOORS3:T23", "field_profile": "B", "field_date": "2024-06-10", "field_distance_km": 6964.6, "field_date_gap_days": 472, "field_conc_items_km2": 102.37, "conc_A_items_km2": null, "conc_A_lo80": null, "conc_A_hi80": null, "conc_A_lo95": null, "conc_A_hi95": null, "conc_A_status": "unavailable", "conc_A_status_ru": "концентрация недоступна", "conc_A_reasons": "вне бассейна профиля: nw_atlantic_subtropical", "conc_A_model": "conc-A-c6bce5631d2b", "conc_B_items_km2": null, "conc_B_lo80": null, "conc_B_hi80": null, "conc_B_lo95": null, "conc_B_hi95": null, "conc_B_status": "unavailable", "conc_B_status_ru": "концентрация недоступна", "conc_B_reasons": "вне бассейна профиля: black_sea", "conc_B_model": "conc-B-c6bce5631d2b"}}, {"type": "Feature", "geometry": {"type": "Polygon", "coordinates": [[[131.7994414195287, 43.31345059642116], [131.79943728799887, 43.31336065812834], [131.79919095218804, 43.313366691609644], [131.79918682103968, 43.313276753296236], [131.7989363547481, 43.31319284789486], [131.79892809327148, 43.31301297122168], [131.79917029663687, 43.31291700002525], [131.799174427709, 43.31300693834561], [131.79942489352382, 43.31309084323945], [131.79942902499644, 43.3131807815375], [131.7996794918603, 43.31326468584148], [131.79968362373347, 43.31335462411719], [131.7995604558757, 43.31335764118899], [131.79956458758673, 43.313447579472395], [131.7994414195287, 43.31345059642116]]]}, "properties": {"zone_id": "vladivostok-2025-09-25-006", "aoi": "vladivostok", "date": "2025-09-25", "scene_id": "S2C_MSIL2A_20250925T020711_R103_T52TGN_20250925T055015", "scene_datetime_utc": "2025-09-25T02:07:11.025000+00:00", "detection_status": "detected", "detection_status_ru": "обнаружено", "lon": 131.79926, "lat": 43.31318, "n_pixels": 6, "zone_area_km2": 0.0017, "cover_m2": 78.8, "p_mean": 0.825, "p_max": 0.992, "cover_m2_km2": 46352.9, "h3": "88316ccd11fffff", "valid_frac_scene": 1.0, "wind_ms": 7.7, "sea": "волнение", "scene_reliable": true, "field_event_id": "S4:DOORS3:T23", "field_profile": "B", "field_date": "2024-06-10", "field_distance_km": 6964.5, "field_date_gap_days": 472, "field_conc_items_km2": 102.37, "conc_A_items_km2": null, "conc_A_lo80": null, "conc_A_hi80": null, "conc_A_lo95": null, "conc_A_hi95": null, "conc_A_status": "unavailable", "conc_A_status_ru": "концентрация недоступна", "conc_A_reasons": "вне бассейна профиля: nw_atlantic_subtropical", "conc_A_model": "conc-A-c6bce5631d2b", "conc_B_items_km2": null, "conc_B_lo80": null, "conc_B_hi80": null, "conc_B_lo95": null, "conc_B_hi95": null, "conc_B_status": "unavailable", "conc_B_status_ru": "концентрация недоступна", "conc_B_reasons": "вне бассейна профиля: black_sea", "conc_B_model": "conc-B-c6bce5631d2b"}}, {"type": "Feature", "geometry": {"type": "Polygon", "coordinates": [[[131.80129307266364, 43.313495266430714], [131.8012889383968, 43.313405328281036], [131.80103846891026, 43.31332142758478], [131.80103433504397, 43.31323148941278], [131.80115750249166, 43.31322847076086], [131.80115336846328, 43.31313853259655], [131.80103020119674, 43.31314155123903], [131.80102606736858, 43.31305161306355], [131.80090290026416, 43.31305463156416], [131.8008987666363, 43.31296469337751], [131.80138316556662, 43.31277274231499], [131.8013872998811, 43.3128626804674], [131.80151046654683, 43.3128596614558], [131.80153527392162, 43.313399290277154], [131.80129307266364, 43.313495266430714]]]}, "properties": {"zone_id": "vladivostok-2025-09-25-007", "aoi": "vladivostok", "date": "2025-09-25", "scene_id": "S2C_MSIL2A_20250925T020711_R103_T52TGN_20250925T055015", "scene_datetime_utc": "2025-09-25T02:07:11.025000+00:00", "detection_status": "detected", "detection_status_ru": "обнаружено", "lon": 131.80129, "lat": 43.31314, "n_pixels": 8, "zone_area_km2": 0.0025, "cover_m2": 118.8, "p_mean": 0.816, "p_max": 0.988, "cover_m2_km2": 47520.0, "h3": "88316ccd11fffff", "valid_frac_scene": 1.0, "wind_ms": 7.7, "sea": "волнение", "scene_reliable": true, "field_event_id": "S4:DOORS3:T23", "field_profile": "B", "field_date": "2024-06-10", "field_distance_km": 6964.7, "field_date_gap_days": 472, "field_conc_items_km2": 102.37, "conc_A_items_km2": null, "conc_A_lo80": null, "conc_A_hi80": null, "conc_A_lo95": null, "conc_A_hi95": null, "conc_A_status": "unavailable", "conc_A_status_ru": "концентрация недоступна", "conc_A_reasons": "вне бассейна профиля: nw_atlantic_subtropical", "conc_A_model": "conc-A-c6bce5631d2b", "conc_B_items_km2": null, "conc_B_lo80": null, "conc_B_hi80": null, "conc_B_lo95": null, "conc_B_hi95": null, "conc_B_status": "unavailable", "conc_B_status_ru": "концентрация недоступна", "conc_B_reasons": "вне бассейна профиля: black_sea", "conc_B_model": "conc-B-c6bce5631d2b"}}, {"type": "Feature", "geometry": {"type": "Polygon", "coordinates": [[[131.80503159697213, 43.30899163790517], [131.80502745784298, 43.308901699972346], [131.80490429954028, 43.30890472255167], [131.80490016061137, 43.30881478460766], [131.80502331873294, 43.30881176203779], [131.80501917964196, 43.30872182410149], [131.80526963491874, 43.308805716500736], [131.8052737743911, 43.30889565441642], [131.8051506161266, 43.30889867726061], [131.8051547554369, 43.308988615183985], [131.80503159697213, 43.30899163790517]]]}, "properties": {"zone_id": "vladivostok-2025-09-25-008", "aoi": "vladivostok", "date": "2025-09-25", "scene_id": "S2C_MSIL2A_20250925T020711_R103_T52TGN_20250925T055015", "scene_datetime_utc": "2025-09-25T02:07:11.025000+00:00", "detection_status": "detected", "detection_status_ru": "обнаружено", "lon": 131.80509, "lat": 43.30886, "n_pixels": 1, "zone_area_km2": 0.0005, "cover_m2": 12.9, "p_mean": 0.639, "p_max": 0.639, "cover_m2_km2": 25800.0, "h3": "88316ccd13fffff", "valid_frac_scene": 1.0, "wind_ms": 7.7, "sea": "волнение", "scene_reliable": true, "field_event_id": "S4:DOORS3:T23", "field_profile": "B", "field_date": "2024-06-10", "field_distance_km": 6965.2, "field_date_gap_days": 472, "field_conc_items_km2": 102.37, "conc_A_items_km2": null, "conc_A_lo80": null, "conc_A_hi80": null, "conc_A_lo95": null, "conc_A_hi95": null, "conc_A_status": "unavailable", "conc_A_status_ru": "концентрация недоступна", "conc_A_reasons": "вне бассейна профиля: nw_atlantic_subtropical", "conc_A_model": "conc-A-c6bce5631d2b", "conc_B_items_km2": null, "conc_B_lo80": null, "conc_B_hi80": null, "conc_B_lo95": null, "conc_B_hi95": null, "conc_B_status": "unavailable", "conc_B_status_ru": "концентрация недоступна", "conc_B_reasons": "вне бассейна профиля: black_sea", "conc_B_model": "conc-B-c6bce5631d2b"}}, {"type": "Feature", "geometry": {"type": "Polygon", "coordinates": [[[131.80953030931275, 43.259449290386605], [131.80952617071466, 43.25935935201941], [131.80940311278755, 43.25936237669081], [131.80939897438927, 43.25927243831243], [131.80952203213567, 43.25926941365048], [131.80951789357576, 43.25917947527981], [131.80976814757128, 43.25926336392993], [131.80977228651162, 43.25935330227997], [131.8096492286227, 43.25935632721579], [131.80965336740147, 43.25944626557354], [131.80953030931275, 43.259449290386605]]]}, "properties": {"zone_id": "vladivostok-2025-09-25-009", "aoi": "vladivostok", "date": "2025-09-25", "scene_id": "S2C_MSIL2A_20250925T020711_R103_T52TGN_20250925T055015", "scene_datetime_utc": "2025-09-25T02:07:11.025000+00:00", "detection_status": "detected", "detection_status_ru": "обнаружено", "lon": 131.80959, "lat": 43.25931, "n_pixels": 1, "zone_area_km2": 0.0005, "cover_m2": 4.3, "p_mean": 0.698, "p_max": 0.698, "cover_m2_km2": 8600.0, "h3": "88316ccdb5fffff", "valid_frac_scene": 1.0, "wind_ms": 7.7, "sea": "волнение", "scene_reliable": true, "field_event_id": "S4:DOORS3:T23", "field_profile": "B", "field_date": "2024-06-10", "field_distance_km": 6968.6, "field_date_gap_days": 472, "field_conc_items_km2": 102.37, "conc_A_items_km2": null, "conc_A_lo80": null, "conc_A_hi80": null, "conc_A_lo95": null, "conc_A_hi95": null, "conc_A_status": "unavailable", "conc_A_status_ru": "концентрация недоступна", "conc_A_reasons": "вне бассейна профиля: nw_atlantic_subtropical", "conc_A_model": "conc-A-c6bce5631d2b", "conc_B_items_km2": null, "conc_B_lo80": null, "conc_B_hi80": null, "conc_B_lo95": null, "conc_B_hi95": null, "conc_B_status": "unavailable", "conc_B_status_ru": "концентрация недоступна", "conc_B_reasons": "вне бассейна профиля: black_sea", "conc_B_model": "conc-B-c6bce5631d2b"}}, {"type": "Feature", "geometry": {"type": "Polygon", "coordinates": [[[131.80438817506493, 43.252102234021045], [131.80438404509496, 43.25201229514148], [131.80426100141887, 43.252015313873734], [131.80425687164856, 43.251925374983], [131.80437991514407, 43.251922356260195], [131.80437578521222, 43.251832417377145], [131.80462187178483, 43.251826379553826], [131.80462600207792, 43.25191631841801], [131.80474904551627, 43.25191329929866], [131.80475317600903, 43.252003238151644], [131.80463013239006, 43.25200625728044], [131.80463426272127, 43.25209619614114], [131.80438817506493, 43.252102234021045]]]}, "properties": {"zone_id": "vladivostok-2025-09-25-010", "aoi": "vladivostok", "date": "2025-09-25", "scene_id": "S2C_MSIL2A_20250925T020711_R103_T52TGN_20250925T055015", "scene_datetime_utc": "2025-09-25T02:07:11.025000+00:00", "detection_status": "detected", "detection_status_ru": "обнаружено", "lon": 131.80451, "lat": 43.25196, "n_pixels": 2, "zone_area_km2": 0.0008, "cover_m2": 9.0, "p_mean": 0.81, "p_max": 0.965, "cover_m2_km2": 11250.0, "h3": "88316c574bfffff", "valid_frac_scene": 1.0, "wind_ms": 7.7, "sea": "волнение", "scene_reliable": true, "field_event_id": "S4:DOORS3:T23", "field_profile": "B", "field_date": "2024-06-10", "field_distance_km": 6968.7, "field_date_gap_days": 472, "field_conc_items_km2": 102.37, "conc_A_items_km2": null, "conc_A_lo80": null, "conc_A_hi80": null, "conc_A_lo95": null, "conc_A_hi95": null, "conc_A_status": "unavailable", "conc_A_status_ru": "концентрация недоступна", "conc_A_reasons": "вне бассейна профиля: nw_atlantic_subtropical", "conc_A_model": "conc-A-c6bce5631d2b", "conc_B_items_km2": null, "conc_B_lo80": null, "conc_B_hi80": null, "conc_B_lo95": null, "conc_B_hi95": null, "conc_B_status": "unavailable", "conc_B_status_ru": "концентрация недоступна", "conc_B_reasons": "вне бассейна профиля: black_sea", "conc_B_model": "conc-B-c6bce5631d2b"}}, {"type": "Feature", "geometry": {"type": "Polygon", "coordinates": [[[131.7641968575125, 43.218685721966196], [131.76419279143227, 43.21859577948555], [131.76406981076747, 43.2185987531596], [131.7640657448863, 43.21850881066793], [131.7641887253708, 43.218505837003164], [131.76418465932804, 43.218415894519055], [131.7643076396134, 43.21841292073155], [131.76430357340908, 43.21832297825502], [131.76455360012795, 43.21840697276042], [131.7645576667117, 43.21849691521666], [131.76443468628347, 43.218499889277524], [131.76443875270564, 43.218589831741326], [131.7641968575125, 43.218685721966196]]]}, "properties": {"zone_id": "vladivostok-2025-09-25-011", "aoi": "vladivostok", "date": "2025-09-25", "scene_id": "S2C_MSIL2A_20250925T020711_R103_T52TGN_20250925T055015", "scene_datetime_utc": "2025-09-25T02:07:11.025000+00:00", "detection_status": "detected", "detection_status_ru": "обнаружено", "lon": 131.76431, "lat": 43.2185, "n_pixels": 2, "zone_area_km2": 0.0008, "cover_m2": 8.6, "p_mean": 0.947, "p_max": 0.996, "cover_m2_km2": 10750.0, "h3": "88316c5727fffff", "valid_frac_scene": 1.0, "wind_ms": 7.7, "sea": "волнение", "scene_reliable": true, "field_event_id": "S4:DOORS3:T23", "field_profile": "B", "field_date": "2024-06-10", "field_distance_km": 6968.0, "field_date_gap_days": 472, "field_conc_items_km2": 102.37, "conc_A_items_km2": null, "conc_A_lo80": null, "conc_A_hi80": null, "conc_A_lo95": null, "conc_A_hi95": null, "conc_A_status": "unavailable", "conc_A_status_ru": "концентрация недоступна", "conc_A_reasons": "вне бассейна профиля: nw_atlantic_subtropical", "conc_A_model": "conc-A-c6bce5631d2b", "conc_B_items_km2": null, "conc_B_lo80": null, "conc_B_hi80": null, "conc_B_lo95": null, "conc_B_hi95": null, "conc_B_status": "unavailable", "conc_B_status_ru": "концентрация недоступна", "conc_B_reasons": "вне бассейна профиля: black_sea", "conc_B_model": "conc-B-c6bce5631d2b"}}, {"type": "Feature", "geometry": {"type": "Polygon", "coordinates": [[[131.7748085105216, 43.205642834817844], [131.77480443070237, 43.205552892938876], [131.77468147734544, 43.20555587730377], [131.7746773977252, 43.20546593541376], [131.77480035090193, 43.20546295105818], [131.7747962711203, 43.20537300917576], [131.7750462571989, 43.205456981951116], [131.7750503373598, 43.20554692381315], [131.7749273840405, 43.20554990844201], [131.77493146403995, 43.20563985031164], [131.7748085105216, 43.205642834817844]]]}, "properties": {"zone_id": "vladivostok-2025-09-25-012", "aoi": "vladivostok", "date": "2025-09-25", "scene_id": "S2C_MSIL2A_20250925T020711_R103_T52TGN_20250925T055015", "scene_datetime_utc": "2025-09-25T02:07:11.025000+00:00", "detection_status": "detected", "detection_status_ru": "обнаружено", "lon": 131.77486, "lat": 43.20551, "n_pixels": 1, "zone_area_km2": 0.0005, "cover_m2": 2.4, "p_mean": 0.757, "p_max": 0.757, "cover_m2_km2": 4800.0, "h3": "88316c554bfffff", "valid_frac_scene": 1.0, "wind_ms": 7.7, "sea": "волнение", "scene_reliable": true, "field_event_id": "S4:DOORS3:T23", "field_profile": "B", "field_date": "2024-06-10", "field_distance_km": 6969.5, "field_date_gap_days": 472, "field_conc_items_km2": 102.37, "conc_A_items_km2": null, "conc_A_lo80": null, "conc_A_hi80": null, "conc_A_lo95": null, "conc_A_hi95": null, "conc_A_status": "unavailable", "conc_A_status_ru": "концентрация недоступна", "conc_A_reasons": "вне бассейна профиля: nw_atlantic_subtropical", "conc_A_model": "conc-A-c6bce5631d2b", "conc_B_items_km2": null, "conc_B_lo80": null, "conc_B_hi80": null, "conc_B_lo95": null, "conc_B_hi95": null, "conc_B_status": "unavailable", "conc_B_status_ru": "концентрация недоступна", "conc_B_reasons": "вне бассейна профиля: black_sea", "conc_B_model": "conc-B-c6bce5631d2b"}}, {"type": "Feature", "geometry": {"type": "Polygon", "coordinates": [[[131.79238656670833, 43.20512476996828], [131.79238246113846, 43.20503482942533], [131.79225951065948, 43.20503783265273], [131.79225540528876, 43.20494789209866], [131.79237835558754, 43.204944888880625], [131.79237425005556, 43.20485494833421], [131.79249720015525, 43.2048519449936], [131.792493094462, 43.20476200445483], [131.7927389942442, 43.20475599739648], [131.79273488820948, 43.204666056874764], [131.79285783789197, 43.20466305315703], [131.792853731696, 43.20457311264294], [131.79297668117937, 43.20457010880263], [131.79298078755556, 43.20466004930732], [131.79310373720023, 43.20465704532565], [131.79309963064387, 43.20456710483034], [131.79334963643277, 43.20465103696643], [131.79335374336847, 43.20474097744123], [131.7931119503698, 43.204836926311074], [131.79311605698294, 43.20492686680117], [131.79274720637042, 43.20493587843475], [131.79275131246192, 43.205025818951285], [131.7926283620397, 43.2050288225746], [131.79263246796995, 43.20511876309878], [131.79238656670833, 43.20512476996828]]]}, "properties": {"zone_id": "vladivostok-2025-09-25-013", "aoi": "vladivostok", "date": "2025-09-25", "scene_id": "S2C_MSIL2A_20250925T020711_R103_T52TGN_20250925T055015", "scene_datetime_utc": "2025-09-25T02:07:11.025000+00:00", "detection_status": "detected", "detection_status_ru": "обнаружено", "lon": 131.7928, "lat": 43.20483, "n_pixels": 8, "zone_area_km2": 0.0025, "cover_m2": 27.5, "p_mean": 0.809, "p_max": 0.961, "cover_m2_km2": 11000.0, "h3": "88316c5733fffff", "valid_frac_scene": 1.0, "wind_ms": 7.7, "sea": "волнение", "scene_reliable": true, "field_event_id": "S4:DOORS3:T23", "field_profile": "B", "field_date": "2024-06-10", "field_distance_km": 6970.8, "field_date_gap_days": 472, "field_conc_items_km2": 102.37, "conc_A_items_km2": null, "conc_A_lo80": null, "conc_A_hi80": null, "conc_A_lo95": null, "conc_A_hi95": null, "conc_A_status": "unavailable", "conc_A_status_ru": "концентрация недоступна", "conc_A_reasons": "вне бассейна профиля: nw_atlantic_subtropical", "conc_A_model": "conc-A-c6bce5631d2b", "conc_B_items_km2": null, "conc_B_lo80": null, "conc_B_hi80": null, "conc_B_lo95": null, "conc_B_hi95": null, "conc_B_status": "unavailable", "conc_B_status_ru": "концентрация недоступна", "conc_B_reasons": "вне бассейна профиля: black_sea", "conc_B_model": "conc-B-c6bce5631d2b"}}, {"type": "Feature", "geometry": {"type": "Polygon", "coordinates": [[[131.77987887965577, 43.20074748118119], [131.7798747930859, 43.20065753961188], [131.7797518500883, 43.20066052915652], [131.77974367736542, 43.20048064599405], [131.7799854759276, 43.200384725245016], [131.7799895626211, 43.20047466681017], [131.78011250522067, 43.20047167702031], [131.78012067902458, 43.20065156012674], [131.77987887965577, 43.20074748118119]]]}, "properties": {"zone_id": "vladivostok-2025-09-25-014", "aoi": "vladivostok", "date": "2025-09-25", "scene_id": "S2C_MSIL2A_20250925T020711_R103_T52TGN_20250925T055015", "scene_datetime_utc": "2025-09-25T02:07:11.025000+00:00", "detection_status": "detected", "detection_status_ru": "обнаружено", "lon": 131.77993, "lat": 43.20057, "n_pixels": 2, "zone_area_km2": 0.0008, "cover_m2": 5.9, "p_mean": 0.965, "p_max": 0.984, "cover_m2_km2": 7375.0, "h3": "88316c555dfffff", "valid_frac_scene": 1.0, "wind_ms": 7.7, "sea": "волнение", "scene_reliable": true, "field_event_id": "S4:DOORS3:T23", "field_profile": "B", "field_date": "2024-06-10", "field_distance_km": 6970.2, "field_date_gap_days": 472, "field_conc_items_km2": 102.37, "conc_A_items_km2": null, "conc_A_lo80": null, "conc_A_hi80": null, "conc_A_lo95": null, "conc_A_hi95": null, "conc_A_status": "unavailable", "conc_A_status_ru": "концентрация недоступна", "conc_A_reasons": "вне бассейна профиля: nw_atlantic_subtropical", "conc_A_model": "conc-A-c6bce5631d2b", "conc_B_items_km2": null, "conc_B_lo80": null, "conc_B_hi80": null, "conc_B_lo95": null, "conc_B_hi95": null, "conc_B_status": "unavailable", "conc_B_status_ru": "концентрация недоступна", "conc_B_reasons": "вне бассейна профиля: black_sea", "conc_B_model": "conc-B-c6bce5631d2b"}}, {"type": "Feature", "geometry": {"type": "Polygon", "coordinates": [[[131.78067816588563, 43.199377427868434], [131.78067407833723, 43.19928748633858], [131.7805511381739, 43.19929047666672], [131.78054705082448, 43.19920053512578], [131.7806699908077, 43.19919754480699], [131.78066181580508, 43.19901766173862], [131.78078475540914, 43.19901467130658], [131.78078066775595, 43.19892472977914], [131.78103063456072, 43.19900869004664], [131.78103881064422, 43.19918857305893], [131.78079701848173, 43.199284495878494], [131.7808011062103, 43.199374437399], [131.78067816588563, 43.199377427868434]]]}, "properties": {"zone_id": "vladivostok-2025-09-25-015", "aoi": "vladivostok", "date": "2025-09-25", "scene_id": "S2C_MSIL2A_20250925T020711_R103_T52TGN_20250925T055015", "scene_datetime_utc": "2025-09-25T02:07:11.025000+00:00", "detection_status": "detected", "detection_status_ru": "обнаружено", "lon": 131.78081, "lat": 43.19915, "n_pixels": 3, "zone_area_km2": 0.0011, "cover_m2": 7.8, "p_mean": 0.837, "p_max": 0.906, "cover_m2_km2": 7090.9, "h3": "88316c5559fffff", "valid_frac_scene": 1.0, "wind_ms": 7.7, "sea": "волнение", "scene_reliable": true, "field_event_id": "S4:DOORS3:T23", "field_profile": "B", "field_date": "2024-06-10", "field_distance_km": 6970.3, "field_date_gap_days": 472, "field_conc_items_km2": 102.37, "conc_A_items_km2": null, "conc_A_lo80": null, "conc_A_hi80": null, "conc_A_lo95": null, "conc_A_hi95": null, "conc_A_status": "unavailable", "conc_A_status_ru": "концентрация недоступна", "conc_A_reasons": "вне бассейна профиля: nw_atlantic_subtropical", "conc_A_model": "conc-A-c6bce5631d2b", "conc_B_items_km2": null, "conc_B_lo80": null, "conc_B_hi80": null, "conc_B_lo95": null, "conc_B_hi95": null, "conc_B_status": "unavailable", "conc_B_status_ru": "концентрация недоступна", "conc_B_reasons": "вне бассейна профиля: black_sea", "conc_B_model": "conc-B-c6bce5631d2b"}}, {"type": "Feature", "geometry": {"type": "Polygon", "coordinates": [[[131.64458843375732, 43.165959555464035], [131.64458455064735, 43.16586960326557], [131.6444616636662, 43.16587244559595], [131.6444538978598, 43.16569254117615], [131.6446957878484, 43.1655969042244], [131.6446996710846, 43.165686856419086], [131.64482255767015, 43.16568401384279], [131.64483032455607, 43.1658639182093], [131.64458843375732, 43.165959555464035]]]}, "properties": {"zone_id": "vladivostok-2025-09-25-016", "aoi": "vladivostok", "date": "2025-09-25", "scene_id": "S2C_MSIL2A_20250925T020711_R103_T52TGN_20250925T055015", "scene_datetime_utc": "2025-09-25T02:07:11.025000+00:00", "detection_status": "detected", "detection_status_ru": "обнаружено", "lon": 131.64464, "lat": 43.16578, "n_pixels": 2, "zone_area_km2": 0.0008, "cover_m2": 6.3, "p_mean": 0.747, "p_max": 0.914, "cover_m2_km2": 7875.0, "h3": "88316c4311fffff", "valid_frac_scene": 1.0, "wind_ms": 7.7, "sea": "волнение", "scene_reliable": true, "field_event_id": "S4:DOORS3:T23", "field_profile": "B", "field_date": "2024-06-10", "field_distance_km": 6963.2, "field_date_gap_days": 472, "field_conc_items_km2": 102.37, "conc_A_items_km2": null, "conc_A_lo80": null, "conc_A_hi80": null, "conc_A_lo95": null, "conc_A_hi95": null, "conc_A_status": "unavailable", "conc_A_status_ru": "концентрация недоступна", "conc_A_reasons": "вне бассейна профиля: nw_atlantic_subtropical", "conc_A_model": "conc-A-c6bce5631d2b", "conc_B_items_km2": null, "conc_B_lo80": null, "conc_B_hi80": null, "conc_B_lo95": null, "conc_B_hi95": null, "conc_B_status": "unavailable", "conc_B_status_ru": "концентрация недоступна", "conc_B_reasons": "вне бассейна профиля: black_sea", "conc_B_model": "conc-B-c6bce5631d2b"}}, {"type": "Feature", "geometry": {"type": "Polygon", "coordinates": [[[131.6468533316446, 43.16428638917584], [131.64684944543845, 43.16419643711563], [131.64672656203587, 43.16419928179086], [131.64672267602757, 43.164109329720034], [131.6468455592502, 43.16410648505369], [131.6468416730799, 43.16401653299007], [131.64708743911166, 43.16401084327968], [131.6470913256418, 43.16410079532553], [131.64721420881074, 43.1640979502637], [131.6472180955387, 43.164187902298956], [131.64709521218987, 43.16419074736968], [131.6470990987558, 43.16428069941211], [131.6468533316446, 43.16428638917584]]]}, "properties": {"zone_id": "vladivostok-2025-09-25-017", "aoi": "vladivostok", "date": "2025-09-25", "scene_id": "S2C_MSIL2A_20250925T020711_R103_T52TGN_20250925T055015", "scene_datetime_utc": "2025-09-25T02:07:11.025000+00:00", "detection_status": "detected", "detection_status_ru": "обнаружено", "lon": 131.64697, "lat": 43.16415, "n_pixels": 2, "zone_area_km2": 0.0008, "cover_m2": 7.5, "p_mean": 0.733, "p_max": 0.855, "cover_m2_km2": 9375.0, "h3": "88316c4311fffff", "valid_frac_scene": 1.0, "wind_ms": 7.7, "sea": "волнение", "scene_reliable": true, "field_event_id": "S4:DOORS3:T23", "field_profile": "B", "field_date": "2024-06-10", "field_distance_km": 6963.5, "field_date_gap_days": 472, "field_conc_items_km2": 102.37, "conc_A_items_km2": null, "conc_A_lo80": null, "conc_A_hi80": null, "conc_A_lo95": null, "conc_A_hi95": null, "conc_A_status": "unavailable", "conc_A_status_ru": "концентрация недоступна", "conc_A_reasons": "вне бассейна профиля: nw_atlantic_subtropical", "conc_A_model": "conc-A-c6bce5631d2b", "conc_B_items_km2": null, "conc_B_lo80": null, "conc_B_hi80": null, "conc_B_lo95": null, "conc_B_hi95": null, "conc_B_status": "unavailable", "conc_B_status_ru": "концентрация недоступна", "conc_B_reasons": "вне бассейна профиля: black_sea", "conc_B_model": "conc-B-c6bce5631d2b"}}, {"type": "Feature", "geometry": {"type": "Polygon", "coordinates": [[[131.65353609622355, 43.159539344650696], [131.65353220085828, 43.159449393002156], [131.65340932763382, 43.15945224460514], [131.65340153731688, 43.15927234128514], [131.65364338753707, 43.159176686338334], [131.65364728302836, 43.15926663798305], [131.6537701558572, 43.15926378613431], [131.6537779472533, 43.15944368940082], [131.65353609622355, 43.159539344650696]]]}, "properties": {"zone_id": "vladivostok-2025-09-25-018", "aoi": "vladivostok", "date": "2025-09-25", "scene_id": "S2C_MSIL2A_20250925T020711_R103_T52TGN_20250925T055015", "scene_datetime_utc": "2025-09-25T02:07:11.025000+00:00", "detection_status": "detected", "detection_status_ru": "обнаружено", "lon": 131.65359, "lat": 43.15936, "n_pixels": 2, "zone_area_km2": 0.0008, "cover_m2": 7.8, "p_mean": 0.882, "p_max": 0.882, "cover_m2_km2": 9750.0, "h3": "88316c4313fffff", "valid_frac_scene": 1.0, "wind_ms": 7.7, "sea": "волнение", "scene_reliable": true, "field_event_id": "S4:DOORS3:T23", "field_profile": "B", "field_date": "2024-06-10", "field_distance_km": 6964.2, "field_date_gap_days": 472, "field_conc_items_km2": 102.37, "conc_A_items_km2": null, "conc_A_lo80": null, "conc_A_hi80": null, "conc_A_lo95": null, "conc_A_hi95": null, "conc_A_status": "unavailable", "conc_A_status_ru": "концентрация недоступна", "conc_A_reasons": "вне бассейна профиля: nw_atlantic_subtropical", "conc_A_model": "conc-A-c6bce5631d2b", "conc_B_items_km2": null, "conc_B_lo80": null, "conc_B_hi80": null, "conc_B_lo95": null, "conc_B_hi95": null, "conc_B_status": "unavailable", "conc_B_status_ru": "концентрация недоступна", "conc_B_reasons": "вне бассейна профиля: black_sea", "conc_B_model": "conc-B-c6bce5631d2b"}}, {"type": "Feature", "geometry": {"type": "Polygon", "coordinates": [[[131.88955847824656, 43.148955505510656], [131.8895542382502, 43.14886557166591], [131.88943141077092, 43.148868676103454], [131.88942293119612, 43.14868880838927], [131.88966434529937, 43.14859266558096], [131.8896685854167, 43.148682599421285], [131.88979141249771, 43.14867949473979], [131.8897998931502, 43.14885936239576], [131.88955847824656, 43.148955505510656]]]}, "properties": {"zone_id": "vladivostok-2025-09-25-019", "aoi": "vladivostok", "date": "2025-09-25", "scene_id": "S2C_MSIL2A_20250925T020711_R103_T52TGN_20250925T055015", "scene_datetime_utc": "2025-09-25T02:07:11.025000+00:00", "detection_status": "detected", "detection_status_ru": "обнаружено", "lon": 131.88961, "lat": 43.14877, "n_pixels": 2, "zone_area_km2": 0.0008, "cover_m2": 15.3, "p_mean": 0.904, "p_max": 0.961, "cover_m2_km2": 19125.0, "h3": "88316c54dbfffff", "valid_frac_scene": 1.0, "wind_ms": 7.7, "sea": "волнение", "scene_reliable": true, "field_event_id": "S4:DOORS3:T23", "field_profile": "B", "field_date": "2024-06-10", "field_distance_km": 6980.8, "field_date_gap_days": 472, "field_conc_items_km2": 102.37, "conc_A_items_km2": null, "conc_A_lo80": null, "conc_A_hi80": null, "conc_A_lo95": null, "conc_A_hi95": null, "conc_A_status": "unavailable", "conc_A_status_ru": "концентрация недоступна", "conc_A_reasons": "вне бассейна профиля: nw_atlantic_subtropical", "conc_A_model": "conc-A-c6bce5631d2b", "conc_B_items_km2": null, "conc_B_lo80": null, "conc_B_hi80": null, "conc_B_lo95": null, "conc_B_hi95": null, "conc_B_status": "unavailable", "conc_B_status_ru": "концентрация недоступна", "conc_B_reasons": "вне бассейна профиля: black_sea", "conc_B_model": "conc-B-c6bce5631d2b"}}, {"type": "Feature", "geometry": {"type": "Polygon", "coordinates": [[[131.72767564560175, 43.078737572137356], [131.72767165276417, 43.07864762469508], [131.7275489485934, 43.078650551544825], [131.7275409633315, 43.07847065663681], [131.72778237797684, 43.07837485540424], [131.72778637093836, 43.07846480284251], [131.72790907471423, 43.07846187574826], [131.72791706105056, 43.07864177060137], [131.72767564560175, 43.078737572137356]]]}, "properties": {"zone_id": "vladivostok-2025-09-25-020", "aoi": "vladivostok", "date": "2025-09-25", "scene_id": "S2C_MSIL2A_20250925T020711_R103_T52TGN_20250925T055015", "scene_datetime_utc": "2025-09-25T02:07:11.025000+00:00", "detection_status": "detected", "detection_status_ru": "обнаружено", "lon": 131.72773, "lat": 43.07856, "n_pixels": 2, "zone_area_km2": 0.0008, "cover_m2": 9.0, "p_mean": 0.969, "p_max": 0.984, "cover_m2_km2": 11250.0, "h3": "88316c4725fffff", "valid_frac_scene": 1.0, "wind_ms": 7.7, "sea": "волнение", "scene_reliable": true, "field_event_id": "S4:DOORS3:T23", "field_profile": "B", "field_date": "2024-06-10", "field_distance_km": 6974.2, "field_date_gap_days": 472, "field_conc_items_km2": 102.37, "conc_A_items_km2": null, "conc_A_lo80": null, "conc_A_hi80": null, "conc_A_lo95": null, "conc_A_hi95": null, "conc_A_status": "unavailable", "conc_A_status_ru": "концентрация недоступна", "conc_A_reasons": "вне бассейна профиля: nw_atlantic_subtropical", "conc_A_model": "conc-A-c6bce5631d2b", "conc_B_items_km2": null, "conc_B_lo80": null, "conc_B_hi80": null, "conc_B_lo95": null, "conc_B_hi95": null, "conc_B_status": "unavailable", "conc_B_status_ru": "концентрация недоступна", "conc_B_reasons": "вне бассейна профиля: black_sea", "conc_B_model": "conc-B-c6bce5631d2b"}}, {"type": "Feature", "geometry": {"type": "Polygon", "coordinates": [[[131.92050010517738, 43.06272000032995], [131.92049583270463, 43.06263006759524], [131.92037318088452, 43.06263320025367], [131.92036890861021, 43.06254326750741], [131.92049156025155, 43.062540134858764], [131.9204872878181, 43.06245020212053], [131.9207368634752, 43.06253386916767], [131.92074113628593, 43.06262380188456], [131.9206184845051, 43.06262693480554], [131.92062275715668, 43.062716867530455], [131.92050010517738, 43.06272000032995]]]}, "properties": {"zone_id": "vladivostok-2025-09-25-021", "aoi": "vladivostok", "date": "2025-09-25", "scene_id": "S2C_MSIL2A_20250925T020711_R103_T52TGN_20250925T055015", "scene_datetime_utc": "2025-09-25T02:07:11.025000+00:00", "detection_status": "detected", "detection_status_ru": "обнаружено", "lon": 131.92056, "lat": 43.06258, "n_pixels": 1, "zone_area_km2": 0.0005, "cover_m2": 10.6, "p_mean": 0.659, "p_max": 0.659, "cover_m2_km2": 21200.0, "h3": "88316c09ebfffff", "valid_frac_scene": 1.0, "wind_ms": 7.7, "sea": "волнение", "scene_reliable": true, "field_event_id": "S4:DOORS3:T23", "field_profile": "B", "field_date": "2024-06-10", "field_distance_km": 6988.2, "field_date_gap_days": 472, "field_conc_items_km2": 102.37, "conc_A_items_km2": null, "conc_A_lo80": null, "conc_A_hi80": null, "conc_A_lo95": null, "conc_A_hi95": null, "conc_A_status": "unavailable", "conc_A_status_ru": "концентрация недоступна", "conc_A_reasons": "вне бассейна профиля: nw_atlantic_subtropical", "conc_A_model": "conc-A-c6bce5631d2b", "conc_B_items_km2": null, "conc_B_lo80": null, "conc_B_hi80": null, "conc_B_lo95": null, "conc_B_hi95": null, "conc_B_status": "unavailable", "conc_B_status_ru": "концентрация недоступна", "conc_B_reasons": "вне бассейна профиля: black_sea", "conc_B_model": "conc-B-c6bce5631d2b"}}, {"type": "Feature", "geometry": {"type": "Polygon", "coordinates": [[[131.84399648649992, 43.05213251310546], [131.84399232739193, 43.052042574146284], [131.84386968841184, 43.052045624212155], [131.84386552950178, 43.051955685241694], [131.84398816830307, 43.05195263518535], [131.84398400923337, 43.051862696222706], [131.8442334458483, 43.05194653467894], [131.84423760529464, 43.052036473620795], [131.84411496635286, 43.05203952394916], [131.84411912563962, 43.05212946289881], [131.84399648649992, 43.05213251310546]]]}, "properties": {"zone_id": "vladivostok-2025-09-25-022", "aoi": "vladivostok", "date": "2025-09-25", "scene_id": "S2C_MSIL2A_20250925T020711_R103_T52TGN_20250925T055015", "scene_datetime_utc": "2025-09-25T02:07:11.025000+00:00", "detection_status": "detected", "detection_status_ru": "обнаружено", "lon": 131.84405, "lat": 43.052, "n_pixels": 1, "zone_area_km2": 0.0005, "cover_m2": 8.2, "p_mean": 0.941, "p_max": 0.941, "cover_m2_km2": 16400.0, "h3": "88316c46e7fffff", "valid_frac_scene": 1.0, "wind_ms": 7.7, "sea": "волнение", "scene_reliable": true, "field_event_id": "S4:DOORS3:T23", "field_profile": "B", "field_date": "2024-06-10", "field_distance_km": 6983.7, "field_date_gap_days": 472, "field_conc_items_km2": 102.37, "conc_A_items_km2": null, "conc_A_lo80": null, "conc_A_hi80": null, "conc_A_lo95": null, "conc_A_hi95": null, "conc_A_status": "unavailable", "conc_A_status_ru": "концентрация недоступна", "conc_A_reasons": "вне бассейна профиля: nw_atlantic_subtropical", "conc_A_model": "conc-A-c6bce5631d2b", "conc_B_items_km2": null, "conc_B_lo80": null, "conc_B_hi80": null, "conc_B_lo95": null, "conc_B_hi95": null, "conc_B_status": "unavailable", "conc_B_status_ru": "концентрация недоступна", "conc_B_reasons": "вне бассейна профиля: black_sea", "conc_B_model": "conc-B-c6bce5631d2b"}}, {"type": "Feature", "geometry": {"type": "Polygon", "coordinates": [[[131.97004291685218, 42.99517294413335], [131.97003858220555, 42.995083014342775], [131.96991607026416, 42.995086196114094], [131.96991173581563, 42.994996266311816], [131.97003424757887, 42.99499308455043], [131.9700299129721, 42.99490315475634], [131.97027927104554, 42.994986720634856], [131.97028360602854, 42.995076650407306], [131.97016109412704, 42.99507983244051], [131.97016542895182, 42.995169762221146], [131.97004291685218, 42.99517294413335]]]}, "properties": {"zone_id": "vladivostok-2025-09-25-023", "aoi": "vladivostok", "date": "2025-09-25", "scene_id": "S2C_MSIL2A_20250925T020711_R103_T52TGN_20250925T055015", "scene_datetime_utc": "2025-09-25T02:07:11.025000+00:00", "detection_status": "detected", "detection_status_ru": "обнаружено", "lon": 131.9701, "lat": 42.99504, "n_pixels": 1, "zone_area_km2": 0.0005, "cover_m2": 6.3, "p_mean": 0.933, "p_max": 0.933, "cover_m2_km2": 12600.0, "h3": "88316c7203fffff", "valid_frac_scene": 1.0, "wind_ms": 7.7, "sea": "волнение", "scene_reliable": true, "field_event_id": "S4:DOORS3:T23", "field_profile": "B", "field_date": "2024-06-10", "field_distance_km": 6995.7, "field_date_gap_days": 472, "field_conc_items_km2": 102.37, "conc_A_items_km2": null, "conc_A_lo80": null, "conc_A_hi80": null, "conc_A_lo95": null, "conc_A_hi95": null, "conc_A_status": "unavailable", "conc_A_status_ru": "концентрация недоступна", "conc_A_reasons": "вне бассейна профиля: nw_atlantic_subtropical", "conc_A_model": "conc-A-c6bce5631d2b", "conc_B_items_km2": null, "conc_B_lo80": null, "conc_B_hi80": null, "conc_B_lo95": null, "conc_B_hi95": null, "conc_B_status": "unavailable", "conc_B_status_ru": "концентрация недоступна", "conc_B_reasons": "вне бассейна профиля: black_sea", "conc_B_model": "conc-B-c6bce5631d2b"}}, {"type": "Feature", "geometry": {"type": "Polygon", "coordinates": [[[131.96760690760942, 42.99298512556823], [131.96760257684588, 42.99289519554452], [131.9674800689796, 42.99289837457946], [131.96747140786857, 42.99271851450684], [131.96771209198673, 42.99262222632668], [131.96771642286865, 42.99271215634578], [131.96783893033881, 42.99270897706886], [131.9678475925187, 42.992888837081836], [131.96760690760942, 42.99298512556823]]]}, "properties": {"zone_id": "vladivostok-2025-09-25-024", "aoi": "vladivostok", "date": "2025-09-25", "scene_id": "S2C_MSIL2A_20250925T020711_R103_T52TGN_20250925T055015", "scene_datetime_utc": "2025-09-25T02:07:11.025000+00:00", "detection_status": "detected", "detection_status_ru": "обнаружено", "lon": 131.96766, "lat": 42.9928, "n_pixels": 2, "zone_area_km2": 0.0008, "cover_m2": 12.5, "p_mean": 0.975, "p_max": 0.988, "cover_m2_km2": 15625.0, "h3": "88316c7203fffff", "valid_frac_scene": 1.0, "wind_ms": 7.7, "sea": "волнение", "scene_reliable": true, "field_event_id": "S4:DOORS3:T23", "field_profile": "B", "field_date": "2024-06-10", "field_distance_km": 6995.7, "field_date_gap_days": 472, "field_conc_items_km2": 102.37, "conc_A_items_km2": null, "conc_A_lo80": null, "conc_A_hi80": null, "conc_A_lo95": null, "conc_A_hi95": null, "conc_A_status": "unavailable", "conc_A_status_ru": "концентрация недоступна", "conc_A_reasons": "вне бассейна профиля: nw_atlantic_subtropical", "conc_A_model": "conc-A-c6bce5631d2b", "conc_B_items_km2": null, "conc_B_lo80": null, "conc_B_hi80": null, "conc_B_lo95": null, "conc_B_hi95": null, "conc_B_status": "unavailable", "conc_B_status_ru": "концентрация недоступна", "conc_B_reasons": "вне бассейна профиля: black_sea", "conc_B_model": "conc-B-c6bce5631d2b"}}, {"type": "Feature", "geometry": {"type": "Polygon", "coordinates": [[[131.7488079301945, 42.97990438423048], [131.74880392031378, 42.979814436820035], [131.74868141502157, 42.97981738093423], [131.74867740533742, 42.979727433512856], [131.74879991045148, 42.97972448940787], [131.74879590060763, 42.979634541993974], [131.74891840552507, 42.97963159776725], [131.7489143955215, 42.979541650360844], [131.7491634153046, 42.97962570892094], [131.74917143607968, 42.97980560369176], [131.74904893084283, 42.979808548198804], [131.7490529410799, 42.97989849559083], [131.7488079301945, 42.97990438423048]]]}, "properties": {"zone_id": "vladivostok-2025-09-25-025", "aoi": "vladivostok", "date": "2025-09-25", "scene_id": "S2C_MSIL2A_20250925T020711_R103_T52TGN_20250925T055015", "scene_datetime_utc": "2025-09-25T02:07:11.025000+00:00", "detection_status": "detected", "detection_status_ru": "обнаружено", "lon": 131.74894, "lat": 42.97974, "n_pixels": 3, "zone_area_km2": 0.001, "cover_m2": 28.2, "p_mean": 0.681, "p_max": 0.784, "cover_m2_km2": 28200.0, "h3": "88316c45a3fffff", "valid_frac_scene": 1.0, "wind_ms": 7.7, "sea": "волнение", "scene_reliable": true, "field_event_id": "S4:DOORS3:T23", "field_profile": "B", "field_date": "2024-06-10", "field_distance_km": 6981.7, "field_date_gap_days": 472, "field_conc_items_km2": 102.37, "conc_A_items_km2": null, "conc_A_lo80": null, "conc_A_hi80": null, "conc_A_lo95": null, "conc_A_hi95": null, "conc_A_status": "unavailable", "conc_A_status_ru": "концентрация недоступна", "conc_A_reasons": "вне бассейна профиля: nw_atlantic_subtropical", "conc_A_model": "conc-A-c6bce5631d2b", "conc_B_items_km2": null, "conc_B_lo80": null, "conc_B_hi80": null, "conc_B_lo95": null, "conc_B_hi95": null, "conc_B_status": "unavailable", "conc_B_status_ru": "концентрация недоступна", "conc_B_reasons": "вне бассейна профиля: black_sea", "conc_B_model": "conc-B-c6bce5631d2b"}}, {"type": "Feature", "geometry": {"type": "Polygon", "coordinates": [[[131.96029916306594, 42.97363529367714], [131.9602948458768, 42.97354536275352], [131.96017237561446, 42.973548532828694], [131.96016805862314, 42.973458601893384], [131.9602905287075, 42.97345543182812], [131.96028621155807, 42.973365500900975], [131.9605354688167, 42.97344909130506], [131.9605397863419, 42.973539022210645], [131.96041731611928, 42.973542192547505], [131.96042163348642, 42.973632123461215], [131.96029916306594, 42.97363529367714]]]}, "properties": {"zone_id": "vladivostok-2025-09-25-026", "aoi": "vladivostok", "date": "2025-09-25", "scene_id": "S2C_MSIL2A_20250925T020711_R103_T52TGN_20250925T055015", "scene_datetime_utc": "2025-09-25T02:07:11.025000+00:00", "detection_status": "detected", "detection_status_ru": "обнаружено", "lon": 131.96035, "lat": 42.9735, "n_pixels": 1, "zone_area_km2": 0.0005, "cover_m2": 5.5, "p_mean": 0.945, "p_max": 0.945, "cover_m2_km2": 11000.0, "h3": "88316c7237fffff", "valid_frac_scene": 1.0, "wind_ms": 7.7, "sea": "волнение", "scene_reliable": true, "field_event_id": "S4:DOORS3:T23", "field_profile": "B", "field_date": "2024-06-10", "field_distance_km": 6996.4, "field_date_gap_days": 472, "field_conc_items_km2": 102.37, "conc_A_items_km2": null, "conc_A_lo80": null, "conc_A_hi80": null, "conc_A_lo95": null, "conc_A_hi95": null, "conc_A_status": "unavailable", "conc_A_status_ru": "концентрация недоступна", "conc_A_reasons": "вне бассейна профиля: nw_atlantic_subtropical", "conc_A_model": "conc-A-c6bce5631d2b", "conc_B_items_km2": null, "conc_B_lo80": null, "conc_B_hi80": null, "conc_B_lo95": null, "conc_B_hi95": null, "conc_B_status": "unavailable", "conc_B_status_ru": "концентрация недоступна", "conc_B_reasons": "вне бассейна профиля: black_sea", "conc_B_model": "conc-B-c6bce5631d2b"}}]}