{"type": "FeatureCollection", "features": [{"type": "Feature", "geometry": {"type": "Polygon", "coordinates": [[[36.543346238565, 45.175387003525195], [36.54335010772554, 45.17529706989813], [36.54309967644259, 45.17520166269418], [36.543103545966225, 45.17511172908081], [36.54336171509785, 45.17502726900684], [36.54335784599196, 45.17511720263896], [36.543484996032156, 45.17511993920589], [36.54348886493828, 45.17503000556523], [36.54361601479693, 45.175032741982214], [36.54361214609057, 45.175122675631386], [36.54373929616719, 45.17512541191547], [36.54373155909936, 45.17530527922585], [36.5436044086232, 45.1753025429247], [36.543600539862204, 45.17539247656883], [36.543346238565, 45.175387003525195]]]}, "properties": {"zone_id": "kerch-2025-04-27-001", "aoi": "kerch", "date": "2025-04-27", "scene_id": "S2B_MSIL2A_20250427T082559_R021_T37TCK_20250427T104737", "scene_datetime_utc": "2025-04-27T08:25:59.024000+00:00", "detection_status": "detected", "detection_status_ru": "обнаружено", "lon": 36.54345, "lat": 45.17521, "n_pixels": 4, "zone_area_km2": 0.0013, "cover_m2": 16.1, "p_mean": 0.833, "p_max": 0.996, "cover_m2_km2": 12384.6, "h3": "882d76b8bbfffff", "valid_frac_scene": 0.975, "wind_ms": 9.8, "sea": "шторм", "scene_reliable": false, "field_event_id": "S4:DOORS3:T11", "field_profile": "B", "field_date": "2024-06-04", "field_distance_km": 298.5, "field_date_gap_days": 327, "field_conc_items_km2": 62.52, "conc_A_items_km2": null, "conc_A_lo80": null, "conc_A_hi80": null, "conc_A_lo95": null, "conc_A_hi95": null, "conc_A_status": "unavailable", "conc_A_status_ru": "концентрация недоступна", "conc_A_reasons": "вне бассейна профиля: nw_atlantic_subtropical", "conc_A_model": "conc-A-c6bce5631d2b", "conc_B_items_km2": 463.0, "conc_B_lo80": 98.6, "conc_B_hi80": 1556.0, "conc_B_lo95": 61.4, "conc_B_hi95": 2913.7, "conc_B_status": "research_estimate", "conc_B_status_ru": "исследовательская оценка", "conc_B_reasons": "ближайшее полевое измерение в 298 км (> 60 км); месяц 4 вне месяцев обучения [6]", "conc_B_model": "conc-B-c6bce5631d2b"}}, {"type": "Feature", "geometry": {"type": "Polygon", "coordinates": [[[36.63868310799717, 45.11348681958025], [36.63868681907725, 45.11339687866858], [36.63843277549355, 45.11339162295579], [36.63843648695452, 45.11330168205885], [36.63830946538804, 45.11329905399892], [36.63831688865596, 45.11311917221645], [36.63844390982409, 45.113121800259975], [36.638447621232686, 45.11303185935804], [36.63895570528313, 45.11304237008789], [36.63895199467124, 45.1131323110226], [36.63907901592667, 45.11313493836038], [36.63907530549648, 45.11322487930161], [36.63920232696856, 45.113227506506426], [36.63919490645418, 45.11340738840031], [36.63906788458375, 45.113404761179105], [36.6390641741012, 45.11349470211536], [36.63868310799717, 45.11348681958025]]]}, "properties": {"zone_id": "kerch-2025-04-27-002", "aoi": "kerch", "date": "2025-04-27", "scene_id": "S2B_MSIL2A_20250427T082559_R021_T37TCK_20250427T104737", "scene_datetime_utc": "2025-04-27T08:25:59.024000+00:00", "detection_status": "detected", "detection_status_ru": "обнаружено", "lon": 36.63877, "lat": 45.11326, "n_pixels": 12, "zone_area_km2": 0.0026, "cover_m2": 138.0, "p_mean": 0.969, "p_max": 0.996, "cover_m2_km2": 53076.9, "h3": "882d76a847fffff", "valid_frac_scene": 0.975, "wind_ms": 9.8, "sea": "шторм", "scene_reliable": false, "field_event_id": "S4:DOORS3:T11", "field_profile": "B", "field_date": "2024-06-04", "field_distance_km": 291.4, "field_date_gap_days": 327, "field_conc_items_km2": 62.52, "conc_A_items_km2": null, "conc_A_lo80": null, "conc_A_hi80": null, "conc_A_lo95": null, "conc_A_hi95": null, "conc_A_status": "unavailable", "conc_A_status_ru": "концентрация недоступна", "conc_A_reasons": "вне бассейна профиля: nw_atlantic_subtropical", "conc_A_model": "conc-A-c6bce5631d2b", "conc_B_items_km2": 541.7, "conc_B_lo80": 115.5, "conc_B_hi80": 1820.2, "conc_B_lo95": 72.0, "conc_B_hi95": 3408.4, "conc_B_status": "research_estimate", "conc_B_status_ru": "исследовательская оценка", "conc_B_reasons": "ближайшее полевое измерение в 291 км (> 60 км); месяц 4 вне месяцев обучения [6]", "conc_B_model": "conc-B-c6bce5631d2b"}}, {"type": "Feature", "geometry": {"type": "Polygon", "coordinates": [[[36.8434968864219, 45.11330905831961], [36.843500275751104, 45.11321910470082], [36.84337323640216, 45.11321670473053], [36.843386794356604, 45.11285689026909], [36.843513832908414, 45.112859290209435], [36.84351722215787, 45.112769336582524], [36.84377129891075, 45.11277413602462], [36.84376791005987, 45.112864089666495], [36.844021987275106, 45.112868888558715], [36.84401859880684, 45.11295884221392], [36.84414563763766, 45.11296124145571], [36.84413886105187, 45.11314114877623], [36.84401182182248, 45.11313874951949], [36.84400843330637, 45.113228703169845], [36.843627315116, 45.11322150452989], [36.84362392598609, 45.11331145815616], [36.8434968864219, 45.11330905831961]]]}, "properties": {"zone_id": "kerch-2025-04-27-003", "aoi": "kerch", "date": "2025-04-27", "scene_id": "S2B_MSIL2A_20250427T082559_R021_T37TCK_20250427T104737", "scene_datetime_utc": "2025-04-27T08:25:59.024000+00:00", "detection_status": "detected", "detection_status_ru": "обнаружено", "lon": 36.84372, "lat": 45.11303, "n_pixels": 10, "zone_area_km2": 0.0025, "cover_m2": 54.5, "p_mean": 0.751, "p_max": 0.98, "cover_m2_km2": 21800.0, "h3": "882d763233fffff", "valid_frac_scene": 0.975, "wind_ms": 9.8, "sea": "шторм", "scene_reliable": false, "field_event_id": "S4:DOORS3:T11", "field_profile": "B", "field_date": "2024-06-04", "field_distance_km": 291.7, "field_date_gap_days": 327, "field_conc_items_km2": 62.52, "conc_A_items_km2": null, "conc_A_lo80": null, "conc_A_hi80": null, "conc_A_lo95": null, "conc_A_hi95": null, "conc_A_status": "unavailable", "conc_A_status_ru": "концентрация недоступна", "conc_A_reasons": "вне бассейна профиля: nw_atlantic_subtropical", "conc_A_model": "conc-A-c6bce5631d2b", "conc_B_items_km2": 670.1, "conc_B_lo80": 143.1, "conc_B_hi80": 2251.2, "conc_B_lo95": 89.3, "conc_B_hi95": 4215.1, "conc_B_status": "research_estimate", "conc_B_status_ru": "исследовательская оценка", "conc_B_reasons": "ближайшее полевое измерение в 292 км (> 60 км); месяц 4 вне месяцев обучения [6]; log_dist_coast_km = 0.8 вне диапазона обучения [1.7; 5.0]", "conc_B_model": "conc-B-c6bce5631d2b"}}, {"type": "Feature", "geometry": {"type": "Polygon", "coordinates": [[[36.635899774370976, 45.113159153306604], [36.63590348978049, 45.11306921257034], [36.635776468961794, 45.11306658170377], [36.63578390012673, 45.11288670024262], [36.63591092054709, 45.112889331092795], [36.635914635904165, 45.11279939035153], [36.63616867639897, 45.112804651612], [36.63616496144023, 45.11289459236968], [36.636291981913025, 45.1128972227964], [36.63628455234146, 45.11307710432316], [36.63615753147032, 45.11307447388004], [36.63615381645915, 45.113164414632706], [36.635899774370976, 45.113159153306604]]]}, "properties": {"zone_id": "kerch-2025-04-27-004", "aoi": "kerch", "date": "2025-04-27", "scene_id": "S2B_MSIL2A_20250427T082559_R021_T37TCK_20250427T104737", "scene_datetime_utc": "2025-04-27T08:25:59.024000+00:00", "detection_status": "detected", "detection_status_ru": "обнаружено", "lon": 36.63603, "lat": 45.11298, "n_pixels": 4, "zone_area_km2": 0.0012, "cover_m2": 62.0, "p_mean": 0.937, "p_max": 0.969, "cover_m2_km2": 51666.7, "h3": "882d76a847fffff", "valid_frac_scene": 0.975, "wind_ms": 9.8, "sea": "шторм", "scene_reliable": false, "field_event_id": "S4:DOORS3:T11", "field_profile": "B", "field_date": "2024-06-04", "field_distance_km": 291.4, "field_date_gap_days": 327, "field_conc_items_km2": 62.52, "conc_A_items_km2": null, "conc_A_lo80": null, "conc_A_hi80": null, "conc_A_lo95": null, "conc_A_hi95": null, "conc_A_status": "unavailable", "conc_A_status_ru": "концентрация недоступна", "conc_A_reasons": "вне бассейна профиля: nw_atlantic_subtropical", "conc_A_model": "conc-A-c6bce5631d2b", "conc_B_items_km2": 541.7, "conc_B_lo80": 115.5, "conc_B_hi80": 1820.2, "conc_B_lo95": 72.0, "conc_B_hi95": 3408.4, "conc_B_status": "research_estimate", "conc_B_status_ru": "исследовательская оценка", "conc_B_reasons": "ближайшее полевое измерение в 291 км (> 60 км); месяц 4 вне месяцев обучения [6]", "conc_B_model": "conc-B-c6bce5631d2b"}}, {"type": "Feature", "geometry": {"type": "Polygon", "coordinates": [[[36.8440287641638, 45.11268898124341], [36.844032152584234, 45.11259902758332], [36.84378146536774, 45.112504275089265], [36.84378485415484, 45.112414321440895], [36.84391189175808, 45.11241672092019], [36.843915280329966, 45.112326767262715], [36.8442963926375, 45.11233396483091], [36.84429300466346, 45.112423918510814], [36.84442004233048, 45.11242631742528], [36.84441665453978, 45.11251627111106], [36.844289616673485, 45.11251387218911], [36.844286228667556, 45.1126038258658], [36.8440287641638, 45.11268898124341]]]}, "properties": {"zone_id": "kerch-2025-04-27-005", "aoi": "kerch", "date": "2025-04-27", "scene_id": "S2B_MSIL2A_20250427T082559_R021_T37TCK_20250427T104737", "scene_datetime_utc": "2025-04-27T08:25:59.024000+00:00", "detection_status": "detected", "detection_status_ru": "обнаружено", "lon": 36.8441, "lat": 45.11249, "n_pixels": 4, "zone_area_km2": 0.0012, "cover_m2": 19.6, "p_mean": 0.807, "p_max": 0.992, "cover_m2_km2": 16333.3, "h3": "882d763233fffff", "valid_frac_scene": 0.975, "wind_ms": 9.8, "sea": "шторм", "scene_reliable": false, "field_event_id": "S4:DOORS3:T11", "field_profile": "B", "field_date": "2024-06-04", "field_distance_km": 291.6, "field_date_gap_days": 327, "field_conc_items_km2": 62.52, "conc_A_items_km2": null, "conc_A_lo80": null, "conc_A_hi80": null, "conc_A_lo95": null, "conc_A_hi95": null, "conc_A_status": "unavailable", "conc_A_status_ru": "концентрация недоступна", "conc_A_reasons": "вне бассейна профиля: nw_atlantic_subtropical", "conc_A_model": "conc-A-c6bce5631d2b", "conc_B_items_km2": 670.1, "conc_B_lo80": 143.1, "conc_B_hi80": 2251.2, "conc_B_lo95": 89.3, "conc_B_hi95": 4215.1, "conc_B_status": "research_estimate", "conc_B_status_ru": "исследовательская оценка", "conc_B_reasons": "ближайшее полевое измерение в 292 км (> 60 км); месяц 4 вне месяцев обучения [6]; log_dist_coast_km = 0.8 вне диапазона обучения [1.7; 5.0]", "conc_B_model": "conc-B-c6bce5631d2b"}}, {"type": "Feature", "geometry": {"type": "Polygon", "coordinates": [[[36.84277194426846, 45.11230516693293], [36.84277533461789, 45.1122152133412], [36.84264829755676, 45.112212812605996], [36.84265507860631, 45.11203290543266], [36.842782115268896, 45.112035306152876], [36.84278550557046, 45.11194535255628], [36.842912542049724, 45.11194775312781], [36.842915932136066, 45.11185779952211], [36.843170004743904, 45.11186260022658], [36.8431666150561, 45.11195255384725], [36.84329365158322, 45.11195495399515], [36.843290262078746, 45.1120449076217], [36.84303279872295, 45.11213006077965], [36.84302940878802, 45.112220014387965], [36.84277194426846, 45.11230516693293]]]}, "properties": {"zone_id": "kerch-2025-04-27-006", "aoi": "kerch", "date": "2025-04-27", "scene_id": "S2B_MSIL2A_20250427T082559_R021_T37TCK_20250427T104737", "scene_datetime_utc": "2025-04-27T08:25:59.024000+00:00", "detection_status": "detected", "detection_status_ru": "обнаружено", "lon": 36.84295, "lat": 45.11207, "n_pixels": 5, "zone_area_km2": 0.0014, "cover_m2": 27.8, "p_mean": 0.951, "p_max": 0.996, "cover_m2_km2": 19857.1, "h3": "882d763233fffff", "valid_frac_scene": 0.975, "wind_ms": 9.8, "sea": "шторм", "scene_reliable": false, "field_event_id": "S4:DOORS3:T11", "field_profile": "B", "field_date": "2024-06-04", "field_distance_km": 291.6, "field_date_gap_days": 327, "field_conc_items_km2": 62.52, "conc_A_items_km2": null, "conc_A_lo80": null, "conc_A_hi80": null, "conc_A_lo95": null, "conc_A_hi95": null, "conc_A_status": "unavailable", "conc_A_status_ru": "концентрация недоступна", "conc_A_reasons": "вне бассейна профиля: nw_atlantic_subtropical", "conc_A_model": "conc-A-c6bce5631d2b", "conc_B_items_km2": 670.1, "conc_B_lo80": 143.1, "conc_B_hi80": 2251.2, "conc_B_lo95": 89.3, "conc_B_hi95": 4215.1, "conc_B_status": "research_estimate", "conc_B_status_ru": "исследовательская оценка", "conc_B_reasons": "ближайшее полевое измерение в 292 км (> 60 км); месяц 4 вне месяцев обучения [6]; log_dist_coast_km = 0.8 вне диапазона обучения [1.7; 5.0]", "conc_B_model": "conc-B-c6bce5631d2b"}}, {"type": "Feature", "geometry": {"type": "Polygon", "coordinates": [[[36.843024549310904, 45.10222795466683], [36.84302793807327, 45.102138000900815], [36.84277729776985, 45.10204324693123], [36.84278407601155, 45.10186333942102], [36.84291109013016, 45.101865739577605], [36.842914479027925, 45.10177578581258], [36.84316511841523, 45.10187053946729], [36.843161729899855, 45.10196049324567], [36.843288744265465, 45.101962892986265], [36.84328196758524, 45.1021428005531], [36.843024549310904, 45.10222795466683]]]}, "properties": {"zone_id": "kerch-2025-04-27-007", "aoi": "kerch", "date": "2025-04-27", "scene_id": "S2B_MSIL2A_20250427T082559_R021_T37TCK_20250427T104737", "scene_datetime_utc": "2025-04-27T08:25:59.024000+00:00", "detection_status": "detected", "detection_status_ru": "обнаружено", "lon": 36.84303, "lat": 45.102, "n_pixels": 4, "zone_area_km2": 0.0012, "cover_m2": 48.2, "p_mean": 0.87, "p_max": 0.988, "cover_m2_km2": 40166.7, "h3": "882d763237fffff", "valid_frac_scene": 0.975, "wind_ms": 9.8, "sea": "шторм", "scene_reliable": false, "field_event_id": "S4:DOORS3:T11", "field_profile": "B", "field_date": "2024-06-04", "field_distance_km": 290.4, "field_date_gap_days": 327, "field_conc_items_km2": 62.52, "conc_A_items_km2": null, "conc_A_lo80": null, "conc_A_hi80": null, "conc_A_lo95": null, "conc_A_hi95": null, "conc_A_status": "unavailable", "conc_A_status_ru": "концентрация недоступна", "conc_A_reasons": "вне бассейна профиля: nw_atlantic_subtropical", "conc_A_model": "conc-A-c6bce5631d2b", "conc_B_items_km2": 670.1, "conc_B_lo80": 143.1, "conc_B_hi80": 2251.2, "conc_B_lo95": 89.3, "conc_B_hi95": 4215.1, "conc_B_status": "research_estimate", "conc_B_status_ru": "исследовательская оценка", "conc_B_reasons": "ближайшее полевое измерение в 290 км (> 60 км); месяц 4 вне месяцев обучения [6]; log_dist_coast_km = 0.8 вне диапазона обучения [1.7; 5.0]", "conc_B_model": "conc-B-c6bce5631d2b"}}, {"type": "Feature", "geometry": {"type": "Polygon", "coordinates": [[[36.66656420251918, 45.0938061852198], [36.6665678672909, 45.093716242199896], [36.66644088658823, 45.093713646303115], [36.666448216477924, 45.09353376027456], [36.666575196782624, 45.09353635615514], [36.66657886150263, 45.093446413130295], [36.66670584162558, 45.09344900886173], [36.66670950612936, 45.09335906582711], [36.66695980192319, 45.09345419990139], [36.666948809502344, 45.09372402904385], [36.666821828747956, 45.093721433570266], [36.66681816437422, 45.09381137660635], [36.66656420251918, 45.0938061852198]]]}, "properties": {"zone_id": "kerch-2025-04-27-008", "aoi": "kerch", "date": "2025-04-27", "scene_id": "S2B_MSIL2A_20250427T082559_R021_T37TCK_20250427T104737", "scene_datetime_utc": "2025-04-27T08:25:59.024000+00:00", "detection_status": "detected", "detection_status_ru": "обнаружено", "lon": 36.66671, "lat": 45.0936, "n_pixels": 5, "zone_area_km2": 0.0014, "cover_m2": 60.0, "p_mean": 0.812, "p_max": 0.906, "cover_m2_km2": 42857.1, "h3": "882d76a821fffff", "valid_frac_scene": 0.975, "wind_ms": 9.8, "sea": "шторм", "scene_reliable": false, "field_event_id": "S4:DOORS3:T11", "field_profile": "B", "field_date": "2024-06-04", "field_distance_km": 289.2, "field_date_gap_days": 327, "field_conc_items_km2": 62.52, "conc_A_items_km2": null, "conc_A_lo80": null, "conc_A_hi80": null, "conc_A_lo95": null, "conc_A_hi95": null, "conc_A_status": "unavailable", "conc_A_status_ru": "концентрация недоступна", "conc_A_reasons": "вне бассейна профиля: nw_atlantic_subtropical", "conc_A_model": "conc-A-c6bce5631d2b", "conc_B_items_km2": 520.5, "conc_B_lo80": 111.0, "conc_B_hi80": 1749.2, "conc_B_lo95": 69.2, "conc_B_hi95": 3275.4, "conc_B_status": "research_estimate", "conc_B_status_ru": "исследовательская оценка", "conc_B_reasons": "ближайшее полевое измерение в 289 км (> 60 км); месяц 4 вне месяцев обучения [6]", "conc_B_model": "conc-B-c6bce5631d2b"}}, {"type": "Feature", "geometry": {"type": "Polygon", "coordinates": [[[36.75251308850439, 45.092830282204694], [36.752516618239476, 45.092740333763636], [36.752266176028584, 45.092645384613775], [36.75226970612851, 45.092555436185016], [36.752396691885856, 45.092557936601345], [36.75240022177015, 45.09246798816316], [36.75290816416952, 45.09247798838639], [36.75290463508133, 45.092567936855765], [36.753031620921696, 45.09257043656666], [36.75302809201592, 45.09266038504219], [36.752770590633304, 45.09274533392204], [36.752767061296275, 45.09283528237869], [36.75251308850439, 45.092830282204694]]]}, "properties": {"zone_id": "kerch-2025-04-27-009", "aoi": "kerch", "date": "2025-04-27", "scene_id": "S2B_MSIL2A_20250427T082559_R021_T37TCK_20250427T104737", "scene_datetime_utc": "2025-04-27T08:25:59.024000+00:00", "detection_status": "detected", "detection_status_ru": "обнаружено", "lon": 36.75265, "lat": 45.09264, "n_pixels": 6, "zone_area_km2": 0.0016, "cover_m2": 69.4, "p_mean": 0.816, "p_max": 0.965, "cover_m2_km2": 43375.0, "h3": "882d76a995fffff", "valid_frac_scene": 0.975, "wind_ms": 9.8, "sea": "шторм", "scene_reliable": false, "field_event_id": "S4:DOORS3:T11", "field_profile": "B", "field_date": "2024-06-04", "field_distance_km": 289.2, "field_date_gap_days": 327, "field_conc_items_km2": 62.52, "conc_A_items_km2": null, "conc_A_lo80": null, "conc_A_hi80": null, "conc_A_lo95": null, "conc_A_hi95": null, "conc_A_status": "unavailable", "conc_A_status_ru": "концентрация недоступна", "conc_A_reasons": "вне бассейна профиля: nw_atlantic_subtropical", "conc_A_model": "conc-A-c6bce5631d2b", "conc_B_items_km2": 621.6, "conc_B_lo80": 132.7, "conc_B_hi80": 2088.3, "conc_B_lo95": 82.8, "conc_B_hi95": 3910.2, "conc_B_status": "research_estimate", "conc_B_status_ru": "исследовательская оценка", "conc_B_reasons": "ближайшее полевое измерение в 289 км (> 60 км); месяц 4 вне месяцев обучения [6]; log_dist_coast_km = 1.0 вне диапазона обучения [1.7; 5.0]", "conc_B_model": "conc-B-c6bce5631d2b"}}, {"type": "Feature", "geometry": {"type": "Polygon", "coordinates": [[[36.65817421100849, 45.0907537876264], [36.658177888558605, 45.0906638450968], [36.65805091538, 45.09066124000869], [36.65806194852339, 45.090391412434336], [36.65818892110514, 45.09039401749807], [36.65819259858606, 45.09030407496184], [36.65869313490271, 45.09049437890958], [36.658689458183005, 45.09058432147497], [36.6584318349677, 45.09066905484986], [36.6584281578155, 45.090758997395696], [36.65817421100849, 45.0907537876264]]]}, "properties": {"zone_id": "kerch-2025-04-27-010", "aoi": "kerch", "date": "2025-04-27", "scene_id": "S2B_MSIL2A_20250427T082559_R021_T37TCK_20250427T104737", "scene_datetime_utc": "2025-04-27T08:25:59.024000+00:00", "detection_status": "detected", "detection_status_ru": "обнаружено", "lon": 36.65833, "lat": 45.09055, "n_pixels": 6, "zone_area_km2": 0.0016, "cover_m2": 74.1, "p_mean": 0.899, "p_max": 0.984, "cover_m2_km2": 46312.5, "h3": "882d76a82dfffff", "valid_frac_scene": 0.975, "wind_ms": 9.8, "sea": "шторм", "scene_reliable": false, "field_event_id": "S4:DOORS3:T11", "field_profile": "B", "field_date": "2024-06-04", "field_distance_km": 288.9, "field_date_gap_days": 327, "field_conc_items_km2": 62.52, "conc_A_items_km2": null, "conc_A_lo80": null, "conc_A_hi80": null, "conc_A_lo95": null, "conc_A_hi95": null, "conc_A_status": "unavailable", "conc_A_status_ru": "концентрация недоступна", "conc_A_reasons": "вне бассейна профиля: nw_atlantic_subtropical", "conc_A_model": "conc-A-c6bce5631d2b", "conc_B_items_km2": 512.0, "conc_B_lo80": 109.1, "conc_B_hi80": 1720.6, "conc_B_lo95": 68.0, "conc_B_hi95": 3221.9, "conc_B_status": "research_estimate", "conc_B_status_ru": "исследовательская оценка", "conc_B_reasons": "ближайшее полевое измерение в 289 км (> 60 км); месяц 4 вне месяцев обучения [6]", "conc_B_model": "conc-B-c6bce5631d2b"}}, {"type": "Feature", "geometry": {"type": "Polygon", "coordinates": [[[36.812373963799814, 45.08274091951616], [36.81237739836018, 45.08265096727041], [36.81225042939566, 45.082648533962164], [36.81225386413882, 45.08255858172238], [36.81251123601518, 45.08247349592606], [36.81251467032813, 45.08238354366783], [36.81264163872809, 45.082385976671205], [36.81264507282593, 45.08229602440376], [36.81289557557649, 45.08239084225478], [36.81288870812816, 45.082570746815136], [36.81276173929798, 45.0825683140787], [36.81275830535064, 45.08265826634883], [36.81250436734084, 45.0826534004376], [36.81250093297944, 45.08274335269094], [36.812373963799814, 45.08274091951616]]]}, "properties": {"zone_id": "kerch-2025-04-27-011", "aoi": "kerch", "date": "2025-04-27", "scene_id": "S2B_MSIL2A_20250427T082559_R021_T37TCK_20250427T104737", "scene_datetime_utc": "2025-04-27T08:25:59.024000+00:00", "detection_status": "detected", "detection_status_ru": "обнаружено", "lon": 36.8126, "lat": 45.08252, "n_pixels": 4, "zone_area_km2": 0.0013, "cover_m2": 31.0, "p_mean": 0.697, "p_max": 0.992, "cover_m2_km2": 23846.2, "h3": "882d763225fffff", "valid_frac_scene": 0.975, "wind_ms": 9.8, "sea": "шторм", "scene_reliable": false, "field_event_id": "S4:DOORS3:T11", "field_profile": "B", "field_date": "2024-06-04", "field_distance_km": 288.2, "field_date_gap_days": 327, "field_conc_items_km2": 62.52, "conc_A_items_km2": null, "conc_A_lo80": null, "conc_A_hi80": null, "conc_A_lo95": null, "conc_A_hi95": null, "conc_A_status": "unavailable", "conc_A_status_ru": "концентрация недоступна", "conc_A_reasons": "вне бассейна профиля: nw_atlantic_subtropical", "conc_A_model": "conc-A-c6bce5631d2b", "conc_B_items_km2": 491.4, "conc_B_lo80": 104.7, "conc_B_hi80": 1651.4, "conc_B_lo95": 65.3, "conc_B_hi95": 3092.3, "conc_B_status": "research_estimate", "conc_B_status_ru": "исследовательская оценка", "conc_B_reasons": "ближайшее полевое измерение в 288 км (> 60 км); месяц 4 вне месяцев обучения [6]", "conc_B_model": "conc-B-c6bce5631d2b"}}, {"type": "Feature", "geometry": {"type": "Polygon", "coordinates": [[[36.668557414124045, 45.038575677285294], [36.668561068726376, 45.03848573326467], [36.668434210060724, 45.03848314205213], [36.6684378648443, 45.038393198037944], [36.668187803124596, 45.038298071206945], [36.66819511339947, 45.0381181832026], [36.6683219712371, 45.03812077466442], [36.66832562615035, 45.038030830651685], [36.66857568696389, 45.03812595716566], [36.66857203243028, 45.0382159011929], [36.66869889051787, 45.03821849224042], [36.66869523616549, 45.03830843627407], [36.668822094468666, 45.03831102718887], [36.66881844029752, 45.03840097122896], [36.66894529881629, 45.03840356201104], [36.66894164482638, 45.03849350605755], [36.6688147861092, 45.038490915267374], [36.6688111319037, 45.03858085930417], [36.668557414124045, 45.038575677285294]]]}, "properties": {"zone_id": "kerch-2025-04-27-012", "aoi": "kerch", "date": "2025-04-27", "scene_id": "S2B_MSIL2A_20250427T082559_R021_T37TCK_20250427T104737", "scene_datetime_utc": "2025-04-27T08:25:59.024000+00:00", "detection_status": "detected", "detection_status_ru": "обнаружено", "lon": 36.66855, "lat": 45.03832, "n_pixels": 6, "zone_area_km2": 0.0018, "cover_m2": 63.5, "p_mean": 0.835, "p_max": 0.976, "cover_m2_km2": 35277.8, "h3": "882d76a929fffff", "valid_frac_scene": 0.975, "wind_ms": 9.8, "sea": "шторм", "scene_reliable": false, "field_event_id": "S4:DOORS3:T11", "field_profile": "B", "field_date": "2024-06-04", "field_distance_km": 283.1, "field_date_gap_days": 327, "field_conc_items_km2": 62.52, "conc_A_items_km2": null, "conc_A_lo80": null, "conc_A_hi80": null, "conc_A_lo95": null, "conc_A_hi95": null, "conc_A_status": "unavailable", "conc_A_status_ru": "концентрация недоступна", "conc_A_reasons": "вне бассейна профиля: nw_atlantic_subtropical", "conc_A_model": "conc-A-c6bce5631d2b", "conc_B_items_km2": 397.4, "conc_B_lo80": 84.5, "conc_B_hi80": 1336.1, "conc_B_lo95": 52.6, "conc_B_hi95": 2502.0, "conc_B_status": "research_estimate", "conc_B_status_ru": "исследовательская оценка", "conc_B_reasons": "ближайшее полевое измерение в 283 км (> 60 км); месяц 4 вне месяцев обучения [6]", "conc_B_model": "conc-B-c6bce5631d2b"}}, {"type": "Feature", "geometry": {"type": "Polygon", "coordinates": [[[36.6673436732491, 45.03720059947248], [36.66734732957776, 45.037110655507846], [36.66709727526784, 45.03701552641848], [36.66710093195891, 45.03692558246671], [36.66722778706261, 45.036928175090566], [36.667231443538086, 45.036838231129046], [36.66735829846057, 45.036840823604024], [36.66736195472047, 45.03675087963278], [36.66761932006612, 45.03666612015513], [36.66761566422021, 45.03675606414421], [36.66774251899585, 45.03675865618874], [36.66772789623392, 45.03711843216082], [36.66760104066468, 45.03711584008394], [36.66759738473283, 45.037205784064746], [36.6673436732491, 45.03720059947248]]]}, "properties": {"zone_id": "kerch-2025-04-27-013", "aoi": "kerch", "date": "2025-04-27", "scene_id": "S2B_MSIL2A_20250427T082559_R021_T37TCK_20250427T104737", "scene_datetime_utc": "2025-04-27T08:25:59.024000+00:00", "detection_status": "detected", "detection_status_ru": "обнаружено", "lon": 36.66748, "lat": 45.03696, "n_pixels": 6, "zone_area_km2": 0.0019, "cover_m2": 65.5, "p_mean": 0.8, "p_max": 0.941, "cover_m2_km2": 34473.7, "h3": "882d76a929fffff", "valid_frac_scene": 0.975, "wind_ms": 9.8, "sea": "шторм", "scene_reliable": false, "field_event_id": "S4:DOORS3:T11", "field_profile": "B", "field_date": "2024-06-04", "field_distance_km": 282.9, "field_date_gap_days": 327, "field_conc_items_km2": 62.52, "conc_A_items_km2": null, "conc_A_lo80": null, "conc_A_hi80": null, "conc_A_lo95": null, "conc_A_hi95": null, "conc_A_status": "unavailable", "conc_A_status_ru": "концентрация недоступна", "conc_A_reasons": "вне бассейна профиля: nw_atlantic_subtropical", "conc_A_model": "conc-A-c6bce5631d2b", "conc_B_items_km2": 397.4, "conc_B_lo80": 84.5, "conc_B_hi80": 1336.1, "conc_B_lo95": 52.6, "conc_B_hi95": 2502.0, "conc_B_status": "research_estimate", "conc_B_status_ru": "исследовательская оценка", "conc_B_reasons": "ближайшее полевое измерение в 283 км (> 60 км); месяц 4 вне месяцев обучения [6]", "conc_B_model": "conc-B-c6bce5631d2b"}}]}