{"type": "FeatureCollection", "features": [{"type": "Feature", "geometry": {"type": "Polygon", "coordinates": [[[39.717617451730085, 43.56823860202936], [39.71761638278643, 43.56814856717723], [39.71749255863133, 43.56814934435728], [39.71749148987703, 43.56805930950127], [39.71761531384773, 43.56805853232367], [39.717614244913975, 43.56796849746866], [39.71786296177427, 43.56805697756617], [39.71786403108179, 43.568147012414876], [39.71774020693659, 43.56814778986311], [39.71774127606465, 43.5682378247128], [39.717617451730085, 43.56823860202936]]]}, "properties": {"zone_id": "sochi-2025-08-29-001", "aoi": "sochi", "date": "2025-08-29", "scene_id": "S2A_MSIL2A_20250829T082601_R121_T37TEJ_20250829T105013", "scene_datetime_utc": "2025-08-29T08:26:01.024000+00:00", "detection_status": "detected", "detection_status_ru": "обнаружено", "lon": 39.71768, "lat": 43.5681, "n_pixels": 1, "zone_area_km2": 0.0005, "cover_m2": 4.7, "p_mean": 0.827, "p_max": 0.827, "cover_m2_km2": 9400.0, "h3": "882d568e43fffff", "valid_frac_scene": 1.0, "wind_ms": 3.6, "sea": "спокойное", "scene_reliable": true, "field_event_id": "S4:DOORS3:T17", "field_profile": "B", "field_date": "2024-06-04", "field_distance_km": 183.8, "field_date_gap_days": 451, "field_conc_items_km2": 89.61, "conc_A_items_km2": null, "conc_A_lo80": null, "conc_A_hi80": null, "conc_A_lo95": null, "conc_A_hi95": null, "conc_A_status": "unavailable", "conc_A_status_ru": "концентрация недоступна", "conc_A_reasons": "вне бассейна профиля: nw_atlantic_subtropical", "conc_A_model": "conc-A-c6bce5631d2b", "conc_B_items_km2": 666.4, "conc_B_lo80": 142.3, "conc_B_hi80": 2238.6, "conc_B_lo95": 88.8, "conc_B_hi95": 4191.5, "conc_B_status": "research_estimate", "conc_B_status_ru": "исследовательская оценка", "conc_B_reasons": "ближайшее полевое измерение в 184 км (> 60 км); месяц 8 вне месяцев обучения [6]; log_dist_coast_km = 0.9 вне диапазона обучения [1.7; 5.0]", "conc_B_model": "conc-B-c6bce5631d2b"}}, {"type": "Feature", "geometry": {"type": "Polygon", "coordinates": [[[39.71884927020088, 43.56769061384091], [39.7188481994429, 43.56760057900445], [39.71872437644376, 43.56760135751083], [39.71872330587515, 43.567511322670484], [39.718847128689895, 43.56751054416653], [39.718846057941846, 43.56742050932716], [39.71909477430451, 43.56750898675633], [39.71909584542632, 43.56759902158939], [39.71897202243709, 43.56759980036397], [39.71897309337946, 43.567689835197996], [39.71884927020088, 43.56769061384091]]]}, "properties": {"zone_id": "sochi-2025-08-29-002", "aoi": "sochi", "date": "2025-08-29", "scene_id": "S2A_MSIL2A_20250829T082601_R121_T37TEJ_20250829T105013", "scene_datetime_utc": "2025-08-29T08:26:01.024000+00:00", "detection_status": "detected", "detection_status_ru": "обнаружено", "lon": 39.71891, "lat": 43.56756, "n_pixels": 1, "zone_area_km2": 0.0005, "cover_m2": 7.5, "p_mean": 0.882, "p_max": 0.882, "cover_m2_km2": 15000.0, "h3": "882d568e43fffff", "valid_frac_scene": 1.0, "wind_ms": 3.6, "sea": "спокойное", "scene_reliable": true, "field_event_id": "S4:DOORS3:T17", "field_profile": "B", "field_date": "2024-06-04", "field_distance_km": 183.8, "field_date_gap_days": 451, "field_conc_items_km2": 89.61, "conc_A_items_km2": null, "conc_A_lo80": null, "conc_A_hi80": null, "conc_A_lo95": null, "conc_A_hi95": null, "conc_A_status": "unavailable", "conc_A_status_ru": "концентрация недоступна", "conc_A_reasons": "вне бассейна профиля: nw_atlantic_subtropical", "conc_A_model": "conc-A-c6bce5631d2b", "conc_B_items_km2": 666.4, "conc_B_lo80": 142.3, "conc_B_hi80": 2238.6, "conc_B_lo95": 88.8, "conc_B_hi95": 4191.5, "conc_B_status": "research_estimate", "conc_B_status_ru": "исследовательская оценка", "conc_B_reasons": "ближайшее полевое измерение в 184 км (> 60 км); месяц 8 вне месяцев обучения [6]; log_dist_coast_km = 0.9 вне диапазона обучения [1.7; 5.0]", "conc_B_model": "conc-B-c6bce5631d2b"}}, {"type": "Feature", "geometry": {"type": "Polygon", "coordinates": [[[39.71500861913134, 43.567534615436195], [39.71500755409969, 43.56744458052159], [39.71488373131606, 43.56744535486626], [39.71488266647374, 43.567355319947794], [39.71500648907298, 43.56735454560555], [39.71500542405119, 43.56726451068805], [39.71525413425665, 43.56735299651878], [39.71525519965216, 43.56744303142998], [39.7151313768784, 43.56744380604283], [39.71513244209444, 43.56753384095501], [39.71500861913134, 43.567534615436195]]]}, "properties": {"zone_id": "sochi-2025-08-29-003", "aoi": "sochi", "date": "2025-08-29", "scene_id": "S2A_MSIL2A_20250829T082601_R121_T37TEJ_20250829T105013", "scene_datetime_utc": "2025-08-29T08:26:01.024000+00:00", "detection_status": "detected", "detection_status_ru": "обнаружено", "lon": 39.71507, "lat": 43.5674, "n_pixels": 1, "zone_area_km2": 0.0005, "cover_m2": 3.9, "p_mean": 0.733, "p_max": 0.733, "cover_m2_km2": 7800.0, "h3": "882d568e4bfffff", "valid_frac_scene": 1.0, "wind_ms": 3.6, "sea": "спокойное", "scene_reliable": true, "field_event_id": "S4:DOORS3:T17", "field_profile": "B", "field_date": "2024-06-04", "field_distance_km": 183.6, "field_date_gap_days": 451, "field_conc_items_km2": 89.61, "conc_A_items_km2": null, "conc_A_lo80": null, "conc_A_hi80": null, "conc_A_lo95": null, "conc_A_hi95": null, "conc_A_status": "unavailable", "conc_A_status_ru": "концентрация недоступна", "conc_A_reasons": "вне бассейна профиля: nw_atlantic_subtropical", "conc_A_model": "conc-A-c6bce5631d2b", "conc_B_items_km2": 666.4, "conc_B_lo80": 142.3, "conc_B_hi80": 2238.6, "conc_B_lo95": 88.8, "conc_B_hi95": 4191.5, "conc_B_status": "research_estimate", "conc_B_status_ru": "исследовательская оценка", "conc_B_reasons": "ближайшее полевое измерение в 184 км (> 60 км); месяц 8 вне месяцев обучения [6]; log_dist_coast_km = 0.9 вне диапазона обучения [1.7; 5.0]", "conc_B_model": "conc-B-c6bce5631d2b"}}, {"type": "Feature", "geometry": {"type": "Polygon", "coordinates": [[[39.71050654088643, 43.56378093614773], [39.710505482699055, 43.563690901085614], [39.71038166748252, 43.56369167050193], [39.71037955149121, 43.56351160036855], [39.71062612282486, 43.563420026347416], [39.7106271811819, 43.563510061411456], [39.7107509960199, 43.5635092917318], [39.710753113117406, 43.563689361850756], [39.71050654088643, 43.56378093614773]]]}, "properties": {"zone_id": "sochi-2025-08-29-004", "aoi": "sochi", "date": "2025-08-29", "scene_id": "S2A_MSIL2A_20250829T082601_R121_T37TEJ_20250829T105013", "scene_datetime_utc": "2025-08-29T08:26:01.024000+00:00", "detection_status": "detected", "detection_status_ru": "обнаружено", "lon": 39.71057, "lat": 43.5636, "n_pixels": 2, "zone_area_km2": 0.0008, "cover_m2": 11.0, "p_mean": 0.871, "p_max": 0.925, "cover_m2_km2": 13750.0, "h3": "882d568e41fffff", "valid_frac_scene": 1.0, "wind_ms": 3.6, "sea": "спокойное", "scene_reliable": true, "field_event_id": "S4:DOORS3:T17", "field_profile": "B", "field_date": "2024-06-04", "field_distance_km": 183.1, "field_date_gap_days": 451, "field_conc_items_km2": 89.61, "conc_A_items_km2": null, "conc_A_lo80": null, "conc_A_hi80": null, "conc_A_lo95": null, "conc_A_hi95": null, "conc_A_status": "unavailable", "conc_A_status_ru": "концентрация недоступна", "conc_A_reasons": "вне бассейна профиля: nw_atlantic_subtropical", "conc_A_model": "conc-A-c6bce5631d2b", "conc_B_items_km2": 666.4, "conc_B_lo80": 142.3, "conc_B_hi80": 2238.6, "conc_B_lo95": 88.8, "conc_B_hi95": 4191.5, "conc_B_status": "research_estimate", "conc_B_status_ru": "исследовательская оценка", "conc_B_reasons": "ближайшее полевое измерение в 183 км (> 60 км); месяц 8 вне месяцев обучения [6]; log_dist_coast_km = 0.9 вне диапазона обучения [1.7; 5.0]", "conc_B_model": "conc-B-c6bce5631d2b"}}, {"type": "Feature", "geometry": {"type": "Polygon", "coordinates": [[[39.72657436657125, 43.56133886620123], [39.726573284546845, 43.56124883141776], [39.72644947476762, 43.5612496181998], [39.72644839293257, 43.561159583412426], [39.72657220252745, 43.56115879663284], [39.72657112051307, 43.56106876184647], [39.726818739319135, 43.561067187890046], [39.7268198217022, 43.56115722267148], [39.726943631282055, 43.561156435489714], [39.726944713854465, 43.561246470267264], [39.72682090409027, 43.56124725745149], [39.72682198648335, 43.56133729223004], [39.72657436657125, 43.56133886620123]]]}, "properties": {"zone_id": "sochi-2025-08-29-005", "aoi": "sochi", "date": "2025-08-29", "scene_id": "S2A_MSIL2A_20250829T082601_R121_T37TEJ_20250829T105013", "scene_datetime_utc": "2025-08-29T08:26:01.024000+00:00", "detection_status": "detected", "detection_status_ru": "обнаружено", "lon": 39.7267, "lat": 43.5612, "n_pixels": 2, "zone_area_km2": 0.0008, "cover_m2": 14.9, "p_mean": 0.849, "p_max": 0.98, "cover_m2_km2": 18625.0, "h3": "882d568e47fffff", "valid_frac_scene": 1.0, "wind_ms": 3.6, "sea": "спокойное", "scene_reliable": true, "field_event_id": "S4:DOORS3:T17", "field_profile": "B", "field_date": "2024-06-04", "field_distance_km": 183.6, "field_date_gap_days": 451, "field_conc_items_km2": 89.61, "conc_A_items_km2": null, "conc_A_lo80": null, "conc_A_hi80": null, "conc_A_lo95": null, "conc_A_hi95": null, "conc_A_status": "unavailable", "conc_A_status_ru": "концентрация недоступна", "conc_A_reasons": "вне бассейна профиля: nw_atlantic_subtropical", "conc_A_model": "conc-A-c6bce5631d2b", "conc_B_items_km2": 901.4, "conc_B_lo80": 192.7, "conc_B_hi80": 3027.3, "conc_B_lo95": 120.4, "conc_B_hi95": 5668.0, "conc_B_status": "research_estimate", "conc_B_status_ru": "исследовательская оценка", "conc_B_reasons": "ближайшее полевое измерение в 184 км (> 60 км); месяц 8 вне месяцев обучения [6]; log_dist_coast_km = 0.0 вне диапазона обучения [1.7; 5.0]", "conc_B_model": "conc-B-c6bce5631d2b"}}, {"type": "Feature", "geometry": {"type": "Polygon", "coordinates": [[[39.70774992513504, 43.56100674315383], [39.707748871155026, 43.56091670799414], [39.70762506154585, 43.56091747438653], [39.70762400775506, 43.560827439223004], [39.7077478171799, 43.560826672833], [39.70774676320965, 43.560736637670416], [39.70799543601495, 43.560825139650824], [39.70799649035875, 43.56091517480717], [39.70787268075934, 43.56091594146769], [39.70787373492369, 43.561005976624976], [39.70774992513504, 43.56100674315383]]]}, "properties": {"zone_id": "sochi-2025-08-29-006", "aoi": "sochi", "date": "2025-08-29", "scene_id": "S2A_MSIL2A_20250829T082601_R121_T37TEJ_20250829T105013", "scene_datetime_utc": "2025-08-29T08:26:01.024000+00:00", "detection_status": "detected", "detection_status_ru": "обнаружено", "lon": 39.70781, "lat": 43.56087, "n_pixels": 1, "zone_area_km2": 0.0005, "cover_m2": 6.7, "p_mean": 0.969, "p_max": 0.969, "cover_m2_km2": 13400.0, "h3": "882d568e4dfffff", "valid_frac_scene": 1.0, "wind_ms": 3.6, "sea": "спокойное", "scene_reliable": true, "field_event_id": "S4:DOORS3:T17", "field_profile": "B", "field_date": "2024-06-04", "field_distance_km": 182.7, "field_date_gap_days": 451, "field_conc_items_km2": 89.61, "conc_A_items_km2": null, "conc_A_lo80": null, "conc_A_hi80": null, "conc_A_lo95": null, "conc_A_hi95": null, "conc_A_status": "unavailable", "conc_A_status_ru": "концентрация недоступна", "conc_A_reasons": "вне бассейна профиля: nw_atlantic_subtropical", "conc_A_model": "conc-A-c6bce5631d2b", "conc_B_items_km2": 567.4, "conc_B_lo80": 121.0, "conc_B_hi80": 1906.6, "conc_B_lo95": 75.5, "conc_B_hi95": 3570.1, "conc_B_status": "research_estimate", "conc_B_status_ru": "исследовательская оценка", "conc_B_reasons": "ближайшее полевое измерение в 183 км (> 60 км); месяц 8 вне месяцев обучения [6]; log_dist_coast_km = 1.3 вне диапазона обучения [1.7; 5.0]", "conc_B_model": "conc-B-c6bce5631d2b"}}, {"type": "Feature", "geometry": {"type": "Polygon", "coordinates": [[[39.68603205751179, 43.55663704072507], [39.686031036028176, 43.55654700508041], [39.685907234794165, 43.556547747895515], [39.68590519220975, 43.55636767659724], [39.686151772282116, 43.55627615519559], [39.68615279393583, 43.55636619084226], [39.68627659479178, 43.55636544776371], [39.686278638482, 43.55654551904806], [39.68603205751179, 43.55663704072507]]]}, "properties": {"zone_id": "sochi-2025-08-29-007", "aoi": "sochi", "date": "2025-08-29", "scene_id": "S2A_MSIL2A_20250829T082601_R121_T37TEJ_20250829T105013", "scene_datetime_utc": "2025-08-29T08:26:01.024000+00:00", "detection_status": "detected", "detection_status_ru": "обнаружено", "lon": 39.68609, "lat": 43.55646, "n_pixels": 2, "zone_area_km2": 0.0008, "cover_m2": 14.9, "p_mean": 0.902, "p_max": 0.976, "cover_m2_km2": 18625.0, "h3": "882d5680a5fffff", "valid_frac_scene": 1.0, "wind_ms": 3.6, "sea": "спокойное", "scene_reliable": true, "field_event_id": "S4:DOORS3:T17", "field_profile": "B", "field_date": "2024-06-04", "field_distance_km": 181.3, "field_date_gap_days": 451, "field_conc_items_km2": 89.61, "conc_A_items_km2": null, "conc_A_lo80": null, "conc_A_hi80": null, "conc_A_lo95": null, "conc_A_hi95": null, "conc_A_status": "unavailable", "conc_A_status_ru": "концентрация недоступна", "conc_A_reasons": "вне бассейна профиля: nw_atlantic_subtropical", "conc_A_model": "conc-A-c6bce5631d2b", "conc_B_items_km2": 494.5, "conc_B_lo80": 105.4, "conc_B_hi80": 1661.8, "conc_B_lo95": 65.7, "conc_B_hi95": 3111.7, "conc_B_status": "research_estimate", "conc_B_status_ru": "исследовательская оценка", "conc_B_reasons": "ближайшее полевое измерение в 181 км (> 60 км); месяц 8 вне месяцев обучения [6]", "conc_B_model": "conc-B-c6bce5631d2b"}}, {"type": "Feature", "geometry": {"type": "Polygon", "coordinates": [[[39.714598137089396, 43.55376080452788], [39.71459707318059, 43.55367076938748], [39.71447327859033, 43.553671543093856], [39.71447221487071, 43.55358150794958], [39.7145960092767, 43.55358073424562], [39.71459494537773, 43.55349069910231], [39.71484359807389, 43.553579186435606], [39.714844662346316, 43.553669221572626], [39.71472086776591, 43.55366999554707], [39.714721931859, 43.55376003068505], [39.714598137089396, 43.55376080452788]]]}, "properties": {"zone_id": "sochi-2025-08-29-008", "aoi": "sochi", "date": "2025-08-29", "scene_id": "S2A_MSIL2A_20250829T082601_R121_T37TEJ_20250829T105013", "scene_datetime_utc": "2025-08-29T08:26:01.024000+00:00", "detection_status": "detected", "detection_status_ru": "обнаружено", "lon": 39.71466, "lat": 43.55363, "n_pixels": 1, "zone_area_km2": 0.0005, "cover_m2": 5.5, "p_mean": 0.839, "p_max": 0.839, "cover_m2_km2": 11000.0, "h3": "882d568e45fffff", "valid_frac_scene": 1.0, "wind_ms": 3.6, "sea": "спокойное", "scene_reliable": true, "field_event_id": "S4:DOORS3:T17", "field_profile": "B", "field_date": "2024-06-04", "field_distance_km": 182.3, "field_date_gap_days": 451, "field_conc_items_km2": 89.61, "conc_A_items_km2": null, "conc_A_lo80": null, "conc_A_hi80": null, "conc_A_lo95": null, "conc_A_hi95": null, "conc_A_status": "unavailable", "conc_A_status_ru": "концентрация недоступна", "conc_A_reasons": "вне бассейна профиля: nw_atlantic_subtropical", "conc_A_model": "conc-A-c6bce5631d2b", "conc_B_items_km2": 591.0, "conc_B_lo80": 126.1, "conc_B_hi80": 1985.7, "conc_B_lo95": 78.7, "conc_B_hi95": 3718.0, "conc_B_status": "research_estimate", "conc_B_status_ru": "исследовательская оценка", "conc_B_reasons": "ближайшее полевое измерение в 182 км (> 60 км); месяц 8 вне месяцев обучения [6]; log_dist_coast_km = 1.2 вне диапазона обучения [1.7; 5.0]", "conc_B_model": "conc-B-c6bce5631d2b"}}, {"type": "Feature", "geometry": {"type": "Polygon", "coordinates": [[[39.689080922032076, 43.55256682390502], [39.689079896154716, 43.55247678825362], [39.68895610333188, 43.552477534314875], [39.688955077643534, 43.55238749865972], [39.6890788702821, 43.552386752600775], [39.68907784441424, 43.552296716946486], [39.689326455545, 43.55238526008085], [39.68932748178613, 43.552475295729025], [39.6892036889728, 43.55247604205834], [39.68920471503442, 43.552566077707404], [39.689080922032076, 43.55256682390502]]]}, "properties": {"zone_id": "sochi-2025-08-29-009", "aoi": "sochi", "date": "2025-08-29", "scene_id": "S2A_MSIL2A_20250829T082601_R121_T37TEJ_20250829T105013", "scene_datetime_utc": "2025-08-29T08:26:01.024000+00:00", "detection_status": "detected", "detection_status_ru": "обнаружено", "lon": 39.68914, "lat": 43.55243, "n_pixels": 1, "zone_area_km2": 0.0005, "cover_m2": 16.9, "p_mean": 0.545, "p_max": 0.545, "cover_m2_km2": 33800.0, "h3": "882d568199fffff", "valid_frac_scene": 1.0, "wind_ms": 3.6, "sea": "спокойное", "scene_reliable": true, "field_event_id": "S4:DOORS3:T17", "field_profile": "B", "field_date": "2024-06-04", "field_distance_km": 181.0, "field_date_gap_days": 451, "field_conc_items_km2": 89.61, "conc_A_items_km2": null, "conc_A_lo80": null, "conc_A_hi80": null, "conc_A_lo95": null, "conc_A_hi95": null, "conc_A_status": "unavailable", "conc_A_status_ru": "концентрация недоступна", "conc_A_reasons": "вне бассейна профиля: nw_atlantic_subtropical", "conc_A_model": "conc-A-c6bce5631d2b", "conc_B_items_km2": 494.5, "conc_B_lo80": 105.4, "conc_B_hi80": 1661.8, "conc_B_lo95": 65.7, "conc_B_hi95": 3111.7, "conc_B_status": "research_estimate", "conc_B_status_ru": "исследовательская оценка", "conc_B_reasons": "ближайшее полевое измерение в 181 км (> 60 км); месяц 8 вне месяцев обучения [6]", "conc_B_model": "conc-B-c6bce5631d2b"}}, {"type": "Feature", "geometry": {"type": "Polygon", "coordinates": [[[39.83046384729764, 43.50759668943196], [39.83046261288673, 43.507506656021434], [39.83033891605901, 43.50750755442519], [39.83033644762196, 43.50732748759412], [39.83046014408205, 43.50732658919599], [39.83045890968829, 43.50723655578109], [39.8307075369851, 43.5073247919983], [39.8307087717522, 43.50741482540613], [39.830832468378965, 43.507413926603775], [39.8308337033356, 43.50750396000734], [39.830710006525024, 43.5075048588125], [39.830711241303554, 43.50759489221743], [39.83046384729764, 43.50759668943196]]]}, "properties": {"zone_id": "sochi-2025-08-29-010", "aoi": "sochi", "date": "2025-08-29", "scene_id": "S2A_MSIL2A_20250829T082601_R121_T37TEJ_20250829T105013", "scene_datetime_utc": "2025-08-29T08:26:01.024000+00:00", "detection_status": "detected", "detection_status_ru": "обнаружено", "lon": 39.83056, "lat": 43.50743, "n_pixels": 3, "zone_area_km2": 0.001, "cover_m2": 20.8, "p_mean": 0.935, "p_max": 0.973, "cover_m2_km2": 20800.0, "h3": "882d568c23fffff", "valid_frac_scene": 1.0, "wind_ms": 3.6, "sea": "спокойное", "scene_reliable": true, "field_event_id": "S4:DOORS3:T17", "field_profile": "B", "field_date": "2024-06-04", "field_distance_km": 184.0, "field_date_gap_days": 451, "field_conc_items_km2": 89.61, "conc_A_items_km2": null, "conc_A_lo80": null, "conc_A_hi80": null, "conc_A_lo95": null, "conc_A_hi95": null, "conc_A_status": "unavailable", "conc_A_status_ru": "концентрация недоступна", "conc_A_reasons": "вне бассейна профиля: nw_atlantic_subtropical", "conc_A_model": "conc-A-c6bce5631d2b", "conc_B_items_km2": 591.0, "conc_B_lo80": 126.1, "conc_B_hi80": 1985.7, "conc_B_lo95": 78.7, "conc_B_hi95": 3718.0, "conc_B_status": "research_estimate", "conc_B_status_ru": "исследовательская оценка", "conc_B_reasons": "ближайшее полевое измерение в 184 км (> 60 км); месяц 8 вне месяцев обучения [6]; log_dist_coast_km = 1.2 вне диапазона обучения [1.7; 5.0]", "conc_B_model": "conc-B-c6bce5631d2b"}}, {"type": "Feature", "geometry": {"type": "Polygon", "coordinates": [[[39.84101797774613, 43.4925724906534], [39.841016728303785, 43.49248245724776], [39.840893062477015, 43.49248336682017], [39.840891813224125, 43.49239333341021], [39.84101547886723, 43.49239242384066], [39.84101422943645, 43.492302390432116], [39.84089056397702, 43.49230329999884], [39.84088931473569, 43.49221326658597], [39.84113539567856, 43.49212141391589], [39.841136645281445, 43.4922114473245], [39.84126031054565, 43.492210537493165], [39.841261560337976, 43.49230057089749], [39.8411378948901, 43.49230148073167], [39.841139144504545, 43.49239151413737], [39.84126281013609, 43.492390604300354], [39.84126405993998, 43.49248063770175], [39.84101797774613, 43.4925724906534]]]}, "properties": {"zone_id": "sochi-2025-08-29-011", "aoi": "sochi", "date": "2025-08-29", "scene_id": "S2A_MSIL2A_20250829T082601_R121_T37TEJ_20250829T105013", "scene_datetime_utc": "2025-08-29T08:26:01.024000+00:00", "detection_status": "detected", "detection_status_ru": "обнаружено", "lon": 39.84108, "lat": 43.49235, "n_pixels": 2, "zone_area_km2": 0.0009, "cover_m2": 12.9, "p_mean": 0.884, "p_max": 0.894, "cover_m2_km2": 14333.3, "h3": "882d568dcdfffff", "valid_frac_scene": 1.0, "wind_ms": 3.6, "sea": "спокойное", "scene_reliable": true, "field_event_id": "S4:DOORS3:T17", "field_profile": "B", "field_date": "2024-06-04", "field_distance_km": 183.2, "field_date_gap_days": 451, "field_conc_items_km2": 89.61, "conc_A_items_km2": null, "conc_A_lo80": null, "conc_A_hi80": null, "conc_A_lo95": null, "conc_A_hi95": null, "conc_A_status": "unavailable", "conc_A_status_ru": "концентрация недоступна", "conc_A_reasons": "вне бассейна профиля: nw_atlantic_subtropical", "conc_A_model": "conc-A-c6bce5631d2b", "conc_B_items_km2": 511.6, "conc_B_lo80": 109.1, "conc_B_hi80": 1719.1, "conc_B_lo95": 68.0, "conc_B_hi95": 3219.0, "conc_B_status": "research_estimate", "conc_B_status_ru": "исследовательская оценка", "conc_B_reasons": "ближайшее полевое измерение в 183 км (> 60 км); месяц 8 вне месяцев обучения [6]", "conc_B_model": "conc-B-c6bce5631d2b"}}, {"type": "Feature", "geometry": {"type": "Polygon", "coordinates": [[[39.841996047624576, 43.49175490873884], [39.84199479676498, 43.4916648753429], [39.841871132637465, 43.49166578595953], [39.84186988196732, 43.491575752559264], [39.84199354591117, 43.491574841945486], [39.84199229506315, 43.49148480854663], [39.842240873781506, 43.49157302031672], [39.84224212500263, 43.491663053708436], [39.842118460886695, 43.49166396459253], [39.84211971192995, 43.49175399798562], [39.841996047624576, 43.49175490873884]]]}, "properties": {"zone_id": "sochi-2025-08-29-012", "aoi": "sochi", "date": "2025-08-29", "scene_id": "S2A_MSIL2A_20250829T082601_R121_T37TEJ_20250829T105013", "scene_datetime_utc": "2025-08-29T08:26:01.024000+00:00", "detection_status": "detected", "detection_status_ru": "обнаружено", "lon": 39.84206, "lat": 43.49162, "n_pixels": 1, "zone_area_km2": 0.0005, "cover_m2": 5.9, "p_mean": 0.988, "p_max": 0.988, "cover_m2_km2": 11800.0, "h3": "882d568d13fffff", "valid_frac_scene": 1.0, "wind_ms": 3.6, "sea": "спокойное", "scene_reliable": true, "field_event_id": "S4:DOORS3:T17", "field_profile": "B", "field_date": "2024-06-04", "field_distance_km": 183.2, "field_date_gap_days": 451, "field_conc_items_km2": 89.61, "conc_A_items_km2": null, "conc_A_lo80": null, "conc_A_hi80": null, "conc_A_lo95": null, "conc_A_hi95": null, "conc_A_status": "unavailable", "conc_A_status_ru": "концентрация недоступна", "conc_A_reasons": "вне бассейна профиля: nw_atlantic_subtropical", "conc_A_model": "conc-A-c6bce5631d2b", "conc_B_items_km2": 539.0, "conc_B_lo80": 114.9, "conc_B_hi80": 1811.1, "conc_B_lo95": 71.7, "conc_B_hi95": 3391.2, "conc_B_status": "research_estimate", "conc_B_status_ru": "исследовательская оценка", "conc_B_reasons": "ближайшее полевое измерение в 183 км (> 60 км); месяц 8 вне месяцев обучения [6]", "conc_B_model": "conc-B-c6bce5631d2b"}}, {"type": "Feature", "geometry": {"type": "Polygon", "coordinates": [[[39.860666385020586, 43.48270166966406], [39.86066510683048, 43.48261163656177], [39.8605414617703, 43.48261256721677], [39.86054018376968, 43.482522534110124], [39.860663828646295, 43.48252160345804], [39.86066255046802, 43.48243157035286], [39.860909839836346, 43.48242970865345], [39.860911118381765, 43.482519741752824], [39.861034763240625, 43.48251881069968], [39.861036041975524, 43.48260884379468], [39.86091239693309, 43.48260977485073], [39.860913675490345, 43.48269980794719], [39.860666385020586, 43.48270166966406]]]}, "properties": {"zone_id": "sochi-2025-08-29-013", "aoi": "sochi", "date": "2025-08-29", "scene_id": "S2A_MSIL2A_20250829T082601_R121_T37TEJ_20250829T105013", "scene_datetime_utc": "2025-08-29T08:26:01.024000+00:00", "detection_status": "detected", "detection_status_ru": "обнаружено", "lon": 39.86079, "lat": 43.48257, "n_pixels": 2, "zone_area_km2": 0.0008, "cover_m2": 5.5, "p_mean": 0.808, "p_max": 0.82, "cover_m2_km2": 6875.0, "h3": "882d568de1fffff", "valid_frac_scene": 1.0, "wind_ms": 3.6, "sea": "спокойное", "scene_reliable": true, "field_event_id": "S4:DOORS3:T17", "field_profile": "B", "field_date": "2024-06-04", "field_distance_km": 183.4, "field_date_gap_days": 451, "field_conc_items_km2": 89.61, "conc_A_items_km2": null, "conc_A_lo80": null, "conc_A_hi80": null, "conc_A_lo95": null, "conc_A_hi95": null, "conc_A_status": "unavailable", "conc_A_status_ru": "концентрация недоступна", "conc_A_reasons": "вне бассейна профиля: nw_atlantic_subtropical", "conc_A_model": "conc-A-c6bce5631d2b", "conc_B_items_km2": 591.0, "conc_B_lo80": 126.1, "conc_B_hi80": 1985.7, "conc_B_lo95": 78.7, "conc_B_hi95": 3718.0, "conc_B_status": "research_estimate", "conc_B_status_ru": "исследовательская оценка", "conc_B_reasons": "ближайшее полевое измерение в 183 км (> 60 км); месяц 8 вне месяцев обучения [6]; log_dist_coast_km = 1.2 вне диапазона обучения [1.7; 5.0]", "conc_B_model": "conc-B-c6bce5631d2b"}}, {"type": "Feature", "geometry": {"type": "Polygon", "coordinates": [[[39.82909725741019, 43.48005357471981], [39.829096026214394, 43.47996354084275], [39.828972385547985, 43.47996443731814], [39.82896869254543, 43.47969433566984], [39.829214741414695, 43.47960250872215], [39.82921597277125, 43.47969254260221], [39.82946448470364, 43.47978078287291], [39.8294657164387, 43.47987081674445], [39.82921966687511, 43.4799626442337], [39.82922089825446, 43.480052678107945], [39.82909725741019, 43.48005357471981]]]}, "properties": {"zone_id": "sochi-2025-08-29-014", "aoi": "sochi", "date": "2025-08-29", "scene_id": "S2A_MSIL2A_20250829T082601_R121_T37TEJ_20250829T105013", "scene_datetime_utc": "2025-08-29T08:26:01.024000+00:00", "detection_status": "detected", "detection_status_ru": "обнаружено", "lon": 39.82919, "lat": 43.47983, "n_pixels": 4, "zone_area_km2": 0.0012, "cover_m2": 27.1, "p_mean": 0.777, "p_max": 1.0, "cover_m2_km2": 22583.3, "h3": "882d568d1dfffff", "valid_frac_scene": 1.0, "wind_ms": 3.6, "sea": "спокойное", "scene_reliable": true, "field_event_id": "S4:DOORS3:T17", "field_profile": "B", "field_date": "2024-06-04", "field_distance_km": 181.5, "field_date_gap_days": 451, "field_conc_items_km2": 89.61, "conc_A_items_km2": null, "conc_A_lo80": null, "conc_A_hi80": null, "conc_A_lo95": null, "conc_A_hi95": null, "conc_A_status": "unavailable", "conc_A_status_ru": "концентрация недоступна", "conc_A_reasons": "вне бассейна профиля: nw_atlantic_subtropical", "conc_A_model": "conc-A-c6bce5631d2b", "conc_B_items_km2": 511.6, "conc_B_lo80": 109.1, "conc_B_hi80": 1719.1, "conc_B_lo95": 68.0, "conc_B_hi95": 3219.0, "conc_B_status": "research_estimate", "conc_B_status_ru": "исследовательская оценка", "conc_B_reasons": "ближайшее полевое измерение в 182 км (> 60 км); месяц 8 вне месяцев обучения [6]", "conc_B_model": "conc-B-c6bce5631d2b"}}, {"type": "Feature", "geometry": {"type": "Polygon", "coordinates": [[[39.87175626187943, 43.47136230445288], [39.87175496773304, 43.47127227143534], [39.871631346154004, 43.47127321388714], [39.8716287582461, 43.4710931478418], [39.871874706352436, 43.4710012297974], [39.87187600066433, 43.471091262816365], [39.87199962186446, 43.47109032010319], [39.87200221087314, 43.47127038613085], [39.87175626187943, 43.47136230445288]]]}, "properties": {"zone_id": "sochi-2025-08-29-015", "aoi": "sochi", "date": "2025-08-29", "scene_id": "S2A_MSIL2A_20250829T082601_R121_T37TEJ_20250829T105013", "scene_datetime_utc": "2025-08-29T08:26:01.024000+00:00", "detection_status": "detected", "detection_status_ru": "обнаружено", "lon": 39.87182, "lat": 43.47118, "n_pixels": 2, "zone_area_km2": 0.0008, "cover_m2": 23.5, "p_mean": 0.992, "p_max": 1.0, "cover_m2_km2": 29375.0, "h3": "882d568de7fffff", "valid_frac_scene": 1.0, "wind_ms": 3.6, "sea": "спокойное", "scene_reliable": true, "field_event_id": "S4:DOORS3:T17", "field_profile": "B", "field_date": "2024-06-04", "field_distance_km": 183.0, "field_date_gap_days": 451, "field_conc_items_km2": 89.61, "conc_A_items_km2": null, "conc_A_lo80": null, "conc_A_hi80": null, "conc_A_lo95": null, "conc_A_hi95": null, "conc_A_status": "unavailable", "conc_A_status_ru": "концентрация недоступна", "conc_A_reasons": "вне бассейна профиля: nw_atlantic_subtropical", "conc_A_model": "conc-A-c6bce5631d2b", "conc_B_items_km2": 567.4, "conc_B_lo80": 121.0, "conc_B_hi80": 1906.6, "conc_B_lo95": 75.5, "conc_B_hi95": 3570.1, "conc_B_status": "research_estimate", "conc_B_status_ru": "исследовательская оценка", "conc_B_reasons": "ближайшее полевое измерение в 183 км (> 60 км); месяц 8 вне месяцев обучения [6]; log_dist_coast_km = 1.3 вне диапазона обучения [1.7; 5.0]", "conc_B_model": "conc-B-c6bce5631d2b"}}, {"type": "Feature", "geometry": {"type": "Polygon", "coordinates": [[[39.80447888741048, 43.46987450207265], [39.80447769319442, 43.46978446748215], [39.80422925799746, 43.46969617214059], [39.804228064159375, 43.46960613754176], [39.8043516844719, 43.46960526798609], [39.80435049045587, 43.469515233388535], [39.80459773069741, 43.469513493881756], [39.80459892508035, 43.46960352847388], [39.804722545376286, 43.46960265851734], [39.80472493452567, 43.4697827276918], [39.80447888741048, 43.46987450207265]]]}, "properties": {"zone_id": "sochi-2025-08-29-016", "aoi": "sochi", "date": "2025-08-29", "scene_id": "S2A_MSIL2A_20250829T082601_R121_T37TEJ_20250829T105013", "scene_datetime_utc": "2025-08-29T08:26:01.024000+00:00", "detection_status": "detected", "detection_status_ru": "обнаружено", "lon": 39.8045, "lat": 43.46968, "n_pixels": 3, "zone_area_km2": 0.001, "cover_m2": 33.3, "p_mean": 0.956, "p_max": 0.965, "cover_m2_km2": 33300.0, "h3": "882d568d09fffff", "valid_frac_scene": 1.0, "wind_ms": 3.6, "sea": "спокойное", "scene_reliable": true, "field_event_id": "S4:DOORS3:T17", "field_profile": "B", "field_date": "2024-06-04", "field_distance_km": 179.4, "field_date_gap_days": 451, "field_conc_items_km2": 89.61, "conc_A_items_km2": null, "conc_A_lo80": null, "conc_A_hi80": null, "conc_A_lo95": null, "conc_A_hi95": null, "conc_A_status": "unavailable", "conc_A_status_ru": "концентрация недоступна", "conc_A_reasons": "вне бассейна профиля: nw_atlantic_subtropical", "conc_A_model": "conc-A-c6bce5631d2b", "conc_B_items_km2": 433.8, "conc_B_lo80": 92.4, "conc_B_hi80": 1458.1, "conc_B_lo95": 57.5, "conc_B_hi95": 2730.5, "conc_B_status": "research_estimate", "conc_B_status_ru": "исследовательская оценка", "conc_B_reasons": "ближайшее полевое измерение в 179 км (> 60 км); месяц 8 вне месяцев обучения [6]", "conc_B_model": "conc-B-c6bce5631d2b"}}, {"type": "Feature", "geometry": {"type": "Polygon", "coordinates": [[[39.85330564641108, 43.46051624260901], [39.853304380132485, 43.46042620898273], [39.85318078005345, 43.46042713130528], [39.853178247880564, 43.460247064042605], [39.85342418085494, 43.460155185647736], [39.85342544729932, 43.460245219275485], [39.85354904699991, 43.460244296691556], [39.85355158027298, 43.46042436393692], [39.85330564641108, 43.46051624260901]]]}, "properties": {"zone_id": "sochi-2025-08-29-017", "aoi": "sochi", "date": "2025-08-29", "scene_id": "S2A_MSIL2A_20250829T082601_R121_T37TEJ_20250829T105013", "scene_datetime_utc": "2025-08-29T08:26:01.024000+00:00", "detection_status": "detected", "detection_status_ru": "обнаружено", "lon": 39.85336, "lat": 43.46034, "n_pixels": 2, "zone_area_km2": 0.0008, "cover_m2": 25.9, "p_mean": 0.71, "p_max": 0.914, "cover_m2_km2": 32375.0, "h3": "882d568d37fffff", "valid_frac_scene": 1.0, "wind_ms": 3.6, "sea": "спокойное", "scene_reliable": true, "field_event_id": "S4:DOORS3:T17", "field_profile": "B", "field_date": "2024-06-04", "field_distance_km": 181.2, "field_date_gap_days": 451, "field_conc_items_km2": 89.61, "conc_A_items_km2": null, "conc_A_lo80": null, "conc_A_hi80": null, "conc_A_lo95": null, "conc_A_hi95": null, "conc_A_status": "unavailable", "conc_A_status_ru": "концентрация недоступна", "conc_A_reasons": "вне бассейна профиля: nw_atlantic_subtropical", "conc_A_model": "conc-A-c6bce5631d2b", "conc_B_items_km2": 508.2, "conc_B_lo80": 108.3, "conc_B_hi80": 1708.0, "conc_B_lo95": 67.5, "conc_B_hi95": 3198.2, "conc_B_status": "research_estimate", "conc_B_status_ru": "исследовательская оценка", "conc_B_reasons": "ближайшее полевое измерение в 181 км (> 60 км); месяц 8 вне месяцев обучения [6]", "conc_B_model": "conc-B-c6bce5631d2b"}}, {"type": "Feature", "geometry": {"type": "Polygon", "coordinates": [[[39.88435561601577, 43.453617120803564], [39.884354303979514, 43.45352708780956], [39.88410582228971, 43.45343896620139], [39.88410451063218, 43.4533489331985], [39.88422809528173, 43.45334797757461], [39.88422678344697, 43.45325794457326], [39.88447395236128, 43.453256032930824], [39.88447526456262, 43.45334606592619], [39.884598849193964, 43.453345109901676], [39.884601473981434, 43.453525175882106], [39.88435561601577, 43.453617120803564]]]}, "properties": {"zone_id": "sochi-2025-08-29-018", "aoi": "sochi", "date": "2025-08-29", "scene_id": "S2A_MSIL2A_20250829T082601_R121_T37TEJ_20250829T105013", "scene_datetime_utc": "2025-08-29T08:26:01.024000+00:00", "detection_status": "detected", "detection_status_ru": "обнаружено", "lon": 39.88437, "lat": 43.45342, "n_pixels": 3, "zone_area_km2": 0.001, "cover_m2": 12.5, "p_mean": 0.963, "p_max": 0.996, "cover_m2_km2": 12500.0, "h3": "882d5612d7fffff", "valid_frac_scene": 1.0, "wind_ms": 3.6, "sea": "спокойное", "scene_reliable": true, "field_event_id": "S4:DOORS3:T17", "field_profile": "B", "field_date": "2024-06-04", "field_distance_km": 182.2, "field_date_gap_days": 451, "field_conc_items_km2": 89.61, "conc_A_items_km2": null, "conc_A_lo80": null, "conc_A_hi80": null, "conc_A_lo95": null, "conc_A_hi95": null, "conc_A_status": "unavailable", "conc_A_status_ru": "концентрация недоступна", "conc_A_reasons": "вне бассейна профиля: nw_atlantic_subtropical", "conc_A_model": "conc-A-c6bce5631d2b", "conc_B_items_km2": 591.0, "conc_B_lo80": 126.1, "conc_B_hi80": 1985.7, "conc_B_lo95": 78.7, "conc_B_hi95": 3718.0, "conc_B_status": "research_estimate", "conc_B_status_ru": "исследовательская оценка", "conc_B_reasons": "ближайшее полевое измерение в 182 км (> 60 км); месяц 8 вне месяцев обучения [6]; log_dist_coast_km = 1.2 вне диапазона обучения [1.7; 5.0]", "conc_B_model": "conc-B-c6bce5631d2b"}}, {"type": "Feature", "geometry": {"type": "Polygon", "coordinates": [[[39.88656568010138, 43.45260953175026], [39.88656436483277, 43.4525194987941], [39.886440781948245, 43.45252045692839], [39.886438151795836, 43.45234039100573], [39.88668400139204, 43.452248441658064], [39.886685316825684, 43.45233847461559], [39.88680889933148, 43.45233751622021], [39.88681153058358, 43.452517582124905], [39.88656568010138, 43.45260953175026]]]}, "properties": {"zone_id": "sochi-2025-08-29-019", "aoi": "sochi", "date": "2025-08-29", "scene_id": "S2A_MSIL2A_20250829T082601_R121_T37TEJ_20250829T105013", "scene_datetime_utc": "2025-08-29T08:26:01.024000+00:00", "detection_status": "detected", "detection_status_ru": "обнаружено", "lon": 39.88662, "lat": 43.45243, "n_pixels": 2, "zone_area_km2": 0.0008, "cover_m2": 8.2, "p_mean": 0.908, "p_max": 0.976, "cover_m2_km2": 10250.0, "h3": "882d5612d7fffff", "valid_frac_scene": 1.0, "wind_ms": 3.6, "sea": "спокойное", "scene_reliable": true, "field_event_id": "S4:DOORS3:T17", "field_profile": "B", "field_date": "2024-06-04", "field_distance_km": 182.3, "field_date_gap_days": 451, "field_conc_items_km2": 89.61, "conc_A_items_km2": null, "conc_A_lo80": null, "conc_A_hi80": null, "conc_A_lo95": null, "conc_A_hi95": null, "conc_A_status": "unavailable", "conc_A_status_ru": "концентрация недоступна", "conc_A_reasons": "вне бассейна профиля: nw_atlantic_subtropical", "conc_A_model": "conc-A-c6bce5631d2b", "conc_B_items_km2": 591.0, "conc_B_lo80": 126.1, "conc_B_hi80": 1985.7, "conc_B_lo95": 78.7, "conc_B_hi95": 3718.0, "conc_B_status": "research_estimate", "conc_B_status_ru": "исследовательская оценка", "conc_B_reasons": "ближайшее полевое измерение в 182 км (> 60 км); месяц 8 вне месяцев обучения [6]; log_dist_coast_km = 1.2 вне диапазона обучения [1.7; 5.0]", "conc_B_model": "conc-B-c6bce5631d2b"}}, {"type": "Feature", "geometry": {"type": "Polygon", "coordinates": [[[39.89347240385276, 43.434817245202325], [39.89347107916129, 43.43472721213391], [39.893347532721, 43.434728177418876], [39.89334620821877, 43.43463814434597], [39.893469754475944, 43.43463717906401], [39.89346842979672, 43.434547145992674], [39.893716846971905, 43.43463524809973], [39.89371817202348, 43.43472528116358], [39.89359462559545, 43.43472624671547], [39.893595950470036, 43.43481627978089], [39.89347240385276, 43.434817245202325]]]}, "properties": {"zone_id": "sochi-2025-08-29-020", "aoi": "sochi", "date": "2025-08-29", "scene_id": "S2A_MSIL2A_20250829T082601_R121_T37TEJ_20250829T105013", "scene_datetime_utc": "2025-08-29T08:26:01.024000+00:00", "detection_status": "detected", "detection_status_ru": "обнаружено", "lon": 39.89353, "lat": 43.43468, "n_pixels": 1, "zone_area_km2": 0.0005, "cover_m2": 3.1, "p_mean": 0.867, "p_max": 0.867, "cover_m2_km2": 6200.0, "h3": "882d561287fffff", "valid_frac_scene": 1.0, "wind_ms": 3.6, "sea": "спокойное", "scene_reliable": true, "field_event_id": "S4:DOORS3:T17", "field_profile": "B", "field_date": "2024-06-04", "field_distance_km": 181.2, "field_date_gap_days": 451, "field_conc_items_km2": 89.61, "conc_A_items_km2": null, "conc_A_lo80": null, "conc_A_hi80": null, "conc_A_lo95": null, "conc_A_hi95": null, "conc_A_status": "unavailable", "conc_A_status_ru": "концентрация недоступна", "conc_A_reasons": "вне бассейна профиля: nw_atlantic_subtropical", "conc_A_model": "conc-A-c6bce5631d2b", "conc_B_items_km2": 666.4, "conc_B_lo80": 142.3, "conc_B_hi80": 2238.6, "conc_B_lo95": 88.8, "conc_B_hi95": 4191.5, "conc_B_status": "research_estimate", "conc_B_status_ru": "исследовательская оценка", "conc_B_reasons": "ближайшее полевое измерение в 181 км (> 60 км); месяц 8 вне месяцев обучения [6]; log_dist_coast_km = 0.9 вне диапазона обучения [1.7; 5.0]", "conc_B_model": "conc-B-c6bce5631d2b"}}, {"type": "Feature", "geometry": {"type": "Polygon", "coordinates": [[[39.882102785598086, 43.426171299011], [39.88210147815683, 43.42608126552856], [39.88185311261, 43.42599313760769], [39.8818518055469, 43.42590310411637], [39.88197533442269, 43.42590215140455], [39.8819740271826, 43.42581211791475], [39.88222239215614, 43.425900245580635], [39.882223699768346, 43.425990279063015], [39.88234722880903, 43.42598932594795], [39.88234853661032, 43.4260793594259], [39.882225007386594, 43.42608031254393], [39.88222631501089, 43.4261703460234], [39.882102785598086, 43.426171299011]]]}, "properties": {"zone_id": "sochi-2025-08-29-021", "aoi": "sochi", "date": "2025-08-29", "scene_id": "S2A_MSIL2A_20250829T082601_R121_T37TEJ_20250829T105013", "scene_datetime_utc": "2025-08-29T08:26:01.024000+00:00", "detection_status": "detected", "detection_status_ru": "обнаружено", "lon": 39.8821, "lat": 43.42599, "n_pixels": 2, "zone_area_km2": 0.0008, "cover_m2": 11.0, "p_mean": 0.951, "p_max": 0.973, "cover_m2_km2": 13750.0, "h3": "882d561285fffff", "valid_frac_scene": 1.0, "wind_ms": 3.6, "sea": "спокойное", "scene_reliable": true, "field_event_id": "S4:DOORS3:T17", "field_profile": "B", "field_date": "2024-06-04", "field_distance_km": 179.8, "field_date_gap_days": 451, "field_conc_items_km2": 89.61, "conc_A_items_km2": null, "conc_A_lo80": null, "conc_A_hi80": null, "conc_A_lo95": null, "conc_A_hi95": null, "conc_A_status": "unavailable", "conc_A_status_ru": "концентрация недоступна", "conc_A_reasons": "вне бассейна профиля: nw_atlantic_subtropical", "conc_A_model": "conc-A-c6bce5631d2b", "conc_B_items_km2": 567.4, "conc_B_lo80": 121.0, "conc_B_hi80": 1906.6, "conc_B_lo95": 75.5, "conc_B_hi95": 3570.1, "conc_B_status": "research_estimate", "conc_B_status_ru": "исследовательская оценка", "conc_B_reasons": "ближайшее полевое измерение в 180 км (> 60 км); месяц 8 вне месяцев обучения [6]; log_dist_coast_km = 1.3 вне диапазона обучения [1.7; 5.0]", "conc_B_model": "conc-B-c6bce5631d2b"}}, {"type": "Feature", "geometry": {"type": "Polygon", "coordinates": [[[39.90329888025119, 43.422584169438835], [39.90329754156351, 43.42249413641966], [39.90317402033457, 43.422495112102794], [39.903171343343786, 43.42231504605397], [39.9034170462114, 43.42222306154599], [39.903418385063496, 43.4223130945665], [39.90354190591407, 43.42231211862266], [39.90354458400283, 43.4224921846532], [39.90329888025119, 43.422584169438835]]]}, "properties": {"zone_id": "sochi-2025-08-29-022", "aoi": "sochi", "date": "2025-08-29", "scene_id": "S2A_MSIL2A_20250829T082601_R121_T37TEJ_20250829T105013", "scene_datetime_utc": "2025-08-29T08:26:01.024000+00:00", "detection_status": "detected", "detection_status_ru": "обнаружено", "lon": 39.90336, "lat": 43.4224, "n_pixels": 2, "zone_area_km2": 0.0008, "cover_m2": 2.7, "p_mean": 0.912, "p_max": 0.961, "cover_m2_km2": 3375.0, "h3": "882d5612a3fffff", "valid_frac_scene": 1.0, "wind_ms": 3.6, "sea": "спокойное", "scene_reliable": true, "field_event_id": "S4:DOORS3:T23", "field_profile": "B", "field_date": "2024-06-10", "field_distance_km": 180.1, "field_date_gap_days": 445, "field_conc_items_km2": 102.37, "conc_A_items_km2": null, "conc_A_lo80": null, "conc_A_hi80": null, "conc_A_lo95": null, "conc_A_hi95": null, "conc_A_status": "unavailable", "conc_A_status_ru": "концентрация недоступна", "conc_A_reasons": "вне бассейна профиля: nw_atlantic_subtropical", "conc_A_model": "conc-A-c6bce5631d2b", "conc_B_items_km2": 591.0, "conc_B_lo80": 126.1, "conc_B_hi80": 1985.7, "conc_B_lo95": 78.7, "conc_B_hi95": 3718.0, "conc_B_status": "research_estimate", "conc_B_status_ru": "исследовательская оценка", "conc_B_reasons": "ближайшее полевое измерение в 180 км (> 60 км); месяц 8 вне месяцев обучения [6]; log_dist_coast_km = 1.2 вне диапазона обучения [1.7; 5.0]", "conc_B_model": "conc-B-c6bce5631d2b"}}, {"type": "Feature", "geometry": {"type": "Polygon", "coordinates": [[[39.90535849204631, 43.41986657271224], [39.905357150433794, 43.41977653970129], [39.90523363479973, 43.419777517560505], [39.90523229337639, 43.41968748454504], [39.905355808827494, 43.419686506688876], [39.9053544672274, 43.41959647367503], [39.905477982489316, 43.41959549568854], [39.90547664071244, 43.41950546267629], [39.90572501299455, 43.419593539315414], [39.90572769729878, 43.41977360532333], [39.90560418168333, 43.4197745835827], [39.905605523661784, 43.41986461658753], [39.90535849204631, 43.41986657271224]]]}, "properties": {"zone_id": "sochi-2025-08-29-023", "aoi": "sochi", "date": "2025-08-29", "scene_id": "S2A_MSIL2A_20250829T082601_R121_T37TEJ_20250829T105013", "scene_datetime_utc": "2025-08-29T08:26:01.024000+00:00", "detection_status": "detected", "detection_status_ru": "обнаружено", "lon": 39.9055, "lat": 43.4197, "n_pixels": 3, "zone_area_km2": 0.001, "cover_m2": 11.4, "p_mean": 0.817, "p_max": 0.965, "cover_m2_km2": 11400.0, "h3": "882d5612a3fffff", "valid_frac_scene": 1.0, "wind_ms": 3.6, "sea": "спокойное", "scene_reliable": true, "field_event_id": "S4:DOORS3:T23", "field_profile": "B", "field_date": "2024-06-10", "field_distance_km": 179.7, "field_date_gap_days": 445, "field_conc_items_km2": 102.37, "conc_A_items_km2": null, "conc_A_lo80": null, "conc_A_hi80": null, "conc_A_lo95": null, "conc_A_hi95": null, "conc_A_status": "unavailable", "conc_A_status_ru": "концентрация недоступна", "conc_A_reasons": "вне бассейна профиля: nw_atlantic_subtropical", "conc_A_model": "conc-A-c6bce5631d2b", "conc_B_items_km2": 591.0, "conc_B_lo80": 126.1, "conc_B_hi80": 1985.7, "conc_B_lo95": 78.7, "conc_B_hi95": 3718.0, "conc_B_status": "research_estimate", "conc_B_status_ru": "исследовательская оценка", "conc_B_reasons": "ближайшее полевое измерение в 180 км (> 60 км); месяц 8 вне месяцев обучения [6]; log_dist_coast_km = 1.2 вне диапазона обучения [1.7; 5.0]", "conc_B_model": "conc-B-c6bce5631d2b"}}, {"type": "Feature", "geometry": {"type": "Polygon", "coordinates": [[[39.90569548728635, 43.41761281284395], [39.90569414528007, 43.417522779805765], [39.905570634238636, 43.417523757988675], [39.90556929242151, 43.41743372494598], [39.90569280327999, 43.417432746766124], [39.90569146128612, 43.41734271372504], [39.90593848261858, 43.417340756971306], [39.905939824978354, 43.41743079000628], [39.90606333581822, 43.417429811426295], [39.906064678367144, 43.41751984445675], [39.905941167344324, 43.4175208230398], [39.90594250971651, 43.41761085607185], [39.90569548728635, 43.41761281284395]]]}, "properties": {"zone_id": "sochi-2025-08-29-024", "aoi": "sochi", "date": "2025-08-29", "scene_id": "S2A_MSIL2A_20250829T082601_R121_T37TEJ_20250829T105013", "scene_datetime_utc": "2025-08-29T08:26:01.024000+00:00", "detection_status": "detected", "detection_status_ru": "обнаружено", "lon": 39.90582, "lat": 43.41748, "n_pixels": 2, "zone_area_km2": 0.0008, "cover_m2": 5.5, "p_mean": 0.927, "p_max": 0.965, "cover_m2_km2": 6875.0, "h3": "882d5612a3fffff", "valid_frac_scene": 1.0, "wind_ms": 3.6, "sea": "спокойное", "scene_reliable": true, "field_event_id": "S4:DOORS3:T23", "field_profile": "B", "field_date": "2024-06-10", "field_distance_km": 179.6, "field_date_gap_days": 445, "field_conc_items_km2": 102.37, "conc_A_items_km2": null, "conc_A_lo80": null, "conc_A_hi80": null, "conc_A_lo95": null, "conc_A_hi95": null, "conc_A_status": "unavailable", "conc_A_status_ru": "концентрация недоступна", "conc_A_reasons": "вне бассейна профиля: nw_atlantic_subtropical", "conc_A_model": "conc-A-c6bce5631d2b", "conc_B_items_km2": 591.0, "conc_B_lo80": 126.1, "conc_B_hi80": 1985.7, "conc_B_lo95": 78.7, "conc_B_hi95": 3718.0, "conc_B_status": "research_estimate", "conc_B_status_ru": "исследовательская оценка", "conc_B_reasons": "ближайшее полевое измерение в 180 км (> 60 км); месяц 8 вне месяцев обучения [6]; log_dist_coast_km = 1.2 вне диапазона обучения [1.7; 5.0]", "conc_B_model": "conc-B-c6bce5631d2b"}}, {"type": "Feature", "geometry": {"type": "Polygon", "coordinates": [[[39.91741644777674, 43.40032101517244], [39.91741508922465, 43.40023098215458], [39.9172916137165, 43.4002319726833], [39.917290255353485, 43.400141939660905], [39.91741373067884, 43.400140949135285], [39.91741237213931, 43.40005091611453], [39.9176606813107, 43.40013896768417], [39.917662040222076, 43.40022900069727], [39.917538564726506, 43.40022999149258], [39.917539923461376, 43.40032002450733], [39.91741644777674, 43.40032101517244]]]}, "properties": {"zone_id": "sochi-2025-08-29-025", "aoi": "sochi", "date": "2025-08-29", "scene_id": "S2A_MSIL2A_20250829T082601_R121_T37TEJ_20250829T105013", "scene_datetime_utc": "2025-08-29T08:26:01.024000+00:00", "detection_status": "detected", "detection_status_ru": "обнаружено", "lon": 39.91748, "lat": 43.40019, "n_pixels": 1, "zone_area_km2": 0.0005, "cover_m2": 6.3, "p_mean": 0.949, "p_max": 0.949, "cover_m2_km2": 12600.0, "h3": "882d5610c5fffff", "valid_frac_scene": 1.0, "wind_ms": 3.6, "sea": "спокойное", "scene_reliable": true, "field_event_id": "S4:DOORS3:T23", "field_profile": "B", "field_date": "2024-06-10", "field_distance_km": 177.6, "field_date_gap_days": 445, "field_conc_items_km2": 102.37, "conc_A_items_km2": null, "conc_A_lo80": null, "conc_A_hi80": null, "conc_A_lo95": null, "conc_A_hi95": null, "conc_A_status": "unavailable", "conc_A_status_ru": "концентрация недоступна", "conc_A_reasons": "вне бассейна профиля: nw_atlantic_subtropical", "conc_A_model": "conc-A-c6bce5631d2b", "conc_B_items_km2": 591.0, "conc_B_lo80": 126.1, "conc_B_hi80": 1985.7, "conc_B_lo95": 78.7, "conc_B_hi95": 3718.0, "conc_B_status": "research_estimate", "conc_B_status_ru": "исследовательская оценка", "conc_B_reasons": "ближайшее полевое измерение в 178 км (> 60 км); месяц 8 вне месяцев обучения [6]; log_dist_coast_km = 1.2 вне диапазона обучения [1.7; 5.0]", "conc_B_model": "conc-B-c6bce5631d2b"}}, {"type": "Feature", "geometry": {"type": "Polygon", "coordinates": [[[39.937617780810285, 43.39700562595523], [39.93761639250642, 43.39691559339987], [39.93749292443639, 43.39691660567803], [39.93749014821343, 43.396736540556624], [39.93773569514873, 43.39664448332311], [39.937737083616085, 43.396734515879665], [39.937860551307786, 43.39673350334128], [39.937863328627245, 43.3969135684437], [39.937617780810285, 43.39700562595523]]]}, "properties": {"zone_id": "sochi-2025-08-29-026", "aoi": "sochi", "date": "2025-08-29", "scene_id": "S2A_MSIL2A_20250829T082601_R121_T37TEJ_20250829T105013", "scene_datetime_utc": "2025-08-29T08:26:01.024000+00:00", "detection_status": "detected", "detection_status_ru": "обнаружено", "lon": 39.93768, "lat": 43.39683, "n_pixels": 2, "zone_area_km2": 0.0008, "cover_m2": 14.1, "p_mean": 0.759, "p_max": 0.945, "cover_m2_km2": 17625.0, "h3": "882d5610ebfffff", "valid_frac_scene": 1.0, "wind_ms": 3.6, "sea": "спокойное", "scene_reliable": true, "field_event_id": "S4:DOORS3:T23", "field_profile": "B", "field_date": "2024-06-10", "field_distance_km": 176.1, "field_date_gap_days": 445, "field_conc_items_km2": 102.37, "conc_A_items_km2": null, "conc_A_lo80": null, "conc_A_hi80": null, "conc_A_lo95": null, "conc_A_hi95": null, "conc_A_status": "unavailable", "conc_A_status_ru": "концентрация недоступна", "conc_A_reasons": "вне бассейна профиля: nw_atlantic_subtropical", "conc_A_model": "conc-A-c6bce5631d2b", "conc_B_items_km2": 666.4, "conc_B_lo80": 142.3, "conc_B_hi80": 2238.6, "conc_B_lo95": 88.8, "conc_B_hi95": 4191.5, "conc_B_status": "research_estimate", "conc_B_status_ru": "исследовательская оценка", "conc_B_reasons": "ближайшее полевое измерение в 176 км (> 60 км); месяц 8 вне месяцев обучения [6]; log_dist_coast_km = 0.9 вне диапазона обучения [1.7; 5.0]", "conc_B_model": "conc-B-c6bce5631d2b"}}, {"type": "Feature", "geometry": {"type": "Polygon", "coordinates": [[[39.93390128527684, 43.396225642515375], [39.933899902513055, 43.396135609852124], [39.933776435895595, 43.39613661810358], [39.93377367075268, 43.39595655276639], [39.934019220322874, 43.39586450347837], [39.93402060325023, 43.395954536142845], [39.93414406948941, 43.39595352763116], [39.93414683572879, 43.39613359294942], [39.93390128527684, 43.396225642515375]]]}, "properties": {"zone_id": "sochi-2025-08-29-027", "aoi": "sochi", "date": "2025-08-29", "scene_id": "S2A_MSIL2A_20250829T082601_R121_T37TEJ_20250829T105013", "scene_datetime_utc": "2025-08-29T08:26:01.024000+00:00", "detection_status": "detected", "detection_status_ru": "обнаружено", "lon": 39.93396, "lat": 43.39605, "n_pixels": 2, "zone_area_km2": 0.0008, "cover_m2": 14.1, "p_mean": 0.912, "p_max": 0.941, "cover_m2_km2": 17625.0, "h3": "882d5610ebfffff", "valid_frac_scene": 1.0, "wind_ms": 3.6, "sea": "спокойное", "scene_reliable": true, "field_event_id": "S4:DOORS3:T23", "field_profile": "B", "field_date": "2024-06-10", "field_distance_km": 176.3, "field_date_gap_days": 445, "field_conc_items_km2": 102.37, "conc_A_items_km2": null, "conc_A_lo80": null, "conc_A_hi80": null, "conc_A_lo95": null, "conc_A_hi95": null, "conc_A_status": "unavailable", "conc_A_status_ru": "концентрация недоступна", "conc_A_reasons": "вне бассейна профиля: nw_atlantic_subtropical", "conc_A_model": "conc-A-c6bce5631d2b", "conc_B_items_km2": 666.4, "conc_B_lo80": 142.3, "conc_B_hi80": 2238.6, "conc_B_lo95": 88.8, "conc_B_hi95": 4191.5, "conc_B_status": "research_estimate", "conc_B_status_ru": "исследовательская оценка", "conc_B_reasons": "ближайшее полевое измерение в 176 км (> 60 км); месяц 8 вне месяцев обучения [6]; log_dist_coast_km = 0.9 вне диапазона обучения [1.7; 5.0]", "conc_B_model": "conc-B-c6bce5631d2b"}}, {"type": "Feature", "geometry": {"type": "Polygon", "coordinates": [[[39.93203686262914, 43.39543045789356], [39.932035482663935, 43.39534042516995], [39.93191201759536, 43.39534143139395], [39.931910637819264, 43.39525139866574], [39.9320341027051, 43.39525039244488], [39.93203272275265, 43.39516035971835], [39.93215618744938, 43.395159353367376], [39.93215480732057, 43.39506932064252], [39.93240311682369, 43.395157340265584], [39.93240449732435, 43.39524737298267], [39.932281032457645, 43.39524837960334], [39.932282412781944, 43.39533841232211], [39.93203686262914, 43.39543045789356]]]}, "properties": {"zone_id": "sochi-2025-08-29-028", "aoi": "sochi", "date": "2025-08-29", "scene_id": "S2A_MSIL2A_20250829T082601_R121_T37TEJ_20250829T105013", "scene_datetime_utc": "2025-08-29T08:26:01.024000+00:00", "detection_status": "detected", "detection_status_ru": "обнаружено", "lon": 39.93216, "lat": 43.39525, "n_pixels": 2, "zone_area_km2": 0.0008, "cover_m2": 16.5, "p_mean": 0.884, "p_max": 0.949, "cover_m2_km2": 20625.0, "h3": "882d5610ebfffff", "valid_frac_scene": 1.0, "wind_ms": 3.6, "sea": "спокойное", "scene_reliable": true, "field_event_id": "S4:DOORS3:T23", "field_profile": "B", "field_date": "2024-06-10", "field_distance_km": 176.3, "field_date_gap_days": 445, "field_conc_items_km2": 102.37, "conc_A_items_km2": null, "conc_A_lo80": null, "conc_A_hi80": null, "conc_A_lo95": null, "conc_A_hi95": null, "conc_A_status": "unavailable", "conc_A_status_ru": "концентрация недоступна", "conc_A_reasons": "вне бассейна профиля: nw_atlantic_subtropical", "conc_A_model": "conc-A-c6bce5631d2b", "conc_B_items_km2": 666.4, "conc_B_lo80": 142.3, "conc_B_hi80": 2238.6, "conc_B_lo95": 88.8, "conc_B_hi95": 4191.5, "conc_B_status": "research_estimate", "conc_B_status_ru": "исследовательская оценка", "conc_B_reasons": "ближайшее полевое измерение в 176 км (> 60 км); месяц 8 вне месяцев обучения [6]; log_dist_coast_km = 0.9 вне диапазона обучения [1.7; 5.0]", "conc_B_model": "conc-B-c6bce5631d2b"}}, {"type": "Feature", "geometry": {"type": "Polygon", "coordinates": [[[40.01366478962593, 43.38104933517926], [40.013663289568335, 43.38095930441057], [40.01353985667712, 43.380960398469135], [40.01353835680904, 43.38087036769557], [40.01366178951768, 43.38086927364044], [40.01366028947396, 43.380779242868826], [40.01390715450526, 43.38077705436583], [40.013908654914154, 43.38086708513059], [40.01403208760198, 43.380865990675865], [40.01403358820039, 43.38095602143574], [40.01391015532998, 43.38095711589389], [40.013911655752736, 43.381047146655725], [40.01366478962593, 43.38104933517926]]]}, "properties": {"zone_id": "sochi-2025-08-29-029", "aoi": "sochi", "date": "2025-08-29", "scene_id": "S2A_MSIL2A_20250829T082601_R121_T37TEJ_20250829T105013", "scene_datetime_utc": "2025-08-29T08:26:01.024000+00:00", "detection_status": "detected", "detection_status_ru": "обнаружено", "lon": 40.01379, "lat": 43.38091, "n_pixels": 2, "zone_area_km2": 0.0008, "cover_m2": 19.2, "p_mean": 0.955, "p_max": 0.984, "cover_m2_km2": 24000.0, "h3": "882d560209fffff", "valid_frac_scene": 1.0, "wind_ms": 3.6, "sea": "спокойное", "scene_reliable": true, "field_event_id": "S4:DOORS3:T23", "field_profile": "B", "field_date": "2024-06-10", "field_distance_km": 170.3, "field_date_gap_days": 445, "field_conc_items_km2": 102.37, "conc_A_items_km2": null, "conc_A_lo80": null, "conc_A_hi80": null, "conc_A_lo95": null, "conc_A_hi95": null, "conc_A_status": "unavailable", "conc_A_status_ru": "концентрация недоступна", "conc_A_reasons": "вне бассейна профиля: nw_atlantic_subtropical", "conc_A_model": "conc-A-c6bce5631d2b", "conc_B_items_km2": 901.4, "conc_B_lo80": 192.7, "conc_B_hi80": 3027.3, "conc_B_lo95": 120.4, "conc_B_hi95": 5668.0, "conc_B_status": "research_estimate", "conc_B_status_ru": "исследовательская оценка", "conc_B_reasons": "ближайшее полевое измерение в 170 км (> 60 км); месяц 8 вне месяцев обучения [6]; log_dist_coast_km = 0.0 вне диапазона обучения [1.7; 5.0]", "conc_B_model": "conc-B-c6bce5631d2b"}}, {"type": "Feature", "geometry": {"type": "Polygon", "coordinates": [[[39.97340507828132, 43.380138497044086], [39.97340363784147, 43.380048465161856], [39.97328020529119, 43.38004951575179], [39.97327732479664, 43.37986945197638], [39.97340075698175, 43.37986840139302], [39.97339931656188, 43.379778369506404], [39.97352274855775, 43.379777318793124], [39.9735241891602, 43.379867350676456], [39.97377105349713, 43.37986524884374], [39.973769612529516, 43.37977521696699], [39.97389304450541, 43.37977416585413], [39.973894485655606, 43.379864197727606], [39.97401791780742, 43.37986314647826], [39.97402080049298, 43.38004321021424], [39.973897367975994, 43.380044261470154], [39.973898809146185, 43.38013429333924], [39.97377537643995, 43.38013534446525], [39.97377393545236, 43.38004531259288], [39.973527070385096, 43.38004741443873], [39.97352851100752, 43.38013744631767], [39.97340507828132, 43.380138497044086]]]}, "properties": {"zone_id": "sochi-2025-08-29-030", "aoi": "sochi", "date": "2025-08-29", "scene_id": "S2A_MSIL2A_20250829T082601_R121_T37TEJ_20250829T105013", "scene_datetime_utc": "2025-08-29T08:26:01.024000+00:00", "detection_status": "detected", "detection_status_ru": "обнаружено", "lon": 39.97365, "lat": 43.37996, "n_pixels": 4, "zone_area_km2": 0.0016, "cover_m2": 11.4, "p_mean": 0.884, "p_max": 0.984, "cover_m2_km2": 7125.0, "h3": "882d5610a7fffff", "valid_frac_scene": 1.0, "wind_ms": 3.6, "sea": "спокойное", "scene_reliable": true, "field_event_id": "S4:DOORS3:T23", "field_profile": "B", "field_date": "2024-06-10", "field_distance_km": 172.7, "field_date_gap_days": 445, "field_conc_items_km2": 102.37, "conc_A_items_km2": null, "conc_A_lo80": null, "conc_A_hi80": null, "conc_A_lo95": null, "conc_A_hi95": null, "conc_A_status": "unavailable", "conc_A_status_ru": "концентрация недоступна", "conc_A_reasons": "вне бассейна профиля: nw_atlantic_subtropical", "conc_A_model": "conc-A-c6bce5631d2b", "conc_B_items_km2": 621.6, "conc_B_lo80": 132.7, "conc_B_hi80": 2088.3, "conc_B_lo95": 82.8, "conc_B_hi95": 3910.2, "conc_B_status": "research_estimate", "conc_B_status_ru": "исследовательская оценка", "conc_B_reasons": "ближайшее полевое измерение в 173 км (> 60 км); месяц 8 вне месяцев обучения [6]; log_dist_coast_km = 1.0 вне диапазона обучения [1.7; 5.0]", "conc_B_model": "conc-B-c6bce5631d2b"}}, {"type": "Feature", "geometry": {"type": "Polygon", "coordinates": [[[39.97894505809647, 43.379190765085916], [39.978943609507304, 43.379100733337324], [39.97882017908325, 43.379101789888004], [39.978817282290144, 43.37892172637982], [39.97894071234905, 43.37892066983574], [39.97893926377997, 43.37883063808275], [39.979187572446776, 43.378918556348005], [39.979189021387704, 43.37900858809292], [39.97931245160909, 43.379007531145966], [39.979313900739285, 43.37909756288612], [39.979190470335325, 43.37909861983638], [39.97919191928965, 43.37918865157836], [39.97894505809647, 43.379190765085916]]]}, "properties": {"zone_id": "sochi-2025-08-29-031", "aoi": "sochi", "date": "2025-08-29", "scene_id": "S2A_MSIL2A_20250829T082601_R121_T37TEJ_20250829T105013", "scene_datetime_utc": "2025-08-29T08:26:01.024000+00:00", "detection_status": "detected", "detection_status_ru": "обнаружено", "lon": 39.97905, "lat": 43.37902, "n_pixels": 3, "zone_area_km2": 0.001, "cover_m2": 16.5, "p_mean": 0.925, "p_max": 0.992, "cover_m2_km2": 16500.0, "h3": "882d560249fffff", "valid_frac_scene": 1.0, "wind_ms": 3.6, "sea": "спокойное", "scene_reliable": true, "field_event_id": "S4:DOORS3:T23", "field_profile": "B", "field_date": "2024-06-10", "field_distance_km": 172.3, "field_date_gap_days": 445, "field_conc_items_km2": 102.37, "conc_A_items_km2": null, "conc_A_lo80": null, "conc_A_hi80": null, "conc_A_lo95": null, "conc_A_hi95": null, "conc_A_status": "unavailable", "conc_A_status_ru": "концентрация недоступна", "conc_A_reasons": "вне бассейна профиля: nw_atlantic_subtropical", "conc_A_model": "conc-A-c6bce5631d2b", "conc_B_items_km2": 666.4, "conc_B_lo80": 142.3, "conc_B_hi80": 2238.6, "conc_B_lo95": 88.8, "conc_B_hi95": 4191.5, "conc_B_status": "research_estimate", "conc_B_status_ru": "исследовательская оценка", "conc_B_reasons": "ближайшее полевое измерение в 172 км (> 60 км); месяц 8 вне месяцев обучения [6]; log_dist_coast_km = 0.9 вне диапазона обучения [1.7; 5.0]", "conc_B_model": "conc-B-c6bce5631d2b"}}]}