{"type": "FeatureCollection", "features": [{"type": "Feature", "geometry": {"type": "Polygon", "coordinates": [[[37.644691084748004, 44.66490462051075], [37.64469318212886, 44.664814621162954], [37.64456707186812, 44.66481312428841], [37.644569169434156, 44.66472312494378], [37.64469527949989, 44.664724621813654], [37.6446973768611, 44.66463462246286], [37.64520391301354, 44.664550609160585], [37.6452018164422, 44.66464060853157], [37.64532792636203, 44.664642104700725], [37.645325829975874, 44.66473210407487], [37.64507151297003, 44.66481911095133], [37.64506941617421, 44.664909110313125], [37.644691084748004, 44.66490462051075]]]}, "properties": {"zone_id": "novorossiysk-2026-09-11-001", "aoi": "novorossiysk", "date": "2026-09-11", "scene_id": "S2C_MSIL2A_20260911T081601_R121_T37TCK_20260911T120815", "scene_datetime_utc": "2026-09-11T08:16:01.025000+00:00", "detection_status": "detected", "detection_status_ru": "обнаружено", "lon": 37.64496, "lat": 44.66474, "n_pixels": 5, "zone_area_km2": 0.0015, "cover_m2": 18.4, "p_mean": 0.769, "p_max": 0.988, "cover_m2_km2": 12266.7, "h3": "882d728b33fffff", "valid_frac_scene": 0.999, "wind_ms": 5.7, "sea": "спокойное", "scene_reliable": true, "field_event_id": "S4:DOORS3:T12", "field_profile": "B", "field_date": "2024-06-04", "field_distance_km": 252.5, "field_date_gap_days": 829, "field_conc_items_km2": 48.97, "conc_A_items_km2": null, "conc_A_lo80": null, "conc_A_hi80": null, "conc_A_lo95": null, "conc_A_hi95": null, "conc_A_status": "unavailable", "conc_A_status_ru": "концентрация недоступна", "conc_A_reasons": "вне бассейна профиля: nw_atlantic_subtropical", "conc_A_model": "conc-A-c6bce5631d2b", "conc_B_items_km2": 669.1, "conc_B_lo80": 142.9, "conc_B_hi80": 2247.6, "conc_B_lo95": 89.2, "conc_B_hi95": 4208.4, "conc_B_status": "research_estimate", "conc_B_status_ru": "исследовательская оценка", "conc_B_reasons": "ближайшее полевое измерение в 252 км (> 60 км); месяц 9 вне месяцев обучения [6]; log_dist_coast_km = 0.8 вне диапазона обучения [1.7; 5.0]", "conc_B_model": "conc-B-c6bce5631d2b"}}, {"type": "Feature", "geometry": {"type": "Polygon", "coordinates": [[[37.59967635648204, 44.658869982641214], [37.59967852305526, 44.65877998490154], [37.599552428262896, 44.65877843848555], [37.5995545950209, 44.6586884407492], [37.59980895058388, 44.65860153568486], [37.59980678422589, 44.658691533432375], [37.59993287884361, 44.6586930795652], [37.59993071267042, 44.65878307731601], [37.59980461785777, 44.65878153117837], [37.59980245147949, 44.65887152892286], [37.59967635648204, 44.658869982641214]]]}, "properties": {"zone_id": "novorossiysk-2026-09-11-002", "aoi": "novorossiysk", "date": "2026-09-11", "scene_id": "S2C_MSIL2A_20260911T081601_R121_T37TCK_20260911T120815", "scene_datetime_utc": "2026-09-11T08:16:01.025000+00:00", "detection_status": "detected", "detection_status_ru": "обнаружено", "lon": 37.59974, "lat": 44.65874, "n_pixels": 1, "zone_area_km2": 0.0005, "cover_m2": 9.4, "p_mean": 0.91, "p_max": 0.91, "cover_m2_km2": 18800.0, "h3": "882d728b0dfffff", "valid_frac_scene": 0.999, "wind_ms": 5.7, "sea": "спокойное", "scene_reliable": true, "field_event_id": "S4:DOORS3:T12", "field_profile": "B", "field_date": "2024-06-04", "field_distance_km": 251.1, "field_date_gap_days": 829, "field_conc_items_km2": 48.97, "conc_A_items_km2": null, "conc_A_lo80": null, "conc_A_hi80": null, "conc_A_lo95": null, "conc_A_hi95": null, "conc_A_status": "unavailable", "conc_A_status_ru": "концентрация недоступна", "conc_A_reasons": "вне бассейна профиля: nw_atlantic_subtropical", "conc_A_model": "conc-A-c6bce5631d2b", "conc_B_items_km2": 669.1, "conc_B_lo80": 142.9, "conc_B_hi80": 2247.6, "conc_B_lo95": 89.2, "conc_B_hi95": 4208.4, "conc_B_status": "research_estimate", "conc_B_status_ru": "исследовательская оценка", "conc_B_reasons": "ближайшее полевое измерение в 251 км (> 60 км); месяц 9 вне месяцев обучения [6]; log_dist_coast_km = 0.8 вне диапазона обучения [1.7; 5.0]", "conc_B_model": "conc-B-c6bce5631d2b"}}, {"type": "Feature", "geometry": {"type": "Polygon", "coordinates": [[[37.914648790145634, 44.65779684621172], [37.914650469398794, 44.65770683770239], [37.91452436186594, 44.65770563907855], [37.91452604130625, 44.657615630571506], [37.914779935032186, 44.657528019156466], [37.91477825598978, 44.65761802767247], [37.91490436334334, 44.65761922601412], [37.91490268448809, 44.65770923453239], [37.91477657693951, 44.657708036187], [37.91477489788137, 44.657798044700066], [37.914648790145634, 44.65779684621172]]]}, "properties": {"zone_id": "novorossiysk-2026-09-11-003", "aoi": "novorossiysk", "date": "2026-09-11", "scene_id": "S2C_MSIL2A_20260911T081601_R121_T37TCK_20260911T120815", "scene_datetime_utc": "2026-09-11T08:16:01.025000+00:00", "detection_status": "detected", "detection_status_ru": "обнаружено", "lon": 37.91471, "lat": 44.65766, "n_pixels": 1, "zone_area_km2": 0.0005, "cover_m2": 7.5, "p_mean": 0.996, "p_max": 0.996, "cover_m2_km2": 15000.0, "h3": "882d721039fffff", "valid_frac_scene": 0.999, "wind_ms": 5.7, "sea": "спокойное", "scene_reliable": true, "field_event_id": "S4:DOORS3:T13", "field_profile": "B", "field_date": "2024-06-04", "field_distance_km": 256.5, "field_date_gap_days": 829, "field_conc_items_km2": 263.57, "conc_A_items_km2": null, "conc_A_lo80": null, "conc_A_hi80": null, "conc_A_lo95": null, "conc_A_hi95": null, "conc_A_status": "unavailable", "conc_A_status_ru": "концентрация недоступна", "conc_A_reasons": "вне бассейна профиля: nw_atlantic_subtropical", "conc_A_model": "conc-A-c6bce5631d2b", "conc_B_items_km2": 621.6, "conc_B_lo80": 132.7, "conc_B_hi80": 2088.3, "conc_B_lo95": 82.8, "conc_B_hi95": 3910.2, "conc_B_status": "research_estimate", "conc_B_status_ru": "исследовательская оценка", "conc_B_reasons": "ближайшее полевое измерение в 257 км (> 60 км); месяц 9 вне месяцев обучения [6]; log_dist_coast_km = 1.0 вне диапазона обучения [1.7; 5.0]", "conc_B_model": "conc-B-c6bce5631d2b"}}, {"type": "Feature", "geometry": {"type": "Polygon", "coordinates": [[[37.92131892622382, 44.644986532616166], [37.921320594413245, 44.644896523705896], [37.92119451435925, 44.644895332713936], [37.92119785110446, 44.64471531489638], [37.9214516784118, 44.644627687807855], [37.921450010440694, 44.644717696726275], [37.92157609012054, 44.644718887432475], [37.921572754544684, 44.64489890527232], [37.92131892622382, 44.644986532616166]]]}, "properties": {"zone_id": "novorossiysk-2026-09-11-004", "aoi": "novorossiysk", "date": "2026-09-11", "scene_id": "S2C_MSIL2A_20260911T081601_R121_T37TCK_20260911T120815", "scene_datetime_utc": "2026-09-11T08:16:01.025000+00:00", "detection_status": "detected", "detection_status_ru": "обнаружено", "lon": 37.92139, "lat": 44.64481, "n_pixels": 2, "zone_area_km2": 0.0008, "cover_m2": 15.3, "p_mean": 0.978, "p_max": 0.996, "cover_m2_km2": 19125.0, "h3": "882d721035fffff", "valid_frac_scene": 0.999, "wind_ms": 5.7, "sea": "спокойное", "scene_reliable": true, "field_event_id": "S4:DOORS3:T13", "field_profile": "B", "field_date": "2024-06-04", "field_distance_km": 255.2, "field_date_gap_days": 829, "field_conc_items_km2": 263.57, "conc_A_items_km2": null, "conc_A_lo80": null, "conc_A_hi80": null, "conc_A_lo95": null, "conc_A_hi95": null, "conc_A_status": "unavailable", "conc_A_status_ru": "концентрация недоступна", "conc_A_reasons": "вне бассейна профиля: nw_atlantic_subtropical", "conc_A_model": "conc-A-c6bce5631d2b", "conc_B_items_km2": 669.1, "conc_B_lo80": 142.9, "conc_B_hi80": 2247.6, "conc_B_lo95": 89.2, "conc_B_hi95": 4208.4, "conc_B_status": "research_estimate", "conc_B_status_ru": "исследовательская оценка", "conc_B_reasons": "ближайшее полевое измерение в 255 км (> 60 км); месяц 9 вне месяцев обучения [6]; log_dist_coast_km = 0.8 вне диапазона обучения [1.7; 5.0]", "conc_B_model": "conc-B-c6bce5631d2b"}}]}