{"type": "FeatureCollection", "features": [{"type": "Feature", "geometry": {"type": "Polygon", "coordinates": [[[39.728699754144756, 43.563036130168996], [39.7286986688911, 43.56294609545485], [39.72857485569457, 43.56294688456281], [39.72857268557104, 43.56276681512525], [39.72869649839886, 43.56276602602222], [39.728695413160274, 43.562675991303735], [39.728943038432135, 43.5626744127004], [39.72894412403942, 43.56276444741395], [39.72906793685216, 43.562763657908704], [39.72907010845053, 43.562943727326534], [39.72894629526908, 43.562944516836716], [39.72894738089145, 43.563034551545925], [39.728699754144756, 43.563036130168996]]]}, "properties": {"zone_id": "sochi-2025-06-08-001", "aoi": "sochi", "date": "2025-06-08", "scene_id": "S2C_MSIL2A_20250608T081621_R121_T37TEJ_20250608T121023", "scene_datetime_utc": "2025-06-08T08:16:21.025000+00:00", "detection_status": "detected", "detection_status_ru": "обнаружено", "lon": 39.72882, "lat": 43.56286, "n_pixels": 4, "zone_area_km2": 0.0012, "cover_m2": 12.5, "p_mean": 0.852, "p_max": 0.984, "cover_m2_km2": 10416.7, "h3": "882d568e09fffff", "valid_frac_scene": 1.0, "wind_ms": 4.5, "sea": "спокойное", "scene_reliable": false, "field_event_id": "S4:DOORS3:T17", "field_profile": "B", "field_date": "2024-06-04", "field_distance_km": 183.8, "field_date_gap_days": 369, "field_conc_items_km2": 89.61, "conc_A_items_km2": null, "conc_A_lo80": null, "conc_A_hi80": null, "conc_A_lo95": null, "conc_A_hi95": null, "conc_A_status": "unavailable", "conc_A_status_ru": "концентрация недоступна", "conc_A_reasons": "вне бассейна профиля: nw_atlantic_subtropical", "conc_A_model": "conc-A-c6bce5631d2b", "conc_B_items_km2": 901.4, "conc_B_lo80": 192.7, "conc_B_hi80": 3027.3, "conc_B_lo95": 120.4, "conc_B_hi95": 5668.0, "conc_B_status": "research_estimate", "conc_B_status_ru": "исследовательская оценка", "conc_B_reasons": "ближайшее полевое измерение в 184 км (> 60 км); log_dist_coast_km = 0.0 вне диапазона обучения [1.7; 5.0]", "conc_B_model": "conc-B-c6bce5631d2b"}}, {"type": "Feature", "geometry": {"type": "Polygon", "coordinates": [[[39.799037896204545, 43.48855152468328], [39.79903670929155, 43.48846149026812], [39.79878820490155, 43.48837318392584], [39.798785831837556, 43.48819311507746], [39.79890949021427, 43.48819225111256], [39.79890830350687, 43.4881022166889], [39.79915680695123, 43.48819052278159], [39.79915799403139, 43.488280557198415], [39.79928165257527, 43.48827969282966], [39.79928402711934, 43.488459761653516], [39.799037896204545, 43.48855152468328]]]}, "properties": {"zone_id": "sochi-2025-06-08-002", "aoi": "sochi", "date": "2025-06-08", "scene_id": "S2C_MSIL2A_20250608T081621_R121_T37TEJ_20250608T121023", "scene_datetime_utc": "2025-06-08T08:16:21.025000+00:00", "detection_status": "detected", "detection_status_ru": "обнаружено", "lon": 39.79903, "lat": 43.48833, "n_pixels": 4, "zone_area_km2": 0.0012, "cover_m2": 20.0, "p_mean": 0.84, "p_max": 0.973, "cover_m2_km2": 16666.7, "h3": "882d568d51fffff", "valid_frac_scene": 1.0, "wind_ms": 4.5, "sea": "спокойное", "scene_reliable": false, "field_event_id": "S4:DOORS3:T17", "field_profile": "B", "field_date": "2024-06-04", "field_distance_km": 180.7, "field_date_gap_days": 369, "field_conc_items_km2": 89.61, "conc_A_items_km2": null, "conc_A_lo80": null, "conc_A_hi80": null, "conc_A_lo95": null, "conc_A_hi95": null, "conc_A_status": "unavailable", "conc_A_status_ru": "концентрация недоступна", "conc_A_reasons": "вне бассейна профиля: nw_atlantic_subtropical", "conc_A_model": "conc-A-c6bce5631d2b", "conc_B_items_km2": 464.8, "conc_B_lo80": 99.0, "conc_B_hi80": 1562.1, "conc_B_lo95": 61.7, "conc_B_hi95": 2925.1, "conc_B_status": "research_estimate", "conc_B_status_ru": "исследовательская оценка", "conc_B_reasons": "ближайшее полевое измерение в 181 км (> 60 км)", "conc_B_model": "conc-B-c6bce5631d2b"}}, {"type": "Feature", "geometry": {"type": "Polygon", "coordinates": [[[39.75073896832667, 43.473121348912194], [39.75073785375435, 43.47303131322471], [39.75061422488597, 43.473032124870045], [39.750611996123794, 43.47285205348563], [39.750735624625165, 43.47285124184536], [39.75073451006831, 43.472761206153535], [39.75098176668859, 43.47275958247713], [39.75098288161245, 43.47284961816389], [39.75110651009835, 43.47284880612267], [39.75110874032853, 43.4730288774868], [39.75098511147563, 43.47302968953308], [39.75098622641496, 43.4731197252155], [39.75073896832667, 43.473121348912194]]]}, "properties": {"zone_id": "sochi-2025-06-08-003", "aoi": "sochi", "date": "2025-06-08", "scene_id": "S2C_MSIL2A_20250608T081621_R121_T37TEJ_20250608T121023", "scene_datetime_utc": "2025-06-08T08:16:21.025000+00:00", "detection_status": "detected", "detection_status_ru": "обнаружено", "lon": 39.75086, "lat": 43.47294, "n_pixels": 4, "zone_area_km2": 0.0012, "cover_m2": 46.7, "p_mean": 0.768, "p_max": 0.831, "cover_m2_km2": 38916.7, "h3": "882d568f25fffff", "valid_frac_scene": 1.0, "wind_ms": 4.5, "sea": "спокойное", "scene_reliable": false, "field_event_id": "S4:DOORS3:T17", "field_profile": "B", "field_date": "2024-06-04", "field_distance_km": 177.0, "field_date_gap_days": 369, "field_conc_items_km2": 89.61, "conc_A_items_km2": null, "conc_A_lo80": null, "conc_A_hi80": null, "conc_A_lo95": null, "conc_A_hi95": null, "conc_A_status": "unavailable", "conc_A_status_ru": "концентрация недоступна", "conc_A_reasons": "вне бассейна профиля: nw_atlantic_subtropical", "conc_A_model": "conc-A-c6bce5631d2b", "conc_B_items_km2": 396.2, "conc_B_lo80": 84.3, "conc_B_hi80": 1332.1, "conc_B_lo95": 52.4, "conc_B_hi95": 2494.5, "conc_B_status": "research_estimate", "conc_B_status_ru": "исследовательская оценка", "conc_B_reasons": "ближайшее полевое измерение в 177 км (> 60 км)", "conc_B_model": "conc-B-c6bce5631d2b"}}, {"type": "Feature", "geometry": {"type": "Polygon", "coordinates": [[[39.81104846398337, 43.46190430343021], [39.81104726035052, 43.46181426885957], [39.810923656117346, 43.46181514552907], [39.81092124923512, 43.46163507637795], [39.81104485310153, 43.46163419971391], [39.811043649485384, 43.46154416513892], [39.81116725316284, 43.46154328834404], [39.81116604936888, 43.46145325377033], [39.81141446050105, 43.46154153435349], [39.81141807301664, 43.46181163804946], [39.81129446880016, 43.46181251511975], [39.81129567279979, 43.46190254968492], [39.81104846398337, 43.46190430343021]]]}, "properties": {"zone_id": "sochi-2025-06-08-004", "aoi": "sochi", "date": "2025-06-08", "scene_id": "S2C_MSIL2A_20250608T081621_R121_T37TEJ_20250608T121023", "scene_datetime_utc": "2025-06-08T08:16:21.025000+00:00", "detection_status": "detected", "detection_status_ru": "обнаружено", "lon": 39.81118, "lat": 43.4617, "n_pixels": 5, "zone_area_km2": 0.0014, "cover_m2": 51.0, "p_mean": 0.883, "p_max": 1.0, "cover_m2_km2": 36428.6, "h3": "882d568d05fffff", "valid_frac_scene": 1.0, "wind_ms": 4.5, "sea": "спокойное", "scene_reliable": false, "field_event_id": "S4:DOORS3:T17", "field_profile": "B", "field_date": "2024-06-04", "field_distance_km": 179.1, "field_date_gap_days": 369, "field_conc_items_km2": 89.61, "conc_A_items_km2": null, "conc_A_lo80": null, "conc_A_hi80": null, "conc_A_lo95": null, "conc_A_hi95": null, "conc_A_status": "unavailable", "conc_A_status_ru": "концентрация недоступна", "conc_A_reasons": "вне бассейна профиля: nw_atlantic_subtropical", "conc_A_model": "conc-A-c6bce5631d2b", "conc_B_items_km2": 431.8, "conc_B_lo80": 91.9, "conc_B_hi80": 1451.3, "conc_B_lo95": 57.2, "conc_B_hi95": 2717.6, "conc_B_status": "research_estimate", "conc_B_status_ru": "исследовательская оценка", "conc_B_reasons": "ближайшее полевое измерение в 179 км (> 60 км)", "conc_B_model": "conc-B-c6bce5631d2b"}}, {"type": "Feature", "geometry": {"type": "Polygon", "coordinates": [[[39.93916835754219, 43.38546726675844], [39.93916696750255, 43.38537723406074], [39.93904352290749, 43.385378247799], [39.93904074321279, 43.38519818239287], [39.939164187442564, 43.385197168660945], [39.93916279742221, 43.38510713595887], [39.93940968549721, 43.385105108101676], [39.939411075882845, 43.38519514079741], [39.939534520093346, 43.38519412666582], [39.93953730124918, 43.38537419204658], [39.93941385667339, 43.38537520618452], [39.93941524707831, 43.38546523887589], [39.93916835754219, 43.38546726675844]]]}, "properties": {"zone_id": "sochi-2025-06-08-005", "aoi": "sochi", "date": "2025-06-08", "scene_id": "S2C_MSIL2A_20250608T081621_R121_T37TEJ_20250608T121023", "scene_datetime_utc": "2025-06-08T08:16:21.025000+00:00", "detection_status": "detected", "detection_status_ru": "обнаружено", "lon": 39.93929, "lat": 43.38529, "n_pixels": 4, "zone_area_km2": 0.0012, "cover_m2": 29.0, "p_mean": 0.815, "p_max": 0.996, "cover_m2_km2": 24166.7, "h3": "882d5610e7fffff", "valid_frac_scene": 1.0, "wind_ms": 4.5, "sea": "спокойное", "scene_reliable": false, "field_event_id": "S4:DOORS3:T23", "field_profile": "B", "field_date": "2024-06-10", "field_distance_km": 175.2, "field_date_gap_days": 363, "field_conc_items_km2": 102.37, "conc_A_items_km2": null, "conc_A_lo80": null, "conc_A_hi80": null, "conc_A_lo95": null, "conc_A_hi95": null, "conc_A_status": "unavailable", "conc_A_status_ru": "концентрация недоступна", "conc_A_reasons": "вне бассейна профиля: nw_atlantic_subtropical", "conc_A_model": "conc-A-c6bce5631d2b", "conc_B_items_km2": 621.6, "conc_B_lo80": 132.7, "conc_B_hi80": 2088.3, "conc_B_lo95": 82.8, "conc_B_hi95": 3910.2, "conc_B_status": "research_estimate", "conc_B_status_ru": "исследовательская оценка", "conc_B_reasons": "ближайшее полевое измерение в 175 км (> 60 км); log_dist_coast_km = 1.0 вне диапазона обучения [1.7; 5.0]", "conc_B_model": "conc-B-c6bce5631d2b"}}, {"type": "Feature", "geometry": {"type": "Polygon", "coordinates": [[[39.934558017730794, 43.38271366852986], [39.934556634647144, 43.38262363566995], [39.93443319547647, 43.38262464438113], [39.934430429693585, 43.38244457865062], [39.93455386849903, 43.38244356994576], [39.93455248543455, 43.38235353708148], [39.93479936266103, 43.3823515192784], [39.93480074609074, 43.38244155213638], [39.93492418487699, 43.382440543031876], [39.93492695212081, 43.38262060873715], [39.93480351296932, 43.38262161784796], [39.9348048964182, 43.38271165070156], [39.934558017730794, 43.38271366852986]]]}, "properties": {"zone_id": "sochi-2025-06-08-006", "aoi": "sochi", "date": "2025-06-08", "scene_id": "S2C_MSIL2A_20250608T081621_R121_T37TEJ_20250608T121023", "scene_datetime_utc": "2025-06-08T08:16:21.025000+00:00", "detection_status": "detected", "detection_status_ru": "обнаружено", "lon": 39.93468, "lat": 43.38253, "n_pixels": 4, "zone_area_km2": 0.0012, "cover_m2": 32.5, "p_mean": 0.953, "p_max": 1.0, "cover_m2_km2": 27083.3, "h3": "882d5610e5fffff", "valid_frac_scene": 1.0, "wind_ms": 4.5, "sea": "спокойное", "scene_reliable": false, "field_event_id": "S4:DOORS3:T23", "field_profile": "B", "field_date": "2024-06-10", "field_distance_km": 175.2, "field_date_gap_days": 363, "field_conc_items_km2": 102.37, "conc_A_items_km2": null, "conc_A_lo80": null, "conc_A_hi80": null, "conc_A_lo95": null, "conc_A_hi95": null, "conc_A_status": "unavailable", "conc_A_status_ru": "концентрация недоступна", "conc_A_reasons": "вне бассейна профиля: nw_atlantic_subtropical", "conc_A_model": "conc-A-c6bce5631d2b", "conc_B_items_km2": 591.0, "conc_B_lo80": 126.1, "conc_B_hi80": 1985.7, "conc_B_lo95": 78.7, "conc_B_hi95": 3718.0, "conc_B_status": "research_estimate", "conc_B_status_ru": "исследовательская оценка", "conc_B_reasons": "ближайшее полевое измерение в 175 км (> 60 км); log_dist_coast_km = 1.2 вне диапазона обучения [1.7; 5.0]", "conc_B_model": "conc-B-c6bce5631d2b"}}]}