{"type": "FeatureCollection", "features": [{"type": "Feature", "geometry": {"type": "Polygon", "coordinates": [[[29.599318621144594, 60.03863464779567], [29.59931156881504, 60.03854494812508], [29.599132261533164, 60.03854847596803], [29.599118157978165, 60.038369076596226], [29.599297464289748, 60.03836554877867], [29.599290412094007, 60.0382758491029], [29.599649023613072, 60.03826879276399], [29.59965607677909, 60.03835849241435], [29.59983538295685, 60.03835496386759], [29.599849490393026, 60.03853436313778], [29.599670183244978, 60.038537891709964], [29.599677236544828, 60.03862759135514], [29.599318621144594, 60.03863464779567]]]}, "properties": {"zone_id": "neva-2026-07-16-001", "aoi": "neva", "date": "2026-07-16", "scene_id": "S2A_MSIL2A_20260716T093151_R136_T36VUM_20260716T144015", "scene_datetime_utc": "2026-07-16T09:31:51.024000+00:00", "detection_status": "detected", "detection_status_ru": "обнаружено", "lon": 29.59948, "lat": 60.03845, "n_pixels": 4, "zone_area_km2": 0.0012, "cover_m2": 15.3, "p_mean": 0.809, "p_max": 0.875, "cover_m2_km2": 12750.0, "h3": "88110695dbfffff", "valid_frac_scene": 1.0, "wind_ms": 5.0, "sea": "спокойное", "scene_reliable": true, "field_event_id": "S3:HE419_MarLitter_transect28", "field_profile": "B", "field_date": "2014-04-11", "field_distance_km": 1393.2, "field_date_gap_days": 4479, "field_conc_items_km2": 43.1, "conc_A_items_km2": null, "conc_A_lo80": null, "conc_A_hi80": null, "conc_A_lo95": null, "conc_A_hi95": null, "conc_A_status": "unavailable", "conc_A_status_ru": "концентрация недоступна", "conc_A_reasons": "вне бассейна профиля: nw_atlantic_subtropical", "conc_A_model": "conc-A-c6bce5631d2b", "conc_B_items_km2": null, "conc_B_lo80": null, "conc_B_hi80": null, "conc_B_lo95": null, "conc_B_hi95": null, "conc_B_status": "unavailable", "conc_B_status_ru": "концентрация недоступна", "conc_B_reasons": "вне бассейна профиля: black_sea", "conc_B_model": "conc-B-c6bce5631d2b"}}, {"type": "Feature", "geometry": {"type": "Polygon", "coordinates": [[[29.831496528825053, 60.029818738728125], [29.831488849781874, 60.02972905618218], [29.831309624726682, 60.02973289857073], [29.831301946216524, 60.029643216009134], [29.831481170787235, 60.02963937363438], [29.83147349184115, 60.02954969108482], [29.831831939867996, 60.02954200563438], [29.831839619783022, 60.0296316881563], [29.832018844208083, 60.02962784505294], [29.832026524656136, 60.02971752755925], [29.831847299746602, 60.029721370676434], [29.831854979758734, 60.02981105319471], [29.831496528825053, 60.029818738728125]]]}, "properties": {"zone_id": "neva-2026-07-16-002", "aoi": "neva", "date": "2026-07-16", "scene_id": "S2A_MSIL2A_20260716T093151_R136_T36VUM_20260716T144015", "scene_datetime_utc": "2026-07-16T09:31:51.024000+00:00", "detection_status": "detected", "detection_status_ru": "обнаружено", "lon": 29.83166, "lat": 60.02968, "n_pixels": 2, "zone_area_km2": 0.0008, "cover_m2": 30.6, "p_mean": 0.945, "p_max": 0.953, "cover_m2_km2": 38250.0, "h3": "8811068437fffff", "valid_frac_scene": 1.0, "wind_ms": 5.0, "sea": "спокойное", "scene_reliable": true, "field_event_id": "S3:HE419_MarLitter_transect28", "field_profile": "B", "field_date": "2014-04-11", "field_distance_km": 1405.4, "field_date_gap_days": 4479, "field_conc_items_km2": 43.1, "conc_A_items_km2": null, "conc_A_lo80": null, "conc_A_hi80": null, "conc_A_lo95": null, "conc_A_hi95": null, "conc_A_status": "unavailable", "conc_A_status_ru": "концентрация недоступна", "conc_A_reasons": "вне бассейна профиля: nw_atlantic_subtropical", "conc_A_model": "conc-A-c6bce5631d2b", "conc_B_items_km2": null, "conc_B_lo80": null, "conc_B_hi80": null, "conc_B_lo95": null, "conc_B_hi95": null, "conc_B_status": "unavailable", "conc_B_status_ru": "концентрация недоступна", "conc_B_reasons": "вне бассейна профиля: black_sea", "conc_B_model": "conc-B-c6bce5631d2b"}}, {"type": "Feature", "geometry": {"type": "Polygon", "coordinates": [[[29.94833311002515, 60.027172122088906], [29.94832511524628, 60.02708244874213], [29.94814592297589, 60.02708644944297], [29.94813792873174, 60.02699677607996], [29.948317120517945, 60.026992775393516], [29.948309125840154, 60.02690310204301], [29.948667508292594, 60.02689509997054], [29.94867550393875, 60.02698477329224], [29.948854695573353, 60.02698077187744], [29.94886269175423, 60.02707044518287], [29.94868349963545, 60.02707444661209], [29.948691495382693, 60.02716411993007], [29.94833311002515, 60.027172122088906]]]}, "properties": {"zone_id": "neva-2026-07-16-003", "aoi": "neva", "date": "2026-07-16", "scene_id": "S2A_MSIL2A_20260716T093151_R136_T36VUM_20260716T144015", "scene_datetime_utc": "2026-07-16T09:31:51.024000+00:00", "detection_status": "detected", "detection_status_ru": "обнаружено", "lon": 29.9485, "lat": 60.02703, "n_pixels": 2, "zone_area_km2": 0.0008, "cover_m2": 6.3, "p_mean": 0.765, "p_max": 0.824, "cover_m2_km2": 7875.0, "h3": "881106bb5bfffff", "valid_frac_scene": 1.0, "wind_ms": 5.0, "sea": "спокойное", "scene_reliable": true, "field_event_id": "S3:HE419_MarLitter_transect28", "field_profile": "B", "field_date": "2014-04-11", "field_distance_km": 1411.6, "field_date_gap_days": 4479, "field_conc_items_km2": 43.1, "conc_A_items_km2": null, "conc_A_lo80": null, "conc_A_hi80": null, "conc_A_lo95": null, "conc_A_hi95": null, "conc_A_status": "unavailable", "conc_A_status_ru": "концентрация недоступна", "conc_A_reasons": "вне бассейна профиля: nw_atlantic_subtropical", "conc_A_model": "conc-A-c6bce5631d2b", "conc_B_items_km2": null, "conc_B_lo80": null, "conc_B_hi80": null, "conc_B_lo95": null, "conc_B_hi95": null, "conc_B_status": "unavailable", "conc_B_status_ru": "концентрация недоступна", "conc_B_reasons": "вне бассейна профиля: black_sea", "conc_B_model": "conc-B-c6bce5631d2b"}}, {"type": "Feature", "geometry": {"type": "Polygon", "coordinates": [[[30.085252483095413, 59.980103461796425], [30.08524413323013, 59.980013799103766], [30.085065217899636, 59.980017983471235], [30.085056868569392, 59.97992832076163], [30.085235783417545, 59.979924136409196], [30.085227433657664, 59.97983447371269], [30.085585262231195, 59.97982610431116], [30.08559361295575, 59.979915766977584], [30.085772527645787, 59.97991158189839], [30.085780878905382, 59.98000124454782], [30.085601963733005, 59.98000542964206], [30.08561031456297, 59.98009509230464], [30.085252483095413, 59.980103461796425]]]}, "properties": {"zone_id": "neva-2026-07-16-004", "aoi": "neva", "date": "2026-07-16", "scene_id": "S2A_MSIL2A_20260716T093151_R136_T36VUM_20260716T144015", "scene_datetime_utc": "2026-07-16T09:31:51.024000+00:00", "detection_status": "detected", "detection_status_ru": "обнаружено", "lon": 30.08542, "lat": 59.97996, "n_pixels": 2, "zone_area_km2": 0.0008, "cover_m2": 7.1, "p_mean": 0.635, "p_max": 0.647, "cover_m2_km2": 8875.0, "h3": "881106b907fffff", "valid_frac_scene": 1.0, "wind_ms": 5.0, "sea": "спокойное", "scene_reliable": true, "field_event_id": "S3:HE419_MarLitter_transect28", "field_profile": "B", "field_date": "2014-04-11", "field_distance_km": 1417.8, "field_date_gap_days": 4479, "field_conc_items_km2": 43.1, "conc_A_items_km2": null, "conc_A_lo80": null, "conc_A_hi80": null, "conc_A_lo95": null, "conc_A_hi95": null, "conc_A_status": "unavailable", "conc_A_status_ru": "концентрация недоступна", "conc_A_reasons": "вне бассейна профиля: nw_atlantic_subtropical", "conc_A_model": "conc-A-c6bce5631d2b", "conc_B_items_km2": null, "conc_B_lo80": null, "conc_B_hi80": null, "conc_B_lo95": null, "conc_B_hi95": null, "conc_B_status": "unavailable", "conc_B_status_ru": "концентрация недоступна", "conc_B_reasons": "вне бассейна профиля: black_sea", "conc_B_model": "conc-B-c6bce5631d2b"}}, {"type": "Feature", "geometry": {"type": "Polygon", "coordinates": [[[30.146327891544527, 59.97749264738657], [30.14631937744484, 59.97740298986296], [30.14614048658311, 59.977407256873235], [30.146131973019283, 59.97731759933234], [30.14631086339888, 59.97731333233739], [30.14630234940665, 59.97722367480985], [30.146660129040377, 59.97721514012407], [30.146668643996875, 59.97730479762094], [30.146847534215265, 59.97730052989942], [30.14685604970763, 59.977390187378965], [30.1466771590071, 59.977394455115835], [30.14668567407107, 59.97748411260876], [30.146327891544527, 59.97749264738657]]]}, "properties": {"zone_id": "neva-2026-07-16-005", "aoi": "neva", "date": "2026-07-16", "scene_id": "S2A_MSIL2A_20260716T093151_R136_T36VUM_20260716T144015", "scene_datetime_utc": "2026-07-16T09:31:51.024000+00:00", "detection_status": "detected", "detection_status_ru": "обнаружено", "lon": 30.14649, "lat": 59.97735, "n_pixels": 2, "zone_area_km2": 0.0008, "cover_m2": 9.0, "p_mean": 0.794, "p_max": 0.969, "cover_m2_km2": 11250.0, "h3": "88110616d5fffff", "valid_frac_scene": 1.0, "wind_ms": 5.0, "sea": "спокойное", "scene_reliable": true, "field_event_id": "S3:HE419_MarLitter_transect28", "field_profile": "B", "field_date": "2014-04-11", "field_distance_km": 1421.0, "field_date_gap_days": 4479, "field_conc_items_km2": 43.1, "conc_A_items_km2": null, "conc_A_lo80": null, "conc_A_hi80": null, "conc_A_lo95": null, "conc_A_hi95": null, "conc_A_status": "unavailable", "conc_A_status_ru": "концентрация недоступна", "conc_A_reasons": "вне бассейна профиля: nw_atlantic_subtropical", "conc_A_model": "conc-A-c6bce5631d2b", "conc_B_items_km2": null, "conc_B_lo80": null, "conc_B_hi80": null, "conc_B_lo95": null, "conc_B_hi95": null, "conc_B_status": "unavailable", "conc_B_status_ru": "концентрация недоступна", "conc_B_reasons": "вне бассейна профиля: black_sea", "conc_B_model": "conc-B-c6bce5631d2b"}}, {"type": "Feature", "geometry": {"type": "Polygon", "coordinates": [[[30.197624411156582, 59.97023823314758], [30.19761576091426, 59.970148579974904], [30.19743691804864, 59.97015291617079], [30.197428268342698, 59.97006326298057], [30.197607110726523, 59.97005892680025], [30.19759846059336, 59.96996927362359], [30.19795614423369, 59.96996060056787], [30.19796479533044, 59.97005025371333], [30.198143637550523, 59.97004591680674], [30.198152289183646, 59.970135569934634], [30.197973446481768, 59.97013990685682], [30.197982097687678, 59.970229559998344], [30.197624411156582, 59.97023823314758]]]}, "properties": {"zone_id": "neva-2026-07-16-006", "aoi": "neva", "date": "2026-07-16", "scene_id": "S2A_MSIL2A_20260716T093151_R136_T36VUM_20260716T144015", "scene_datetime_utc": "2026-07-16T09:31:51.024000+00:00", "detection_status": "detected", "detection_status_ru": "обнаружено", "lon": 30.19779, "lat": 59.9701, "n_pixels": 2, "zone_area_km2": 0.0008, "cover_m2": 8.2, "p_mean": 0.792, "p_max": 0.91, "cover_m2_km2": 10250.0, "h3": "88110616b1fffff", "valid_frac_scene": 1.0, "wind_ms": 5.0, "sea": "спокойное", "scene_reliable": true, "field_event_id": "S3:HE419_MarLitter_transect28", "field_profile": "B", "field_date": "2014-04-11", "field_distance_km": 1423.6, "field_date_gap_days": 4479, "field_conc_items_km2": 43.1, "conc_A_items_km2": null, "conc_A_lo80": null, "conc_A_hi80": null, "conc_A_lo95": null, "conc_A_hi95": null, "conc_A_status": "unavailable", "conc_A_status_ru": "концентрация недоступна", "conc_A_reasons": "вне бассейна профиля: nw_atlantic_subtropical", "conc_A_model": "conc-A-c6bce5631d2b", "conc_B_items_km2": null, "conc_B_lo80": null, "conc_B_hi80": null, "conc_B_lo95": null, "conc_B_hi95": null, "conc_B_status": "unavailable", "conc_B_status_ru": "концентрация недоступна", "conc_B_reasons": "вне бассейна профиля: black_sea", "conc_B_model": "conc-B-c6bce5631d2b"}}, {"type": "Feature", "geometry": {"type": "Polygon", "coordinates": [[[30.169746250652192, 59.96551952208359], [30.16973767737657, 59.96542986641894], [30.169558855103112, 59.965434164646254], [30.16955028236326, 59.96534450896417], [30.16972910415502, 59.965340210752274], [30.16972053098757, 59.96525055508368], [30.170086747576303, 59.96533161360235], [30.170095321761217, 59.9654212692381], [30.169916499595935, 59.96542556794955], [30.169925073353248, 59.96551522359877], [30.169746250652192, 59.96551952208359]]]}, "properties": {"zone_id": "neva-2026-07-16-007", "aoi": "neva", "date": "2026-07-16", "scene_id": "S2A_MSIL2A_20260716T093151_R136_T36VUM_20260716T144015", "scene_datetime_utc": "2026-07-16T09:31:51.024000+00:00", "detection_status": "detected", "detection_status_ru": "обнаружено", "lon": 30.16982, "lat": 59.96538, "n_pixels": 1, "zone_area_km2": 0.0005, "cover_m2": 4.7, "p_mean": 0.627, "p_max": 0.627, "cover_m2_km2": 9400.0, "h3": "8811061687fffff", "valid_frac_scene": 1.0, "wind_ms": 5.0, "sea": "спокойное", "scene_reliable": true, "field_event_id": "S3:HE419_MarLitter_transect28", "field_profile": "B", "field_date": "2014-04-11", "field_distance_km": 1422.0, "field_date_gap_days": 4479, "field_conc_items_km2": 43.1, "conc_A_items_km2": null, "conc_A_lo80": null, "conc_A_hi80": null, "conc_A_lo95": null, "conc_A_hi95": null, "conc_A_status": "unavailable", "conc_A_status_ru": "концентрация недоступна", "conc_A_reasons": "вне бассейна профиля: nw_atlantic_subtropical", "conc_A_model": "conc-A-c6bce5631d2b", "conc_B_items_km2": null, "conc_B_lo80": null, "conc_B_hi80": null, "conc_B_lo95": null, "conc_B_hi95": null, "conc_B_status": "unavailable", "conc_B_status_ru": "концентрация недоступна", "conc_B_reasons": "вне бассейна профиля: black_sea", "conc_B_model": "conc-B-c6bce5631d2b"}}, {"type": "Feature", "geometry": {"type": "Polygon", "coordinates": [[[30.1503903621871, 59.96364697053341], [30.1503818418527, 59.96355731317024], [30.150203026333813, 59.96356158509692], [30.15019450653482, 59.963471927716434], [30.150373321572047, 59.96346765580509], [30.150364801345145, 59.963377998437984], [30.150543615846967, 59.96337372629994], [30.150535095192154, 59.96328406894624], [30.150901244689347, 59.96336518129768], [30.15091828808685, 59.96354449593781], [30.150739472729217, 59.96354876859068], [30.150747994026943, 59.96363842592317], [30.1503903621871, 59.96364697053341]]]}, "properties": {"zone_id": "neva-2026-07-16-008", "aoi": "neva", "date": "2026-07-16", "scene_id": "S2A_MSIL2A_20260716T093151_R136_T36VUM_20260716T144015", "scene_datetime_utc": "2026-07-16T09:31:51.024000+00:00", "detection_status": "detected", "detection_status_ru": "обнаружено", "lon": 30.15058, "lat": 59.96348, "n_pixels": 3, "zone_area_km2": 0.001, "cover_m2": 22.7, "p_mean": 0.984, "p_max": 0.992, "cover_m2_km2": 22700.0, "h3": "881106168dfffff", "valid_frac_scene": 1.0, "wind_ms": 5.0, "sea": "спокойное", "scene_reliable": true, "field_event_id": "S3:HE419_MarLitter_transect28", "field_profile": "B", "field_date": "2014-04-11", "field_distance_km": 1420.9, "field_date_gap_days": 4479, "field_conc_items_km2": 43.1, "conc_A_items_km2": null, "conc_A_lo80": null, "conc_A_hi80": null, "conc_A_lo95": null, "conc_A_hi95": null, "conc_A_status": "unavailable", "conc_A_status_ru": "концентрация недоступна", "conc_A_reasons": "вне бассейна профиля: nw_atlantic_subtropical", "conc_A_model": "conc-A-c6bce5631d2b", "conc_B_items_km2": null, "conc_B_lo80": null, "conc_B_hi80": null, "conc_B_lo95": null, "conc_B_hi95": null, "conc_B_status": "unavailable", "conc_B_status_ru": "концентрация недоступна", "conc_B_reasons": "вне бассейна профиля: black_sea", "conc_B_model": "conc-B-c6bce5631d2b"}}, {"type": "Feature", "geometry": {"type": "Polygon", "coordinates": [[[30.12041079096127, 59.96121470020676], [30.120402352452793, 59.96112504023943], [30.120223544912474, 59.96112927145076], [30.12021510693886, 59.96103961146629], [30.12039391399755, 59.96103538027017], [30.120385475595533, 59.96094572029894], [30.120743088589958, 59.960937257210965], [30.12075152795523, 59.96102691715178], [30.120930334854215, 59.96102268522952], [30.120938774754354, 59.961112345153175], [30.120759967373736, 59.961116577090635], [30.120768406845485, 59.96120623702759], [30.12041079096127, 59.96121470020676]]]}, "properties": {"zone_id": "neva-2026-07-16-009", "aoi": "neva", "date": "2026-07-16", "scene_id": "S2A_MSIL2A_20260716T093151_R136_T36VUM_20260716T144015", "scene_datetime_utc": "2026-07-16T09:31:51.024000+00:00", "detection_status": "detected", "detection_status_ru": "обнаружено", "lon": 30.12058, "lat": 59.96108, "n_pixels": 2, "zone_area_km2": 0.0008, "cover_m2": 15.3, "p_mean": 0.553, "p_max": 0.561, "cover_m2_km2": 19125.0, "h3": "88110616c5fffff", "valid_frac_scene": 1.0, "wind_ms": 5.0, "sea": "спокойное", "scene_reliable": true, "field_event_id": "S3:HE419_MarLitter_transect28", "field_profile": "B", "field_date": "2014-04-11", "field_distance_km": 1419.2, "field_date_gap_days": 4479, "field_conc_items_km2": 43.1, "conc_A_items_km2": null, "conc_A_lo80": null, "conc_A_hi80": null, "conc_A_lo95": null, "conc_A_hi95": null, "conc_A_status": "unavailable", "conc_A_status_ru": "концентрация недоступна", "conc_A_reasons": "вне бассейна профиля: nw_atlantic_subtropical", "conc_A_model": "conc-A-c6bce5631d2b", "conc_B_items_km2": null, "conc_B_lo80": null, "conc_B_hi80": null, "conc_B_lo95": null, "conc_B_hi95": null, "conc_B_status": "unavailable", "conc_B_status_ru": "концентрация недоступна", "conc_B_reasons": "вне бассейна профиля: black_sea", "conc_B_model": "conc-B-c6bce5631d2b"}}, {"type": "Feature", "geometry": {"type": "Polygon", "coordinates": [[[29.941147097130223, 59.960482560538004], [29.94113914319942, 59.96039288570047], [29.940960309970542, 59.96039687401776], [29.940952356571852, 59.96030719916402], [29.941131189318803, 59.960303210861085], [29.941123235488366, 59.96021353601982], [29.94148885466216, 59.96029523352875], [29.94149680950663, 59.96038490833947], [29.94131797637812, 59.96038889714105], [29.941325930790846, 59.96047857196423], [29.941147097130223, 59.960482560538004]]]}, "properties": {"zone_id": "neva-2026-07-16-010", "aoi": "neva", "date": "2026-07-16", "scene_id": "S2A_MSIL2A_20260716T093151_R136_T36VUM_20260716T144015", "scene_datetime_utc": "2026-07-16T09:31:51.024000+00:00", "detection_status": "detected", "detection_status_ru": "обнаружено", "lon": 29.94122, "lat": 59.96035, "n_pixels": 1, "zone_area_km2": 0.0005, "cover_m2": 3.5, "p_mean": 0.847, "p_max": 0.847, "cover_m2_km2": 7000.0, "h3": "8811068eb7fffff", "valid_frac_scene": 1.0, "wind_ms": 5.0, "sea": "спокойное", "scene_reliable": true, "field_event_id": "S3:HE419_MarLitter_transect28", "field_profile": "B", "field_date": "2014-04-11", "field_distance_km": 1409.5, "field_date_gap_days": 4479, "field_conc_items_km2": 43.1, "conc_A_items_km2": null, "conc_A_lo80": null, "conc_A_hi80": null, "conc_A_lo95": null, "conc_A_hi95": null, "conc_A_status": "unavailable", "conc_A_status_ru": "концентрация недоступна", "conc_A_reasons": "вне бассейна профиля: nw_atlantic_subtropical", "conc_A_model": "conc-A-c6bce5631d2b", "conc_B_items_km2": null, "conc_B_lo80": null, "conc_B_hi80": null, "conc_B_lo95": null, "conc_B_hi95": null, "conc_B_status": "unavailable", "conc_B_status_ru": "концентрация недоступна", "conc_B_reasons": "вне бассейна профиля: black_sea", "conc_B_model": "conc-B-c6bce5631d2b"}}, {"type": "Feature", "geometry": {"type": "Polygon", "coordinates": [[[30.158089623256636, 59.939110371459314], [30.15808109054434, 59.93902071442461], [30.157902408452156, 59.939024995736645], [30.157885344150554, 59.9388456816306], [30.158064025281107, 59.93884140034932], [30.15805549273017, 59.93875174330871], [30.158421387380844, 59.93883283706132], [30.158438454567325, 59.9390121510751], [30.158089623256636, 59.939110371459314]]]}, "properties": {"zone_id": "neva-2026-07-16-011", "aoi": "neva", "date": "2026-07-16", "scene_id": "S2A_MSIL2A_20260716T093151_R136_T36VUM_20260716T144015", "scene_datetime_utc": "2026-07-16T09:31:51.024000+00:00", "detection_status": "detected", "detection_status_ru": "обнаружено", "lon": 30.15816, "lat": 59.93893, "n_pixels": 2, "zone_area_km2": 0.0008, "cover_m2": 6.7, "p_mean": 0.841, "p_max": 0.984, "cover_m2_km2": 8375.0, "h3": "881106145bfffff", "valid_frac_scene": 1.0, "wind_ms": 5.0, "sea": "спокойное", "scene_reliable": true, "field_event_id": "S3:HE419_MarLitter_transect28", "field_profile": "B", "field_date": "2014-04-11", "field_distance_km": 1420.7, "field_date_gap_days": 4479, "field_conc_items_km2": 43.1, "conc_A_items_km2": null, "conc_A_lo80": null, "conc_A_hi80": null, "conc_A_lo95": null, "conc_A_hi95": null, "conc_A_status": "unavailable", "conc_A_status_ru": "концентрация недоступна", "conc_A_reasons": "вне бассейна профиля: nw_atlantic_subtropical", "conc_A_model": "conc-A-c6bce5631d2b", "conc_B_items_km2": null, "conc_B_lo80": null, "conc_B_hi80": null, "conc_B_lo95": null, "conc_B_hi95": null, "conc_B_status": "unavailable", "conc_B_status_ru": "концентрация недоступна", "conc_B_reasons": "вне бассейна профиля: black_sea", "conc_B_model": "conc-B-c6bce5631d2b"}}, {"type": "Feature", "geometry": {"type": "Polygon", "coordinates": [[[30.159459327122217, 59.938448513711776], [30.159450790940078, 59.93835885678634], [30.159084899127183, 59.938277765864115], [30.159076364014233, 59.938188108903994], [30.15925504140263, 59.93818382603769], [30.159246505862697, 59.93809416909098], [30.159603859516498, 59.938085602663726], [30.159612396018, 59.93817525957967], [30.159791073244968, 59.938170975987966], [30.15980814737098, 59.9383502897832], [30.159459327122217, 59.938448513711776]]]}, "properties": {"zone_id": "neva-2026-07-16-012", "aoi": "neva", "date": "2026-07-16", "scene_id": "S2A_MSIL2A_20260716T093151_R136_T36VUM_20260716T144015", "scene_datetime_utc": "2026-07-16T09:31:51.024000+00:00", "detection_status": "detected", "detection_status_ru": "обнаружено", "lon": 30.15947, "lat": 59.93825, "n_pixels": 3, "zone_area_km2": 0.001, "cover_m2": 11.8, "p_mean": 0.861, "p_max": 0.984, "cover_m2_km2": 11800.0, "h3": "881106145bfffff", "valid_frac_scene": 1.0, "wind_ms": 5.0, "sea": "спокойное", "scene_reliable": true, "field_event_id": "S3:HE419_MarLitter_transect28", "field_profile": "B", "field_date": "2014-04-11", "field_distance_km": 1420.7, "field_date_gap_days": 4479, "field_conc_items_km2": 43.1, "conc_A_items_km2": null, "conc_A_lo80": null, "conc_A_hi80": null, "conc_A_lo95": null, "conc_A_hi95": null, "conc_A_status": "unavailable", "conc_A_status_ru": "концентрация недоступна", "conc_A_reasons": "вне бассейна профиля: nw_atlantic_subtropical", "conc_A_model": "conc-A-c6bce5631d2b", "conc_B_items_km2": null, "conc_B_lo80": null, "conc_B_hi80": null, "conc_B_lo95": null, "conc_B_hi95": null, "conc_B_status": "unavailable", "conc_B_status_ru": "концентрация недоступна", "conc_B_reasons": "вне бассейна профиля: black_sea", "conc_B_model": "conc-B-c6bce5631d2b"}}, {"type": "Feature", "geometry": {"type": "Polygon", "coordinates": [[[30.225566936836525, 59.9257938127821], [30.22555822666456, 59.92570416145566], [30.225379627905752, 59.92570853357207], [30.22537091826891, 59.92561888222793], [30.225549516547478, 59.92561451012724], [30.22554080648528, 59.92552485879682], [30.2258980019173, 59.9255161139019], [30.225906712939967, 59.925605765200935], [30.226085311053875, 59.92560139237532], [30.226094022611672, 59.92569104365665], [30.225915424017526, 59.92569541649796], [30.225924135149967, 59.925785067793], [30.225566936836525, 59.9257938127821]]]}, "properties": {"zone_id": "neva-2026-07-16-013", "aoi": "neva", "date": "2026-07-16", "scene_id": "S2A_MSIL2A_20260716T093151_R136_T36VUM_20260716T144015", "scene_datetime_utc": "2026-07-16T09:31:51.024000+00:00", "detection_status": "detected", "detection_status_ru": "обнаружено", "lon": 30.22573, "lat": 59.92565, "n_pixels": 2, "zone_area_km2": 0.0008, "cover_m2": 8.2, "p_mean": 0.657, "p_max": 0.69, "cover_m2_km2": 10250.0, "h3": "88110614edfffff", "valid_frac_scene": 1.0, "wind_ms": 5.0, "sea": "спокойное", "scene_reliable": true, "field_event_id": "S3:HE419_MarLitter_transect28", "field_profile": "B", "field_date": "2014-04-11", "field_distance_km": 1424.0, "field_date_gap_days": 4479, "field_conc_items_km2": 43.1, "conc_A_items_km2": null, "conc_A_lo80": null, "conc_A_hi80": null, "conc_A_lo95": null, "conc_A_hi95": null, "conc_A_status": "unavailable", "conc_A_status_ru": "концентрация недоступна", "conc_A_reasons": "вне бассейна профиля: nw_atlantic_subtropical", "conc_A_model": "conc-A-c6bce5631d2b", "conc_B_items_km2": null, "conc_B_lo80": null, "conc_B_hi80": null, "conc_B_lo95": null, "conc_B_hi95": null, "conc_B_status": "unavailable", "conc_B_status_ru": "концентрация недоступна", "conc_B_reasons": "вне бассейна профиля: black_sea", "conc_B_model": "conc-B-c6bce5631d2b"}}, {"type": "Feature", "geometry": {"type": "Polygon", "coordinates": [[[29.94156511850685, 59.88841144177438], [29.9415571864579, 59.888321765983534], [29.94137874066097, 59.88832575200674], [29.94137080914145, 59.888236076199725], [29.94154925445889, 59.88823209019082], [29.941541322509817, 59.88814241439625], [29.94190614494394, 59.8882241174487], [29.94191407790193, 59.888313793212795], [29.94173563220489, 59.88831777971888], [29.941743564733333, 59.88840745549542], [29.94156511850685, 59.88841144177438]]]}, "properties": {"zone_id": "neva-2026-07-16-014", "aoi": "neva", "date": "2026-07-16", "scene_id": "S2A_MSIL2A_20260716T093151_R136_T36VUM_20260716T144015", "scene_datetime_utc": "2026-07-16T09:31:51.024000+00:00", "detection_status": "detected", "detection_status_ru": "обнаружено", "lon": 29.94164, "lat": 59.88827, "n_pixels": 1, "zone_area_km2": 0.0005, "cover_m2": 10.2, "p_mean": 0.996, "p_max": 0.996, "cover_m2_km2": 20400.0, "h3": "8811068c27fffff", "valid_frac_scene": 1.0, "wind_ms": 5.0, "sea": "спокойное", "scene_reliable": true, "field_event_id": "S3:HE419_MarLitter_transect28", "field_profile": "B", "field_date": "2014-04-11", "field_distance_km": 1407.6, "field_date_gap_days": 4479, "field_conc_items_km2": 43.1, "conc_A_items_km2": null, "conc_A_lo80": null, "conc_A_hi80": null, "conc_A_lo95": null, "conc_A_hi95": null, "conc_A_status": "unavailable", "conc_A_status_ru": "концентрация недоступна", "conc_A_reasons": "вне бассейна профиля: nw_atlantic_subtropical", "conc_A_model": "conc-A-c6bce5631d2b", "conc_B_items_km2": null, "conc_B_lo80": null, "conc_B_hi80": null, "conc_B_lo95": null, "conc_B_hi95": null, "conc_B_status": "unavailable", "conc_B_status_ru": "концентрация недоступна", "conc_B_reasons": "вне бассейна профиля: black_sea", "conc_B_model": "conc-B-c6bce5631d2b"}}, {"type": "Feature", "geometry": {"type": "Polygon", "coordinates": [[[30.15113621123948, 59.880956707311256], [30.151127717167345, 59.88086704888023], [30.15094934606356, 59.88087131830154], [30.15094085252375, 59.88078165985323], [30.151119223148655, 59.88077739044724], [30.151110729183433, 59.880687732012305], [30.151467469315154, 59.880679192507195], [30.151475964238113, 59.8807688509115], [30.151654334702645, 59.88076458078175], [30.151662830157928, 59.880854239168805], [30.151484459214533, 59.88085850931386], [30.151492954244407, 59.88094816771426], [30.15113621123948, 59.880956707311256]]]}, "properties": {"zone_id": "neva-2026-07-16-015", "aoi": "neva", "date": "2026-07-16", "scene_id": "S2A_MSIL2A_20260716T093151_R136_T36VUM_20260716T144015", "scene_datetime_utc": "2026-07-16T09:31:51.024000+00:00", "detection_status": "detected", "detection_status_ru": "обнаружено", "lon": 30.1513, "lat": 59.88082, "n_pixels": 2, "zone_area_km2": 0.0008, "cover_m2": 7.1, "p_mean": 0.876, "p_max": 0.996, "cover_m2_km2": 8875.0, "h3": "8811061733fffff", "valid_frac_scene": 1.0, "wind_ms": 5.0, "sea": "спокойное", "scene_reliable": true, "field_event_id": "S3:HE419_MarLitter_transect28", "field_profile": "B", "field_date": "2014-04-11", "field_distance_km": 1418.8, "field_date_gap_days": 4479, "field_conc_items_km2": 43.1, "conc_A_items_km2": null, "conc_A_lo80": null, "conc_A_hi80": null, "conc_A_lo95": null, "conc_A_hi95": null, "conc_A_status": "unavailable", "conc_A_status_ru": "концентрация недоступна", "conc_A_reasons": "вне бассейна профиля: nw_atlantic_subtropical", "conc_A_model": "conc-A-c6bce5631d2b", "conc_B_items_km2": null, "conc_B_lo80": null, "conc_B_hi80": null, "conc_B_lo95": null, "conc_B_hi95": null, "conc_B_status": "unavailable", "conc_B_status_ru": "концентрация недоступна", "conc_B_reasons": "вне бассейна профиля: black_sea", "conc_B_model": "conc-B-c6bce5631d2b"}}, {"type": "Feature", "geometry": {"type": "Polygon", "coordinates": [[[30.150193455116316, 59.878553003630685], [30.15018496440251, 59.878463345085486], [30.150006606013353, 59.87846761312842], [30.149989625703615, 59.87828829600151], [30.150167983135194, 59.87828402798919], [30.15015949258169, 59.878194369438106], [30.150524697838065, 59.87827549124087], [30.150541681020524, 59.878454808275926], [30.150193455116316, 59.878553003630685]]]}, "properties": {"zone_id": "neva-2026-07-16-016", "aoi": "neva", "date": "2026-07-16", "scene_id": "S2A_MSIL2A_20260716T093151_R136_T36VUM_20260716T144015", "scene_datetime_utc": "2026-07-16T09:31:51.024000+00:00", "detection_status": "detected", "detection_status_ru": "обнаружено", "lon": 30.15027, "lat": 59.87837, "n_pixels": 2, "zone_area_km2": 0.0008, "cover_m2": 10.6, "p_mean": 0.694, "p_max": 0.718, "cover_m2_km2": 13250.0, "h3": "8811061733fffff", "valid_frac_scene": 1.0, "wind_ms": 5.0, "sea": "спокойное", "scene_reliable": true, "field_event_id": "S3:HE419_MarLitter_transect28", "field_profile": "B", "field_date": "2014-04-11", "field_distance_km": 1418.7, "field_date_gap_days": 4479, "field_conc_items_km2": 43.1, "conc_A_items_km2": null, "conc_A_lo80": null, "conc_A_hi80": null, "conc_A_lo95": null, "conc_A_hi95": null, "conc_A_status": "unavailable", "conc_A_status_ru": "концентрация недоступна", "conc_A_reasons": "вне бассейна профиля: nw_atlantic_subtropical", "conc_A_model": "conc-A-c6bce5631d2b", "conc_B_items_km2": null, "conc_B_lo80": null, "conc_B_hi80": null, "conc_B_lo95": null, "conc_B_hi95": null, "conc_B_status": "unavailable", "conc_B_status_ru": "концентрация недоступна", "conc_B_reasons": "вне бассейна профиля: black_sea", "conc_B_model": "conc-B-c6bce5631d2b"}}, {"type": "Feature", "geometry": {"type": "Polygon", "coordinates": [[[30.149097837744335, 59.878309632444605], [30.149089350063534, 59.878219973801684], [30.14872414879365, 59.87813884798423], [30.148707175614216, 59.87795953062738], [30.148885531504604, 59.8779552643649], [30.148877044516222, 59.87786560569884], [30.149233755179228, 59.87785707248077], [30.149242243125162, 59.87794673111624], [30.149420598855315, 59.87794246413006], [30.14944606444994, 59.87821143997875], [30.149097837744335, 59.878309632444605]]]}, "properties": {"zone_id": "neva-2026-07-16-017", "aoi": "neva", "date": "2026-07-16", "scene_id": "S2A_MSIL2A_20260716T093151_R136_T36VUM_20260716T144015", "scene_datetime_utc": "2026-07-16T09:31:51.024000+00:00", "detection_status": "detected", "detection_status_ru": "обнаружено", "lon": 30.14909, "lat": 59.87807, "n_pixels": 5, "zone_area_km2": 0.0014, "cover_m2": 38.0, "p_mean": 0.986, "p_max": 0.996, "cover_m2_km2": 27142.9, "h3": "8811061733fffff", "valid_frac_scene": 1.0, "wind_ms": 5.0, "sea": "спокойное", "scene_reliable": true, "field_event_id": "S3:HE419_MarLitter_transect28", "field_profile": "B", "field_date": "2014-04-11", "field_distance_km": 1418.7, "field_date_gap_days": 4479, "field_conc_items_km2": 43.1, "conc_A_items_km2": null, "conc_A_lo80": null, "conc_A_hi80": null, "conc_A_lo95": null, "conc_A_hi95": null, "conc_A_status": "unavailable", "conc_A_status_ru": "концентрация недоступна", "conc_A_reasons": "вне бассейна профиля: nw_atlantic_subtropical", "conc_A_model": "conc-A-c6bce5631d2b", "conc_B_items_km2": null, "conc_B_lo80": null, "conc_B_hi80": null, "conc_B_lo95": null, "conc_B_hi95": null, "conc_B_status": "unavailable", "conc_B_status_ru": "концентрация недоступна", "conc_B_reasons": "вне бассейна профиля: black_sea", "conc_B_model": "conc-B-c6bce5631d2b"}}, {"type": "Feature", "geometry": {"type": "Polygon", "coordinates": [[[30.142855755983454, 59.876571717492354], [30.14284728570104, 59.87648205828851], [30.1426689366676, 59.8764863163155], [30.142651997220156, 59.87630699787144], [30.142830345296126, 59.876302739874966], [30.14282187517362, 59.876213080665266], [30.1431785702082, 59.87620456397927], [30.14318704128817, 59.87629422315843], [30.143365389204227, 59.876289964438335], [30.143382332481544, 59.876469282760226], [30.143203983608018, 59.87647354151087], [30.143212454847898, 59.87656320068416], [30.142855755983454, 59.876571717492354]]]}, "properties": {"zone_id": "neva-2026-07-16-018", "aoi": "neva", "date": "2026-07-16", "scene_id": "S2A_MSIL2A_20260716T093151_R136_T36VUM_20260716T144015", "scene_datetime_utc": "2026-07-16T09:31:51.024000+00:00", "detection_status": "detected", "detection_status_ru": "обнаружено", "lon": 30.14302, "lat": 59.87639, "n_pixels": 4, "zone_area_km2": 0.0012, "cover_m2": 20.8, "p_mean": 0.86, "p_max": 0.914, "cover_m2_km2": 17333.3, "h3": "8811061731fffff", "valid_frac_scene": 1.0, "wind_ms": 5.0, "sea": "спокойное", "scene_reliable": true, "field_event_id": "S3:HE419_MarLitter_transect28", "field_profile": "B", "field_date": "2014-04-11", "field_distance_km": 1418.3, "field_date_gap_days": 4479, "field_conc_items_km2": 43.1, "conc_A_items_km2": null, "conc_A_lo80": null, "conc_A_hi80": null, "conc_A_lo95": null, "conc_A_hi95": null, "conc_A_status": "unavailable", "conc_A_status_ru": "концентрация недоступна", "conc_A_reasons": "вне бассейна профиля: nw_atlantic_subtropical", "conc_A_model": "conc-A-c6bce5631d2b", "conc_B_items_km2": null, "conc_B_lo80": null, "conc_B_hi80": null, "conc_B_lo95": null, "conc_B_hi95": null, "conc_B_status": "unavailable", "conc_B_status_ru": "концентрация недоступна", "conc_B_reasons": "вне бассейна профиля: black_sea", "conc_B_model": "conc-B-c6bce5631d2b"}}, {"type": "Feature", "geometry": {"type": "Polygon", "coordinates": [[[30.096548696570718, 59.86877305269173], [30.096540353580675, 59.86868338942972], [30.096175381277167, 59.86860211593914], [30.09616703934922, 59.86851245264323], [30.09634535357989, 59.868508257892216], [30.096337011225874, 59.868418594609416], [30.0965153249255, 59.86841439963226], [30.096523667758067, 59.868504062900016], [30.09670198188376, 59.86849986766668], [30.096693638572642, 59.86841020441395], [30.097058609977665, 59.868491476476486], [30.097066954298384, 59.86858113969716], [30.09688863979913, 59.868585335427895], [30.096896983693785, 59.86867499866169], [30.096548696570718, 59.86877305269173]]]}, "properties": {"zone_id": "neva-2026-07-16-019", "aoi": "neva", "date": "2026-07-16", "scene_id": "S2A_MSIL2A_20260716T093151_R136_T36VUM_20260716T144015", "scene_datetime_utc": "2026-07-16T09:31:51.024000+00:00", "detection_status": "detected", "detection_status_ru": "обнаружено", "lon": 30.09662, "lat": 59.86858, "n_pixels": 3, "zone_area_km2": 0.0011, "cover_m2": 35.7, "p_mean": 0.895, "p_max": 0.992, "cover_m2_km2": 32454.5, "h3": "881106170dfffff", "valid_frac_scene": 1.0, "wind_ms": 5.0, "sea": "спокойное", "scene_reliable": true, "field_event_id": "S3:HE419_MarLitter_transect28", "field_profile": "B", "field_date": "2014-04-11", "field_distance_km": 1415.6, "field_date_gap_days": 4479, "field_conc_items_km2": 43.1, "conc_A_items_km2": null, "conc_A_lo80": null, "conc_A_hi80": null, "conc_A_lo95": null, "conc_A_hi95": null, "conc_A_status": "unavailable", "conc_A_status_ru": "концентрация недоступна", "conc_A_reasons": "вне бассейна профиля: nw_atlantic_subtropical", "conc_A_model": "conc-A-c6bce5631d2b", "conc_B_items_km2": null, "conc_B_lo80": null, "conc_B_hi80": null, "conc_B_lo95": null, "conc_B_hi95": null, "conc_B_status": "unavailable", "conc_B_status_ru": "концентрация недоступна", "conc_B_reasons": "вне бассейна профиля: black_sea", "conc_B_model": "conc-B-c6bce5631d2b"}}, {"type": "Feature", "geometry": {"type": "Polygon", "coordinates": [[[30.100828255549008, 59.868672299445784], [30.10081990107364, 59.86858263654514], [30.10064158719895, 59.8685868373554], [30.100633233254694, 59.86849717443776], [30.10081154665084, 59.86849297364259], [30.100803192280598, 59.86840331073805], [30.10116817328544, 59.868484571328686], [30.101176528665327, 59.86857423420111], [30.100998214895768, 59.8685784354937], [30.101006569849684, 59.86866809837928], [30.100828255549008, 59.868672299445784]]]}, "properties": {"zone_id": "neva-2026-07-16-020", "aoi": "neva", "date": "2026-07-16", "scene_id": "S2A_MSIL2A_20260716T093151_R136_T36VUM_20260716T144015", "scene_datetime_utc": "2026-07-16T09:31:51.024000+00:00", "detection_status": "detected", "detection_status_ru": "обнаружено", "lon": 30.1009, "lat": 59.86854, "n_pixels": 1, "zone_area_km2": 0.0005, "cover_m2": 11.8, "p_mean": 0.596, "p_max": 0.596, "cover_m2_km2": 23600.0, "h3": "8811061705fffff", "valid_frac_scene": 1.0, "wind_ms": 5.0, "sea": "спокойное", "scene_reliable": true, "field_event_id": "S3:HE419_MarLitter_transect28", "field_profile": "B", "field_date": "2014-04-11", "field_distance_km": 1415.8, "field_date_gap_days": 4479, "field_conc_items_km2": 43.1, "conc_A_items_km2": null, "conc_A_lo80": null, "conc_A_hi80": null, "conc_A_lo95": null, "conc_A_hi95": null, "conc_A_status": "unavailable", "conc_A_status_ru": "концентрация недоступна", "conc_A_reasons": "вне бассейна профиля: nw_atlantic_subtropical", "conc_A_model": "conc-A-c6bce5631d2b", "conc_B_items_km2": null, "conc_B_lo80": null, "conc_B_hi80": null, "conc_B_lo95": null, "conc_B_hi95": null, "conc_B_status": "unavailable", "conc_B_status_ru": "концентрация недоступна", "conc_B_reasons": "вне бассейна профиля: black_sea", "conc_B_model": "conc-B-c6bce5631d2b"}}, {"type": "Feature", "geometry": {"type": "Polygon", "coordinates": [[[30.10241636485048, 59.868455155633434], [30.102408006173363, 59.86836549286454], [30.10222969372893, 59.86836969581513], [30.10222133558294, 59.868280033029244], [30.10239964754884, 59.86827583009372], [30.102391288976904, 59.868186167320964], [30.102212977489536, 59.86819037024141], [30.10220461944872, 59.868100707451624], [30.102552882468515, 59.868002638638146], [30.1025612414138, 59.86809230139972], [30.102739552317463, 59.86808809801204], [30.102747911793873, 59.86817776075659], [30.102926223123465, 59.868173557112655], [30.102934583131002, 59.8682632198402], [30.10275627132287, 59.8682674234992], [30.102764630904467, 59.86835708623987], [30.10241636485048, 59.868455155633434]]]}, "properties": {"zone_id": "neva-2026-07-16-021", "aoi": "neva", "date": "2026-07-16", "scene_id": "S2A_MSIL2A_20260716T093151_R136_T36VUM_20260716T144015", "scene_datetime_utc": "2026-07-16T09:31:51.024000+00:00", "detection_status": "detected", "detection_status_ru": "обнаружено", "lon": 30.10254, "lat": 59.86823, "n_pixels": 3, "zone_area_km2": 0.0011, "cover_m2": 37.3, "p_mean": 0.901, "p_max": 0.996, "cover_m2_km2": 33909.1, "h3": "8811061705fffff", "valid_frac_scene": 1.0, "wind_ms": 5.0, "sea": "спокойное", "scene_reliable": true, "field_event_id": "S3:HE419_MarLitter_transect28", "field_profile": "B", "field_date": "2014-04-11", "field_distance_km": 1415.9, "field_date_gap_days": 4479, "field_conc_items_km2": 43.1, "conc_A_items_km2": null, "conc_A_lo80": null, "conc_A_hi80": null, "conc_A_lo95": null, "conc_A_hi95": null, "conc_A_status": "unavailable", "conc_A_status_ru": "концентрация недоступна", "conc_A_reasons": "вне бассейна профиля: nw_atlantic_subtropical", "conc_A_model": "conc-A-c6bce5631d2b", "conc_B_items_km2": null, "conc_B_lo80": null, "conc_B_hi80": null, "conc_B_lo95": null, "conc_B_hi95": null, "conc_B_status": "unavailable", "conc_B_status_ru": "концентрация недоступна", "conc_B_reasons": "вне бассейна профиля: black_sea", "conc_B_model": "conc-B-c6bce5631d2b"}}, {"type": "Feature", "geometry": {"type": "Polygon", "coordinates": [[[30.101678042711942, 59.86820297755582], [30.101669686106717, 59.86811331472081], [30.101491374887562, 59.868117516661556], [30.101474662791897, 59.86793819095561], [30.10165297305399, 59.86793398904503], [30.101644616606492, 59.86784432620421], [30.102009593420465, 59.867925584500334], [30.102026308387295, 59.86810491011585], [30.101678042711942, 59.86820297755582]]]}, "properties": {"zone_id": "neva-2026-07-16-022", "aoi": "neva", "date": "2026-07-16", "scene_id": "S2A_MSIL2A_20260716T093151_R136_T36VUM_20260716T144015", "scene_datetime_utc": "2026-07-16T09:31:51.024000+00:00", "detection_status": "detected", "detection_status_ru": "обнаружено", "lon": 30.10175, "lat": 59.86802, "n_pixels": 2, "zone_area_km2": 0.0008, "cover_m2": 21.2, "p_mean": 0.755, "p_max": 0.937, "cover_m2_km2": 26500.0, "h3": "8811061705fffff", "valid_frac_scene": 1.0, "wind_ms": 5.0, "sea": "спокойное", "scene_reliable": true, "field_event_id": "S3:HE419_MarLitter_transect28", "field_profile": "B", "field_date": "2014-04-11", "field_distance_km": 1415.8, "field_date_gap_days": 4479, "field_conc_items_km2": 43.1, "conc_A_items_km2": null, "conc_A_lo80": null, "conc_A_hi80": null, "conc_A_lo95": null, "conc_A_hi95": null, "conc_A_status": "unavailable", "conc_A_status_ru": "концентрация недоступна", "conc_A_reasons": "вне бассейна профиля: nw_atlantic_subtropical", "conc_A_model": "conc-A-c6bce5631d2b", "conc_B_items_km2": null, "conc_B_lo80": null, "conc_B_hi80": null, "conc_B_lo95": null, "conc_B_hi95": null, "conc_B_status": "unavailable", "conc_B_status_ru": "концентрация недоступна", "conc_B_reasons": "вне бассейна профиля: black_sea", "conc_B_model": "conc-B-c6bce5631d2b"}}, {"type": "Feature", "geometry": {"type": "Polygon", "coordinates": [[[30.097916792964845, 59.868111841679436], [30.097908446513927, 59.8680221785243], [30.09773013514846, 59.86802637537055], [30.097713443361226, 59.8678470490244], [30.097891753769627, 59.86784285220825], [30.09788340747624, 59.8677531890473], [30.098240027178463, 59.86774479472164], [30.098248374428902, 59.867834457852474], [30.098426684679765, 59.86783026031283], [30.098443380295247, 59.86800958653856], [30.098265069087322, 59.86801378410833], [30.098273416495317, 59.868103447233324], [30.097916792964845, 59.868111841679436]]]}, "properties": {"zone_id": "neva-2026-07-16-023", "aoi": "neva", "date": "2026-07-16", "scene_id": "S2A_MSIL2A_20260716T093151_R136_T36VUM_20260716T144015", "scene_datetime_utc": "2026-07-16T09:31:51.024000+00:00", "detection_status": "detected", "detection_status_ru": "обнаружено", "lon": 30.09808, "lat": 59.86793, "n_pixels": 4, "zone_area_km2": 0.0012, "cover_m2": 45.5, "p_mean": 0.977, "p_max": 0.992, "cover_m2_km2": 37916.7, "h3": "881106170dfffff", "valid_frac_scene": 1.0, "wind_ms": 5.0, "sea": "спокойное", "scene_reliable": true, "field_event_id": "S3:HE419_MarLitter_transect28", "field_profile": "B", "field_date": "2014-04-11", "field_distance_km": 1415.6, "field_date_gap_days": 4479, "field_conc_items_km2": 43.1, "conc_A_items_km2": null, "conc_A_lo80": null, "conc_A_hi80": null, "conc_A_lo95": null, "conc_A_hi95": null, "conc_A_status": "unavailable", "conc_A_status_ru": "концентрация недоступна", "conc_A_reasons": "вне бассейна профиля: nw_atlantic_subtropical", "conc_A_model": "conc-A-c6bce5631d2b", "conc_B_items_km2": null, "conc_B_lo80": null, "conc_B_hi80": null, "conc_B_lo95": null, "conc_B_hi95": null, "conc_B_status": "unavailable", "conc_B_status_ru": "концентрация недоступна", "conc_B_reasons": "вне бассейна профиля: black_sea", "conc_B_model": "conc-B-c6bce5631d2b"}}, {"type": "Feature", "geometry": {"type": "Polygon", "coordinates": [[[30.086989771726017, 59.86782942442923], [30.08698145478063, 59.86773976034599], [30.08680314308896, 59.8677439423912], [30.08679482667445, 59.86765427829104], [30.086973137887576, 59.867650096260846], [30.08696482104684, 59.86756043217375], [30.08732976015686, 59.86764173147696], [30.087338078007004, 59.867731395532104], [30.087159766419983, 59.867735578059644], [30.087168083843913, 59.86782524212787], [30.086989771726017, 59.86782942442923]]]}, "properties": {"zone_id": "neva-2026-07-16-024", "aoi": "neva", "date": "2026-07-16", "scene_id": "S2A_MSIL2A_20260716T093151_R136_T36VUM_20260716T144015", "scene_datetime_utc": "2026-07-16T09:31:51.024000+00:00", "detection_status": "detected", "detection_status_ru": "обнаружено", "lon": 30.08707, "lat": 59.86769, "n_pixels": 1, "zone_area_km2": 0.0005, "cover_m2": 9.8, "p_mean": 0.737, "p_max": 0.737, "cover_m2_km2": 19600.0, "h3": "881106170dfffff", "valid_frac_scene": 1.0, "wind_ms": 5.0, "sea": "спокойное", "scene_reliable": true, "field_event_id": "S3:HE419_MarLitter_transect28", "field_profile": "B", "field_date": "2014-04-11", "field_distance_km": 1415.0, "field_date_gap_days": 4479, "field_conc_items_km2": 43.1, "conc_A_items_km2": null, "conc_A_lo80": null, "conc_A_hi80": null, "conc_A_lo95": null, "conc_A_hi95": null, "conc_A_status": "unavailable", "conc_A_status_ru": "концентрация недоступна", "conc_A_reasons": "вне бассейна профиля: nw_atlantic_subtropical", "conc_A_model": "conc-A-c6bce5631d2b", "conc_B_items_km2": null, "conc_B_lo80": null, "conc_B_hi80": null, "conc_B_lo95": null, "conc_B_hi95": null, "conc_B_status": "unavailable", "conc_B_status_ru": "концентрация недоступна", "conc_B_reasons": "вне бассейна профиля: black_sea", "conc_B_model": "conc-B-c6bce5631d2b"}}, {"type": "Feature", "geometry": {"type": "Polygon", "coordinates": [[[30.135344218368672, 59.86704583813702], [30.135335771541726, 59.866956178157714], [30.135157472226254, 59.86696042561415], [30.135140579688624, 59.866781105619225], [30.135318878047244, 59.86677685819327], [30.135310431379708, 59.866687198208076], [30.135675474605065, 59.86676836261796], [30.135692370013253, 59.86694768252149], [30.135344218368672, 59.86704583813702]]]}, "properties": {"zone_id": "neva-2026-07-16-025", "aoi": "neva", "date": "2026-07-16", "scene_id": "S2A_MSIL2A_20260716T093151_R136_T36VUM_20260716T144015", "scene_datetime_utc": "2026-07-16T09:31:51.024000+00:00", "detection_status": "detected", "detection_status_ru": "обнаружено", "lon": 30.13542, "lat": 59.86686, "n_pixels": 2, "zone_area_km2": 0.0008, "cover_m2": 16.5, "p_mean": 0.863, "p_max": 0.992, "cover_m2_km2": 20625.0, "h3": "8811061723fffff", "valid_frac_scene": 1.0, "wind_ms": 5.0, "sea": "спокойное", "scene_reliable": true, "field_event_id": "S3:HE419_MarLitter_transect28", "field_profile": "B", "field_date": "2014-04-11", "field_distance_km": 1417.6, "field_date_gap_days": 4479, "field_conc_items_km2": 43.1, "conc_A_items_km2": null, "conc_A_lo80": null, "conc_A_hi80": null, "conc_A_lo95": null, "conc_A_hi95": null, "conc_A_status": "unavailable", "conc_A_status_ru": "концентрация недоступна", "conc_A_reasons": "вне бассейна профиля: nw_atlantic_subtropical", "conc_A_model": "conc-A-c6bce5631d2b", "conc_B_items_km2": null, "conc_B_lo80": null, "conc_B_hi80": null, "conc_B_lo95": null, "conc_B_hi95": null, "conc_B_status": "unavailable", "conc_B_status_ru": "концентрация недоступна", "conc_B_reasons": "вне бассейна профиля: black_sea", "conc_B_model": "conc-B-c6bce5631d2b"}}]}