{"type": "FeatureCollection", "features": [{"type": "Feature", "geometry": {"type": "Polygon", "coordinates": [[[37.698117616394185, 44.645000673115504], [37.6981196297133, 44.644910671503055], [37.69799355985159, 44.64490923412299], [37.69799758685118, 44.6447292309026], [37.69825173890072, 44.644642103884244], [37.698249725804715, 44.64473210550566], [37.698375795295625, 44.6447335425985], [37.698371769465005, 44.64491354584582], [37.698117616394185, 44.645000673115504]]]}, "properties": {"zone_id": "novorossiysk-2025-09-01-001", "aoi": "novorossiysk", "date": "2025-09-01", "scene_id": "S2B_MSIL2A_20250901T081609_R121_T37TCK_20250901T110328", "scene_datetime_utc": "2025-09-01T08:16:09.024000+00:00", "detection_status": "detected", "detection_status_ru": "обнаружено", "lon": 37.69818, "lat": 44.64482, "n_pixels": 2, "zone_area_km2": 0.0008, "cover_m2": 13.3, "p_mean": 0.894, "p_max": 0.973, "cover_m2_km2": 16625.0, "h3": "882d728911fffff", "valid_frac_scene": 1.0, "wind_ms": 2.8, "sea": "спокойное", "scene_reliable": true, "field_event_id": "S4:DOORS3:T12", "field_profile": "B", "field_date": "2024-06-04", "field_distance_km": 251.2, "field_date_gap_days": 454, "field_conc_items_km2": 48.97, "conc_A_items_km2": null, "conc_A_lo80": null, "conc_A_hi80": null, "conc_A_lo95": null, "conc_A_hi95": null, "conc_A_status": "unavailable", "conc_A_status_ru": "концентрация недоступна", "conc_A_reasons": "вне бассейна профиля: nw_atlantic_subtropical", "conc_A_model": "conc-A-c6bce5631d2b", "conc_B_items_km2": 669.0, "conc_B_lo80": 142.8, "conc_B_hi80": 2247.4, "conc_B_lo95": 89.1, "conc_B_hi95": 4207.9, "conc_B_status": "research_estimate", "conc_B_status_ru": "исследовательская оценка", "conc_B_reasons": "ближайшее полевое измерение в 251 км (> 60 км); месяц 9 вне месяцев обучения [6]; log_dist_coast_km = 0.8 вне диапазона обучения [1.7; 5.0]", "conc_B_model": "conc-B-c6bce5631d2b"}}, {"type": "Feature", "geometry": {"type": "Polygon", "coordinates": [[[37.65825905105958, 44.623563532641604], [37.658261124458015, 44.62347353213716], [37.658135103026346, 44.62347205131585], [37.65813717660968, 44.623382050814534], [37.65839129227795, 44.62329501179684], [37.65838921909352, 44.62338501230891], [37.65851524035, 44.62338649284757], [37.65851316735046, 44.62347649336275], [37.65838714589939, 44.62347501281947], [37.65838507269555, 44.62356501332853], [37.65825905105958, 44.623563532641604]]]}, "properties": {"zone_id": "novorossiysk-2025-09-01-002", "aoi": "novorossiysk", "date": "2025-09-01", "scene_id": "S2B_MSIL2A_20250901T081609_R121_T37TCK_20250901T110328", "scene_datetime_utc": "2025-09-01T08:16:09.024000+00:00", "detection_status": "detected", "detection_status_ru": "обнаружено", "lon": 37.65833, "lat": 44.62343, "n_pixels": 1, "zone_area_km2": 0.0005, "cover_m2": 4.7, "p_mean": 0.996, "p_max": 0.996, "cover_m2_km2": 9400.0, "h3": "882d72896bfffff", "valid_frac_scene": 1.0, "wind_ms": 2.8, "sea": "спокойное", "scene_reliable": true, "field_event_id": "S4:DOORS3:T12", "field_profile": "B", "field_date": "2024-06-04", "field_distance_km": 248.2, "field_date_gap_days": 454, "field_conc_items_km2": 48.97, "conc_A_items_km2": null, "conc_A_lo80": null, "conc_A_hi80": null, "conc_A_lo95": null, "conc_A_hi95": null, "conc_A_status": "unavailable", "conc_A_status_ru": "концентрация недоступна", "conc_A_reasons": "вне бассейна профиля: nw_atlantic_subtropical", "conc_A_model": "conc-A-c6bce5631d2b", "conc_B_items_km2": 511.9, "conc_B_lo80": 109.1, "conc_B_hi80": 1720.2, "conc_B_lo95": 68.0, "conc_B_hi95": 3221.0, "conc_B_status": "research_estimate", "conc_B_status_ru": "исследовательская оценка", "conc_B_reasons": "ближайшее полевое измерение в 248 км (> 60 км); месяц 9 вне месяцев обучения [6]", "conc_B_model": "conc-B-c6bce5631d2b"}}, {"type": "Feature", "geometry": {"type": "Polygon", "coordinates": [[[37.65914741879479, 44.62330389291592], [37.65914949080193, 44.62321389237464], [37.65902346988613, 44.62321241254028], [37.65902554207817, 44.62312241200212], [37.65927965532342, 44.62303537097369], [37.65927758353027, 44.62312537152259], [37.65940360427088, 44.6231268510743], [37.65940153266263, 44.62321685162631], [37.65927551172743, 44.62321537206999], [37.65927343991489, 44.623305372615874], [37.65914741879479, 44.62330389291592]]]}, "properties": {"zone_id": "novorossiysk-2025-09-01-003", "aoi": "novorossiysk", "date": "2025-09-01", "scene_id": "S2B_MSIL2A_20250901T081609_R121_T37TCK_20250901T110328", "scene_datetime_utc": "2025-09-01T08:16:09.024000+00:00", "detection_status": "detected", "detection_status_ru": "обнаружено", "lon": 37.65921, "lat": 44.62317, "n_pixels": 1, "zone_area_km2": 0.0005, "cover_m2": 5.1, "p_mean": 0.769, "p_max": 0.769, "cover_m2_km2": 10200.0, "h3": "882d72896bfffff", "valid_frac_scene": 1.0, "wind_ms": 2.8, "sea": "спокойное", "scene_reliable": true, "field_event_id": "S4:DOORS3:T12", "field_profile": "B", "field_date": "2024-06-04", "field_distance_km": 248.2, "field_date_gap_days": 454, "field_conc_items_km2": 48.97, "conc_A_items_km2": null, "conc_A_lo80": null, "conc_A_hi80": null, "conc_A_lo95": null, "conc_A_hi95": null, "conc_A_status": "unavailable", "conc_A_status_ru": "концентрация недоступна", "conc_A_reasons": "вне бассейна профиля: nw_atlantic_subtropical", "conc_A_model": "conc-A-c6bce5631d2b", "conc_B_items_km2": 511.9, "conc_B_lo80": 109.1, "conc_B_hi80": 1720.2, "conc_B_lo95": 68.0, "conc_B_hi95": 3221.0, "conc_B_status": "research_estimate", "conc_B_status_ru": "исследовательская оценка", "conc_B_reasons": "ближайшее полевое измерение в 248 км (> 60 км); месяц 9 вне месяцев обучения [6]", "conc_B_model": "conc-B-c6bce5631d2b"}}, {"type": "Feature", "geometry": {"type": "Polygon", "coordinates": [[[37.70575382214927, 44.61348877084116], [37.70575582146436, 44.61339876845787], [37.70562981941519, 44.61339734029497], [37.70563181891543, 44.61330733791465], [37.70588582173594, 44.613220191701814], [37.705883822634085, 44.613310194092556], [37.706009824507454, 44.61331162197304], [37.70600782559075, 44.613401624366745], [37.70588182352287, 44.613400196481784], [37.7058798244023, 44.613490198869535], [37.70575382214927, 44.61348877084116]]]}, "properties": {"zone_id": "novorossiysk-2025-09-01-004", "aoi": "novorossiysk", "date": "2025-09-01", "scene_id": "S2B_MSIL2A_20250901T081609_R121_T37TCK_20250901T110328", "scene_datetime_utc": "2025-09-01T08:16:09.024000+00:00", "detection_status": "detected", "detection_status_ru": "обнаружено", "lon": 37.70582, "lat": 44.61335, "n_pixels": 1, "zone_area_km2": 0.0005, "cover_m2": 7.8, "p_mean": 0.855, "p_max": 0.855, "cover_m2_km2": 15600.0, "h3": "882d728923fffff", "valid_frac_scene": 1.0, "wind_ms": 2.8, "sea": "спокойное", "scene_reliable": true, "field_event_id": "S4:DOORS3:T12", "field_profile": "B", "field_date": "2024-06-04", "field_distance_km": 247.9, "field_date_gap_days": 454, "field_conc_items_km2": 48.97, "conc_A_items_km2": null, "conc_A_lo80": null, "conc_A_hi80": null, "conc_A_lo95": null, "conc_A_hi95": null, "conc_A_status": "unavailable", "conc_A_status_ru": "концентрация недоступна", "conc_A_reasons": "вне бассейна профиля: nw_atlantic_subtropical", "conc_A_model": "conc-A-c6bce5631d2b", "conc_B_items_km2": 511.9, "conc_B_lo80": 109.1, "conc_B_hi80": 1720.2, "conc_B_lo95": 68.0, "conc_B_hi95": 3221.0, "conc_B_status": "research_estimate", "conc_B_status_ru": "исследовательская оценка", "conc_B_reasons": "ближайшее полевое измерение в 248 км (> 60 км); месяц 9 вне месяцев обучения [6]", "conc_B_model": "conc-B-c6bce5631d2b"}}, {"type": "Feature", "geometry": {"type": "Polygon", "coordinates": [[[37.912347261536155, 44.61222239202804], [37.912348941679106, 44.612132382866236], [37.91222293290586, 44.612131182658864], [37.91222461323551, 44.612041173499335], [37.9123506218142, 44.61204237370297], [37.91235230194142, 44.611952364538226], [37.91260431873327, 44.611954764521], [37.91260263899516, 44.61204477369324], [37.91272864759745, 44.612045973479866], [37.91272696804603, 44.612135982654365], [37.9126009592492, 44.612134782864004], [37.91259927949536, 44.612224792033274], [37.912347261536155, 44.61222239202804]]]}, "properties": {"zone_id": "novorossiysk-2025-09-01-005", "aoi": "novorossiysk", "date": "2025-09-01", "scene_id": "S2B_MSIL2A_20250901T081609_R121_T37TCK_20250901T110328", "scene_datetime_utc": "2025-09-01T08:16:09.024000+00:00", "detection_status": "detected", "detection_status_ru": "обнаружено", "lon": 37.91248, "lat": 44.61209, "n_pixels": 2, "zone_area_km2": 0.0008, "cover_m2": 21.6, "p_mean": 0.796, "p_max": 0.933, "cover_m2_km2": 27000.0, "h3": "882d721111fffff", "valid_frac_scene": 1.0, "wind_ms": 2.8, "sea": "спокойное", "scene_reliable": true, "field_event_id": "S4:DOORS3:T13", "field_profile": "B", "field_date": "2024-06-04", "field_distance_km": 251.5, "field_date_gap_days": 454, "field_conc_items_km2": 263.57, "conc_A_items_km2": null, "conc_A_lo80": null, "conc_A_hi80": null, "conc_A_lo95": null, "conc_A_hi95": null, "conc_A_status": "unavailable", "conc_A_status_ru": "концентрация недоступна", "conc_A_reasons": "вне бассейна профиля: nw_atlantic_subtropical", "conc_A_model": "conc-A-c6bce5631d2b", "conc_B_items_km2": 901.4, "conc_B_lo80": 192.7, "conc_B_hi80": 3027.3, "conc_B_lo95": 120.4, "conc_B_hi95": 5668.0, "conc_B_status": "research_estimate", "conc_B_status_ru": "исследовательская оценка", "conc_B_reasons": "ближайшее полевое измерение в 251 км (> 60 км); месяц 9 вне месяцев обучения [6]; log_dist_coast_km = 0.0 вне диапазона обучения [1.7; 5.0]", "conc_B_model": "conc-B-c6bce5631d2b"}}, {"type": "Feature", "geometry": {"type": "Polygon", "coordinates": [[[37.943071518445485, 44.592885363361034], [37.94307315003289, 44.59279535298827], [37.94294718178456, 44.59279418707389], [37.942948813558694, 44.59270417670329], [37.943202381052, 44.59261649800652], [37.94320074967424, 44.59270650838587], [37.94332671774345, 44.5927076740188], [37.943325086552434, 44.5927976844003], [37.94319911828884, 44.59279651876375], [37.943197486895805, 44.59288652914014], [37.943071518445485, 44.592885363361034]]]}, "properties": {"zone_id": "novorossiysk-2025-09-01-006", "aoi": "novorossiysk", "date": "2025-09-01", "scene_id": "S2B_MSIL2A_20250901T081609_R121_T37TCK_20250901T110328", "scene_datetime_utc": "2025-09-01T08:16:09.024000+00:00", "detection_status": "detected", "detection_status_ru": "обнаружено", "lon": 37.94314, "lat": 44.59275, "n_pixels": 1, "zone_area_km2": 0.0005, "cover_m2": 2.4, "p_mean": 0.635, "p_max": 0.635, "cover_m2_km2": 4800.0, "h3": "882d721ad9fffff", "valid_frac_scene": 1.0, "wind_ms": 2.8, "sea": "спокойное", "scene_reliable": true, "field_event_id": "S4:DOORS3:T13", "field_profile": "B", "field_date": "2024-06-04", "field_distance_km": 249.9, "field_date_gap_days": 454, "field_conc_items_km2": 263.57, "conc_A_items_km2": null, "conc_A_lo80": null, "conc_A_hi80": null, "conc_A_lo95": null, "conc_A_hi95": null, "conc_A_status": "unavailable", "conc_A_status_ru": "концентрация недоступна", "conc_A_reasons": "вне бассейна профиля: nw_atlantic_subtropical", "conc_A_model": "conc-A-c6bce5631d2b", "conc_B_items_km2": 669.0, "conc_B_lo80": 142.8, "conc_B_hi80": 2247.4, "conc_B_lo95": 89.1, "conc_B_hi95": 4207.9, "conc_B_status": "research_estimate", "conc_B_status_ru": "исследовательская оценка", "conc_B_reasons": "ближайшее полевое измерение в 250 км (> 60 км); месяц 9 вне месяцев обучения [6]; log_dist_coast_km = 0.8 вне диапазона обучения [1.7; 5.0]", "conc_B_model": "conc-B-c6bce5631d2b"}}]}