{"type": "FeatureCollection", "features": [{"type": "Feature", "geometry": {"type": "Polygon", "coordinates": [[[39.561492203688026, 43.58468918326244], [39.5614913668157, 43.58459914592664], [39.56136750517351, 43.58459975419625], [39.56136666848965, 43.584509716857106], [39.56149052994725, 43.5845091085894], [39.56148969308268, 43.58441907125074], [39.5617374156171, 43.5844178543166], [39.56173657838723, 43.58432781698028], [39.56186043946404, 43.58432720831384], [39.561861276878496, 43.58441724564824], [39.56198513813601, 43.58441663684571], [39.561985975738914, 43.584506674176765], [39.561862114296815, 43.5845072829812], [39.561862951719014, 43.58459732031274], [39.56161522845402, 43.58459853752286], [39.56161606551093, 43.584688574856756], [39.561492203688026, 43.58468918326244]]]}, "properties": {"zone_id": "sochi-2025-04-18-001", "aoi": "sochi", "date": "2025-04-18", "scene_id": "S2A_MSIL2A_20250418T081021_R078_T37TEJ_20250418T120317", "scene_datetime_utc": "2025-04-18T08:10:21.024000+00:00", "detection_status": "detected", "detection_status_ru": "обнаружено", "lon": 39.56168, "lat": 43.58451, "n_pixels": 2, "zone_area_km2": 0.001, "cover_m2": 21.2, "p_mean": 0.553, "p_max": 0.561, "cover_m2_km2": 21200.0, "h3": "882d568235fffff", "valid_frac_scene": 1.0, "wind_ms": 3.6, "sea": "спокойное", "scene_reliable": true, "field_event_id": "S4:DOORS3:T17", "field_profile": "B", "field_date": "2024-06-04", "field_distance_km": 178.3, "field_date_gap_days": 318, "field_conc_items_km2": 89.61, "conc_A_items_km2": null, "conc_A_lo80": null, "conc_A_hi80": null, "conc_A_lo95": null, "conc_A_hi95": null, "conc_A_status": "unavailable", "conc_A_status_ru": "концентрация недоступна", "conc_A_reasons": "вне бассейна профиля: nw_atlantic_subtropical", "conc_A_model": "conc-A-c6bce5631d2b", "conc_B_items_km2": 385.1, "conc_B_lo80": 81.9, "conc_B_hi80": 1294.8, "conc_B_lo95": 51.0, "conc_B_hi95": 2424.7, "conc_B_status": "research_estimate", "conc_B_status_ru": "исследовательская оценка", "conc_B_reasons": "ближайшее полевое измерение в 178 км (> 60 км); месяц 4 вне месяцев обучения [6]", "conc_B_model": "conc-B-c6bce5631d2b"}}, {"type": "Feature", "geometry": {"type": "Polygon", "coordinates": [[[39.709691626917255, 43.5681980363626], [39.70969056978059, 43.5681080013544], [39.709566745494854, 43.5681087699499], [39.70956568854749, 43.568018734937866], [39.70968951264882, 43.56801796634477], [39.70968845552195, 43.5679279313337], [39.70993610334111, 43.567926393750035], [39.709937160836795, 43.5680164287563], [39.71006098492344, 43.56801565976092], [39.71006204260843, 43.56810569476333], [39.70993821833738, 43.568106463761126], [39.709939275842856, 43.568196498764515], [39.709691626917255, 43.5681980363626]]]}, "properties": {"zone_id": "sochi-2025-04-18-002", "aoi": "sochi", "date": "2025-04-18", "scene_id": "S2A_MSIL2A_20250418T081021_R078_T37TEJ_20250418T120317", "scene_datetime_utc": "2025-04-18T08:10:21.024000+00:00", "detection_status": "detected", "detection_status_ru": "обнаружено", "lon": 39.70981, "lat": 43.56806, "n_pixels": 2, "zone_area_km2": 0.0008, "cover_m2": 7.1, "p_mean": 0.78, "p_max": 0.996, "cover_m2_km2": 8875.0, "h3": "882d568e4bfffff", "valid_frac_scene": 1.0, "wind_ms": 3.6, "sea": "спокойное", "scene_reliable": true, "field_event_id": "S4:DOORS3:T17", "field_profile": "B", "field_date": "2024-06-04", "field_distance_km": 183.4, "field_date_gap_days": 318, "field_conc_items_km2": 89.61, "conc_A_items_km2": null, "conc_A_lo80": null, "conc_A_hi80": null, "conc_A_lo95": null, "conc_A_hi95": null, "conc_A_status": "unavailable", "conc_A_status_ru": "концентрация недоступна", "conc_A_reasons": "вне бассейна профиля: nw_atlantic_subtropical", "conc_A_model": "conc-A-c6bce5631d2b", "conc_B_items_km2": 591.0, "conc_B_lo80": 126.1, "conc_B_hi80": 1985.7, "conc_B_lo95": 78.7, "conc_B_hi95": 3718.1, "conc_B_status": "research_estimate", "conc_B_status_ru": "исследовательская оценка", "conc_B_reasons": "ближайшее полевое измерение в 183 км (> 60 км); месяц 4 вне месяцев обучения [6]; log_dist_coast_km = 1.2 вне диапазона обучения [1.7; 5.0]", "conc_B_model": "conc-B-c6bce5631d2b"}}, {"type": "Feature", "geometry": {"type": "Polygon", "coordinates": [[[39.72256396339765, 43.56766719622292], [39.72256288710765, 43.567577161459646], [39.722439064257635, 43.56757794398882], [39.72243798815702, 43.56748790922165], [39.72256181082263, 43.56748712669493], [39.722560734542604, 43.56739709192876], [39.72280837949008, 43.56739552647793], [39.72280945613891, 43.5674855612392], [39.722933278789576, 43.5674847783102], [39.722934355627785, 43.56757481306759], [39.72281053279273, 43.56757559599904], [39.722811609451526, 43.56766563075742], [39.72256396339765, 43.56766719622292]]]}, "properties": {"zone_id": "sochi-2025-04-18-003", "aoi": "sochi", "date": "2025-04-18", "scene_id": "S2A_MSIL2A_20250418T081021_R078_T37TEJ_20250418T120317", "scene_datetime_utc": "2025-04-18T08:10:21.024000+00:00", "detection_status": "detected", "detection_status_ru": "обнаружено", "lon": 39.72269, "lat": 43.56753, "n_pixels": 2, "zone_area_km2": 0.0008, "cover_m2": 8.6, "p_mean": 0.941, "p_max": 0.992, "cover_m2_km2": 10750.0, "h3": "882d568e43fffff", "valid_frac_scene": 1.0, "wind_ms": 3.6, "sea": "спокойное", "scene_reliable": true, "field_event_id": "S4:DOORS3:T17", "field_profile": "B", "field_date": "2024-06-04", "field_distance_km": 184.0, "field_date_gap_days": 318, "field_conc_items_km2": 89.61, "conc_A_items_km2": null, "conc_A_lo80": null, "conc_A_hi80": null, "conc_A_lo95": null, "conc_A_hi95": null, "conc_A_status": "unavailable", "conc_A_status_ru": "концентрация недоступна", "conc_A_reasons": "вне бассейна профиля: nw_atlantic_subtropical", "conc_A_model": "conc-A-c6bce5631d2b", "conc_B_items_km2": 666.4, "conc_B_lo80": 142.3, "conc_B_hi80": 2238.7, "conc_B_lo95": 88.8, "conc_B_hi95": 4191.6, "conc_B_status": "research_estimate", "conc_B_status_ru": "исследовательская оценка", "conc_B_reasons": "ближайшее полевое измерение в 184 км (> 60 км); месяц 4 вне месяцев обучения [6]; log_dist_coast_km = 0.9 вне диапазона обучения [1.7; 5.0]", "conc_B_model": "conc-B-c6bce5631d2b"}}, {"type": "Feature", "geometry": {"type": "Polygon", "coordinates": [[[39.7158305984779, 43.56374772430725], [39.715829532362825, 43.563657689348936], [39.71570571735778, 43.563658464530484], [39.715703585511164, 43.56347839460467], [39.715950148494244, 43.563386809156995], [39.71595121477887, 43.563476844117204], [39.71607502940532, 43.563476068672365], [39.716077162358104, 43.563656138583625], [39.7158305984779, 43.56374772430725]]]}, "properties": {"zone_id": "sochi-2025-04-18-004", "aoi": "sochi", "date": "2025-04-18", "scene_id": "S2A_MSIL2A_20250418T081021_R078_T37TEJ_20250418T120317", "scene_datetime_utc": "2025-04-18T08:10:21.024000+00:00", "detection_status": "detected", "detection_status_ru": "обнаружено", "lon": 39.71589, "lat": 43.56357, "n_pixels": 2, "zone_area_km2": 0.0008, "cover_m2": 14.9, "p_mean": 0.99, "p_max": 0.996, "cover_m2_km2": 18625.0, "h3": "882d568e41fffff", "valid_frac_scene": 1.0, "wind_ms": 3.6, "sea": "спокойное", "scene_reliable": true, "field_event_id": "S4:DOORS3:T17", "field_profile": "B", "field_date": "2024-06-04", "field_distance_km": 183.3, "field_date_gap_days": 318, "field_conc_items_km2": 89.61, "conc_A_items_km2": null, "conc_A_lo80": null, "conc_A_hi80": null, "conc_A_lo95": null, "conc_A_hi95": null, "conc_A_status": "unavailable", "conc_A_status_ru": "концентрация недоступна", "conc_A_reasons": "вне бассейна профиля: nw_atlantic_subtropical", "conc_A_model": "conc-A-c6bce5631d2b", "conc_B_items_km2": 591.0, "conc_B_lo80": 126.1, "conc_B_hi80": 1985.7, "conc_B_lo95": 78.7, "conc_B_hi95": 3718.1, "conc_B_status": "research_estimate", "conc_B_status_ru": "исследовательская оценка", "conc_B_reasons": "ближайшее полевое измерение в 183 км (> 60 км); месяц 4 вне месяцев обучения [6]; log_dist_coast_km = 1.2 вне диапазона обучения [1.7; 5.0]", "conc_B_model": "conc-B-c6bce5631d2b"}}, {"type": "Feature", "geometry": {"type": "Polygon", "coordinates": [[[39.74509476414681, 43.55707774592233], [39.74509365470807, 43.55698771144597], [39.744969854168474, 43.55698851822122], [39.74496874491916, 43.55689848374089], [39.74509254527447, 43.55689767696817], [39.745091435846, 43.55680764248892], [39.745340145969664, 43.5568960630206], [39.74534125577186, 43.556986097493365], [39.74521745524254, 43.556986904536686], [39.74521856486557, 43.557076939010514], [39.74509476414681, 43.55707774592233]]]}, "properties": {"zone_id": "sochi-2025-04-18-005", "aoi": "sochi", "date": "2025-04-18", "scene_id": "S2A_MSIL2A_20250418T081021_R078_T37TEJ_20250418T120317", "scene_datetime_utc": "2025-04-18T08:10:21.024000+00:00", "detection_status": "detected", "detection_status_ru": "обнаружено", "lon": 39.74516, "lat": 43.55694, "n_pixels": 1, "zone_area_km2": 0.0005, "cover_m2": 2.4, "p_mean": 0.682, "p_max": 0.682, "cover_m2_km2": 4800.0, "h3": "882d568e01fffff", "valid_frac_scene": 1.0, "wind_ms": 3.6, "sea": "спокойное", "scene_reliable": true, "field_event_id": "S4:DOORS3:T17", "field_profile": "B", "field_date": "2024-06-04", "field_distance_km": 184.1, "field_date_gap_days": 318, "field_conc_items_km2": 89.61, "conc_A_items_km2": null, "conc_A_lo80": null, "conc_A_hi80": null, "conc_A_lo95": null, "conc_A_hi95": null, "conc_A_status": "unavailable", "conc_A_status_ru": "концентрация недоступна", "conc_A_reasons": "вне бассейна профиля: nw_atlantic_subtropical", "conc_A_model": "conc-A-c6bce5631d2b", "conc_B_items_km2": 621.6, "conc_B_lo80": 132.7, "conc_B_hi80": 2088.3, "conc_B_lo95": 82.8, "conc_B_hi95": 3910.2, "conc_B_status": "research_estimate", "conc_B_status_ru": "исследовательская оценка", "conc_B_reasons": "ближайшее полевое измерение в 184 км (> 60 км); месяц 4 вне месяцев обучения [6]; log_dist_coast_km = 1.0 вне диапазона обучения [1.7; 5.0]", "conc_B_model": "conc-B-c6bce5631d2b"}}, {"type": "Feature", "geometry": {"type": "Polygon", "coordinates": [[[39.74843180972531, 43.55660574020004], [39.748430695336374, 43.55651570578468], [39.74830689585724, 43.55651651616636], [39.74830466746343, 43.556336447326274], [39.74855115112164, 43.55624479202184], [39.74855226567938, 43.556334826439], [39.74867606477961, 43.55633401579431], [39.74867829427916, 43.55651408461922], [39.74843180972531, 43.55660574020004]]]}, "properties": {"zone_id": "sochi-2025-04-18-006", "aoi": "sochi", "date": "2025-04-18", "scene_id": "S2A_MSIL2A_20250418T081021_R078_T37TEJ_20250418T120317", "scene_datetime_utc": "2025-04-18T08:10:21.024000+00:00", "detection_status": "detected", "detection_status_ru": "обнаружено", "lon": 39.74849, "lat": 43.55643, "n_pixels": 2, "zone_area_km2": 0.0008, "cover_m2": 6.3, "p_mean": 0.927, "p_max": 0.976, "cover_m2_km2": 7875.0, "h3": "882d568e01fffff", "valid_frac_scene": 1.0, "wind_ms": 3.6, "sea": "спокойное", "scene_reliable": true, "field_event_id": "S4:DOORS3:T17", "field_profile": "B", "field_date": "2024-06-04", "field_distance_km": 184.2, "field_date_gap_days": 318, "field_conc_items_km2": 89.61, "conc_A_items_km2": null, "conc_A_lo80": null, "conc_A_hi80": null, "conc_A_lo95": null, "conc_A_hi95": null, "conc_A_status": "unavailable", "conc_A_status_ru": "концентрация недоступна", "conc_A_reasons": "вне бассейна профиля: nw_atlantic_subtropical", "conc_A_model": "conc-A-c6bce5631d2b", "conc_B_items_km2": 621.6, "conc_B_lo80": 132.7, "conc_B_hi80": 2088.3, "conc_B_lo95": 82.8, "conc_B_hi95": 3910.2, "conc_B_status": "research_estimate", "conc_B_status_ru": "исследовательская оценка", "conc_B_reasons": "ближайшее полевое измерение в 184 км (> 60 км); месяц 4 вне месяцев обучения [6]; log_dist_coast_km = 1.0 вне диапазона обучения [1.7; 5.0]", "conc_B_model": "conc-B-c6bce5631d2b"}}, {"type": "Feature", "geometry": {"type": "Polygon", "coordinates": [[[39.745705995275635, 43.556443468746295], [39.7457048849514, 43.55635343427243], [39.74558108572755, 43.556354241700205], [39.74557886546309, 43.556174172743084], [39.745825352675396, 43.5560825232879], [39.7458264631685, 43.556172557763574], [39.74595026201349, 43.55617175007277], [39.74595248338369, 43.55635181901475], [39.745705995275635, 43.556443468746295]]]}, "properties": {"zone_id": "sochi-2025-04-18-007", "aoi": "sochi", "date": "2025-04-18", "scene_id": "S2A_MSIL2A_20250418T081021_R078_T37TEJ_20250418T120317", "scene_datetime_utc": "2025-04-18T08:10:21.024000+00:00", "detection_status": "detected", "detection_status_ru": "обнаружено", "lon": 39.74577, "lat": 43.55626, "n_pixels": 2, "zone_area_km2": 0.0008, "cover_m2": 4.3, "p_mean": 0.875, "p_max": 0.976, "cover_m2_km2": 5375.0, "h3": "882d568e01fffff", "valid_frac_scene": 1.0, "wind_ms": 3.6, "sea": "спокойное", "scene_reliable": true, "field_event_id": "S4:DOORS3:T17", "field_profile": "B", "field_date": "2024-06-04", "field_distance_km": 184.1, "field_date_gap_days": 318, "field_conc_items_km2": 89.61, "conc_A_items_km2": null, "conc_A_lo80": null, "conc_A_hi80": null, "conc_A_lo95": null, "conc_A_hi95": null, "conc_A_status": "unavailable", "conc_A_status_ru": "концентрация недоступна", "conc_A_reasons": "вне бассейна профиля: nw_atlantic_subtropical", "conc_A_model": "conc-A-c6bce5631d2b", "conc_B_items_km2": 621.6, "conc_B_lo80": 132.7, "conc_B_hi80": 2088.3, "conc_B_lo95": 82.8, "conc_B_hi95": 3910.2, "conc_B_status": "research_estimate", "conc_B_status_ru": "исследовательская оценка", "conc_B_reasons": "ближайшее полевое измерение в 184 км (> 60 км); месяц 4 вне месяцев обучения [6]; log_dist_coast_km = 1.0 вне диапазона обучения [1.7; 5.0]", "conc_B_model": "conc-B-c6bce5631d2b"}}, {"type": "Feature", "geometry": {"type": "Polygon", "coordinates": [[[39.747428057638395, 43.555531806198005], [39.74742694478564, 43.55544177174506], [39.747303147476686, 43.55544258102407], [39.74730203481335, 43.555352546567136], [39.747425831938024, 43.55535173729066], [39.74742360625825, 43.55517166837752], [39.747299809502145, 43.555172477648945], [39.74729869685427, 43.55508244318767], [39.747545176981504, 43.55499079005819], [39.747546289992776, 43.555080824515855], [39.74767008655431, 43.555080014978884], [39.74767119975501, 43.55517004943257], [39.747547403009214, 43.555170858972055], [39.74754962905753, 43.555350927880134], [39.7476734261719, 43.55535011833558], [39.74767453938807, 43.555440152784925], [39.747428057638395, 43.555531806198005]]]}, "properties": {"zone_id": "sochi-2025-04-18-008", "aoi": "sochi", "date": "2025-04-18", "scene_id": "S2A_MSIL2A_20250418T081021_R078_T37TEJ_20250418T120317", "scene_datetime_utc": "2025-04-18T08:10:21.024000+00:00", "detection_status": "detected", "detection_status_ru": "обнаружено", "lon": 39.74749, "lat": 43.55526, "n_pixels": 2, "zone_area_km2": 0.001, "cover_m2": 7.5, "p_mean": 0.957, "p_max": 0.992, "cover_m2_km2": 7500.0, "h3": "882d568e01fffff", "valid_frac_scene": 1.0, "wind_ms": 3.6, "sea": "спокойное", "scene_reliable": true, "field_event_id": "S4:DOORS3:T17", "field_profile": "B", "field_date": "2024-06-04", "field_distance_km": 184.1, "field_date_gap_days": 318, "field_conc_items_km2": 89.61, "conc_A_items_km2": null, "conc_A_lo80": null, "conc_A_hi80": null, "conc_A_lo95": null, "conc_A_hi95": null, "conc_A_status": "unavailable", "conc_A_status_ru": "концентрация недоступна", "conc_A_reasons": "вне бассейна профиля: nw_atlantic_subtropical", "conc_A_model": "conc-A-c6bce5631d2b", "conc_B_items_km2": 621.6, "conc_B_lo80": 132.7, "conc_B_hi80": 2088.3, "conc_B_lo95": 82.8, "conc_B_hi95": 3910.2, "conc_B_status": "research_estimate", "conc_B_status_ru": "исследовательская оценка", "conc_B_reasons": "ближайшее полевое измерение в 184 км (> 60 км); месяц 4 вне месяцев обучения [6]; log_dist_coast_km = 1.0 вне диапазона обучения [1.7; 5.0]", "conc_B_model": "conc-B-c6bce5631d2b"}}, {"type": "Feature", "geometry": {"type": "Polygon", "coordinates": [[[39.755102367842944, 43.55539133467912], [39.75510124356999, 43.55530130038236], [39.75497744676642, 43.55530211796888], [39.75497632268294, 43.55521208366814], [39.75510011930225, 43.55521126608418], [39.7550989950397, 43.55512123178455], [39.75534771252523, 43.55520963051417], [39.75534883716152, 43.55529966480725], [39.755225040368366, 43.55530048266183], [39.7552261648256, 43.55539051695602], [39.755102367842944, 43.55539133467912]]]}, "properties": {"zone_id": "sochi-2025-04-18-009", "aoi": "sochi", "date": "2025-04-18", "scene_id": "S2A_MSIL2A_20250418T081021_R078_T37TEJ_20250418T120317", "scene_datetime_utc": "2025-04-18T08:10:21.024000+00:00", "detection_status": "detected", "detection_status_ru": "обнаружено", "lon": 39.75516, "lat": 43.55526, "n_pixels": 1, "zone_area_km2": 0.0005, "cover_m2": 5.1, "p_mean": 0.988, "p_max": 0.988, "cover_m2_km2": 10200.0, "h3": "882d568e07fffff", "valid_frac_scene": 1.0, "wind_ms": 3.6, "sea": "спокойное", "scene_reliable": true, "field_event_id": "S4:DOORS3:T17", "field_profile": "B", "field_date": "2024-06-04", "field_distance_km": 184.4, "field_date_gap_days": 318, "field_conc_items_km2": 89.61, "conc_A_items_km2": null, "conc_A_lo80": null, "conc_A_hi80": null, "conc_A_lo95": null, "conc_A_hi95": null, "conc_A_status": "unavailable", "conc_A_status_ru": "концентрация недоступна", "conc_A_reasons": "вне бассейна профиля: nw_atlantic_subtropical", "conc_A_model": "conc-A-c6bce5631d2b", "conc_B_items_km2": 666.4, "conc_B_lo80": 142.3, "conc_B_hi80": 2238.7, "conc_B_lo95": 88.8, "conc_B_hi95": 4191.6, "conc_B_status": "research_estimate", "conc_B_status_ru": "исследовательская оценка", "conc_B_reasons": "ближайшее полевое измерение в 184 км (> 60 км); месяц 4 вне месяцев обучения [6]; log_dist_coast_km = 0.9 вне диапазона обучения [1.7; 5.0]", "conc_B_model": "conc-B-c6bce5631d2b"}}, {"type": "Feature", "geometry": {"type": "Polygon", "coordinates": [[[39.86233254975502, 43.44334031372387], [39.86233127084862, 43.443250280038924], [39.8622077060347, 43.44325121182639], [39.862206427317425, 43.443161178137075], [39.86232999194814, 43.44316024635252], [39.86232871305357, 43.44307021266465], [39.862577121191826, 43.44315838238291], [39.8625784004587, 43.44324841606349], [39.86245483565662, 43.44324934811795], [39.862456114746216, 43.44333938179999], [39.86233254975502, 43.44334031372387]]]}, "properties": {"zone_id": "sochi-2025-04-18-010", "aoi": "sochi", "date": "2025-04-18", "scene_id": "S2A_MSIL2A_20250418T081021_R078_T37TEJ_20250418T120317", "scene_datetime_utc": "2025-04-18T08:10:21.024000+00:00", "detection_status": "detected", "detection_status_ru": "обнаружено", "lon": 39.86239, "lat": 43.4432, "n_pixels": 1, "zone_area_km2": 0.0005, "cover_m2": 3.1, "p_mean": 0.753, "p_max": 0.753, "cover_m2_km2": 6200.0, "h3": "882d5612c3fffff", "valid_frac_scene": 1.0, "wind_ms": 3.6, "sea": "спокойное", "scene_reliable": true, "field_event_id": "S4:DOORS3:T17", "field_profile": "B", "field_date": "2024-06-04", "field_distance_km": 180.2, "field_date_gap_days": 318, "field_conc_items_km2": 89.61, "conc_A_items_km2": null, "conc_A_lo80": null, "conc_A_hi80": null, "conc_A_lo95": null, "conc_A_hi95": null, "conc_A_status": "unavailable", "conc_A_status_ru": "концентрация недоступна", "conc_A_reasons": "вне бассейна профиля: nw_atlantic_subtropical", "conc_A_model": "conc-A-c6bce5631d2b", "conc_B_items_km2": 494.5, "conc_B_lo80": 105.4, "conc_B_hi80": 1661.8, "conc_B_lo95": 65.7, "conc_B_hi95": 3111.8, "conc_B_status": "research_estimate", "conc_B_status_ru": "исследовательская оценка", "conc_B_reasons": "ближайшее полевое измерение в 180 км (> 60 км); месяц 4 вне месяцев обучения [6]", "conc_B_model": "conc-B-c6bce5631d2b"}}, {"type": "Feature", "geometry": {"type": "Polygon", "coordinates": [[[39.8445399576447, 43.43464885586414], [39.84453870550406, 43.43455882162455], [39.84441515780306, 43.434559734041606], [39.84441390585133, 43.43446969979771], [39.8445374533692, 43.43446878738352], [39.84453620124014, 43.434378753141026], [39.844784548387565, 43.43446696215472], [39.84478580088866, 43.43455699639006], [39.84466225319925, 43.434557909074044], [39.84466350552302, 43.43464794331077], [39.8445399576447, 43.43464885586414]]]}, "properties": {"zone_id": "sochi-2025-04-18-011", "aoi": "sochi", "date": "2025-04-18", "scene_id": "S2A_MSIL2A_20250418T081021_R078_T37TEJ_20250418T120317", "scene_datetime_utc": "2025-04-18T08:10:21.024000+00:00", "detection_status": "detected", "detection_status_ru": "обнаружено", "lon": 39.8446, "lat": 43.43451, "n_pixels": 1, "zone_area_km2": 0.0005, "cover_m2": 3.9, "p_mean": 0.733, "p_max": 0.733, "cover_m2_km2": 7800.0, "h3": "882d5612cdfffff", "valid_frac_scene": 1.0, "wind_ms": 3.6, "sea": "спокойное", "scene_reliable": true, "field_event_id": "S4:DOORS3:T17", "field_profile": "B", "field_date": "2024-06-04", "field_distance_km": 178.5, "field_date_gap_days": 318, "field_conc_items_km2": 89.61, "conc_A_items_km2": null, "conc_A_lo80": null, "conc_A_hi80": null, "conc_A_lo95": null, "conc_A_hi95": null, "conc_A_status": "unavailable", "conc_A_status_ru": "концентрация недоступна", "conc_A_reasons": "вне бассейна профиля: nw_atlantic_subtropical", "conc_A_model": "conc-A-c6bce5631d2b", "conc_B_items_km2": 459.5, "conc_B_lo80": 97.9, "conc_B_hi80": 1544.5, "conc_B_lo95": 61.0, "conc_B_hi95": 2892.2, "conc_B_status": "research_estimate", "conc_B_status_ru": "исследовательская оценка", "conc_B_reasons": "ближайшее полевое измерение в 179 км (> 60 км); месяц 4 вне месяцев обучения [6]", "conc_B_model": "conc-B-c6bce5631d2b"}}, {"type": "Feature", "geometry": {"type": "Polygon", "coordinates": [[[39.894737235443344, 43.428414269109304], [39.89473590917315, 43.42832423597073], [39.89461237579926, 43.42832520250917], [39.89461104971825, 43.428235169366154], [39.89473458290908, 43.42823420283074], [39.89473325665116, 43.428144169689276], [39.8948567896528, 43.42814320302345], [39.89485546321795, 43.42805316988355], [39.895103855637686, 43.428141269291515], [39.89510518244477, 43.42823130242392], [39.894981649272346, 43.428232269359604], [39.89498297590251, 43.42832230249357], [39.894737235443344, 43.428414269109304]]]}, "properties": {"zone_id": "sochi-2025-04-18-012", "aoi": "sochi", "date": "2025-04-18", "scene_id": "S2A_MSIL2A_20250418T081021_R078_T37TEJ_20250418T120317", "scene_datetime_utc": "2025-04-18T08:10:21.024000+00:00", "detection_status": "detected", "detection_status_ru": "обнаружено", "lon": 39.89486, "lat": 43.42823, "n_pixels": 2, "zone_area_km2": 0.0008, "cover_m2": 7.5, "p_mean": 0.912, "p_max": 0.98, "cover_m2_km2": 9375.0, "h3": "882d561287fffff", "valid_frac_scene": 1.0, "wind_ms": 3.6, "sea": "спокойное", "scene_reliable": true, "field_event_id": "S4:DOORS3:T17", "field_profile": "B", "field_date": "2024-06-04", "field_distance_km": 180.7, "field_date_gap_days": 318, "field_conc_items_km2": 89.61, "conc_A_items_km2": null, "conc_A_lo80": null, "conc_A_hi80": null, "conc_A_lo95": null, "conc_A_hi95": null, "conc_A_status": "unavailable", "conc_A_status_ru": "концентрация недоступна", "conc_A_reasons": "вне бассейна профиля: nw_atlantic_subtropical", "conc_A_model": "conc-A-c6bce5631d2b", "conc_B_items_km2": 567.5, "conc_B_lo80": 121.1, "conc_B_hi80": 1906.7, "conc_B_lo95": 75.5, "conc_B_hi95": 3570.2, "conc_B_status": "research_estimate", "conc_B_status_ru": "исследовательская оценка", "conc_B_reasons": "ближайшее полевое измерение в 181 км (> 60 км); месяц 4 вне месяцев обучения [6]; log_dist_coast_km = 1.3 вне диапазона обучения [1.7; 5.0]", "conc_B_model": "conc-B-c6bce5631d2b"}}, {"type": "Feature", "geometry": {"type": "Polygon", "coordinates": [[[39.83967244755864, 43.413254311497404], [39.83967120356343, 43.41316427680706], [39.839547699208204, 43.41316518361098], [39.83954645540166, 43.413075148916334], [39.83966995957395, 43.413074242115265], [39.83966871559025, 43.41298420742201], [39.83991572355174, 43.412982393425416], [39.839916967901296, 43.413072428113], [39.84004047205633, 43.41307152091182], [39.84004171659456, 43.413161555595124], [39.839918212256606, 43.413162462799136], [39.839919456617665, 43.41325249748381], [39.83967244755864, 43.413254311497404]]]}, "properties": {"zone_id": "sochi-2025-04-18-013", "aoi": "sochi", "date": "2025-04-18", "scene_id": "S2A_MSIL2A_20250418T081021_R078_T37TEJ_20250418T120317", "scene_datetime_utc": "2025-04-18T08:10:21.024000+00:00", "detection_status": "detected", "detection_status_ru": "обнаружено", "lon": 39.83979, "lat": 43.41312, "n_pixels": 2, "zone_area_km2": 0.0008, "cover_m2": 5.1, "p_mean": 0.769, "p_max": 0.851, "cover_m2_km2": 6375.0, "h3": "882d56123bfffff", "valid_frac_scene": 1.0, "wind_ms": 3.6, "sea": "спокойное", "scene_reliable": true, "field_event_id": "S4:DOORS3:T17", "field_profile": "B", "field_date": "2024-06-04", "field_distance_km": 176.5, "field_date_gap_days": 318, "field_conc_items_km2": 89.61, "conc_A_items_km2": null, "conc_A_lo80": null, "conc_A_hi80": null, "conc_A_lo95": null, "conc_A_hi95": null, "conc_A_status": "unavailable", "conc_A_status_ru": "концентрация недоступна", "conc_A_reasons": "вне бассейна профиля: nw_atlantic_subtropical", "conc_A_model": "conc-A-c6bce5631d2b", "conc_B_items_km2": 440.6, "conc_B_lo80": 93.8, "conc_B_hi80": 1480.9, "conc_B_lo95": 58.4, "conc_B_hi95": 2773.2, "conc_B_status": "research_estimate", "conc_B_status_ru": "исследовательская оценка", "conc_B_reasons": "ближайшее полевое измерение в 176 км (> 60 км); месяц 4 вне месяцев обучения [6]", "conc_B_model": "conc-B-c6bce5631d2b"}}, {"type": "Feature", "geometry": {"type": "Polygon", "coordinates": [[[39.654119983825765, 43.410504296596166], [39.654119014810504, 43.410414258053976], [39.653995510820046, 43.41041496443024], [39.65399454199218, 43.4103249258844], [39.65411804579972, 43.41032421951036], [39.65411707679342, 43.41023418096529], [39.65436505340136, 43.41032280636215], [39.654366022777985, 43.41041284490136], [39.65424251879649, 43.41041355154435], [39.65424348799468, 43.41050359008433], [39.654119983825765, 43.410504296596166]]]}, "properties": {"zone_id": "sochi-2025-04-18-014", "aoi": "sochi", "date": "2025-04-18", "scene_id": "S2A_MSIL2A_20250418T081021_R078_T37TEJ_20250418T120317", "scene_datetime_utc": "2025-04-18T08:10:21.024000+00:00", "detection_status": "detected", "detection_status_ru": "обнаружено", "lon": 39.65418, "lat": 43.41037, "n_pixels": 1, "zone_area_km2": 0.0005, "cover_m2": 3.1, "p_mean": 0.929, "p_max": 0.929, "cover_m2_km2": 6200.0, "h3": "882d56886bfffff", "valid_frac_scene": 1.0, "wind_ms": 3.6, "sea": "спокойное", "scene_reliable": true, "field_event_id": "S4:DOORS3:T17", "field_profile": "B", "field_date": "2024-06-04", "field_distance_km": 166.7, "field_date_gap_days": 318, "field_conc_items_km2": 89.61, "conc_A_items_km2": null, "conc_A_lo80": null, "conc_A_hi80": null, "conc_A_lo95": null, "conc_A_hi95": null, "conc_A_status": "unavailable", "conc_A_status_ru": "концентрация недоступна", "conc_A_reasons": "вне бассейна профиля: nw_atlantic_subtropical", "conc_A_model": "conc-A-c6bce5631d2b", "conc_B_items_km2": 310.8, "conc_B_lo80": 66.0, "conc_B_hi80": 1045.5, "conc_B_lo95": 41.0, "conc_B_hi95": 1958.0, "conc_B_status": "research_estimate", "conc_B_status_ru": "исследовательская оценка", "conc_B_reasons": "ближайшее полевое измерение в 167 км (> 60 км); месяц 4 вне месяцев обучения [6]", "conc_B_model": "conc-B-c6bce5631d2b"}}, {"type": "Feature", "geometry": {"type": "Polygon", "coordinates": [[[39.98888094516007, 43.382887130193616], [39.98887948168096, 43.38279709877208], [39.988756044126475, 43.3827981661181], [39.98875458083673, 43.38270813469176], [39.988878018208624, 43.38270706734907], [39.988876554743044, 43.38261703592459], [39.9891248929321, 43.38270493226407], [39.98912635676965, 43.38279496368041], [39.98900291922869, 43.38279603129284], [39.98900438289041, 43.38288606271105], [39.98888094516007, 43.382887130193616]]]}, "properties": {"zone_id": "sochi-2025-04-18-015", "aoi": "sochi", "date": "2025-04-18", "scene_id": "S2A_MSIL2A_20250418T081021_R078_T37TEJ_20250418T120317", "scene_datetime_utc": "2025-04-18T08:10:21.024000+00:00", "detection_status": "detected", "detection_status_ru": "обнаружено", "lon": 39.98894, "lat": 43.38275, "n_pixels": 1, "zone_area_km2": 0.0005, "cover_m2": 4.3, "p_mean": 0.988, "p_max": 0.988, "cover_m2_km2": 8600.0, "h3": "882d56024bfffff", "valid_frac_scene": 1.0, "wind_ms": 3.6, "sea": "спокойное", "scene_reliable": true, "field_event_id": "S4:DOORS3:T23", "field_profile": "B", "field_date": "2024-06-10", "field_distance_km": 172.0, "field_date_gap_days": 312, "field_conc_items_km2": 102.37, "conc_A_items_km2": null, "conc_A_lo80": null, "conc_A_hi80": null, "conc_A_lo95": null, "conc_A_hi95": null, "conc_A_status": "unavailable", "conc_A_status_ru": "концентрация недоступна", "conc_A_reasons": "вне бассейна профиля: nw_atlantic_subtropical", "conc_A_model": "conc-A-c6bce5631d2b", "conc_B_items_km2": 901.4, "conc_B_lo80": 192.7, "conc_B_hi80": 3027.3, "conc_B_lo95": 120.4, "conc_B_hi95": 5668.0, "conc_B_status": "research_estimate", "conc_B_status_ru": "исследовательская оценка", "conc_B_reasons": "ближайшее полевое измерение в 172 км (> 60 км); месяц 4 вне месяцев обучения [6]; log_dist_coast_km = 0.0 вне диапазона обучения [1.7; 5.0]", "conc_B_model": "conc-B-c6bce5631d2b"}}]}