{"type": "FeatureCollection", "features": [{"type": "Feature", "geometry": {"type": "Polygon", "coordinates": [[[44.675241343725396, 48.8603267656126], [44.675241925708875, 48.860236808703554], [44.67510558959802, 48.860236424621206], [44.67510617182292, 48.86014646771195], [44.67524250768947, 48.8601468517931], [44.67524308966718, 48.860056894881204], [44.675515760920305, 48.860057662557466], [44.67551517943121, 48.86014761947177], [44.675651515306406, 48.8601480030693], [44.675650934058744, 48.86023795998339], [44.675514597939234, 48.860237576384655], [44.67551401644438, 48.86032753329611], [44.675241343725396, 48.8603267656126]]]}, "properties": {"zone_id": "volgograd-2025-08-23-001", "aoi": "volgograd", "date": "2025-08-23", "scene_id": "S2A_MSIL2A_20250823T080021_R035_T38UMV_20250823T111116", "scene_datetime_utc": "2025-08-23T08:00:21.024000+00:00", "detection_status": "detected", "detection_status_ru": "обнаружено", "lon": 44.67538, "lat": 48.86019, "n_pixels": 2, "zone_area_km2": 0.0008, "cover_m2": 21.2, "p_mean": 0.633, "p_max": 0.686, "cover_m2_km2": 26500.0, "h3": "882d48a0a1fffff", "valid_frac_scene": 1.0, "wind_ms": 5.9, "sea": "спокойное", "scene_reliable": true, "field_event_id": "S4:DOORS3:T23", "field_profile": "B", "field_date": "2024-06-10", "field_distance_km": 764.5, "field_date_gap_days": 439, "field_conc_items_km2": 102.37, "conc_A_items_km2": null, "conc_A_lo80": null, "conc_A_hi80": null, "conc_A_lo95": null, "conc_A_hi95": null, "conc_A_status": "unavailable", "conc_A_status_ru": "концентрация недоступна", "conc_A_reasons": "вне бассейна профиля: nw_atlantic_subtropical", "conc_A_model": "conc-A-c6bce5631d2b", "conc_B_items_km2": null, "conc_B_lo80": null, "conc_B_hi80": null, "conc_B_lo95": null, "conc_B_hi95": null, "conc_B_status": "unavailable", "conc_B_status_ru": "концентрация недоступна", "conc_B_reasons": "вне бассейна профиля: black_sea", "conc_B_model": "conc-B-c6bce5631d2b"}}, {"type": "Feature", "geometry": {"type": "Polygon", "coordinates": [[[44.52925821243368, 48.69636578032292], [44.52925905117276, 48.696275822434814], [44.52912316076898, 48.69627526712041], [44.52912483871891, 48.696095351343416], [44.529260728638484, 48.696095906654335], [44.529261567365126, 48.69600594876196], [44.52953334673253, 48.69600705889948], [44.52953250849008, 48.69609701679535], [44.529668398422096, 48.696097571625444], [44.529666722408955, 48.696277487416396], [44.529530831992744, 48.69627693258281], [44.52952999373787, 48.69636689047441], [44.52925821243368, 48.69636578032292]]]}, "properties": {"zone_id": "volgograd-2025-08-23-002", "aoi": "volgograd", "date": "2025-08-23", "scene_id": "S2A_MSIL2A_20250823T080021_R035_T38UMV_20250823T111116", "scene_datetime_utc": "2025-08-23T08:00:21.024000+00:00", "detection_status": "detected", "detection_status_ru": "обнаружено", "lon": 44.5294, "lat": 48.69619, "n_pixels": 4, "zone_area_km2": 0.0012, "cover_m2": 44.3, "p_mean": 0.958, "p_max": 0.992, "cover_m2_km2": 36916.7, "h3": "882d48b9bdfffff", "valid_frac_scene": 1.0, "wind_ms": 5.9, "sea": "спокойное", "scene_reliable": true, "field_event_id": "S4:DOORS3:T23", "field_profile": "B", "field_date": "2024-06-10", "field_distance_km": 743.7, "field_date_gap_days": 439, "field_conc_items_km2": 102.37, "conc_A_items_km2": null, "conc_A_lo80": null, "conc_A_hi80": null, "conc_A_lo95": null, "conc_A_hi95": null, "conc_A_status": "unavailable", "conc_A_status_ru": "концентрация недоступна", "conc_A_reasons": "вне бассейна профиля: nw_atlantic_subtropical", "conc_A_model": "conc-A-c6bce5631d2b", "conc_B_items_km2": null, "conc_B_lo80": null, "conc_B_hi80": null, "conc_B_lo95": null, "conc_B_hi95": null, "conc_B_status": "unavailable", "conc_B_status_ru": "концентрация недоступна", "conc_B_reasons": "вне бассейна профиля: black_sea", "conc_B_model": "conc-B-c6bce5631d2b"}}, {"type": "Feature", "geometry": {"type": "Polygon", "coordinates": [[[44.602967490435525, 48.62035576798287], [44.60296819595949, 48.620265808024136], [44.60283250837987, 48.62026534018769], [44.602833214141455, 48.620175380229], [44.60296890147997, 48.620175848063965], [44.602969606996965, 48.62008588810239], [44.60324098120224, 48.620086823289846], [44.60324027616745, 48.620176783254365], [44.603375963516406, 48.62017725060978], [44.603375258719225, 48.620267210574355], [44.603239571129166, 48.62026674321746], [44.6032388660874, 48.62035670317915], [44.602967490435525, 48.62035576798287]]]}, "properties": {"zone_id": "volgograd-2025-08-23-003", "aoi": "volgograd", "date": "2025-08-23", "scene_id": "S2A_MSIL2A_20250823T080021_R035_T38UMV_20250823T111116", "scene_datetime_utc": "2025-08-23T08:00:21.024000+00:00", "detection_status": "detected", "detection_status_ru": "обнаружено", "lon": 44.6031, "lat": 48.62022, "n_pixels": 2, "zone_area_km2": 0.0008, "cover_m2": 33.7, "p_mean": 0.965, "p_max": 1.0, "cover_m2_km2": 42125.0, "h3": "882d481495fffff", "valid_frac_scene": 1.0, "wind_ms": 5.9, "sea": "спокойное", "scene_reliable": true, "field_event_id": "S4:DOORS3:T23", "field_profile": "B", "field_date": "2024-06-10", "field_distance_km": 737.6, "field_date_gap_days": 439, "field_conc_items_km2": 102.37, "conc_A_items_km2": null, "conc_A_lo80": null, "conc_A_hi80": null, "conc_A_lo95": null, "conc_A_hi95": null, "conc_A_status": "unavailable", "conc_A_status_ru": "концентрация недоступна", "conc_A_reasons": "вне бассейна профиля: nw_atlantic_subtropical", "conc_A_model": "conc-A-c6bce5631d2b", "conc_B_items_km2": null, "conc_B_lo80": null, "conc_B_hi80": null, "conc_B_lo95": null, "conc_B_hi95": null, "conc_B_status": "unavailable", "conc_B_status_ru": "концентрация недоступна", "conc_B_reasons": "вне бассейна профиля: black_sea", "conc_B_model": "conc-B-c6bce5631d2b"}}]}