{"type": "FeatureCollection", "features": [{"type": "Feature", "geometry": {"type": "Polygon", "coordinates": [[[39.71453674294558, 43.56951847998873], [39.71453567854311, 43.569428445096236], [39.71441185168274, 43.56942921895774], [39.7144107874696, 43.56933918406138], [39.714534614145556, 43.56933841020228], [39.71453354975293, 43.569248375306884], [39.71478226748267, 43.5693368620818], [39.714783332249056, 43.5694268969709], [39.714659505398544, 43.56942767110062], [39.71466056998545, 43.56951770599071], [39.71453674294558, 43.56951847998873]]]}, "properties": {"zone_id": "sochi-2025-11-02-001", "aoi": "sochi", "date": "2025-11-02", "scene_id": "S2C_MSIL2A_20251102T081121_R078_T37TEJ_20251102T111916", "scene_datetime_utc": "2025-11-02T08:11:21.025000+00:00", "detection_status": "detected", "detection_status_ru": "обнаружено", "lon": 39.7146, "lat": 43.56938, "n_pixels": 1, "zone_area_km2": 0.0005, "cover_m2": 4.7, "p_mean": 0.765, "p_max": 0.765, "cover_m2_km2": 9400.0, "h3": "882d568e4bfffff", "valid_frac_scene": 1.0, "wind_ms": 3.7, "sea": "спокойное", "scene_reliable": true, "field_event_id": "S4:DOORS3:T17", "field_profile": "B", "field_date": "2024-06-04", "field_distance_km": 183.8, "field_date_gap_days": 516, "field_conc_items_km2": 89.61, "conc_A_items_km2": null, "conc_A_lo80": null, "conc_A_hi80": null, "conc_A_lo95": null, "conc_A_hi95": null, "conc_A_status": "unavailable", "conc_A_status_ru": "концентрация недоступна", "conc_A_reasons": "вне бассейна профиля: nw_atlantic_subtropical", "conc_A_model": "conc-A-c6bce5631d2b", "conc_B_items_km2": 666.4, "conc_B_lo80": 142.3, "conc_B_hi80": 2238.6, "conc_B_lo95": 88.8, "conc_B_hi95": 4191.5, "conc_B_status": "research_estimate", "conc_B_status_ru": "исследовательская оценка", "conc_B_reasons": "ближайшее полевое измерение в 184 км (> 60 км); месяц 11 вне месяцев обучения [6]; log_dist_coast_km = 0.9 вне диапазона обучения [1.7; 5.0]", "conc_B_model": "conc-B-c6bce5631d2b"}}, {"type": "Feature", "geometry": {"type": "Polygon", "coordinates": [[[39.74142048435758, 43.56034313385022], [39.741419380263714, 43.560253099350426], [39.74129557293516, 43.560253902194766], [39.74129446903072, 43.56016386769103], [39.74141827617496, 43.560163064849206], [39.74141717209132, 43.56007303034653], [39.74166589044808, 43.56016145876337], [39.74166699490549, 43.56025149325957], [39.74154318758716, 43.56025229637203], [39.74154429186536, 43.560342330869304], [39.74142048435758, 43.56034313385022]]]}, "properties": {"zone_id": "sochi-2025-11-02-002", "aoi": "sochi", "date": "2025-11-02", "scene_id": "S2C_MSIL2A_20251102T081121_R078_T37TEJ_20251102T111916", "scene_datetime_utc": "2025-11-02T08:11:21.025000+00:00", "detection_status": "detected", "detection_status_ru": "обнаружено", "lon": 39.74148, "lat": 43.56021, "n_pixels": 1, "zone_area_km2": 0.0005, "cover_m2": 5.5, "p_mean": 0.933, "p_max": 0.933, "cover_m2_km2": 11000.0, "h3": "882d568e01fffff", "valid_frac_scene": 1.0, "wind_ms": 3.7, "sea": "спокойное", "scene_reliable": true, "field_event_id": "S4:DOORS3:T17", "field_profile": "B", "field_date": "2024-06-04", "field_distance_km": 184.2, "field_date_gap_days": 516, "field_conc_items_km2": 89.61, "conc_A_items_km2": null, "conc_A_lo80": null, "conc_A_hi80": null, "conc_A_lo95": null, "conc_A_hi95": null, "conc_A_status": "unavailable", "conc_A_status_ru": "концентрация недоступна", "conc_A_reasons": "вне бассейна профиля: nw_atlantic_subtropical", "conc_A_model": "conc-A-c6bce5631d2b", "conc_B_items_km2": 666.4, "conc_B_lo80": 142.3, "conc_B_hi80": 2238.6, "conc_B_lo95": 88.8, "conc_B_hi95": 4191.5, "conc_B_status": "research_estimate", "conc_B_status_ru": "исследовательская оценка", "conc_B_reasons": "ближайшее полевое измерение в 184 км (> 60 км); месяц 11 вне месяцев обучения [6]; log_dist_coast_km = 0.9 вне диапазона обучения [1.7; 5.0]", "conc_B_model": "conc-B-c6bce5631d2b"}}, {"type": "Feature", "geometry": {"type": "Polygon", "coordinates": [[[39.72853362678409, 43.55952556426072], [39.72853254191073, 43.559435529487736], [39.728408735898384, 43.559436318365464], [39.72840765121437, 43.55934628358859], [39.72853145704239, 43.559345494713334], [39.72853037217908, 43.55925545993747], [39.728777983451415, 43.559253881789715], [39.728779068683366, 43.55934391656066], [39.72890287449632, 43.55934312728324], [39.72890395991763, 43.559433162050254], [39.728780153920354, 43.55943395133013], [39.72878123916236, 43.559523986098185], [39.72853362678409, 43.55952556426072]]]}, "properties": {"zone_id": "sochi-2025-11-02-003", "aoi": "sochi", "date": "2025-11-02", "scene_id": "S2C_MSIL2A_20251102T081121_R078_T37TEJ_20251102T111916", "scene_datetime_utc": "2025-11-02T08:11:21.025000+00:00", "detection_status": "detected", "detection_status_ru": "обнаружено", "lon": 39.72866, "lat": 43.55939, "n_pixels": 2, "zone_area_km2": 0.0008, "cover_m2": 8.6, "p_mean": 0.963, "p_max": 0.965, "cover_m2_km2": 10750.0, "h3": "882d568e47fffff", "valid_frac_scene": 1.0, "wind_ms": 3.7, "sea": "спокойное", "scene_reliable": true, "field_event_id": "S4:DOORS3:T17", "field_profile": "B", "field_date": "2024-06-04", "field_distance_km": 183.5, "field_date_gap_days": 516, "field_conc_items_km2": 89.61, "conc_A_items_km2": null, "conc_A_lo80": null, "conc_A_hi80": null, "conc_A_lo95": null, "conc_A_hi95": null, "conc_A_status": "unavailable", "conc_A_status_ru": "концентрация недоступна", "conc_A_reasons": "вне бассейна профиля: nw_atlantic_subtropical", "conc_A_model": "conc-A-c6bce5631d2b", "conc_B_items_km2": 621.6, "conc_B_lo80": 132.7, "conc_B_hi80": 2088.3, "conc_B_lo95": 82.8, "conc_B_hi95": 3910.2, "conc_B_status": "research_estimate", "conc_B_status_ru": "исследовательская оценка", "conc_B_reasons": "ближайшее полевое измерение в 184 км (> 60 км); месяц 11 вне месяцев обучения [6]; log_dist_coast_km = 1.0 вне диапазона обучения [1.7; 5.0]", "conc_B_model": "conc-B-c6bce5631d2b"}}, {"type": "Feature", "geometry": {"type": "Polygon", "coordinates": [[[39.730489506603476, 43.55744212471107], [39.73048841889681, 43.557352089944374], [39.73036461720412, 43.5573528809101], [39.730363529686784, 43.55726284613947], [39.73048733119518, 43.55726205517623], [39.73048624349858, 43.55717202040665], [39.73073384613166, 43.55717043808297], [39.73073493419686, 43.55726047284762], [39.73085873569015, 43.557259681482236], [39.73085982394468, 43.55734971624297], [39.730736022267095, 43.55735050761081], [39.73073711034237, 43.55744054237257], [39.730489506603476, 43.55744212471107]]]}, "properties": {"zone_id": "sochi-2025-11-02-004", "aoi": "sochi", "date": "2025-11-02", "scene_id": "S2C_MSIL2A_20251102T081121_R078_T37TEJ_20251102T111916", "scene_datetime_utc": "2025-11-02T08:11:21.025000+00:00", "detection_status": "detected", "detection_status_ru": "обнаружено", "lon": 39.73061, "lat": 43.55731, "n_pixels": 2, "zone_area_km2": 0.0008, "cover_m2": 13.3, "p_mean": 0.947, "p_max": 0.961, "cover_m2_km2": 16625.0, "h3": "882d568e0dfffff", "valid_frac_scene": 1.0, "wind_ms": 3.7, "sea": "спокойное", "scene_reliable": true, "field_event_id": "S4:DOORS3:T17", "field_profile": "B", "field_date": "2024-06-04", "field_distance_km": 183.4, "field_date_gap_days": 516, "field_conc_items_km2": 89.61, "conc_A_items_km2": null, "conc_A_lo80": null, "conc_A_hi80": null, "conc_A_lo95": null, "conc_A_hi95": null, "conc_A_status": "unavailable", "conc_A_status_ru": "концентрация недоступна", "conc_A_reasons": "вне бассейна профиля: nw_atlantic_subtropical", "conc_A_model": "conc-A-c6bce5631d2b", "conc_B_items_km2": 621.6, "conc_B_lo80": 132.7, "conc_B_hi80": 2088.3, "conc_B_lo95": 82.8, "conc_B_hi95": 3910.2, "conc_B_status": "research_estimate", "conc_B_status_ru": "исследовательская оценка", "conc_B_reasons": "ближайшее полевое измерение в 183 км (> 60 км); месяц 11 вне месяцев обучения [6]; log_dist_coast_km = 1.0 вне диапазона обучения [1.7; 5.0]", "conc_B_model": "conc-B-c6bce5631d2b"}}, {"type": "Feature", "geometry": {"type": "Polygon", "coordinates": [[[39.737794906988015, 43.55748525494837], [39.73779380840247, 43.55739522032971], [39.73767000682409, 43.55739601920649], [39.73766781003686, 43.557215949959875], [39.73791431369675, 43.55712431746177], [39.737915412451336, 43.557214352082255], [39.73803921365094, 43.55721355294238], [39.738041411543975, 43.557393622174004], [39.737794906988015, 43.55748525494837]]]}, "properties": {"zone_id": "sochi-2025-11-02-005", "aoi": "sochi", "date": "2025-11-02", "scene_id": "S2C_MSIL2A_20251102T081121_R078_T37TEJ_20251102T111916", "scene_datetime_utc": "2025-11-02T08:11:21.025000+00:00", "detection_status": "detected", "detection_status_ru": "обнаружено", "lon": 39.73785, "lat": 43.5573, "n_pixels": 2, "zone_area_km2": 0.0008, "cover_m2": 5.5, "p_mean": 0.759, "p_max": 0.835, "cover_m2_km2": 6875.0, "h3": "882d568e01fffff", "valid_frac_scene": 1.0, "wind_ms": 3.7, "sea": "спокойное", "scene_reliable": true, "field_event_id": "S4:DOORS3:T17", "field_profile": "B", "field_date": "2024-06-04", "field_distance_km": 183.8, "field_date_gap_days": 516, "field_conc_items_km2": 89.61, "conc_A_items_km2": null, "conc_A_lo80": null, "conc_A_hi80": null, "conc_A_lo95": null, "conc_A_hi95": null, "conc_A_status": "unavailable", "conc_A_status_ru": "концентрация недоступна", "conc_A_reasons": "вне бассейна профиля: nw_atlantic_subtropical", "conc_A_model": "conc-A-c6bce5631d2b", "conc_B_items_km2": 621.6, "conc_B_lo80": 132.7, "conc_B_hi80": 2088.3, "conc_B_lo95": 82.8, "conc_B_hi95": 3910.2, "conc_B_status": "research_estimate", "conc_B_status_ru": "исследовательская оценка", "conc_B_reasons": "ближайшее полевое измерение в 184 км (> 60 км); месяц 11 вне месяцев обучения [6]; log_dist_coast_km = 1.0 вне диапазона обучения [1.7; 5.0]", "conc_B_model": "conc-B-c6bce5631d2b"}}, {"type": "Feature", "geometry": {"type": "Polygon", "coordinates": [[[39.753942171834886, 43.55170727986035], [39.75394104943354, 43.5516172454813], [39.75381726013786, 43.551618061756905], [39.75381613792595, 43.55152802737387], [39.75393992703739, 43.55152721110081], [39.75393880464644, 43.551437176718885], [39.75418750524468, 43.551525578152656], [39.75418862800931, 43.551615612528046], [39.75406483872403, 43.55161642907168], [39.754065961309614, 43.55170646344818], [39.753942171834886, 43.55170727986035]]]}, "properties": {"zone_id": "sochi-2025-11-02-006", "aoi": "sochi", "date": "2025-11-02", "scene_id": "S2C_MSIL2A_20251102T081121_R078_T37TEJ_20251102T111916", "scene_datetime_utc": "2025-11-02T08:11:21.025000+00:00", "detection_status": "detected", "detection_status_ru": "обнаружено", "lon": 39.754, "lat": 43.55157, "n_pixels": 1, "zone_area_km2": 0.0005, "cover_m2": 3.9, "p_mean": 0.576, "p_max": 0.576, "cover_m2_km2": 7800.0, "h3": "882d568e07fffff", "valid_frac_scene": 1.0, "wind_ms": 3.7, "sea": "спокойное", "scene_reliable": true, "field_event_id": "S4:DOORS3:T17", "field_profile": "B", "field_date": "2024-06-04", "field_distance_km": 184.0, "field_date_gap_days": 516, "field_conc_items_km2": 89.61, "conc_A_items_km2": null, "conc_A_lo80": null, "conc_A_hi80": null, "conc_A_lo95": null, "conc_A_hi95": null, "conc_A_status": "unavailable", "conc_A_status_ru": "концентрация недоступна", "conc_A_reasons": "вне бассейна профиля: nw_atlantic_subtropical", "conc_A_model": "conc-A-c6bce5631d2b", "conc_B_items_km2": 666.4, "conc_B_lo80": 142.3, "conc_B_hi80": 2238.6, "conc_B_lo95": 88.8, "conc_B_hi95": 4191.5, "conc_B_status": "research_estimate", "conc_B_status_ru": "исследовательская оценка", "conc_B_reasons": "ближайшее полевое измерение в 184 км (> 60 км); месяц 11 вне месяцев обучения [6]; log_dist_coast_km = 0.9 вне диапазона обучения [1.7; 5.0]", "conc_B_model": "conc-B-c6bce5631d2b"}}, {"type": "Feature", "geometry": {"type": "Polygon", "coordinates": [[[39.76532355858529, 43.541276844633614], [39.76532241965593, 43.541186810327254], [39.765198652029284, 43.541187638768356], [39.76519751328936, 43.54109760445797], [39.765321280731854, 43.54109677601945], [39.76532014181305, 43.5410067417102], [39.76556767631396, 43.54100508443645], [39.76556881560104, 43.54109511874052], [39.76569258302773, 43.54109428990011], [39.76569372250423, 43.541184324200145], [39.7655699548934, 43.54118515304314], [39.76557109419104, 43.54127518734432], [39.76532355858529, 43.541276844633614]]]}, "properties": {"zone_id": "sochi-2025-11-02-007", "aoi": "sochi", "date": "2025-11-02", "scene_id": "S2C_MSIL2A_20251102T081121_R078_T37TEJ_20251102T111916", "scene_datetime_utc": "2025-11-02T08:11:21.025000+00:00", "detection_status": "detected", "detection_status_ru": "обнаружено", "lon": 39.76545, "lat": 43.54114, "n_pixels": 2, "zone_area_km2": 0.0008, "cover_m2": 10.6, "p_mean": 0.894, "p_max": 0.953, "cover_m2_km2": 13250.0, "h3": "882d568e23fffff", "valid_frac_scene": 1.0, "wind_ms": 3.7, "sea": "спокойное", "scene_reliable": true, "field_event_id": "S4:DOORS3:T17", "field_profile": "B", "field_date": "2024-06-04", "field_distance_km": 183.7, "field_date_gap_days": 516, "field_conc_items_km2": 89.61, "conc_A_items_km2": null, "conc_A_lo80": null, "conc_A_hi80": null, "conc_A_lo95": null, "conc_A_hi95": null, "conc_A_status": "unavailable", "conc_A_status_ru": "концентрация недоступна", "conc_A_reasons": "вне бассейна профиля: nw_atlantic_subtropical", "conc_A_model": "conc-A-c6bce5631d2b", "conc_B_items_km2": 621.6, "conc_B_lo80": 132.7, "conc_B_hi80": 2088.3, "conc_B_lo95": 82.8, "conc_B_hi95": 3910.2, "conc_B_status": "research_estimate", "conc_B_status_ru": "исследовательская оценка", "conc_B_reasons": "ближайшее полевое измерение в 184 км (> 60 км); месяц 11 вне месяцев обучения [6]; log_dist_coast_km = 1.0 вне диапазона обучения [1.7; 5.0]", "conc_B_model": "conc-B-c6bce5631d2b"}}, {"type": "Feature", "geometry": {"type": "Polygon", "coordinates": [[[39.66869042874798, 43.51108841844856], [39.66868943466564, 43.51099838176106], [39.66856572612933, 43.51099910519859], [39.66856473223546, 43.510909068507395], [39.6686884405879, 43.510908345072124], [39.66868744651476, 43.51081830838175], [39.66881115467872, 43.51081758481491], [39.66881016042631, 43.51072754812536], [39.66905857099285, 43.510816137279726], [39.66905956561761, 43.510906173963306], [39.668935857278974, 43.510906897800076], [39.66893685172447, 43.51099693448449], [39.66869042874798, 43.51108841844856]]]}, "properties": {"zone_id": "sochi-2025-11-02-008", "aoi": "sochi", "date": "2025-11-02", "scene_id": "S2C_MSIL2A_20251102T081121_R078_T37TEJ_20251102T111916", "scene_datetime_utc": "2025-11-02T08:11:21.025000+00:00", "detection_status": "detected", "detection_status_ru": "обнаружено", "lon": 39.66881, "lat": 43.51091, "n_pixels": 2, "zone_area_km2": 0.0008, "cover_m2": 7.5, "p_mean": 0.792, "p_max": 0.89, "cover_m2_km2": 9375.0, "h3": "882d5681e7fffff", "valid_frac_scene": 1.0, "wind_ms": 3.7, "sea": "спокойное", "scene_reliable": true, "field_event_id": "S4:DOORS3:T17", "field_profile": "B", "field_date": "2024-06-04", "field_distance_km": 176.3, "field_date_gap_days": 516, "field_conc_items_km2": 89.61, "conc_A_items_km2": null, "conc_A_lo80": null, "conc_A_hi80": null, "conc_A_lo95": null, "conc_A_hi95": null, "conc_A_status": "unavailable", "conc_A_status_ru": "концентрация недоступна", "conc_A_reasons": "вне бассейна профиля: nw_atlantic_subtropical", "conc_A_model": "conc-A-c6bce5631d2b", "conc_B_items_km2": 396.2, "conc_B_lo80": 84.3, "conc_B_hi80": 1332.1, "conc_B_lo95": 52.4, "conc_B_hi95": 2494.5, "conc_B_status": "research_estimate", "conc_B_status_ru": "исследовательская оценка", "conc_B_reasons": "ближайшее полевое измерение в 176 км (> 60 км); месяц 11 вне месяцев обучения [6]", "conc_B_model": "conc-B-c6bce5631d2b"}}, {"type": "Feature", "geometry": {"type": "Polygon", "coordinates": [[[39.88794928016563, 43.4204533019128], [39.88794796432207, 43.42036326848218], [39.88782444690687, 43.42036422754856], [39.88782313125239, 43.42027419411349], [39.88794664848461, 43.42027323505009], [39.887945332653224, 43.420183201616574], [39.8881936829308, 43.420271316523156], [39.88819499913423, 43.42036134994922], [39.888071481731195, 43.4203623092824], [39.88807279775773, 43.42045234271002], [39.88794928016563, 43.4204533019128]]]}, "properties": {"zone_id": "sochi-2025-11-02-009", "aoi": "sochi", "date": "2025-11-02", "scene_id": "S2C_MSIL2A_20251102T081121_R078_T37TEJ_20251102T111916", "scene_datetime_utc": "2025-11-02T08:11:21.025000+00:00", "detection_status": "detected", "detection_status_ru": "обнаружено", "lon": 39.88801, "lat": 43.42032, "n_pixels": 1, "zone_area_km2": 0.0005, "cover_m2": 6.7, "p_mean": 0.678, "p_max": 0.678, "cover_m2_km2": 13400.0, "h3": "882d5612a9fffff", "valid_frac_scene": 1.0, "wind_ms": 3.7, "sea": "спокойное", "scene_reliable": true, "field_event_id": "S4:DOORS3:T17", "field_profile": "B", "field_date": "2024-06-04", "field_distance_km": 179.7, "field_date_gap_days": 516, "field_conc_items_km2": 89.61, "conc_A_items_km2": null, "conc_A_lo80": null, "conc_A_hi80": null, "conc_A_lo95": null, "conc_A_hi95": null, "conc_A_status": "unavailable", "conc_A_status_ru": "концентрация недоступна", "conc_A_reasons": "вне бассейна профиля: nw_atlantic_subtropical", "conc_A_model": "conc-A-c6bce5631d2b", "conc_B_items_km2": 539.0, "conc_B_lo80": 114.9, "conc_B_hi80": 1811.1, "conc_B_lo95": 71.7, "conc_B_hi95": 3391.2, "conc_B_status": "research_estimate", "conc_B_status_ru": "исследовательская оценка", "conc_B_reasons": "ближайшее полевое измерение в 180 км (> 60 км); месяц 11 вне месяцев обучения [6]", "conc_B_model": "conc-B-c6bce5631d2b"}}, {"type": "Feature", "geometry": {"type": "Polygon", "coordinates": [[[39.93604041293121, 43.39881942683988], [39.936039026874965, 43.39872939427256], [39.935915555066394, 43.398730404881306], [39.935914169199314, 43.398640372309394], [39.93603764082513, 43.39863936170381], [39.9360362547817, 43.3985493291336], [39.936284584057525, 43.39863734009278], [39.936285970472895, 43.398727372655216], [39.936162498677135, 43.39872838353053], [39.93616388491615, 43.39881841609468], [39.93604041293121, 43.39881942683988]]]}, "properties": {"zone_id": "sochi-2025-11-02-010", "aoi": "sochi", "date": "2025-11-02", "scene_id": "S2C_MSIL2A_20251102T081121_R078_T37TEJ_20251102T111916", "scene_datetime_utc": "2025-11-02T08:11:21.025000+00:00", "detection_status": "detected", "detection_status_ru": "обнаружено", "lon": 39.9361, "lat": 43.39868, "n_pixels": 1, "zone_area_km2": 0.0005, "cover_m2": 4.7, "p_mean": 0.965, "p_max": 0.965, "cover_m2_km2": 9400.0, "h3": "882d5610ebfffff", "valid_frac_scene": 1.0, "wind_ms": 3.7, "sea": "спокойное", "scene_reliable": true, "field_event_id": "S4:DOORS3:T23", "field_profile": "B", "field_date": "2024-06-10", "field_distance_km": 176.3, "field_date_gap_days": 510, "field_conc_items_km2": 102.37, "conc_A_items_km2": null, "conc_A_lo80": null, "conc_A_hi80": null, "conc_A_lo95": null, "conc_A_hi95": null, "conc_A_status": "unavailable", "conc_A_status_ru": "концентрация недоступна", "conc_A_reasons": "вне бассейна профиля: nw_atlantic_subtropical", "conc_A_model": "conc-A-c6bce5631d2b", "conc_B_items_km2": 666.4, "conc_B_lo80": 142.3, "conc_B_hi80": 2238.6, "conc_B_lo95": 88.8, "conc_B_hi95": 4191.5, "conc_B_status": "research_estimate", "conc_B_status_ru": "исследовательская оценка", "conc_B_reasons": "ближайшее полевое измерение в 176 км (> 60 км); месяц 11 вне месяцев обучения [6]; log_dist_coast_km = 0.9 вне диапазона обучения [1.7; 5.0]", "conc_B_model": "conc-B-c6bce5631d2b"}}, {"type": "Feature", "geometry": {"type": "Polygon", "coordinates": [[[39.95678525353639, 43.39090395909108], [39.956783837156074, 43.39081392693819], [39.95666038215676, 43.390814959794334], [39.95665754978115, 43.390634895477746], [39.95690304249911, 43.390542797491115], [39.95690445904246, 43.390632829645135], [39.9570279136633, 43.39063179652896], [39.95703074713504, 43.390811860826176], [39.95678525353639, 43.39090395909108]]]}, "properties": {"zone_id": "sochi-2025-11-02-011", "aoi": "sochi", "date": "2025-11-02", "scene_id": "S2C_MSIL2A_20251102T081121_R078_T37TEJ_20251102T111916", "scene_datetime_utc": "2025-11-02T08:11:21.025000+00:00", "detection_status": "detected", "detection_status_ru": "обнаружено", "lon": 39.95684, "lat": 43.39072, "n_pixels": 2, "zone_area_km2": 0.0008, "cover_m2": 7.8, "p_mean": 0.971, "p_max": 0.976, "cover_m2_km2": 9750.0, "h3": "882d5610abfffff", "valid_frac_scene": 1.0, "wind_ms": 3.7, "sea": "спокойное", "scene_reliable": true, "field_event_id": "S4:DOORS3:T23", "field_profile": "B", "field_date": "2024-06-10", "field_distance_km": 174.5, "field_date_gap_days": 510, "field_conc_items_km2": 102.37, "conc_A_items_km2": null, "conc_A_lo80": null, "conc_A_hi80": null, "conc_A_lo95": null, "conc_A_hi95": null, "conc_A_status": "unavailable", "conc_A_status_ru": "концентрация недоступна", "conc_A_reasons": "вне бассейна профиля: nw_atlantic_subtropical", "conc_A_model": "conc-A-c6bce5631d2b", "conc_B_items_km2": 621.6, "conc_B_lo80": 132.7, "conc_B_hi80": 2088.3, "conc_B_lo95": 82.8, "conc_B_hi95": 3910.2, "conc_B_status": "research_estimate", "conc_B_status_ru": "исследовательская оценка", "conc_B_reasons": "ближайшее полевое измерение в 174 км (> 60 км); месяц 11 вне месяцев обучения [6]; log_dist_coast_km = 1.0 вне диапазона обучения [1.7; 5.0]", "conc_B_model": "conc-B-c6bce5631d2b"}}, {"type": "Feature", "geometry": {"type": "Polygon", "coordinates": [[[39.95454663205409, 43.3820083039332], [39.954545219426095, 43.381918271580965], [39.95442178239774, 43.381919301852925], [39.95441895752654, 43.38173923713765], [39.95466441805529, 43.38164714411999], [39.9546658308463, 43.38173717647338], [39.95478926749639, 43.38173614594143], [39.95479209346321, 43.3819162106374], [39.95454663205409, 43.3820083039332]]]}, "properties": {"zone_id": "sochi-2025-11-02-012", "aoi": "sochi", "date": "2025-11-02", "scene_id": "S2C_MSIL2A_20251102T081121_R078_T37TEJ_20251102T111916", "scene_datetime_utc": "2025-11-02T08:11:21.025000+00:00", "detection_status": "detected", "detection_status_ru": "обнаружено", "lon": 39.95461, "lat": 43.38183, "n_pixels": 2, "zone_area_km2": 0.0008, "cover_m2": 12.5, "p_mean": 0.745, "p_max": 0.925, "cover_m2_km2": 15625.0, "h3": "882d5610adfffff", "valid_frac_scene": 1.0, "wind_ms": 3.7, "sea": "спокойное", "scene_reliable": true, "field_event_id": "S4:DOORS3:T23", "field_profile": "B", "field_date": "2024-06-10", "field_distance_km": 174.0, "field_date_gap_days": 510, "field_conc_items_km2": 102.37, "conc_A_items_km2": null, "conc_A_lo80": null, "conc_A_hi80": null, "conc_A_lo95": null, "conc_A_hi95": null, "conc_A_status": "unavailable", "conc_A_status_ru": "концентрация недоступна", "conc_A_reasons": "вне бассейна профиля: nw_atlantic_subtropical", "conc_A_model": "conc-A-c6bce5631d2b", "conc_B_items_km2": 621.6, "conc_B_lo80": 132.7, "conc_B_hi80": 2088.3, "conc_B_lo95": 82.8, "conc_B_hi95": 3910.2, "conc_B_status": "research_estimate", "conc_B_status_ru": "исследовательская оценка", "conc_B_reasons": "ближайшее полевое измерение в 174 км (> 60 км); месяц 11 вне месяцев обучения [6]; log_dist_coast_km = 1.0 вне диапазона обучения [1.7; 5.0]", "conc_B_model": "conc-B-c6bce5631d2b"}}]}