{"type": "FeatureCollection", "features": [{"type": "Feature", "geometry": {"type": "Polygon", "coordinates": [[[37.88089803102343, 44.67475575323474], [37.88089976351282, 44.67466574601565], [37.880773620638145, 44.67466450975899], [37.88077708598295, 44.67448449532405], [37.880903228467254, 44.67448573157299], [37.880904960932305, 44.67439572434946], [37.881157245534915, 44.67439819642174], [37.881155513460236, 44.67448820365299], [37.881281655968884, 44.67448943948405], [37.88127819218555, 44.67466945394986], [37.88115204928652, 44.67466821811108], [37.88115031718749, 44.6747582253379], [37.88089803102343, 44.67475575323474]]]}, "properties": {"zone_id": "novorossiysk-2025-04-19-001", "aoi": "novorossiysk", "date": "2025-04-19", "scene_id": "S2C_MSIL2A_20250419T081631_R121_T37TCK_20250419T140714", "scene_datetime_utc": "2025-04-19T08:16:31.024000+00:00", "detection_status": "detected", "detection_status_ru": "обнаружено", "lon": 37.88103, "lat": 44.67458, "n_pixels": 4, "zone_area_km2": 0.0012, "cover_m2": 14.9, "p_mean": 0.975, "p_max": 1.0, "cover_m2_km2": 12416.7, "h3": "882d721051fffff", "valid_frac_scene": 1.0, "wind_ms": 1.8, "sea": "спокойное", "scene_reliable": true, "field_event_id": "S4:DOORS3:T13", "field_profile": "B", "field_date": "2024-06-04", "field_distance_km": 257.9, "field_date_gap_days": 319, "field_conc_items_km2": 263.57, "conc_A_items_km2": null, "conc_A_lo80": null, "conc_A_hi80": null, "conc_A_lo95": null, "conc_A_hi95": null, "conc_A_status": "unavailable", "conc_A_status_ru": "концентрация недоступна", "conc_A_reasons": "вне бассейна профиля: nw_atlantic_subtropical", "conc_A_model": "conc-A-c6bce5631d2b", "conc_B_items_km2": 901.4, "conc_B_lo80": 192.7, "conc_B_hi80": 3027.3, "conc_B_lo95": 120.4, "conc_B_hi95": 5668.0, "conc_B_status": "research_estimate", "conc_B_status_ru": "исследовательская оценка", "conc_B_reasons": "ближайшее полевое измерение в 258 км (> 60 км); месяц 4 вне месяцев обучения [6]; log_dist_coast_km = 0.0 вне диапазона обучения [1.7; 5.0]", "conc_B_model": "conc-B-c6bce5631d2b"}}, {"type": "Feature", "geometry": {"type": "Polygon", "coordinates": [[[37.750144753106376, 44.64747249032539], [37.75014668614667, 44.64738248692873], [37.75002060837672, 44.64738110691897], [37.75002254160284, 44.64729110352513], [37.75027662958937, 44.64720385999291], [37.75027469676205, 44.64729386339686], [37.75040077435523, 44.64729524312402], [37.750398841713725, 44.64738524653079], [37.75027276392567, 44.64738386679934], [37.75027083108024, 44.64747387020031], [37.750144753106376, 44.64747249032539]]]}, "properties": {"zone_id": "novorossiysk-2025-04-19-002", "aoi": "novorossiysk", "date": "2025-04-19", "scene_id": "S2C_MSIL2A_20250419T081631_R121_T37TCK_20250419T140714", "scene_datetime_utc": "2025-04-19T08:16:31.024000+00:00", "detection_status": "detected", "detection_status_ru": "обнаружено", "lon": 37.75021, "lat": 44.64734, "n_pixels": 1, "zone_area_km2": 0.0005, "cover_m2": 8.6, "p_mean": 0.988, "p_max": 0.988, "cover_m2_km2": 17200.0, "h3": "882d728985fffff", "valid_frac_scene": 1.0, "wind_ms": 1.8, "sea": "спокойное", "scene_reliable": true, "field_event_id": "S4:DOORS3:T12", "field_profile": "B", "field_date": "2024-06-04", "field_distance_km": 252.4, "field_date_gap_days": 319, "field_conc_items_km2": 48.97, "conc_A_items_km2": null, "conc_A_lo80": null, "conc_A_hi80": null, "conc_A_lo95": null, "conc_A_hi95": null, "conc_A_status": "unavailable", "conc_A_status_ru": "концентрация недоступна", "conc_A_reasons": "вне бассейна профиля: nw_atlantic_subtropical", "conc_A_model": "conc-A-c6bce5631d2b", "conc_B_items_km2": 669.0, "conc_B_lo80": 142.9, "conc_B_hi80": 2247.6, "conc_B_lo95": 89.2, "conc_B_hi95": 4208.4, "conc_B_status": "research_estimate", "conc_B_status_ru": "исследовательская оценка", "conc_B_reasons": "ближайшее полевое измерение в 252 км (> 60 км); месяц 4 вне месяцев обучения [6]; log_dist_coast_km = 0.8 вне диапазона обучения [1.7; 5.0]", "conc_B_model": "conc-B-c6bce5631d2b"}}, {"type": "Feature", "geometry": {"type": "Polygon", "coordinates": [[[37.917951576371635, 44.64297413273303], [37.91795324965073, 44.64288412389085], [37.917827174095386, 44.64288292922365], [37.91782884756151, 44.64279292038372], [37.91808267135886, 44.64270530072263], [37.91808099829031, 44.642795309571504], [37.91820707366646, 44.64279650395667], [37.91820540078494, 44.642886512807785], [37.91807932521392, 44.6428853184189], [37.918077652129696, 44.64297532726481], [37.917951576371635, 44.64297413273303]]]}, "properties": {"zone_id": "novorossiysk-2025-04-19-003", "aoi": "novorossiysk", "date": "2025-04-19", "scene_id": "S2C_MSIL2A_20250419T081631_R121_T37TCK_20250419T140714", "scene_datetime_utc": "2025-04-19T08:16:31.024000+00:00", "detection_status": "detected", "detection_status_ru": "обнаружено", "lon": 37.91802, "lat": 44.64284, "n_pixels": 1, "zone_area_km2": 0.0005, "cover_m2": 5.9, "p_mean": 0.953, "p_max": 0.953, "cover_m2_km2": 11800.0, "h3": "882d721035fffff", "valid_frac_scene": 1.0, "wind_ms": 1.8, "sea": "спокойное", "scene_reliable": true, "field_event_id": "S4:DOORS3:T13", "field_profile": "B", "field_date": "2024-06-04", "field_distance_km": 254.9, "field_date_gap_days": 319, "field_conc_items_km2": 263.57, "conc_A_items_km2": null, "conc_A_lo80": null, "conc_A_hi80": null, "conc_A_lo95": null, "conc_A_hi95": null, "conc_A_status": "unavailable", "conc_A_status_ru": "концентрация недоступна", "conc_A_reasons": "вне бассейна профиля: nw_atlantic_subtropical", "conc_A_model": "conc-A-c6bce5631d2b", "conc_B_items_km2": 669.0, "conc_B_lo80": 142.9, "conc_B_hi80": 2247.6, "conc_B_lo95": 89.2, "conc_B_hi95": 4208.4, "conc_B_status": "research_estimate", "conc_B_status_ru": "исследовательская оценка", "conc_B_reasons": "ближайшее полевое измерение в 255 км (> 60 км); месяц 4 вне месяцев обучения [6]; log_dist_coast_km = 0.8 вне диапазона обучения [1.7; 5.0]", "conc_B_model": "conc-B-c6bce5631d2b"}}, {"type": "Feature", "geometry": {"type": "Polygon", "coordinates": [[[37.91719847087668, 44.64278694497922], [37.917200145309316, 44.64269693615645], [37.916949669894535, 44.6426045362113], [37.91695134470121, 44.64251452739306], [37.91707741942221, 44.64251572301935], [37.91707909402619, 44.6424257141959], [37.917457317651646, 44.64242930022871], [37.917455643632266, 44.642519309063374], [37.91758171838463, 44.64252050413309], [37.917578370712086, 44.642700521805416], [37.917452295569994, 44.642699326728234], [37.917450621527095, 44.64278933555846], [37.91719847087668, 44.64278694497922]]]}, "properties": {"zone_id": "novorossiysk-2025-04-19-004", "aoi": "novorossiysk", "date": "2025-04-19", "scene_id": "S2C_MSIL2A_20250419T081631_R121_T37TCK_20250419T140714", "scene_datetime_utc": "2025-04-19T08:16:31.024000+00:00", "detection_status": "detected", "detection_status_ru": "обнаружено", "lon": 37.91729, "lat": 44.6426, "n_pixels": 5, "zone_area_km2": 0.0014, "cover_m2": 28.2, "p_mean": 0.715, "p_max": 0.867, "cover_m2_km2": 20142.9, "h3": "882d721035fffff", "valid_frac_scene": 1.0, "wind_ms": 1.8, "sea": "спокойное", "scene_reliable": true, "field_event_id": "S4:DOORS3:T13", "field_profile": "B", "field_date": "2024-06-04", "field_distance_km": 254.9, "field_date_gap_days": 319, "field_conc_items_km2": 263.57, "conc_A_items_km2": null, "conc_A_lo80": null, "conc_A_hi80": null, "conc_A_lo95": null, "conc_A_hi95": null, "conc_A_status": "unavailable", "conc_A_status_ru": "концентрация недоступна", "conc_A_reasons": "вне бассейна профиля: nw_atlantic_subtropical", "conc_A_model": "conc-A-c6bce5631d2b", "conc_B_items_km2": 669.0, "conc_B_lo80": 142.9, "conc_B_hi80": 2247.6, "conc_B_lo95": 89.2, "conc_B_hi95": 4208.4, "conc_B_status": "research_estimate", "conc_B_status_ru": "исследовательская оценка", "conc_B_reasons": "ближайшее полевое измерение в 255 км (> 60 км); месяц 4 вне месяцев обучения [6]; log_dist_coast_km = 0.8 вне диапазона обучения [1.7; 5.0]", "conc_B_model": "conc-B-c6bce5631d2b"}}, {"type": "Feature", "geometry": {"type": "Polygon", "coordinates": [[[37.65862675177785, 44.62401797685432], [37.65862882464102, 44.62392797634352], [37.65850280220723, 44.62392649591615], [37.658506948293635, 44.623746494899294], [37.658632970338225, 44.62374797531743], [37.65863504317227, 44.62365797480213], [37.658887086901345, 44.6236609352121], [37.6588850144565, 44.623750935736645], [37.659011036530195, 44.62375241573773], [37.65900896427025, 44.62384241626538], [37.65888294200196, 44.62384093625969], [37.658880869537704, 44.62393093678122], [37.65862675177785, 44.62401797685432]]]}, "properties": {"zone_id": "novorossiysk-2025-04-19-005", "aoi": "novorossiysk", "date": "2025-04-19", "scene_id": "S2C_MSIL2A_20250419T081631_R121_T37TCK_20250419T140714", "scene_datetime_utc": "2025-04-19T08:16:31.024000+00:00", "detection_status": "detected", "detection_status_ru": "обнаружено", "lon": 37.65874, "lat": 44.62382, "n_pixels": 3, "zone_area_km2": 0.001, "cover_m2": 23.9, "p_mean": 0.923, "p_max": 1.0, "cover_m2_km2": 23900.0, "h3": "882d72896bfffff", "valid_frac_scene": 1.0, "wind_ms": 1.8, "sea": "спокойное", "scene_reliable": true, "field_event_id": "S4:DOORS3:T12", "field_profile": "B", "field_date": "2024-06-04", "field_distance_km": 248.3, "field_date_gap_days": 319, "field_conc_items_km2": 48.97, "conc_A_items_km2": null, "conc_A_lo80": null, "conc_A_hi80": null, "conc_A_lo95": null, "conc_A_hi95": null, "conc_A_status": "unavailable", "conc_A_status_ru": "концентрация недоступна", "conc_A_reasons": "вне бассейна профиля: nw_atlantic_subtropical", "conc_A_model": "conc-A-c6bce5631d2b", "conc_B_items_km2": 511.9, "conc_B_lo80": 109.1, "conc_B_hi80": 1720.2, "conc_B_lo95": 68.0, "conc_B_hi95": 3221.1, "conc_B_status": "research_estimate", "conc_B_status_ru": "исследовательская оценка", "conc_B_reasons": "ближайшее полевое измерение в 248 км (> 60 км); месяц 4 вне месяцев обучения [6]", "conc_B_model": "conc-B-c6bce5631d2b"}}]}