{"type": "FeatureCollection", "features": [{"type": "Feature", "geometry": {"type": "Polygon", "coordinates": [[[37.87250057209556, 44.67188239935977], [37.872502317408674, 44.6717923923543], [37.87237618113, 44.67179114688534], [37.87237967212201, 44.67161113287775], [37.87263368900037, 44.67152361664705], [37.872631943906924, 44.67161362366084], [37.872758079811646, 44.67161486884346], [37.87275458999054, 44.671794882874366], [37.87250057209556, 44.67188239935977]]]}, "properties": {"zone_id": "novorossiysk-2025-04-29-001", "aoi": "novorossiysk", "date": "2025-04-29", "scene_id": "S2C_MSIL2A_20250429T081631_R121_T37TCK_20250429T135812", "scene_datetime_utc": "2025-04-29T08:16:31.025000+00:00", "detection_status": "detected", "detection_status_ru": "обнаружено", "lon": 37.87257, "lat": 44.6717, "n_pixels": 2, "zone_area_km2": 0.0008, "cover_m2": 11.8, "p_mean": 0.925, "p_max": 0.969, "cover_m2_km2": 14750.0, "h3": "882d72105dfffff", "valid_frac_scene": 1.0, "wind_ms": 7.6, "sea": "волнение", "scene_reliable": true, "field_event_id": "S4:DOORS3:T12", "field_profile": "B", "field_date": "2024-06-04", "field_distance_km": 257.4, "field_date_gap_days": 329, "field_conc_items_km2": 48.97, "conc_A_items_km2": null, "conc_A_lo80": null, "conc_A_hi80": null, "conc_A_lo95": null, "conc_A_hi95": null, "conc_A_status": "unavailable", "conc_A_status_ru": "концентрация недоступна", "conc_A_reasons": "вне бассейна профиля: nw_atlantic_subtropical", "conc_A_model": "conc-A-c6bce5631d2b", "conc_B_items_km2": 669.0, "conc_B_lo80": 142.9, "conc_B_hi80": 2247.6, "conc_B_lo95": 89.2, "conc_B_hi95": 4208.3, "conc_B_status": "research_estimate", "conc_B_status_ru": "исследовательская оценка", "conc_B_reasons": "ближайшее полевое измерение в 257 км (> 60 км); месяц 4 вне месяцев обучения [6]; log_dist_coast_km = 0.8 вне диапазона обучения [1.7; 5.0]", "conc_B_model": "conc-B-c6bce5631d2b"}}, {"type": "Feature", "geometry": {"type": "Polygon", "coordinates": [[[37.91782550062142, 44.64297293806212], [37.917827174095386, 44.64288292922365], [37.91770109854787, 44.64288173441734], [37.91770277220887, 44.64279172558113], [37.91795659618541, 44.642704106202046], [37.917958269440994, 44.64261409735545], [37.918084344419576, 44.64261529187229], [37.918086017472454, 44.64252528302047], [37.91833649440024, 44.64261768048858], [37.91833482172925, 44.64270768934635], [37.91820874654014, 44.64270649510408], [37.91820540078494, 44.642886512807785], [37.91807932521392, 44.6428853184189], [37.918077652129696, 44.64297532726481], [37.91782550062142, 44.64297293806212]]]}, "properties": {"zone_id": "novorossiysk-2025-04-29-002", "aoi": "novorossiysk", "date": "2025-04-29", "scene_id": "S2C_MSIL2A_20250429T081631_R121_T37TCK_20250429T135812", "scene_datetime_utc": "2025-04-29T08:16:31.025000+00:00", "detection_status": "detected", "detection_status_ru": "обнаружено", "lon": 37.91802, "lat": 44.64278, "n_pixels": 3, "zone_area_km2": 0.0013, "cover_m2": 13.3, "p_mean": 0.732, "p_max": 0.8, "cover_m2_km2": 10230.8, "h3": "882d721035fffff", "valid_frac_scene": 1.0, "wind_ms": 7.6, "sea": "волнение", "scene_reliable": true, "field_event_id": "S4:DOORS3:T13", "field_profile": "B", "field_date": "2024-06-04", "field_distance_km": 254.9, "field_date_gap_days": 329, "field_conc_items_km2": 263.57, "conc_A_items_km2": null, "conc_A_lo80": null, "conc_A_hi80": null, "conc_A_lo95": null, "conc_A_hi95": null, "conc_A_status": "unavailable", "conc_A_status_ru": "концентрация недоступна", "conc_A_reasons": "вне бассейна профиля: nw_atlantic_subtropical", "conc_A_model": "conc-A-c6bce5631d2b", "conc_B_items_km2": 669.0, "conc_B_lo80": 142.9, "conc_B_hi80": 2247.6, "conc_B_lo95": 89.2, "conc_B_hi95": 4208.3, "conc_B_status": "research_estimate", "conc_B_status_ru": "исследовательская оценка", "conc_B_reasons": "ближайшее полевое измерение в 255 км (> 60 км); месяц 4 вне месяцев обучения [6]; log_dist_coast_km = 0.8 вне диапазона обучения [1.7; 5.0]", "conc_B_model": "conc-B-c6bce5631d2b"}}, {"type": "Feature", "geometry": {"type": "Polygon", "coordinates": [[[37.91707239556323, 44.64278574948087], [37.917074070190736, 44.64269574066182], [37.91694799508001, 44.64269454502808], [37.91695134470121, 44.64251452739306], [37.91707741942221, 44.64251572301935], [37.91707909402619, 44.6424257141959], [37.917205168560166, 44.64242690967932], [37.917206842961434, 44.64233690085066], [37.917457317651646, 44.64242930022871], [37.917455643632266, 44.642519309063374], [37.91758171838463, 44.64252050413309], [37.91758004455228, 44.64261051296999], [37.91732622043573, 44.64269813151192], [37.91732454619797, 44.64278814033841], [37.91707239556323, 44.64278574948087]]]}, "properties": {"zone_id": "novorossiysk-2025-04-29-003", "aoi": "novorossiysk", "date": "2025-04-29", "scene_id": "S2C_MSIL2A_20250429T081631_R121_T37TCK_20250429T135812", "scene_datetime_utc": "2025-04-29T08:16:31.025000+00:00", "detection_status": "detected", "detection_status_ru": "обнаружено", "lon": 37.91724, "lat": 44.64258, "n_pixels": 6, "zone_area_km2": 0.0015, "cover_m2": 27.5, "p_mean": 0.886, "p_max": 0.992, "cover_m2_km2": 18333.3, "h3": "882d721035fffff", "valid_frac_scene": 1.0, "wind_ms": 7.6, "sea": "волнение", "scene_reliable": true, "field_event_id": "S4:DOORS3:T13", "field_profile": "B", "field_date": "2024-06-04", "field_distance_km": 254.9, "field_date_gap_days": 329, "field_conc_items_km2": 263.57, "conc_A_items_km2": null, "conc_A_lo80": null, "conc_A_hi80": null, "conc_A_lo95": null, "conc_A_hi95": null, "conc_A_status": "unavailable", "conc_A_status_ru": "концентрация недоступна", "conc_A_reasons": "вне бассейна профиля: nw_atlantic_subtropical", "conc_A_model": "conc-A-c6bce5631d2b", "conc_B_items_km2": 669.0, "conc_B_lo80": 142.9, "conc_B_hi80": 2247.6, "conc_B_lo95": 89.2, "conc_B_hi95": 4208.3, "conc_B_status": "research_estimate", "conc_B_status_ru": "исследовательская оценка", "conc_B_reasons": "ближайшее полевое измерение в 255 км (> 60 км); месяц 4 вне месяцев обучения [6]; log_dist_coast_km = 0.8 вне диапазона обучения [1.7; 5.0]", "conc_B_model": "conc-B-c6bce5631d2b"}}, {"type": "Feature", "geometry": {"type": "Polygon", "coordinates": [[[37.65829429751292, 44.622033523862086], [37.65829637074634, 44.62194352333215], [37.658170352622726, 44.62194204258939], [37.658172426041034, 44.62185204206256], [37.65842653492823, 44.62176500286225], [37.6584244619088, 44.62185500339982], [37.65855047985725, 44.62185648385994], [37.65854840702269, 44.621946484400624], [37.658422388879664, 44.621945003935885], [37.65842031584082, 44.622035004470455], [37.65829429751292, 44.622033523862086]]]}, "properties": {"zone_id": "novorossiysk-2025-04-29-004", "aoi": "novorossiysk", "date": "2025-04-29", "scene_id": "S2C_MSIL2A_20250429T081631_R121_T37TCK_20250429T135812", "scene_datetime_utc": "2025-04-29T08:16:31.025000+00:00", "detection_status": "detected", "detection_status_ru": "обнаружено", "lon": 37.65836, "lat": 44.6219, "n_pixels": 1, "zone_area_km2": 0.0005, "cover_m2": 7.1, "p_mean": 0.996, "p_max": 0.996, "cover_m2_km2": 14200.0, "h3": "882d72896bfffff", "valid_frac_scene": 1.0, "wind_ms": 7.6, "sea": "волнение", "scene_reliable": true, "field_event_id": "S4:DOORS3:T12", "field_profile": "B", "field_date": "2024-06-04", "field_distance_km": 248.0, "field_date_gap_days": 329, "field_conc_items_km2": 48.97, "conc_A_items_km2": null, "conc_A_lo80": null, "conc_A_hi80": null, "conc_A_lo95": null, "conc_A_hi95": null, "conc_A_status": "unavailable", "conc_A_status_ru": "концентрация недоступна", "conc_A_reasons": "вне бассейна профиля: nw_atlantic_subtropical", "conc_A_model": "conc-A-c6bce5631d2b", "conc_B_items_km2": 511.9, "conc_B_lo80": 109.1, "conc_B_hi80": 1720.2, "conc_B_lo95": 68.0, "conc_B_hi95": 3221.1, "conc_B_status": "research_estimate", "conc_B_status_ru": "исследовательская оценка", "conc_B_reasons": "ближайшее полевое измерение в 248 км (> 60 км); месяц 4 вне месяцев обучения [6]", "conc_B_model": "conc-B-c6bce5631d2b"}}]}