{"type": "FeatureCollection", "features": [{"type": "Feature", "geometry": {"type": "Polygon", "coordinates": [[[29.62701402065769, 60.00295952465905], [29.627006903471635, 60.00286982648037], [29.626827793250776, 60.00287339062628], [29.62680644341406, 60.00260429604135], [29.62698555218326, 60.00260073193391], [29.626978435177072, 60.002511033748306], [29.627336651612808, 60.00250390483092], [29.627343769586755, 60.002593602990885], [29.627522878221043, 60.002590038155304], [29.62754423386437, 60.00285913258636], [29.627365123778432, 60.0028626974604], [29.62737224193228, 60.00295239561346], [29.62701402065769, 60.00295952465905]]]}, "properties": {"zone_id": "neva-2025-05-12-001", "aoi": "neva", "date": "2025-05-12", "scene_id": "S2A_MSIL2A_20250512T093141_R136_T36VUM_20250512T112313", "scene_datetime_utc": "2025-05-12T09:31:41.024000+00:00", "detection_status": "detected", "detection_status_ru": "обнаружено", "lon": 29.62718, "lat": 60.00273, "n_pixels": 6, "zone_area_km2": 0.0016, "cover_m2": 72.5, "p_mean": 0.969, "p_max": 1.0, "cover_m2_km2": 45312.5, "h3": "88110695abfffff", "valid_frac_scene": 1.0, "wind_ms": 3.5, "sea": "спокойное", "scene_reliable": true, "field_event_id": "S3:HE419_MarLitter_transect28", "field_profile": "B", "field_date": "2014-04-11", "field_distance_km": 1393.7, "field_date_gap_days": 4049, "field_conc_items_km2": 43.1, "conc_A_items_km2": null, "conc_A_lo80": null, "conc_A_hi80": null, "conc_A_lo95": null, "conc_A_hi95": null, "conc_A_status": "unavailable", "conc_A_status_ru": "концентрация недоступна", "conc_A_reasons": "вне бассейна профиля: nw_atlantic_subtropical", "conc_A_model": "conc-A-c6bce5631d2b", "conc_B_items_km2": null, "conc_B_lo80": null, "conc_B_hi80": null, "conc_B_lo95": null, "conc_B_hi95": null, "conc_B_status": "unavailable", "conc_B_status_ru": "концентрация недоступна", "conc_B_reasons": "вне бассейна профиля: black_sea", "conc_B_model": "conc-B-c6bce5631d2b"}}, {"type": "Feature", "geometry": {"type": "Polygon", "coordinates": [[[30.03894229249493, 59.987378477713584], [30.03893406543608, 59.9872888112419], [30.038755103105004, 59.98729293315646], [30.03874687658076, 59.987203266668075], [30.03892583842917, 59.987199144768304], [30.0389176114742, 59.98710947829281], [30.039283761970164, 59.98719090024177], [30.039291989942406, 59.987280566685705], [30.039113027715214, 59.987284689084966], [30.039121255256738, 59.987374355541846], [30.03894229249493, 59.987378477713584]]]}, "properties": {"zone_id": "neva-2025-05-12-002", "aoi": "neva", "date": "2025-05-12", "scene_id": "S2A_MSIL2A_20250512T093141_R136_T36VUM_20250512T112313", "scene_datetime_utc": "2025-05-12T09:31:41.024000+00:00", "detection_status": "detected", "detection_status_ru": "обнаружено", "lon": 30.03902, "lat": 59.98724, "n_pixels": 1, "zone_area_km2": 0.0005, "cover_m2": 8.6, "p_mean": 0.839, "p_max": 0.839, "cover_m2_km2": 17200.0, "h3": "881106b943fffff", "valid_frac_scene": 1.0, "wind_ms": 3.5, "sea": "спокойное", "scene_reliable": true, "field_event_id": "S3:HE419_MarLitter_transect28", "field_profile": "B", "field_date": "2014-04-11", "field_distance_km": 1415.5, "field_date_gap_days": 4049, "field_conc_items_km2": 43.1, "conc_A_items_km2": null, "conc_A_lo80": null, "conc_A_hi80": null, "conc_A_lo95": null, "conc_A_hi95": null, "conc_A_status": "unavailable", "conc_A_status_ru": "концентрация недоступна", "conc_A_reasons": "вне бассейна профиля: nw_atlantic_subtropical", "conc_A_model": "conc-A-c6bce5631d2b", "conc_B_items_km2": null, "conc_B_lo80": null, "conc_B_hi80": null, "conc_B_lo95": null, "conc_B_hi95": null, "conc_B_status": "unavailable", "conc_B_status_ru": "концентрация недоступна", "conc_B_reasons": "вне бассейна профиля: black_sea", "conc_B_model": "conc-B-c6bce5631d2b"}}, {"type": "Feature", "geometry": {"type": "Polygon", "coordinates": [[[30.03999960842878, 59.98717440828048], [30.039991378577827, 59.987084741893916], [30.039625227584068, 59.98700332191147], [30.039616998802344, 59.98691365549142], [30.039966689336698, 59.986815742722705], [30.039974919031785, 59.986905409115025], [30.040153879068573, 59.9869012855633], [30.040162109298272, 59.98699095193887], [30.040341069765756, 59.98698682812999], [30.04034930053007, 59.98707649448884], [30.04017033957993, 59.98708061831254], [30.04017856991355, 59.98717028468429], [30.03999960842878, 59.98717440828048]]]}, "properties": {"zone_id": "neva-2025-05-12-003", "aoi": "neva", "date": "2025-05-12", "scene_id": "S2A_MSIL2A_20250512T093141_R136_T36VUM_20250512T112313", "scene_datetime_utc": "2025-05-12T09:31:41.024000+00:00", "detection_status": "detected", "detection_status_ru": "обнаружено", "lon": 30.03998, "lat": 59.987, "n_pixels": 2, "zone_area_km2": 0.0008, "cover_m2": 12.5, "p_mean": 0.508, "p_max": 0.51, "cover_m2_km2": 15625.0, "h3": "881106b943fffff", "valid_frac_scene": 1.0, "wind_ms": 3.5, "sea": "спокойное", "scene_reliable": true, "field_event_id": "S3:HE419_MarLitter_transect28", "field_profile": "B", "field_date": "2014-04-11", "field_distance_km": 1415.5, "field_date_gap_days": 4049, "field_conc_items_km2": 43.1, "conc_A_items_km2": null, "conc_A_lo80": null, "conc_A_hi80": null, "conc_A_lo95": null, "conc_A_hi95": null, "conc_A_status": "unavailable", "conc_A_status_ru": "концентрация недоступна", "conc_A_reasons": "вне бассейна профиля: nw_atlantic_subtropical", "conc_A_model": "conc-A-c6bce5631d2b", "conc_B_items_km2": null, "conc_B_lo80": null, "conc_B_hi80": null, "conc_B_lo95": null, "conc_B_hi95": null, "conc_B_status": "unavailable", "conc_B_status_ru": "концентрация недоступна", "conc_B_reasons": "вне бассейна профиля: black_sea", "conc_B_model": "conc-B-c6bce5631d2b"}}, {"type": "Feature", "geometry": {"type": "Polygon", "coordinates": [[[29.80188586230756, 59.96216699743191], [29.80187828416898, 59.96207731167939], [29.801699420050205, 59.962081111364625], [29.80168426488094, 59.961901739826864], [29.801863128035276, 59.96189794016893], [29.80185555004015, 59.96180825441099], [29.802213275240923, 59.96180065439576], [29.80222085420048, 59.96189034012638], [29.802399717211344, 59.96188653974177], [29.80240729670094, 59.961976225456915], [29.802228433207855, 59.96198002585521], [29.80223601226306, 59.96206971158223], [29.80188586230756, 59.96216699743191]]]}, "properties": {"zone_id": "neva-2025-05-12-004", "aoi": "neva", "date": "2025-05-12", "scene_id": "S2A_MSIL2A_20250512T093141_R136_T36VUM_20250512T112313", "scene_datetime_utc": "2025-05-12T09:31:41.024000+00:00", "detection_status": "detected", "detection_status_ru": "обнаружено", "lon": 29.80202, "lat": 59.96197, "n_pixels": 3, "zone_area_km2": 0.001, "cover_m2": 19.6, "p_mean": 0.939, "p_max": 0.98, "cover_m2_km2": 19600.0, "h3": "8811068529fffff", "valid_frac_scene": 1.0, "wind_ms": 3.5, "sea": "спокойное", "scene_reliable": true, "field_event_id": "S3:HE419_MarLitter_transect28", "field_profile": "B", "field_date": "2014-04-11", "field_distance_km": 1402.0, "field_date_gap_days": 4049, "field_conc_items_km2": 43.1, "conc_A_items_km2": null, "conc_A_lo80": null, "conc_A_hi80": null, "conc_A_lo95": null, "conc_A_hi95": null, "conc_A_status": "unavailable", "conc_A_status_ru": "концентрация недоступна", "conc_A_reasons": "вне бассейна профиля: nw_atlantic_subtropical", "conc_A_model": "conc-A-c6bce5631d2b", "conc_B_items_km2": null, "conc_B_lo80": null, "conc_B_hi80": null, "conc_B_lo95": null, "conc_B_hi95": null, "conc_B_status": "unavailable", "conc_B_status_ru": "концентрация недоступна", "conc_B_reasons": "вне бассейна профиля: black_sea", "conc_B_model": "conc-B-c6bce5631d2b"}}, {"type": "Feature", "geometry": {"type": "Polygon", "coordinates": [[[30.143383669622857, 59.95590644179821], [30.143375170865752, 59.95581678372606], [30.143196395843507, 59.95582104583303], [30.14317939945292, 59.95564172965226], [30.14335817351234, 59.95563746757591], [30.14334967491604, 59.95554780949793], [30.143715721470386, 59.9556289426973], [30.143724221083104, 59.955718600742735], [30.143902995463126, 59.95571433792513], [30.14391149561086, 59.95580399595326], [30.143732720749426, 59.955808258786185], [30.143741220469362, 59.95589791682768], [30.143383669622857, 59.95590644179821]]]}, "properties": {"zone_id": "neva-2025-05-12-005", "aoi": "neva", "date": "2025-05-12", "scene_id": "S2A_MSIL2A_20250512T093141_R136_T36VUM_20250512T112313", "scene_datetime_utc": "2025-05-12T09:31:41.024000+00:00", "detection_status": "detected", "detection_status_ru": "обнаружено", "lon": 30.14352, "lat": 59.95574, "n_pixels": 3, "zone_area_km2": 0.001, "cover_m2": 52.9, "p_mean": 0.804, "p_max": 0.875, "cover_m2_km2": 52900.0, "h3": "88110616ebfffff", "valid_frac_scene": 1.0, "wind_ms": 3.5, "sea": "спокойное", "scene_reliable": true, "field_event_id": "S3:HE419_MarLitter_transect28", "field_profile": "B", "field_date": "2014-04-11", "field_distance_km": 1420.3, "field_date_gap_days": 4049, "field_conc_items_km2": 43.1, "conc_A_items_km2": null, "conc_A_lo80": null, "conc_A_hi80": null, "conc_A_lo95": null, "conc_A_hi95": null, "conc_A_status": "unavailable", "conc_A_status_ru": "концентрация недоступна", "conc_A_reasons": "вне бассейна профиля: nw_atlantic_subtropical", "conc_A_model": "conc-A-c6bce5631d2b", "conc_B_items_km2": null, "conc_B_lo80": null, "conc_B_hi80": null, "conc_B_lo95": null, "conc_B_hi95": null, "conc_B_status": "unavailable", "conc_B_status_ru": "концентрация недоступна", "conc_B_reasons": "вне бассейна профиля: black_sea", "conc_B_model": "conc-B-c6bce5631d2b"}}, {"type": "Feature", "geometry": {"type": "Polygon", "coordinates": [[[30.07973182022995, 59.95543169255853], [30.07972349355987, 59.95534202906294], [30.079544710293955, 59.95534620492621], [30.07953638415792, 59.9552565414137], [30.07971516694232, 59.955252365565435], [30.07970684037729, 59.95516270206598], [30.08007273235358, 59.95524401314284], [30.08008105993415, 59.955333676610344], [30.079902276773275, 59.95533785295765], [30.079910603924862, 59.95542751643822], [30.07973182022995, 59.95543169255853]]]}, "properties": {"zone_id": "neva-2025-05-12-006", "aoi": "neva", "date": "2025-05-12", "scene_id": "S2A_MSIL2A_20250512T093141_R136_T36VUM_20250512T112313", "scene_datetime_utc": "2025-05-12T09:31:41.024000+00:00", "detection_status": "detected", "detection_status_ru": "обнаружено", "lon": 30.07981, "lat": 59.9553, "n_pixels": 1, "zone_area_km2": 0.0005, "cover_m2": 5.5, "p_mean": 0.722, "p_max": 0.722, "cover_m2_km2": 11000.0, "h3": "8811061653fffff", "valid_frac_scene": 1.0, "wind_ms": 3.5, "sea": "спокойное", "scene_reliable": true, "field_event_id": "S3:HE419_MarLitter_transect28", "field_profile": "B", "field_date": "2014-04-11", "field_distance_km": 1416.9, "field_date_gap_days": 4049, "field_conc_items_km2": 43.1, "conc_A_items_km2": null, "conc_A_lo80": null, "conc_A_hi80": null, "conc_A_lo95": null, "conc_A_hi95": null, "conc_A_status": "unavailable", "conc_A_status_ru": "концентрация недоступна", "conc_A_reasons": "вне бассейна профиля: nw_atlantic_subtropical", "conc_A_model": "conc-A-c6bce5631d2b", "conc_B_items_km2": null, "conc_B_lo80": null, "conc_B_hi80": null, "conc_B_lo95": null, "conc_B_hi95": null, "conc_B_status": "unavailable", "conc_B_status_ru": "концентрация недоступна", "conc_B_reasons": "вне бассейна профиля: black_sea", "conc_B_model": "conc-B-c6bce5631d2b"}}, {"type": "Feature", "geometry": {"type": "Polygon", "coordinates": [[[30.101953192508624, 59.94781191223431], [30.101944808386687, 59.94772225051299], [30.10176606989308, 59.94772645615956], [30.10175768630522, 59.94763679442119], [30.10193642431761, 59.947632588789716], [30.101928040301406, 59.947542927064504], [30.102285515205164, 59.947534515105986], [30.102293900183792, 59.94762417680101], [30.102472638037565, 59.94761997044375], [30.10248102355027, 59.94770963212168], [30.102302285215284, 59.947713838494046], [30.10231067029965, 59.947803500185174], [30.101953192508624, 59.94781191223431]]]}, "properties": {"zone_id": "neva-2025-05-12-007", "aoi": "neva", "date": "2025-05-12", "scene_id": "S2A_MSIL2A_20250512T093141_R136_T36VUM_20250512T112313", "scene_datetime_utc": "2025-05-12T09:31:41.024000+00:00", "detection_status": "detected", "detection_status_ru": "обнаружено", "lon": 30.10212, "lat": 59.94767, "n_pixels": 2, "zone_area_km2": 0.0008, "cover_m2": 17.3, "p_mean": 0.853, "p_max": 0.976, "cover_m2_km2": 21625.0, "h3": "8811061611fffff", "valid_frac_scene": 1.0, "wind_ms": 3.5, "sea": "спокойное", "scene_reliable": true, "field_event_id": "S3:HE419_MarLitter_transect28", "field_profile": "B", "field_date": "2014-04-11", "field_distance_km": 1417.9, "field_date_gap_days": 4049, "field_conc_items_km2": 43.1, "conc_A_items_km2": null, "conc_A_lo80": null, "conc_A_hi80": null, "conc_A_lo95": null, "conc_A_hi95": null, "conc_A_status": "unavailable", "conc_A_status_ru": "концентрация недоступна", "conc_A_reasons": "вне бассейна профиля: nw_atlantic_subtropical", "conc_A_model": "conc-A-c6bce5631d2b", "conc_B_items_km2": null, "conc_B_lo80": null, "conc_B_hi80": null, "conc_B_lo95": null, "conc_B_hi95": null, "conc_B_status": "unavailable", "conc_B_status_ru": "концентрация недоступна", "conc_B_reasons": "вне бассейна профиля: black_sea", "conc_B_model": "conc-B-c6bce5631d2b"}}, {"type": "Feature", "geometry": {"type": "Polygon", "coordinates": [[[30.119766018889212, 59.92959931302495], [30.119757592841495, 59.92950965256992], [30.11957895533947, 59.9295138815779], [30.119562104364476, 59.92933456063165], [30.119740740905378, 59.92933033165404], [30.119732315016968, 59.92924067119319], [30.120098013827864, 59.929321872973624], [30.120114867686233, 59.92950119382874], [30.119766018889212, 59.92959931302495]]]}, "properties": {"zone_id": "neva-2025-05-12-008", "aoi": "neva", "date": "2025-05-12", "scene_id": "S2A_MSIL2A_20250512T093141_R136_T36VUM_20250512T112313", "scene_datetime_utc": "2025-05-12T09:31:41.024000+00:00", "detection_status": "detected", "detection_status_ru": "обнаружено", "lon": 30.11984, "lat": 59.92942, "n_pixels": 2, "zone_area_km2": 0.0008, "cover_m2": 9.0, "p_mean": 0.945, "p_max": 0.953, "cover_m2_km2": 11250.0, "h3": "8811061631fffff", "valid_frac_scene": 1.0, "wind_ms": 3.5, "sea": "спокойное", "scene_reliable": true, "field_event_id": "S3:HE419_MarLitter_transect28", "field_profile": "B", "field_date": "2014-04-11", "field_distance_km": 1418.4, "field_date_gap_days": 4049, "field_conc_items_km2": 43.1, "conc_A_items_km2": null, "conc_A_lo80": null, "conc_A_hi80": null, "conc_A_lo95": null, "conc_A_hi95": null, "conc_A_status": "unavailable", "conc_A_status_ru": "концентрация недоступна", "conc_A_reasons": "вне бассейна профиля: nw_atlantic_subtropical", "conc_A_model": "conc-A-c6bce5631d2b", "conc_B_items_km2": null, "conc_B_lo80": null, "conc_B_hi80": null, "conc_B_lo95": null, "conc_B_hi95": null, "conc_B_status": "unavailable", "conc_B_status_ru": "концентрация недоступна", "conc_B_reasons": "вне бассейна профиля: black_sea", "conc_B_model": "conc-B-c6bce5631d2b"}}, {"type": "Feature", "geometry": {"type": "Polygon", "coordinates": [[[30.150108181441748, 59.892753186214044], [30.15009968611384, 59.89266352785606], [30.14992125161049, 59.89266779638779], [30.149912756815326, 59.892578138012546], [30.15009119083942, 59.892573869496104], [30.150082695618472, 59.8924842111342], [30.15026112910982, 59.89247994239173], [30.15025263346309, 59.89239028404315], [30.15061799593204, 59.89247140418265], [30.150634989302993, 59.892650720812625], [30.150456554960098, 59.89265499006848], [30.15046505124654, 59.892744648395805], [30.150108181441748, 59.892753186214044]]]}, "properties": {"zone_id": "neva-2025-05-12-009", "aoi": "neva", "date": "2025-05-12", "scene_id": "S2A_MSIL2A_20250512T093141_R136_T36VUM_20250512T112313", "scene_datetime_utc": "2025-05-12T09:31:41.024000+00:00", "detection_status": "detected", "detection_status_ru": "обнаружено", "lon": 30.1503, "lat": 59.89258, "n_pixels": 3, "zone_area_km2": 0.001, "cover_m2": 12.9, "p_mean": 0.684, "p_max": 0.831, "cover_m2_km2": 12900.0, "h3": "881106146dfffff", "valid_frac_scene": 1.0, "wind_ms": 3.5, "sea": "спокойное", "scene_reliable": true, "field_event_id": "S3:HE419_MarLitter_transect28", "field_profile": "B", "field_date": "2014-04-11", "field_distance_km": 1419.1, "field_date_gap_days": 4049, "field_conc_items_km2": 43.1, "conc_A_items_km2": null, "conc_A_lo80": null, "conc_A_hi80": null, "conc_A_lo95": null, "conc_A_hi95": null, "conc_A_status": "unavailable", "conc_A_status_ru": "концентрация недоступна", "conc_A_reasons": "вне бассейна профиля: nw_atlantic_subtropical", "conc_A_model": "conc-A-c6bce5631d2b", "conc_B_items_km2": null, "conc_B_lo80": null, "conc_B_hi80": null, "conc_B_lo95": null, "conc_B_hi95": null, "conc_B_status": "unavailable", "conc_B_status_ru": "концентрация недоступна", "conc_B_reasons": "вне бассейна профиля: black_sea", "conc_B_model": "conc-B-c6bce5631d2b"}}, {"type": "Feature", "geometry": {"type": "Polygon", "coordinates": [[[30.15519768280582, 59.8917327141309], [30.15518917411499, 59.89164305619779], [30.155010745956254, 59.891647331575754], [30.15500223779821, 59.891557673625364], [30.15518066547773, 59.891553398262694], [30.15517215689403, 59.89146374032566], [30.155537520676063, 59.89154484681332], [30.155546030271772, 59.89163450471774], [30.155367602220164, 59.891638780578425], [30.15537611139022, 59.89172843849622], [30.15519768280582, 59.8917327141309]]]}, "properties": {"zone_id": "neva-2025-05-12-010", "aoi": "neva", "date": "2025-05-12", "scene_id": "S2A_MSIL2A_20250512T093141_R136_T36VUM_20250512T112313", "scene_datetime_utc": "2025-05-12T09:31:41.024000+00:00", "detection_status": "detected", "detection_status_ru": "обнаружено", "lon": 30.15527, "lat": 59.8916, "n_pixels": 1, "zone_area_km2": 0.0005, "cover_m2": 8.6, "p_mean": 0.627, "p_max": 0.627, "cover_m2_km2": 17200.0, "h3": "881106146dfffff", "valid_frac_scene": 1.0, "wind_ms": 3.5, "sea": "спокойное", "scene_reliable": true, "field_event_id": "S3:HE419_MarLitter_transect28", "field_profile": "B", "field_date": "2014-04-11", "field_distance_km": 1419.3, "field_date_gap_days": 4049, "field_conc_items_km2": 43.1, "conc_A_items_km2": null, "conc_A_lo80": null, "conc_A_hi80": null, "conc_A_lo95": null, "conc_A_hi95": null, "conc_A_status": "unavailable", "conc_A_status_ru": "концентрация недоступна", "conc_A_reasons": "вне бассейна профиля: nw_atlantic_subtropical", "conc_A_model": "conc-A-c6bce5631d2b", "conc_B_items_km2": null, "conc_B_lo80": null, "conc_B_hi80": null, "conc_B_lo95": null, "conc_B_hi95": null, "conc_B_status": "unavailable", "conc_B_status_ru": "концентрация недоступна", "conc_B_reasons": "вне бассейна профиля: black_sea", "conc_B_model": "conc-B-c6bce5631d2b"}}, {"type": "Feature", "geometry": {"type": "Polygon", "coordinates": [[[30.149521982219085, 59.89034094588611], [30.14951348929343, 59.89025128744458], [30.14933506762228, 59.89025555508015], [30.149326575229267, 59.89016589662135], [30.149504996421236, 59.890161629001064], [30.149496503602506, 59.89007197055563], [30.14986183864477, 59.890153093036474], [30.149870332475334, 59.89024275144938], [30.149691910911116, 59.89024701956764], [30.149700404315965, 59.890336677993865], [30.149521982219085, 59.89034094588611]]]}, "properties": {"zone_id": "neva-2025-05-12-011", "aoi": "neva", "date": "2025-05-12", "scene_id": "S2A_MSIL2A_20250512T093141_R136_T36VUM_20250512T112313", "scene_datetime_utc": "2025-05-12T09:31:41.024000+00:00", "detection_status": "detected", "detection_status_ru": "обнаружено", "lon": 30.1496, "lat": 59.8902, "n_pixels": 1, "zone_area_km2": 0.0005, "cover_m2": 6.7, "p_mean": 0.894, "p_max": 0.894, "cover_m2_km2": 13400.0, "h3": "881106146dfffff", "valid_frac_scene": 1.0, "wind_ms": 3.5, "sea": "спокойное", "scene_reliable": true, "field_event_id": "S3:HE419_MarLitter_transect28", "field_profile": "B", "field_date": "2014-04-11", "field_distance_km": 1419.0, "field_date_gap_days": 4049, "field_conc_items_km2": 43.1, "conc_A_items_km2": null, "conc_A_lo80": null, "conc_A_hi80": null, "conc_A_lo95": null, "conc_A_hi95": null, "conc_A_status": "unavailable", "conc_A_status_ru": "концентрация недоступна", "conc_A_reasons": "вне бассейна профиля: nw_atlantic_subtropical", "conc_A_model": "conc-A-c6bce5631d2b", "conc_B_items_km2": null, "conc_B_lo80": null, "conc_B_hi80": null, "conc_B_lo95": null, "conc_B_hi95": null, "conc_B_status": "unavailable", "conc_B_status_ru": "концентрация недоступна", "conc_B_reasons": "вне бассейна профиля: black_sea", "conc_B_model": "conc-B-c6bce5631d2b"}}, {"type": "Feature", "geometry": {"type": "Polygon", "coordinates": [[[30.150575522450186, 59.89013601821116], [30.15056702675637, 59.89004635985761], [30.150388606364412, 59.89005062891063], [30.15038011120325, 59.88996097053978], [30.15055853111603, 59.88995670150205], [30.150550035529175, 59.889867043144555], [30.150915370781153, 59.889948162702595], [30.150923867379834, 59.890037821027505], [30.15074544709485, 59.890042090563234], [30.15075394326784, 59.89013174890147], [30.150575522450186, 59.89013601821116]]]}, "properties": {"zone_id": "neva-2025-05-12-012", "aoi": "neva", "date": "2025-05-12", "scene_id": "S2A_MSIL2A_20250512T093141_R136_T36VUM_20250512T112313", "scene_datetime_utc": "2025-05-12T09:31:41.024000+00:00", "detection_status": "detected", "detection_status_ru": "обнаружено", "lon": 30.15065, "lat": 59.89, "n_pixels": 1, "zone_area_km2": 0.0005, "cover_m2": 5.9, "p_mean": 0.62, "p_max": 0.62, "cover_m2_km2": 11800.0, "h3": "881106146dfffff", "valid_frac_scene": 1.0, "wind_ms": 3.5, "sea": "спокойное", "scene_reliable": true, "field_event_id": "S3:HE419_MarLitter_transect28", "field_profile": "B", "field_date": "2014-04-11", "field_distance_km": 1419.0, "field_date_gap_days": 4049, "field_conc_items_km2": 43.1, "conc_A_items_km2": null, "conc_A_lo80": null, "conc_A_hi80": null, "conc_A_lo95": null, "conc_A_hi95": null, "conc_A_status": "unavailable", "conc_A_status_ru": "концентрация недоступна", "conc_A_reasons": "вне бассейна профиля: nw_atlantic_subtropical", "conc_A_model": "conc-A-c6bce5631d2b", "conc_B_items_km2": null, "conc_B_lo80": null, "conc_B_hi80": null, "conc_B_lo95": null, "conc_B_hi95": null, "conc_B_status": "unavailable", "conc_B_status_ru": "концентрация недоступна", "conc_B_reasons": "вне бассейна профиля: black_sea", "conc_B_model": "conc-B-c6bce5631d2b"}}, {"type": "Feature", "geometry": {"type": "Polygon", "coordinates": [[[30.152147308178762, 59.88973895286104], [30.152138808386376, 59.88964929463749], [30.15196039039253, 59.889653565801304], [30.15195189113281, 59.88956390756049], [30.15213030864749, 59.88955963641198], [30.152121808962114, 59.889469978184515], [30.152478642872644, 59.88946143519415], [30.152487143516336, 59.88955109339098], [30.152665560870492, 59.88954682151846], [30.152674062046856, 59.889636479698], [30.15249564421354, 59.88964075158584], [30.152504144964254, 59.889730409778736], [30.152147308178762, 59.88973895286104]]]}, "properties": {"zone_id": "neva-2025-05-12-013", "aoi": "neva", "date": "2025-05-12", "scene_id": "S2A_MSIL2A_20250512T093141_R136_T36VUM_20250512T112313", "scene_datetime_utc": "2025-05-12T09:31:41.024000+00:00", "detection_status": "detected", "detection_status_ru": "обнаружено", "lon": 30.15231, "lat": 59.8896, "n_pixels": 2, "zone_area_km2": 0.0008, "cover_m2": 13.3, "p_mean": 0.657, "p_max": 0.725, "cover_m2_km2": 16625.0, "h3": "881106146dfffff", "valid_frac_scene": 1.0, "wind_ms": 3.5, "sea": "спокойное", "scene_reliable": true, "field_event_id": "S3:HE419_MarLitter_transect28", "field_profile": "B", "field_date": "2014-04-11", "field_distance_km": 1419.1, "field_date_gap_days": 4049, "field_conc_items_km2": 43.1, "conc_A_items_km2": null, "conc_A_lo80": null, "conc_A_hi80": null, "conc_A_lo95": null, "conc_A_hi95": null, "conc_A_status": "unavailable", "conc_A_status_ru": "концентрация недоступна", "conc_A_reasons": "вне бассейна профиля: nw_atlantic_subtropical", "conc_A_model": "conc-A-c6bce5631d2b", "conc_B_items_km2": null, "conc_B_lo80": null, "conc_B_hi80": null, "conc_B_lo95": null, "conc_B_hi95": null, "conc_B_status": "unavailable", "conc_B_status_ru": "концентрация недоступна", "conc_B_reasons": "вне бассейна профиля: black_sea", "conc_B_model": "conc-B-c6bce5631d2b"}}]}