{"type": "FeatureCollection", "features": [{"type": "Feature", "geometry": {"type": "Polygon", "coordinates": [[[29.622443876905063, 60.00188247518971], [29.622436772399986, 60.00179277666818], [29.62207856224779, 60.001799892248556], [29.622071458755318, 60.001710193699715], [29.62189235409576, 60.00171375111305], [29.621885251132024, 60.00162405254965], [29.622064355307728, 60.0016204951491], [29.622057251905012, 60.00153079659677], [29.62259456271127, 60.001520122977304], [29.62260166756554, 60.00160982149124], [29.622780771561704, 60.00160626311987], [29.622794982372625, 60.00178566011695], [29.622443876905063, 60.00188247518971]]]}, "properties": {"zone_id": "neva-2026-03-28-001", "aoi": "neva", "date": "2026-03-28", "scene_id": "S2A_MSIL2A_20260328T093051_R136_T36VUM_20260328T150909", "scene_datetime_utc": "2026-03-28T09:30:51.024000+00:00", "detection_status": "detected", "detection_status_ru": "обнаружено", "lon": 29.62238, "lat": 60.00168, "n_pixels": 4, "zone_area_km2": 0.0013, "cover_m2": 30.6, "p_mean": 0.727, "p_max": 0.867, "cover_m2_km2": 23538.5, "h3": "8811069585fffff", "valid_frac_scene": 0.992, "wind_ms": 2.1, "sea": "спокойное", "scene_reliable": false, "field_event_id": "S3:HE419_MarLitter_transect28", "field_profile": "B", "field_date": "2014-04-11", "field_distance_km": 1393.4, "field_date_gap_days": 4369, "field_conc_items_km2": 43.1, "conc_A_items_km2": null, "conc_A_lo80": null, "conc_A_hi80": null, "conc_A_lo95": null, "conc_A_hi95": null, "conc_A_status": "unavailable", "conc_A_status_ru": "концентрация недоступна", "conc_A_reasons": "вне бассейна профиля: nw_atlantic_subtropical", "conc_A_model": "conc-A-c6bce5631d2b", "conc_B_items_km2": null, "conc_B_lo80": null, "conc_B_hi80": null, "conc_B_lo95": null, "conc_B_hi95": null, "conc_B_status": "unavailable", "conc_B_status_ru": "концентрация недоступна", "conc_B_reasons": "вне бассейна профиля: black_sea", "conc_B_model": "conc-B-c6bce5631d2b"}}, {"type": "Feature", "geometry": {"type": "Polygon", "coordinates": [[[29.942518297289826, 59.96179975627025], [29.94251033923243, 59.96171008156111], [29.94197381876146, 59.9617220515167], [29.94196586220019, 59.961632376762644], [29.94178702242477, 59.961636366249195], [29.94177111041675, 59.96145701670684], [29.941949949228235, 59.96145302724895], [29.941941992817554, 59.96136335248929], [29.942120831096883, 59.961359362803584], [29.94212878798952, 59.96144903754892], [29.94230762670061, 59.961445047606745], [29.942299669326005, 59.96135537287575], [29.942665303972163, 59.96143706699592], [29.942681220799848, 59.9616164163949], [29.94286006032424, 59.961612425697574], [29.942868019295368, 59.961702100379945], [29.942518297289826, 59.96179975627025]]]}, "properties": {"zone_id": "neva-2026-03-28-002", "aoi": "neva", "date": "2026-03-28", "scene_id": "S2A_MSIL2A_20260328T093051_R136_T36VUM_20260328T150909", "scene_datetime_utc": "2026-03-28T09:30:51.024000+00:00", "detection_status": "detected", "detection_status_ru": "обнаружено", "lon": 29.94229, "lat": 59.96157, "n_pixels": 6, "zone_area_km2": 0.0018, "cover_m2": 65.5, "p_mean": 0.871, "p_max": 0.996, "cover_m2_km2": 36388.9, "h3": "8811068eb7fffff", "valid_frac_scene": 0.992, "wind_ms": 2.1, "sea": "спокойное", "scene_reliable": false, "field_event_id": "S3:HE419_MarLitter_transect28", "field_profile": "B", "field_date": "2014-04-11", "field_distance_km": 1409.6, "field_date_gap_days": 4369, "field_conc_items_km2": 43.1, "conc_A_items_km2": null, "conc_A_lo80": null, "conc_A_hi80": null, "conc_A_lo95": null, "conc_A_hi95": null, "conc_A_status": "unavailable", "conc_A_status_ru": "концентрация недоступна", "conc_A_reasons": "вне бассейна профиля: nw_atlantic_subtropical", "conc_A_model": "conc-A-c6bce5631d2b", "conc_B_items_km2": null, "conc_B_lo80": null, "conc_B_hi80": null, "conc_B_lo95": null, "conc_B_hi95": null, "conc_B_status": "unavailable", "conc_B_status_ru": "концентрация недоступна", "conc_B_reasons": "вне бассейна профиля: black_sea", "conc_B_model": "conc-B-c6bce5631d2b"}}, {"type": "Feature", "geometry": {"type": "Polygon", "coordinates": [[[29.933393738033754, 59.9599364364643], [29.933385805226788, 59.959846760996385], [29.933020210327026, 59.95976504083726], [29.933012278584, 59.959675365337034], [29.93319110919853, 59.95967138781709], [29.933183177023622, 59.959581712329275], [29.933362007106187, 59.95957773458146], [29.93335407449942, 59.95948805910613], [29.933719667121178, 59.95956977835945], [29.933727600741832, 59.95965945380435], [29.93390643115616, 59.95965547531584], [29.93392229951147, 59.95983482617147], [29.933743468133294, 59.95983880468857], [29.933751401904107, 59.9599284801279], [29.933393738033754, 59.9599364364643]]]}, "properties": {"zone_id": "neva-2026-03-28-003", "aoi": "neva", "date": "2026-03-28", "scene_id": "S2A_MSIL2A_20260328T093051_R136_T36VUM_20260328T150909", "scene_datetime_utc": "2026-03-28T09:30:51.024000+00:00", "detection_status": "detected", "detection_status_ru": "обнаружено", "lon": 29.93349, "lat": 59.95972, "n_pixels": 6, "zone_area_km2": 0.0015, "cover_m2": 67.1, "p_mean": 0.946, "p_max": 0.996, "cover_m2_km2": 44733.3, "h3": "8811068eb1fffff", "valid_frac_scene": 0.992, "wind_ms": 2.1, "sea": "спокойное", "scene_reliable": false, "field_event_id": "S3:HE419_MarLitter_transect28", "field_profile": "B", "field_date": "2014-04-11", "field_distance_km": 1409.1, "field_date_gap_days": 4369, "field_conc_items_km2": 43.1, "conc_A_items_km2": null, "conc_A_lo80": null, "conc_A_hi80": null, "conc_A_lo95": null, "conc_A_hi95": null, "conc_A_status": "unavailable", "conc_A_status_ru": "концентрация недоступна", "conc_A_reasons": "вне бассейна профиля: nw_atlantic_subtropical", "conc_A_model": "conc-A-c6bce5631d2b", "conc_B_items_km2": null, "conc_B_lo80": null, "conc_B_hi80": null, "conc_B_lo95": null, "conc_B_hi95": null, "conc_B_status": "unavailable", "conc_B_status_ru": "концентрация недоступна", "conc_B_reasons": "вне бассейна профиля: black_sea", "conc_B_model": "conc-B-c6bce5631d2b"}}, {"type": "Feature", "geometry": {"type": "Polygon", "coordinates": [[[29.770418019248087, 59.95869884389864], [29.7704105271978, 59.95860915570046], [29.770231676987123, 59.95861291261416], [29.770216693992676, 59.95843353618546], [29.770395543239054, 59.958429779298775], [29.770388051330585, 59.958340091095245], [29.77074574871722, 59.95833257662222], [29.77075324158999, 59.95842226479875], [29.770932090694544, 59.95841850718542], [29.770947077546207, 59.958597883506094], [29.77076822747735, 59.95860164114643], [29.770775720491947, 59.95869132931758], [29.770418019248087, 59.95869884389864]]]}, "properties": {"zone_id": "neva-2026-03-28-004", "aoi": "neva", "date": "2026-03-28", "scene_id": "S2A_MSIL2A_20260328T093051_R136_T36VUM_20260328T150909", "scene_datetime_utc": "2026-03-28T09:30:51.024000+00:00", "detection_status": "detected", "detection_status_ru": "обнаружено", "lon": 29.77058, "lat": 59.95852, "n_pixels": 4, "zone_area_km2": 0.0012, "cover_m2": 12.2, "p_mean": 0.978, "p_max": 0.992, "cover_m2_km2": 10166.7, "h3": "8811068569fffff", "valid_frac_scene": 0.992, "wind_ms": 2.1, "sea": "спокойное", "scene_reliable": false, "field_event_id": "S3:HE419_MarLitter_transect28", "field_profile": "B", "field_date": "2014-04-11", "field_distance_km": 1400.2, "field_date_gap_days": 4369, "field_conc_items_km2": 43.1, "conc_A_items_km2": null, "conc_A_lo80": null, "conc_A_hi80": null, "conc_A_lo95": null, "conc_A_hi95": null, "conc_A_status": "unavailable", "conc_A_status_ru": "концентрация недоступна", "conc_A_reasons": "вне бассейна профиля: nw_atlantic_subtropical", "conc_A_model": "conc-A-c6bce5631d2b", "conc_B_items_km2": null, "conc_B_lo80": null, "conc_B_hi80": null, "conc_B_lo95": null, "conc_B_hi95": null, "conc_B_status": "unavailable", "conc_B_status_ru": "концентрация недоступна", "conc_B_reasons": "вне бассейна профиля: black_sea", "conc_B_model": "conc-B-c6bce5631d2b"}}, {"type": "Feature", "geometry": {"type": "Polygon", "coordinates": [[[29.92677371127267, 59.958016936837794], [29.926765796963803, 59.95792726081305], [29.92658697471961, 59.95793122955854], [29.926579060942537, 59.9578415535177], [29.926400239130288, 59.95784552200681], [29.92639232588501, 59.957755845949826], [29.926026770842853, 59.95767410608581], [29.92601885866114, 59.9575844299966], [29.926368586448717, 59.957486817767766], [29.926376499544226, 59.9575764938303], [29.92655531991089, 59.95757252538396], [29.926563233538182, 59.95766220143041], [29.926920875085447, 59.95765426378285], [29.92692878972639, 59.95774393979889], [29.927107610906994, 59.95773997059766], [29.927115526079735, 59.957829646597624], [29.92729434769227, 59.95782567714], [29.92730226339681, 59.9579153531238], [29.927123441302406, 59.957919322595686], [29.92713135657502, 59.95800899859188], [29.92677371127267, 59.958016936837794]]]}, "properties": {"zone_id": "neva-2026-03-28-005", "aoi": "neva", "date": "2026-03-28", "scene_id": "S2A_MSIL2A_20260328T093051_R136_T36VUM_20260328T150909", "scene_datetime_utc": "2026-03-28T09:30:51.024000+00:00", "detection_status": "detected", "detection_status_ru": "обнаружено", "lon": 29.92669, "lat": 59.95778, "n_pixels": 6, "zone_area_km2": 0.0018, "cover_m2": 54.9, "p_mean": 0.882, "p_max": 0.961, "cover_m2_km2": 30500.0, "h3": "8811068ebdfffff", "valid_frac_scene": 0.992, "wind_ms": 2.1, "sea": "спокойное", "scene_reliable": false, "field_event_id": "S3:HE419_MarLitter_transect28", "field_profile": "B", "field_date": "2014-04-11", "field_distance_km": 1408.6, "field_date_gap_days": 4369, "field_conc_items_km2": 43.1, "conc_A_items_km2": null, "conc_A_lo80": null, "conc_A_hi80": null, "conc_A_lo95": null, "conc_A_hi95": null, "conc_A_status": "unavailable", "conc_A_status_ru": "концентрация недоступна", "conc_A_reasons": "вне бассейна профиля: nw_atlantic_subtropical", "conc_A_model": "conc-A-c6bce5631d2b", "conc_B_items_km2": null, "conc_B_lo80": null, "conc_B_hi80": null, "conc_B_lo95": null, "conc_B_hi95": null, "conc_B_status": "unavailable", "conc_B_status_ru": "концентрация недоступна", "conc_B_reasons": "вне бассейна профиля: black_sea", "conc_B_model": "conc-B-c6bce5631d2b"}}, {"type": "Feature", "geometry": {"type": "Polygon", "coordinates": [[[29.880004692812086, 59.94970224807804], [29.879996907468257, 59.94961256822536], [29.879818122602703, 59.94961647328047], [29.879802553025694, 59.94943711354155], [29.879981336927912, 59.94943320851451], [29.879973551731393, 59.94934352865633], [29.880331118425197, 59.94933571790412], [29.88033890458503, 59.94942539773425], [29.880517688339925, 59.949421491981006], [29.880533261770267, 59.94960085160767], [29.880354477052038, 59.94960475738898], [29.880362263359213, 59.94969443721359], [29.880004692812086, 59.94970224807804]]]}, "properties": {"zone_id": "neva-2026-03-28-006", "aoi": "neva", "date": "2026-03-28", "scene_id": "S2A_MSIL2A_20260328T093051_R136_T36VUM_20260328T150909", "scene_datetime_utc": "2026-03-28T09:30:51.024000+00:00", "detection_status": "detected", "detection_status_ru": "обнаружено", "lon": 29.88017, "lat": 59.94952, "n_pixels": 4, "zone_area_km2": 0.0012, "cover_m2": 37.3, "p_mean": 0.928, "p_max": 0.953, "cover_m2_km2": 31083.3, "h3": "8811068eebfffff", "valid_frac_scene": 0.992, "wind_ms": 2.1, "sea": "спокойное", "scene_reliable": false, "field_event_id": "S3:HE419_MarLitter_transect28", "field_profile": "B", "field_date": "2014-04-11", "field_distance_km": 1405.9, "field_date_gap_days": 4369, "field_conc_items_km2": 43.1, "conc_A_items_km2": null, "conc_A_lo80": null, "conc_A_hi80": null, "conc_A_lo95": null, "conc_A_hi95": null, "conc_A_status": "unavailable", "conc_A_status_ru": "концентрация недоступна", "conc_A_reasons": "вне бассейна профиля: nw_atlantic_subtropical", "conc_A_model": "conc-A-c6bce5631d2b", "conc_B_items_km2": null, "conc_B_lo80": null, "conc_B_hi80": null, "conc_B_lo95": null, "conc_B_hi95": null, "conc_B_status": "unavailable", "conc_B_status_ru": "концентрация недоступна", "conc_B_reasons": "вне бассейна профиля: black_sea", "conc_B_model": "conc-B-c6bce5631d2b"}}, {"type": "Feature", "geometry": {"type": "Polygon", "coordinates": [[[29.888679218924242, 59.94852413224933], [29.888671410520857, 59.948434453064905], [29.888492633362965, 59.9484383698265], [29.888484825490433, 59.94834869062616], [29.888663602166712, 59.948344773878624], [29.888655793861815, 59.94825509469052], [29.888834570007234, 59.94825117771501], [29.88882676126998, 59.948161498539115], [29.889534052818288, 59.948056149151434], [29.8895418634327, 59.948145828272864], [29.889720638850232, 59.948141910101185], [29.88972844999551, 59.948231589206685], [29.889378708379308, 59.948329104467994], [29.889386518659897, 59.94841878359798], [29.88920774169902, 59.94842270132779], [29.889215551547256, 59.94851238047001], [29.888679218924242, 59.94852413224933]]]}, "properties": {"zone_id": "neva-2026-03-28-007", "aoi": "neva", "date": "2026-03-28", "scene_id": "S2A_MSIL2A_20260328T093051_R136_T36VUM_20260328T150909", "scene_datetime_utc": "2026-03-28T09:30:51.024000+00:00", "detection_status": "detected", "detection_status_ru": "обнаружено", "lon": 29.88911, "lat": 59.9483, "n_pixels": 8, "zone_area_km2": 0.002, "cover_m2": 82.0, "p_mean": 0.934, "p_max": 1.0, "cover_m2_km2": 41000.0, "h3": "8811068ee3fffff", "valid_frac_scene": 0.992, "wind_ms": 2.1, "sea": "спокойное", "scene_reliable": false, "field_event_id": "S3:HE419_MarLitter_transect28", "field_profile": "B", "field_date": "2014-04-11", "field_distance_km": 1406.4, "field_date_gap_days": 4369, "field_conc_items_km2": 43.1, "conc_A_items_km2": null, "conc_A_lo80": null, "conc_A_hi80": null, "conc_A_lo95": null, "conc_A_hi95": null, "conc_A_status": "unavailable", "conc_A_status_ru": "концентрация недоступна", "conc_A_reasons": "вне бассейна профиля: nw_atlantic_subtropical", "conc_A_model": "conc-A-c6bce5631d2b", "conc_B_items_km2": null, "conc_B_lo80": null, "conc_B_hi80": null, "conc_B_lo95": null, "conc_B_hi95": null, "conc_B_status": "unavailable", "conc_B_status_ru": "концентрация недоступна", "conc_B_reasons": "вне бассейна профиля: black_sea", "conc_B_model": "conc-B-c6bce5631d2b"}}, {"type": "Feature", "geometry": {"type": "Polygon", "coordinates": [[[29.8995532108616, 59.947926037903336], [29.89954537327819, 59.94783635957153], [29.899187828785053, 59.947844222269815], [29.899179992214226, 59.94775454390793], [29.89900122037509, 59.94775847487989], [29.898993384335263, 59.947668796502], [29.89917215569282, 59.94766486554416], [29.89916431922084, 59.94757518717854], [29.899700631552268, 59.947563392895134], [29.899708469468948, 59.947653071218376], [29.899887240628797, 59.947649139292366], [29.899895079076487, 59.94773881759964], [29.900073850668463, 59.94773488541746], [29.90008168964716, 59.94782456370875], [29.899902917573606, 59.94782849590505], [29.89991075612017, 59.94791817420861], [29.8995532108616, 59.947926037903336]]]}, "properties": {"zone_id": "neva-2026-03-28-008", "aoi": "neva", "date": "2026-03-28", "scene_id": "S2A_MSIL2A_20260328T093051_R136_T36VUM_20260328T150909", "scene_datetime_utc": "2026-03-28T09:30:51.024000+00:00", "detection_status": "detected", "detection_status_ru": "обнаружено", "lon": 29.89955, "lat": 59.94774, "n_pixels": 5, "zone_area_km2": 0.0015, "cover_m2": 38.4, "p_mean": 0.813, "p_max": 0.992, "cover_m2_km2": 25600.0, "h3": "8811068ea9fffff", "valid_frac_scene": 0.992, "wind_ms": 2.1, "sea": "спокойное", "scene_reliable": false, "field_event_id": "S3:HE419_MarLitter_transect28", "field_profile": "B", "field_date": "2014-04-11", "field_distance_km": 1406.9, "field_date_gap_days": 4369, "field_conc_items_km2": 43.1, "conc_A_items_km2": null, "conc_A_lo80": null, "conc_A_hi80": null, "conc_A_lo95": null, "conc_A_hi95": null, "conc_A_status": "unavailable", "conc_A_status_ru": "концентрация недоступна", "conc_A_reasons": "вне бассейна профиля: nw_atlantic_subtropical", "conc_A_model": "conc-A-c6bce5631d2b", "conc_B_items_km2": null, "conc_B_lo80": null, "conc_B_hi80": null, "conc_B_lo95": null, "conc_B_hi95": null, "conc_B_status": "unavailable", "conc_B_status_ru": "концентрация недоступна", "conc_B_reasons": "вне бассейна профиля: black_sea", "conc_B_model": "conc-B-c6bce5631d2b"}}, {"type": "Feature", "geometry": {"type": "Polygon", "coordinates": [[[29.897019065447793, 59.94762234252848], [29.897011234804058, 59.947532663991616], [29.896645863148912, 59.94745084123285], [29.896630204034636, 59.94727148409345], [29.896808973626598, 59.947267556352706], [29.89680114366197, 59.947177877794346], [29.89715868173463, 59.947170021614966], [29.897166512662377, 59.94725970014512], [29.897345282106183, 59.94725577167826], [29.897353113564876, 59.94734545019245], [29.897710653267428, 59.947337592504404], [29.897718485738643, 59.94742727098849], [29.897897255997385, 59.94742334176729], [29.89790508899957, 59.947513020235455], [29.89772631825926, 59.94751694947076], [29.897734150829276, 59.94760662795117], [29.897019065447793, 59.94762234252848]]]}, "properties": {"zone_id": "neva-2026-03-28-009", "aoi": "neva", "date": "2026-03-28", "scene_id": "S2A_MSIL2A_20260328T093051_R136_T36VUM_20260328T150909", "scene_datetime_utc": "2026-03-28T09:30:51.024000+00:00", "detection_status": "detected", "detection_status_ru": "обнаружено", "lon": 29.89719, "lat": 59.94741, "n_pixels": 9, "zone_area_km2": 0.0022, "cover_m2": 77.3, "p_mean": 0.896, "p_max": 1.0, "cover_m2_km2": 35136.4, "h3": "8811068ea9fffff", "valid_frac_scene": 0.992, "wind_ms": 2.1, "sea": "спокойное", "scene_reliable": false, "field_event_id": "S3:HE419_MarLitter_transect28", "field_profile": "B", "field_date": "2014-04-11", "field_distance_km": 1406.8, "field_date_gap_days": 4369, "field_conc_items_km2": 43.1, "conc_A_items_km2": null, "conc_A_lo80": null, "conc_A_hi80": null, "conc_A_lo95": null, "conc_A_hi95": null, "conc_A_status": "unavailable", "conc_A_status_ru": "концентрация недоступна", "conc_A_reasons": "вне бассейна профиля: nw_atlantic_subtropical", "conc_A_model": "conc-A-c6bce5631d2b", "conc_B_items_km2": null, "conc_B_lo80": null, "conc_B_hi80": null, "conc_B_lo95": null, "conc_B_hi95": null, "conc_B_status": "unavailable", "conc_B_status_ru": "концентрация недоступна", "conc_B_reasons": "вне бассейна профиля: black_sea", "conc_B_model": "conc-B-c6bce5631d2b"}}, {"type": "Feature", "geometry": {"type": "Polygon", "coordinates": [[[29.895922952779205, 59.9473768712631], [29.895915125173016, 59.947287192636026], [29.89554975885228, 59.94720536679795], [29.89554193230794, 59.947115688138965], [29.895720701233017, 59.947111761878666], [29.895712874256482, 59.94702208323195], [29.89624917929085, 59.947010303041175], [29.89625700771205, 59.94709998164556], [29.896435776439652, 59.947096054417116], [29.896451434393292, 59.947275411592145], [29.896272664702572, 59.94727933884881], [29.896280493271895, 59.94736901744766], [29.895922952779205, 59.9473768712631]]]}, "properties": {"zone_id": "neva-2026-03-28-010", "aoi": "neva", "date": "2026-03-28", "scene_id": "S2A_MSIL2A_20260328T093051_R136_T36VUM_20260328T150909", "scene_datetime_utc": "2026-03-28T09:30:51.024000+00:00", "detection_status": "detected", "detection_status_ru": "обнаружено", "lon": 29.89603, "lat": 59.94719, "n_pixels": 5, "zone_area_km2": 0.0014, "cover_m2": 55.3, "p_mean": 0.95, "p_max": 1.0, "cover_m2_km2": 39500.0, "h3": "8811068ea9fffff", "valid_frac_scene": 0.992, "wind_ms": 2.1, "sea": "спокойное", "scene_reliable": false, "field_event_id": "S3:HE419_MarLitter_transect28", "field_profile": "B", "field_date": "2014-04-11", "field_distance_km": 1406.7, "field_date_gap_days": 4369, "field_conc_items_km2": 43.1, "conc_A_items_km2": null, "conc_A_lo80": null, "conc_A_hi80": null, "conc_A_lo95": null, "conc_A_hi95": null, "conc_A_status": "unavailable", "conc_A_status_ru": "концентрация недоступна", "conc_A_reasons": "вне бассейна профиля: nw_atlantic_subtropical", "conc_A_model": "conc-A-c6bce5631d2b", "conc_B_items_km2": null, "conc_B_lo80": null, "conc_B_hi80": null, "conc_B_lo95": null, "conc_B_hi95": null, "conc_B_status": "unavailable", "conc_B_status_ru": "концентрация недоступна", "conc_B_reasons": "вне бассейна профиля: black_sea", "conc_B_model": "conc-B-c6bce5631d2b"}}, {"type": "Feature", "geometry": {"type": "Polygon", "coordinates": [[[30.130019305335235, 59.8826286594144], [30.13001086756166, 59.8825389991924], [30.129645663405928, 59.882457820514304], [30.12963722669648, 59.882368160257975], [30.1298156094617, 59.88236391962091], [30.129807172326398, 59.88227425937786], [30.13034231886656, 59.882261536064604], [30.130350757438734, 59.88235119626203], [30.13052913999153, 59.882346954659816], [30.130537579095773, 59.88243661484008], [30.130359196064017, 59.88244085645749], [30.130367634742417, 59.882530516651016], [30.130019305335235, 59.8826286594144]]]}, "properties": {"zone_id": "neva-2026-03-28-011", "aoi": "neva", "date": "2026-03-28", "scene_id": "S2A_MSIL2A_20260328T093051_R136_T36VUM_20260328T150909", "scene_datetime_utc": "2026-03-28T09:30:51.024000+00:00", "detection_status": "detected", "detection_status_ru": "обнаружено", "lon": 30.13009, "lat": 59.88242, "n_pixels": 4, "zone_area_km2": 0.0012, "cover_m2": 17.3, "p_mean": 0.995, "p_max": 1.0, "cover_m2_km2": 14416.7, "h3": "8811061739fffff", "valid_frac_scene": 0.992, "wind_ms": 2.1, "sea": "спокойное", "scene_reliable": false, "field_event_id": "S3:HE419_MarLitter_transect28", "field_profile": "B", "field_date": "2014-04-11", "field_distance_km": 1417.7, "field_date_gap_days": 4369, "field_conc_items_km2": 43.1, "conc_A_items_km2": null, "conc_A_lo80": null, "conc_A_hi80": null, "conc_A_lo95": null, "conc_A_hi95": null, "conc_A_status": "unavailable", "conc_A_status_ru": "концентрация недоступна", "conc_A_reasons": "вне бассейна профиля: nw_atlantic_subtropical", "conc_A_model": "conc-A-c6bce5631d2b", "conc_B_items_km2": null, "conc_B_lo80": null, "conc_B_hi80": null, "conc_B_lo95": null, "conc_B_hi95": null, "conc_B_status": "unavailable", "conc_B_status_ru": "концентрация недоступна", "conc_B_reasons": "вне бассейна профиля: black_sea", "conc_B_model": "conc-B-c6bce5631d2b"}}, {"type": "Feature", "geometry": {"type": "Polygon", "coordinates": [[[30.147433023926688, 59.8796075101756], [30.147424540286345, 59.87951785140711], [30.147246175775724, 59.87952211575856], [30.14722920961286, 59.87934279818511], [30.14740757316582, 59.87933853386424], [30.147399089685653, 59.87924887508989], [30.14775581567377, 59.879240345755036], [30.147764300111582, 59.87933000449882], [30.147942663504374, 59.879325739454224], [30.14795963349785, 59.87950505690531], [30.14778126914741, 59.87950932198047], [30.147789753745418, 59.87959898071838], [30.147433023926688, 59.8796075101756]]]}, "properties": {"zone_id": "neva-2026-03-28-012", "aoi": "neva", "date": "2026-03-28", "scene_id": "S2A_MSIL2A_20260328T093051_R136_T36VUM_20260328T150909", "scene_datetime_utc": "2026-03-28T09:30:51.024000+00:00", "detection_status": "detected", "detection_status_ru": "обнаружено", "lon": 30.14759, "lat": 59.87942, "n_pixels": 4, "zone_area_km2": 0.0012, "cover_m2": 45.1, "p_mean": 0.994, "p_max": 1.0, "cover_m2_km2": 37583.3, "h3": "8811061733fffff", "valid_frac_scene": 0.992, "wind_ms": 2.1, "sea": "спокойное", "scene_reliable": false, "field_event_id": "S3:HE419_MarLitter_transect28", "field_profile": "B", "field_date": "2014-04-11", "field_distance_km": 1418.6, "field_date_gap_days": 4369, "field_conc_items_km2": 43.1, "conc_A_items_km2": null, "conc_A_lo80": null, "conc_A_hi80": null, "conc_A_lo95": null, "conc_A_hi95": null, "conc_A_status": "unavailable", "conc_A_status_ru": "концентрация недоступна", "conc_A_reasons": "вне бассейна профиля: nw_atlantic_subtropical", "conc_A_model": "conc-A-c6bce5631d2b", "conc_B_items_km2": null, "conc_B_lo80": null, "conc_B_hi80": null, "conc_B_lo95": null, "conc_B_hi95": null, "conc_B_status": "unavailable", "conc_B_status_ru": "концентрация недоступна", "conc_B_reasons": "вне бассейна профиля: black_sea", "conc_B_model": "conc-B-c6bce5631d2b"}}, {"type": "Feature", "geometry": {"type": "Polygon", "coordinates": [[[30.152953710557473, 59.87749844048183], [30.15294521277132, 59.87740878216012], [30.152766860503867, 59.877413053894195], [30.15274136890251, 59.87714407887129], [30.153089572460487, 59.87704587693958], [30.15309807051148, 59.87713553525384], [30.153276421235745, 59.87713126308329], [30.153284919818947, 59.87722092138026], [30.15346327096848, 59.87721664895317], [30.153480269252825, 59.87739596551057], [30.153301917145804, 59.8774002379683], [30.15331041588945, 59.87748989625939], [30.152953710557473, 59.87749844048183]]]}, "properties": {"zone_id": "neva-2026-03-28-013", "aoi": "neva", "date": "2026-03-28", "scene_id": "S2A_MSIL2A_20260328T093051_R136_T36VUM_20260328T150909", "scene_datetime_utc": "2026-03-28T09:30:51.024000+00:00", "detection_status": "detected", "detection_status_ru": "обнаружено", "lon": 30.15309, "lat": 59.87729, "n_pixels": 5, "zone_area_km2": 0.0014, "cover_m2": 19.2, "p_mean": 0.965, "p_max": 1.0, "cover_m2_km2": 13714.3, "h3": "8811061737fffff", "valid_frac_scene": 0.992, "wind_ms": 2.1, "sea": "спокойное", "scene_reliable": false, "field_event_id": "S3:HE419_MarLitter_transect28", "field_profile": "B", "field_date": "2014-04-11", "field_distance_km": 1418.9, "field_date_gap_days": 4369, "field_conc_items_km2": 43.1, "conc_A_items_km2": null, "conc_A_lo80": null, "conc_A_hi80": null, "conc_A_lo95": null, "conc_A_hi95": null, "conc_A_status": "unavailable", "conc_A_status_ru": "концентрация недоступна", "conc_A_reasons": "вне бассейна профиля: nw_atlantic_subtropical", "conc_A_model": "conc-A-c6bce5631d2b", "conc_B_items_km2": null, "conc_B_lo80": null, "conc_B_hi80": null, "conc_B_lo95": null, "conc_B_hi95": null, "conc_B_status": "unavailable", "conc_B_status_ru": "концентрация недоступна", "conc_B_reasons": "вне бассейна профиля: black_sea", "conc_B_model": "conc-B-c6bce5631d2b"}}, {"type": "Feature", "geometry": {"type": "Polygon", "coordinates": [[[30.13309814526146, 59.87545640597432], [30.13308970162864, 59.875366745917745], [30.132911356902493, 59.87537099069046], [30.132894470753676, 59.875191670540985], [30.133072814522396, 59.875187425798735], [30.133064371048974, 59.87509776573628], [30.133421057469594, 59.87508927555859], [30.13342950190044, 59.875178935590576], [30.133607845509754, 59.875174690124695], [30.133624735488283, 59.87535401015236], [30.133446390921538, 59.87535825564869], [30.133454835511795, 59.875447915674826], [30.13309814526146, 59.87545640597432]]]}, "properties": {"zone_id": "neva-2026-03-28-014", "aoi": "neva", "date": "2026-03-28", "scene_id": "S2A_MSIL2A_20260328T093051_R136_T36VUM_20260328T150909", "scene_datetime_utc": "2026-03-28T09:30:51.024000+00:00", "detection_status": "detected", "detection_status_ru": "обнаружено", "lon": 30.13326, "lat": 59.87527, "n_pixels": 4, "zone_area_km2": 0.0012, "cover_m2": 16.1, "p_mean": 0.973, "p_max": 1.0, "cover_m2_km2": 13416.7, "h3": "8811061731fffff", "valid_frac_scene": 0.992, "wind_ms": 2.1, "sea": "спокойное", "scene_reliable": false, "field_event_id": "S3:HE419_MarLitter_transect28", "field_profile": "B", "field_date": "2014-04-11", "field_distance_km": 1417.7, "field_date_gap_days": 4369, "field_conc_items_km2": 43.1, "conc_A_items_km2": null, "conc_A_lo80": null, "conc_A_hi80": null, "conc_A_lo95": null, "conc_A_hi95": null, "conc_A_status": "unavailable", "conc_A_status_ru": "концентрация недоступна", "conc_A_reasons": "вне бассейна профиля: nw_atlantic_subtropical", "conc_A_model": "conc-A-c6bce5631d2b", "conc_B_items_km2": null, "conc_B_lo80": null, "conc_B_hi80": null, "conc_B_lo95": null, "conc_B_hi95": null, "conc_B_status": "unavailable", "conc_B_status_ru": "концентрация недоступна", "conc_B_reasons": "вне бассейна профиля: black_sea", "conc_B_model": "conc-B-c6bce5631d2b"}}]}