{"type": "FeatureCollection", "features": [{"type": "Feature", "geometry": {"type": "Polygon", "coordinates": [[[39.738360045866216, 43.55306956113971], [39.73835894660861, 43.55297952646273], [39.738235154085395, 43.55298032588727], [39.738234055017124, 43.55289029120634], [39.73835784735608, 43.552889491784285], [39.738356748108636, 43.552799457104406], [39.73860433240276, 43.552797857863226], [39.738605432018716, 43.552887892538095], [39.73872922434239, 43.55288709271398], [39.7387303241477, 43.55297712738492], [39.73860653163976, 43.552977927211536], [39.73860763126589, 43.553067961883535], [39.738360045866216, 43.55306956113971]]]}, "properties": {"zone_id": "sochi-2026-07-02-001", "aoi": "sochi", "date": "2026-07-02", "scene_id": "S2A_MSIL2A_20260702T081021_R078_T37TEJ_20260702T115115", "scene_datetime_utc": "2026-07-02T08:10:21.024000+00:00", "detection_status": "detected", "detection_status_ru": "обнаружено", "lon": 39.73848, "lat": 43.55293, "n_pixels": 2, "zone_area_km2": 0.0008, "cover_m2": 12.2, "p_mean": 0.988, "p_max": 0.996, "cover_m2_km2": 15250.0, "h3": "882d568e0dfffff", "valid_frac_scene": 1.0, "wind_ms": 5.2, "sea": "спокойное", "scene_reliable": true, "field_event_id": "S4:DOORS3:T17", "field_profile": "B", "field_date": "2024-06-04", "field_distance_km": 183.4, "field_date_gap_days": 758, "field_conc_items_km2": 89.61, "conc_A_items_km2": null, "conc_A_lo80": null, "conc_A_hi80": null, "conc_A_lo95": null, "conc_A_hi95": null, "conc_A_status": "unavailable", "conc_A_status_ru": "концентрация недоступна", "conc_A_reasons": "вне бассейна профиля: nw_atlantic_subtropical", "conc_A_model": "conc-A-c6bce5631d2b", "conc_B_items_km2": 621.6, "conc_B_lo80": 132.7, "conc_B_hi80": 2088.3, "conc_B_lo95": 82.8, "conc_B_hi95": 3910.2, "conc_B_status": "research_estimate", "conc_B_status_ru": "исследовательская оценка", "conc_B_reasons": "ближайшее полевое измерение в 183 км (> 60 км); месяц 7 вне месяцев обучения [6]; log_dist_coast_km = 1.0 вне диапазона обучения [1.7; 5.0]", "conc_B_model": "conc-B-c6bce5631d2b"}}, {"type": "Feature", "geometry": {"type": "Polygon", "coordinates": [[[39.74937757634615, 43.55299787537013], [39.74937646068954, 43.55290784091722], [39.74925266862267, 43.55290865226976], [39.749251553155474, 43.552818617812854], [39.74937534503809, 43.552817806462855], [39.74937422939181, 43.552727772007046], [39.74962181277304, 43.55272614891005], [39.749622928787836, 43.55281618336078], [39.74974672065496, 43.552815371608716], [39.74974783685918, 43.552905406055466], [39.749624044807796, 43.55290621781008], [39.74962516083292, 43.55299625225792], [39.74937757634615, 43.55299787537013]]]}, "properties": {"zone_id": "sochi-2026-07-02-002", "aoi": "sochi", "date": "2026-07-02", "scene_id": "S2A_MSIL2A_20260702T081021_R078_T37TEJ_20260702T115115", "scene_datetime_utc": "2026-07-02T08:10:21.024000+00:00", "detection_status": "detected", "detection_status_ru": "обнаружено", "lon": 39.7495, "lat": 43.55286, "n_pixels": 2, "zone_area_km2": 0.0008, "cover_m2": 10.6, "p_mean": 0.871, "p_max": 0.941, "cover_m2_km2": 13250.0, "h3": "882d568e07fffff", "valid_frac_scene": 1.0, "wind_ms": 5.2, "sea": "спокойное", "scene_reliable": true, "field_event_id": "S4:DOORS3:T17", "field_profile": "B", "field_date": "2024-06-04", "field_distance_km": 183.9, "field_date_gap_days": 758, "field_conc_items_km2": 89.61, "conc_A_items_km2": null, "conc_A_lo80": null, "conc_A_hi80": null, "conc_A_lo95": null, "conc_A_hi95": null, "conc_A_status": "unavailable", "conc_A_status_ru": "концентрация недоступна", "conc_A_reasons": "вне бассейна профиля: nw_atlantic_subtropical", "conc_A_model": "conc-A-c6bce5631d2b", "conc_B_items_km2": 666.4, "conc_B_lo80": 142.3, "conc_B_hi80": 2238.5, "conc_B_lo95": 88.8, "conc_B_hi95": 4191.4, "conc_B_status": "research_estimate", "conc_B_status_ru": "исследовательская оценка", "conc_B_reasons": "ближайшее полевое измерение в 184 км (> 60 км); месяц 7 вне месяцев обучения [6]; log_dist_coast_km = 0.9 вне диапазона обучения [1.7; 5.0]", "conc_B_model": "conc-B-c6bce5631d2b"}}, {"type": "Feature", "geometry": {"type": "Polygon", "coordinates": [[[39.75924363928656, 43.54996140176391], [39.75924250906217, 43.549871367467475], [39.75911872349118, 43.549872189456906], [39.75911759345626, 43.54978215515646], [39.75924137884303, 43.549781333169605], [39.75924024862911, 43.54969129887029], [39.75948894960086, 43.54977968879387], [39.75949008018846, 43.5498697230866], [39.75936629462794, 43.54987054534405], [39.759367425036544, 43.54996057963791], [39.75924363928656, 43.54996140176391]]]}, "properties": {"zone_id": "sochi-2026-07-02-003", "aoi": "sochi", "date": "2026-07-02", "scene_id": "S2A_MSIL2A_20260702T081021_R078_T37TEJ_20260702T115115", "scene_datetime_utc": "2026-07-02T08:10:21.024000+00:00", "detection_status": "detected", "detection_status_ru": "обнаружено", "lon": 39.7593, "lat": 43.54983, "n_pixels": 1, "zone_area_km2": 0.0005, "cover_m2": 4.7, "p_mean": 0.992, "p_max": 0.992, "cover_m2_km2": 9400.0, "h3": "882d568e3dfffff", "valid_frac_scene": 1.0, "wind_ms": 5.2, "sea": "спокойное", "scene_reliable": true, "field_event_id": "S4:DOORS3:T17", "field_profile": "B", "field_date": "2024-06-04", "field_distance_km": 184.1, "field_date_gap_days": 758, "field_conc_items_km2": 89.61, "conc_A_items_km2": null, "conc_A_lo80": null, "conc_A_hi80": null, "conc_A_lo95": null, "conc_A_hi95": null, "conc_A_status": "unavailable", "conc_A_status_ru": "концентрация недоступна", "conc_A_reasons": "вне бассейна профиля: nw_atlantic_subtropical", "conc_A_model": "conc-A-c6bce5631d2b", "conc_B_items_km2": 666.4, "conc_B_lo80": 142.3, "conc_B_hi80": 2238.5, "conc_B_lo95": 88.8, "conc_B_hi95": 4191.4, "conc_B_status": "research_estimate", "conc_B_status_ru": "исследовательская оценка", "conc_B_reasons": "ближайшее полевое измерение в 184 км (> 60 км); месяц 7 вне месяцев обучения [6]; log_dist_coast_km = 0.9 вне диапазона обучения [1.7; 5.0]", "conc_B_model": "conc-B-c6bce5631d2b"}}, {"type": "Feature", "geometry": {"type": "Polygon", "coordinates": [[[39.740626106504855, 43.546031641123946], [39.74062500414449, 43.54594160638176], [39.740501226087716, 43.54594240815724], [39.740500123916654, 43.545852373411094], [39.740623901789235, 43.54585157163811], [39.74062279943909, 43.545761536893], [39.74074657712237, 43.54576073498855], [39.74074547459313, 43.545670700244514], [39.74099413247364, 43.54575913077766], [39.7409963382842, 43.54593920025137], [39.740872560242735, 43.54594000242882], [39.74087366297148, 43.546030037166], [39.740626106504855, 43.546031641123946]]]}, "properties": {"zone_id": "sochi-2026-07-02-004", "aoi": "sochi", "date": "2026-07-02", "scene_id": "S2A_MSIL2A_20260702T081021_R078_T37TEJ_20260702T115115", "scene_datetime_utc": "2026-07-02T08:10:21.024000+00:00", "detection_status": "detected", "detection_status_ru": "обнаружено", "lon": 39.74077, "lat": 43.54587, "n_pixels": 3, "zone_area_km2": 0.001, "cover_m2": 15.3, "p_mean": 0.983, "p_max": 0.996, "cover_m2_km2": 15300.0, "h3": "882d568e05fffff", "valid_frac_scene": 1.0, "wind_ms": 5.2, "sea": "спокойное", "scene_reliable": true, "field_event_id": "S4:DOORS3:T17", "field_profile": "B", "field_date": "2024-06-04", "field_distance_km": 182.9, "field_date_gap_days": 758, "field_conc_items_km2": 89.61, "conc_A_items_km2": null, "conc_A_lo80": null, "conc_A_hi80": null, "conc_A_lo95": null, "conc_A_hi95": null, "conc_A_status": "unavailable", "conc_A_status_ru": "концентрация недоступна", "conc_A_reasons": "вне бассейна профиля: nw_atlantic_subtropical", "conc_A_model": "conc-A-c6bce5631d2b", "conc_B_items_km2": 539.0, "conc_B_lo80": 114.9, "conc_B_hi80": 1811.0, "conc_B_lo95": 71.7, "conc_B_hi95": 3391.1, "conc_B_status": "research_estimate", "conc_B_status_ru": "исследовательская оценка", "conc_B_reasons": "ближайшее полевое измерение в 183 км (> 60 км); месяц 7 вне месяцев обучения [6]", "conc_B_model": "conc-B-c6bce5631d2b"}}, {"type": "Feature", "geometry": {"type": "Polygon", "coordinates": [[[39.749015144286254, 43.543725941176056], [39.7490140295299, 43.5436359065691], [39.74889025642661, 43.54363671739251], [39.748889141859586, 43.543546682781574], [39.74901291477871, 43.5435458719607], [39.749011800032676, 43.543455837350855], [39.74925934548709, 43.54345421531226], [39.749260460601455, 43.54354424991702], [39.74938423350509, 43.54354343869423], [39.74938534880879, 43.54363347329501], [39.749261575720986, 43.54363428452036], [39.749262690845676, 43.54372431912224], [39.749015144286254, 43.543725941176056]]]}, "properties": {"zone_id": "sochi-2026-07-02-005", "aoi": "sochi", "date": "2026-07-02", "scene_id": "S2A_MSIL2A_20260702T081021_R078_T37TEJ_20260702T115115", "scene_datetime_utc": "2026-07-02T08:10:21.024000+00:00", "detection_status": "detected", "detection_status_ru": "обнаружено", "lon": 39.74914, "lat": 43.54359, "n_pixels": 2, "zone_area_km2": 0.0008, "cover_m2": 11.4, "p_mean": 0.988, "p_max": 0.992, "cover_m2_km2": 14250.0, "h3": "882d568e2bfffff", "valid_frac_scene": 1.0, "wind_ms": 5.2, "sea": "спокойное", "scene_reliable": true, "field_event_id": "S4:DOORS3:T17", "field_profile": "B", "field_date": "2024-06-04", "field_distance_km": 183.1, "field_date_gap_days": 758, "field_conc_items_km2": 89.61, "conc_A_items_km2": null, "conc_A_lo80": null, "conc_A_hi80": null, "conc_A_lo95": null, "conc_A_hi95": null, "conc_A_status": "unavailable", "conc_A_status_ru": "концентрация недоступна", "conc_A_reasons": "вне бассейна профиля: nw_atlantic_subtropical", "conc_A_model": "conc-A-c6bce5631d2b", "conc_B_items_km2": 591.0, "conc_B_lo80": 126.1, "conc_B_hi80": 1985.7, "conc_B_lo95": 78.7, "conc_B_hi95": 3718.0, "conc_B_status": "research_estimate", "conc_B_status_ru": "исследовательская оценка", "conc_B_reasons": "ближайшее полевое измерение в 183 км (> 60 км); месяц 7 вне месяцев обучения [6]; log_dist_coast_km = 1.2 вне диапазона обучения [1.7; 5.0]", "conc_B_model": "conc-B-c6bce5631d2b"}}, {"type": "Feature", "geometry": {"type": "Polygon", "coordinates": [[[39.73786753407214, 43.5329933899944], [39.73786643631699, 43.53290335499006], [39.737742684852215, 43.532904153589705], [39.73774048972531, 43.53272408357167], [39.73786424082195, 43.53272328497702], [39.73786314308205, 43.53263324996834], [39.738111742999976, 43.53272168738593], [39.73811284111309, 43.53281172238817], [39.73823659237855, 43.53281092338924], [39.73823769068082, 43.532900958387536], [39.73811393923129, 43.53290175738898], [39.738115037354575, 43.53299179238833], [39.73786753407214, 43.5329933899944]]]}, "properties": {"zone_id": "sochi-2026-07-02-006", "aoi": "sochi", "date": "2026-07-02", "scene_id": "S2A_MSIL2A_20260702T081021_R078_T37TEJ_20260702T115115", "scene_datetime_utc": "2026-07-02T08:10:21.024000+00:00", "detection_status": "detected", "detection_status_ru": "обнаружено", "lon": 39.73797, "lat": 43.53283, "n_pixels": 3, "zone_area_km2": 0.001, "cover_m2": 14.1, "p_mean": 0.949, "p_max": 1.0, "cover_m2_km2": 14100.0, "h3": "882d568e2dfffff", "valid_frac_scene": 1.0, "wind_ms": 5.2, "sea": "спокойное", "scene_reliable": true, "field_event_id": "S4:DOORS3:T17", "field_profile": "B", "field_date": "2024-06-04", "field_distance_km": 181.6, "field_date_gap_days": 758, "field_conc_items_km2": 89.61, "conc_A_items_km2": null, "conc_A_lo80": null, "conc_A_hi80": null, "conc_A_lo95": null, "conc_A_hi95": null, "conc_A_status": "unavailable", "conc_A_status_ru": "концентрация недоступна", "conc_A_reasons": "вне бассейна профиля: nw_atlantic_subtropical", "conc_A_model": "conc-A-c6bce5631d2b", "conc_B_items_km2": 539.0, "conc_B_lo80": 114.9, "conc_B_hi80": 1811.0, "conc_B_lo95": 71.7, "conc_B_hi95": 3391.1, "conc_B_status": "research_estimate", "conc_B_status_ru": "исследовательская оценка", "conc_B_reasons": "ближайшее полевое измерение в 182 км (> 60 км); месяц 7 вне месяцев обучения [6]", "conc_B_model": "conc-B-c6bce5631d2b"}}, {"type": "Feature", "geometry": {"type": "Polygon", "coordinates": [[[39.82816284451239, 43.511215073639754], [39.82816161336604, 43.51112504023396], [39.828037909076734, 43.5111259362075], [39.82803667811993, 43.51103590279745], [39.8281603822254, 43.511035006826724], [39.828159151090446, 43.51094497341804], [39.828407790419234, 43.51103321448382], [39.82840902192758, 43.51112324788546], [39.82828531764966, 43.51112414412662], [39.82828654897986, 43.5112141775296], [39.82816284451239, 43.511215073639754]]]}, "properties": {"zone_id": "sochi-2026-07-02-007", "aoi": "sochi", "date": "2026-07-02", "scene_id": "S2A_MSIL2A_20260702T081021_R078_T37TEJ_20260702T115115", "scene_datetime_utc": "2026-07-02T08:10:21.024000+00:00", "detection_status": "detected", "detection_status_ru": "обнаружено", "lon": 39.82822, "lat": 43.51108, "n_pixels": 1, "zone_area_km2": 0.0005, "cover_m2": 3.9, "p_mean": 0.949, "p_max": 0.949, "cover_m2_km2": 7800.0, "h3": "882d568c23fffff", "valid_frac_scene": 1.0, "wind_ms": 5.2, "sea": "спокойное", "scene_reliable": true, "field_event_id": "S4:DOORS3:T17", "field_profile": "B", "field_date": "2024-06-04", "field_distance_km": 184.2, "field_date_gap_days": 758, "field_conc_items_km2": 89.61, "conc_A_items_km2": null, "conc_A_lo80": null, "conc_A_hi80": null, "conc_A_lo95": null, "conc_A_hi95": null, "conc_A_status": "unavailable", "conc_A_status_ru": "концентрация недоступна", "conc_A_reasons": "вне бассейна профиля: nw_atlantic_subtropical", "conc_A_model": "conc-A-c6bce5631d2b", "conc_B_items_km2": 621.6, "conc_B_lo80": 132.7, "conc_B_hi80": 2088.3, "conc_B_lo95": 82.8, "conc_B_hi95": 3910.2, "conc_B_status": "research_estimate", "conc_B_status_ru": "исследовательская оценка", "conc_B_reasons": "ближайшее полевое измерение в 184 км (> 60 км); месяц 7 вне месяцев обучения [6]; log_dist_coast_km = 1.0 вне диапазона обучения [1.7; 5.0]", "conc_B_model": "conc-B-c6bce5631d2b"}}, {"type": "Feature", "geometry": {"type": "Polygon", "coordinates": [[[39.84963934030794, 43.50763588468298], [39.849638077394694, 43.507545851715705], [39.849514381095005, 43.5075467708644], [39.84951311837141, 43.50745673789278], [39.84963681448728, 43.50745581874695], [39.84963555158572, 43.50736578577676], [39.84988420670149, 43.50745398005391], [39.84988546997651, 43.507544013016904], [39.84976177368853, 43.50754493243321], [39.84976303678558, 43.50763496539761], [39.84963934030794, 43.50763588468298]]]}, "properties": {"zone_id": "sochi-2026-07-02-008", "aoi": "sochi", "date": "2026-07-02", "scene_id": "S2A_MSIL2A_20260702T081021_R078_T37TEJ_20260702T115115", "scene_datetime_utc": "2026-07-02T08:10:21.024000+00:00", "detection_status": "detected", "detection_status_ru": "обнаружено", "lon": 39.8497, "lat": 43.5075, "n_pixels": 1, "zone_area_km2": 0.0005, "cover_m2": 6.3, "p_mean": 0.988, "p_max": 0.988, "cover_m2_km2": 12600.0, "h3": "882d568dcbfffff", "valid_frac_scene": 1.0, "wind_ms": 5.2, "sea": "спокойное", "scene_reliable": true, "field_event_id": "S4:DOORS3:T17", "field_profile": "B", "field_date": "2024-06-04", "field_distance_km": 185.0, "field_date_gap_days": 758, "field_conc_items_km2": 89.61, "conc_A_items_km2": null, "conc_A_lo80": null, "conc_A_hi80": null, "conc_A_lo95": null, "conc_A_hi95": null, "conc_A_status": "unavailable", "conc_A_status_ru": "концентрация недоступна", "conc_A_reasons": "вне бассейна профиля: nw_atlantic_subtropical", "conc_A_model": "conc-A-c6bce5631d2b", "conc_B_items_km2": 666.4, "conc_B_lo80": 142.3, "conc_B_hi80": 2238.5, "conc_B_lo95": 88.8, "conc_B_hi95": 4191.4, "conc_B_status": "research_estimate", "conc_B_status_ru": "исследовательская оценка", "conc_B_reasons": "ближайшее полевое измерение в 185 км (> 60 км); месяц 7 вне месяцев обучения [6]; log_dist_coast_km = 0.9 вне диапазона обучения [1.7; 5.0]", "conc_B_model": "conc-B-c6bce5631d2b"}}, {"type": "Feature", "geometry": {"type": "Polygon", "coordinates": [[[39.88074261712968, 43.48570027903798], [39.88074130898946, 43.48561024646343], [39.88061765847307, 43.48561119887917], [39.88061504257797, 43.48543113371976], [39.88086103456464, 43.48533919619057], [39.8808623428703, 43.4854292287665], [39.88098599300739, 43.48542827608933], [39.88098861000406, 43.485608341230865], [39.88074261712968, 43.48570027903798]]]}, "properties": {"zone_id": "sochi-2026-07-02-009", "aoi": "sochi", "date": "2026-07-02", "scene_id": "S2A_MSIL2A_20260702T081021_R078_T37TEJ_20260702T115115", "scene_datetime_utc": "2026-07-02T08:10:21.024000+00:00", "detection_status": "detected", "detection_status_ru": "обнаружено", "lon": 39.8808, "lat": 43.48552, "n_pixels": 2, "zone_area_km2": 0.0008, "cover_m2": 19.6, "p_mean": 0.765, "p_max": 1.0, "cover_m2_km2": 24500.0, "h3": "882d568d85fffff", "valid_frac_scene": 1.0, "wind_ms": 5.2, "sea": "спокойное", "scene_reliable": true, "field_event_id": "S4:DOORS3:T17", "field_profile": "B", "field_date": "2024-06-04", "field_distance_km": 184.7, "field_date_gap_days": 758, "field_conc_items_km2": 89.61, "conc_A_items_km2": null, "conc_A_lo80": null, "conc_A_hi80": null, "conc_A_lo95": null, "conc_A_hi95": null, "conc_A_status": "unavailable", "conc_A_status_ru": "концентрация недоступна", "conc_A_reasons": "вне бассейна профиля: nw_atlantic_subtropical", "conc_A_model": "conc-A-c6bce5631d2b", "conc_B_items_km2": 901.4, "conc_B_lo80": 192.7, "conc_B_hi80": 3027.3, "conc_B_lo95": 120.4, "conc_B_hi95": 5668.0, "conc_B_status": "research_estimate", "conc_B_status_ru": "исследовательская оценка", "conc_B_reasons": "ближайшее полевое измерение в 185 км (> 60 км); месяц 7 вне месяцев обучения [6]; log_dist_coast_km = 0.0 вне диапазона обучения [1.7; 5.0]", "conc_B_model": "conc-B-c6bce5631d2b"}}, {"type": "Feature", "geometry": {"type": "Polygon", "coordinates": [[[39.87263975070744, 43.472616165331985], [39.8726384551929, 43.47252613235544], [39.87251483108723, 43.47252707578392], [39.87251353576215, 43.47243704280298], [39.87263715968435, 43.47243609937743], [39.87263586418179, 43.47234606639798], [39.872883111641244, 43.472344179151875], [39.872884407510746, 43.472434212125435], [39.873008031414955, 43.47243326829897], [39.87300932747393, 43.472523301268126], [39.872885703386245, 43.47252424509752], [39.87288699926774, 43.47261427806818], [39.87263975070744, 43.472616165331985]]]}, "properties": {"zone_id": "sochi-2026-07-02-010", "aoi": "sochi", "date": "2026-07-02", "scene_id": "S2A_MSIL2A_20260702T081021_R078_T37TEJ_20260702T115115", "scene_datetime_utc": "2026-07-02T08:10:21.024000+00:00", "detection_status": "detected", "detection_status_ru": "обнаружено", "lon": 39.87276, "lat": 43.47248, "n_pixels": 2, "zone_area_km2": 0.0008, "cover_m2": 7.1, "p_mean": 0.929, "p_max": 0.941, "cover_m2_km2": 8875.0, "h3": "882d568de7fffff", "valid_frac_scene": 1.0, "wind_ms": 5.2, "sea": "спокойное", "scene_reliable": true, "field_event_id": "S4:DOORS3:T17", "field_profile": "B", "field_date": "2024-06-04", "field_distance_km": 183.2, "field_date_gap_days": 758, "field_conc_items_km2": 89.61, "conc_A_items_km2": null, "conc_A_lo80": null, "conc_A_hi80": null, "conc_A_lo95": null, "conc_A_hi95": null, "conc_A_status": "unavailable", "conc_A_status_ru": "концентрация недоступна", "conc_A_reasons": "вне бассейна профиля: nw_atlantic_subtropical", "conc_A_model": "conc-A-c6bce5631d2b", "conc_B_items_km2": 591.0, "conc_B_lo80": 126.1, "conc_B_hi80": 1985.7, "conc_B_lo95": 78.7, "conc_B_hi95": 3718.0, "conc_B_status": "research_estimate", "conc_B_status_ru": "исследовательская оценка", "conc_B_reasons": "ближайшее полевое измерение в 183 км (> 60 км); месяц 7 вне месяцев обучения [6]; log_dist_coast_km = 1.2 вне диапазона обучения [1.7; 5.0]", "conc_B_model": "conc-B-c6bce5631d2b"}}, {"type": "Feature", "geometry": {"type": "Polygon", "coordinates": [[[39.755913427991636, 43.471646569552625], [39.755912305795334, 43.47155653394894], [39.75578868008016, 43.4715573511667], [39.75578755807254, 43.471467315558996], [39.75591118360422, 43.471466498343794], [39.7559100614183, 43.471376462737204], [39.75615731209913, 43.47137482791098], [39.756158434652015, 43.47146486351246], [39.756282060168125, 43.47146404589632], [39.75628318290969, 43.4715540814938], [39.7561595572101, 43.47155489911248], [39.75616067977337, 43.471644934711065], [39.755913427991636, 43.471646569552625]]]}, "properties": {"zone_id": "sochi-2026-07-02-011", "aoi": "sochi", "date": "2026-07-02", "scene_id": "S2A_MSIL2A_20260702T081021_R078_T37TEJ_20260702T115115", "scene_datetime_utc": "2026-07-02T08:10:21.024000+00:00", "detection_status": "detected", "detection_status_ru": "обнаружено", "lon": 39.75604, "lat": 43.47151, "n_pixels": 2, "zone_area_km2": 0.0008, "cover_m2": 2.7, "p_mean": 0.92, "p_max": 0.933, "cover_m2_km2": 3375.0, "h3": "882d568f25fffff", "valid_frac_scene": 1.0, "wind_ms": 5.2, "sea": "спокойное", "scene_reliable": true, "field_event_id": "S4:DOORS3:T17", "field_profile": "B", "field_date": "2024-06-04", "field_distance_km": 177.1, "field_date_gap_days": 758, "field_conc_items_km2": 89.61, "conc_A_items_km2": null, "conc_A_lo80": null, "conc_A_hi80": null, "conc_A_lo95": null, "conc_A_hi95": null, "conc_A_status": "unavailable", "conc_A_status_ru": "концентрация недоступна", "conc_A_reasons": "вне бассейна профиля: nw_atlantic_subtropical", "conc_A_model": "conc-A-c6bce5631d2b", "conc_B_items_km2": 406.7, "conc_B_lo80": 86.5, "conc_B_hi80": 1367.2, "conc_B_lo95": 53.9, "conc_B_hi95": 2560.2, "conc_B_status": "research_estimate", "conc_B_status_ru": "исследовательская оценка", "conc_B_reasons": "ближайшее полевое измерение в 177 км (> 60 км); месяц 7 вне месяцев обучения [6]", "conc_B_model": "conc-B-c6bce5631d2b"}}, {"type": "Feature", "geometry": {"type": "Polygon", "coordinates": [[[39.75650348112232, 43.46939159123968], [39.75650235813848, 43.4693015556126], [39.75637873703617, 43.46930237343466], [39.756376491451, 43.469122302171044], [39.75662260976483, 43.469030630774675], [39.75662373291656, 43.46912066640353], [39.75674735364154, 43.46911984831933], [39.7567496003275, 43.4692999195676], [39.75650348112232, 43.46939159123968]]]}, "properties": {"zone_id": "sochi-2026-07-02-012", "aoi": "sochi", "date": "2026-07-02", "scene_id": "S2A_MSIL2A_20260702T081021_R078_T37TEJ_20260702T115115", "scene_datetime_utc": "2026-07-02T08:10:21.024000+00:00", "detection_status": "detected", "detection_status_ru": "обнаружено", "lon": 39.75656, "lat": 43.46921, "n_pixels": 2, "zone_area_km2": 0.0008, "cover_m2": 5.1, "p_mean": 0.794, "p_max": 0.953, "cover_m2_km2": 6375.0, "h3": "882d568f25fffff", "valid_frac_scene": 1.0, "wind_ms": 5.2, "sea": "спокойное", "scene_reliable": true, "field_event_id": "S4:DOORS3:T17", "field_profile": "B", "field_date": "2024-06-04", "field_distance_km": 176.9, "field_date_gap_days": 758, "field_conc_items_km2": 89.61, "conc_A_items_km2": null, "conc_A_lo80": null, "conc_A_hi80": null, "conc_A_lo95": null, "conc_A_hi95": null, "conc_A_status": "unavailable", "conc_A_status_ru": "концентрация недоступна", "conc_A_reasons": "вне бассейна профиля: nw_atlantic_subtropical", "conc_A_model": "conc-A-c6bce5631d2b", "conc_B_items_km2": 406.7, "conc_B_lo80": 86.5, "conc_B_hi80": 1367.2, "conc_B_lo95": 53.9, "conc_B_hi95": 2560.2, "conc_B_status": "research_estimate", "conc_B_status_ru": "исследовательская оценка", "conc_B_reasons": "ближайшее полевое измерение в 177 км (> 60 км); месяц 7 вне месяцев обучения [6]", "conc_B_model": "conc-B-c6bce5631d2b"}}, {"type": "Feature", "geometry": {"type": "Polygon", "coordinates": [[[39.903596507574115, 43.434287473317156], [39.9035951678983, 43.43419744049033], [39.90347162287873, 43.43419841670354], [39.90346894391193, 43.434018351039406], [39.90371469337213, 43.433926365663574], [39.90371603321245, 43.434016398491735], [39.90383957785342, 43.43401542201771], [39.90384225791886, 43.43419548766353], [39.903596507574115, 43.434287473317156]]]}, "properties": {"zone_id": "sochi-2026-07-02-013", "aoi": "sochi", "date": "2026-07-02", "scene_id": "S2A_MSIL2A_20260702T081021_R078_T37TEJ_20260702T115115", "scene_datetime_utc": "2026-07-02T08:10:21.024000+00:00", "detection_status": "detected", "detection_status_ru": "обнаружено", "lon": 39.90366, "lat": 43.43411, "n_pixels": 2, "zone_area_km2": 0.0008, "cover_m2": 15.3, "p_mean": 0.878, "p_max": 0.937, "cover_m2_km2": 19125.0, "h3": "882d5612b9fffff", "valid_frac_scene": 1.0, "wind_ms": 5.2, "sea": "спокойное", "scene_reliable": true, "field_event_id": "S4:DOORS3:T23", "field_profile": "B", "field_date": "2024-06-10", "field_distance_km": 180.9, "field_date_gap_days": 752, "field_conc_items_km2": 102.37, "conc_A_items_km2": null, "conc_A_lo80": null, "conc_A_hi80": null, "conc_A_lo95": null, "conc_A_hi95": null, "conc_A_status": "unavailable", "conc_A_status_ru": "концентрация недоступна", "conc_A_reasons": "вне бассейна профиля: nw_atlantic_subtropical", "conc_A_model": "conc-A-c6bce5631d2b", "conc_B_items_km2": 666.4, "conc_B_lo80": 142.3, "conc_B_hi80": 2238.5, "conc_B_lo95": 88.8, "conc_B_hi95": 4191.4, "conc_B_status": "research_estimate", "conc_B_status_ru": "исследовательская оценка", "conc_B_reasons": "ближайшее полевое измерение в 181 км (> 60 км); месяц 7 вне месяцев обучения [6]; log_dist_coast_km = 0.9 вне диапазона обучения [1.7; 5.0]", "conc_B_model": "conc-B-c6bce5631d2b"}}, {"type": "Feature", "geometry": {"type": "Polygon", "coordinates": [[[39.89494185321985, 43.425531274663946], [39.89494052677984, 43.425441241484855], [39.89481699927552, 43.42544220819344], [39.894815673024674, 43.42535217500988], [39.89493920034597, 43.42535120830431], [39.89493787391824, 43.42526117512234], [39.89518625497017, 43.425349274492966], [39.895187581770095, 43.42543930766746], [39.89506405427803, 43.42544027464286], [39.895065380901066, 43.425530307818924], [39.89494185321985, 43.425531274663946]]]}, "properties": {"zone_id": "sochi-2026-07-02-014", "aoi": "sochi", "date": "2026-07-02", "scene_id": "S2A_MSIL2A_20260702T081021_R078_T37TEJ_20260702T115115", "scene_datetime_utc": "2026-07-02T08:10:21.024000+00:00", "detection_status": "detected", "detection_status_ru": "обнаружено", "lon": 39.895, "lat": 43.4254, "n_pixels": 1, "zone_area_km2": 0.0005, "cover_m2": 6.3, "p_mean": 0.969, "p_max": 0.969, "cover_m2_km2": 12600.0, "h3": "882d5612abfffff", "valid_frac_scene": 1.0, "wind_ms": 5.2, "sea": "спокойное", "scene_reliable": true, "field_event_id": "S4:DOORS3:T17", "field_profile": "B", "field_date": "2024-06-04", "field_distance_km": 180.5, "field_date_gap_days": 758, "field_conc_items_km2": 89.61, "conc_A_items_km2": null, "conc_A_lo80": null, "conc_A_hi80": null, "conc_A_lo95": null, "conc_A_hi95": null, "conc_A_status": "unavailable", "conc_A_status_ru": "концентрация недоступна", "conc_A_reasons": "вне бассейна профиля: nw_atlantic_subtropical", "conc_A_model": "conc-A-c6bce5631d2b", "conc_B_items_km2": 666.4, "conc_B_lo80": 142.3, "conc_B_hi80": 2238.5, "conc_B_lo95": 88.8, "conc_B_hi95": 4191.4, "conc_B_status": "research_estimate", "conc_B_status_ru": "исследовательская оценка", "conc_B_reasons": "ближайшее полевое измерение в 180 км (> 60 км); месяц 7 вне месяцев обучения [6]; log_dist_coast_km = 0.9 вне диапазона обучения [1.7; 5.0]", "conc_B_model": "conc-B-c6bce5631d2b"}}, {"type": "Feature", "geometry": {"type": "Polygon", "coordinates": [[[39.906707760378225, 43.41922557655206], [39.90670641679652, 43.419135543564586], [39.90658290251151, 43.41913652286962], [39.906581559118976, 43.41904648987763], [39.90682724356461, 43.41895449815294], [39.90682589981857, 43.41886446516415], [39.90694941354226, 43.41886348560152], [39.90694806961947, 43.41877345261434], [39.90719644097099, 43.418861526076135], [39.90719912956705, 43.419041592033885], [39.907075615489866, 43.4190425718694], [39.90707695961426, 43.419132604849146], [39.90682993107531, 43.41913456412615], [39.90683127483999, 43.41922459711057], [39.906707760378225, 43.41922557655206]]]}, "properties": {"zone_id": "sochi-2026-07-02-015", "aoi": "sochi", "date": "2026-07-02", "scene_id": "S2A_MSIL2A_20260702T081021_R078_T37TEJ_20260702T115115", "scene_datetime_utc": "2026-07-02T08:10:21.024000+00:00", "detection_status": "detected", "detection_status_ru": "обнаружено", "lon": 39.90692, "lat": 43.419, "n_pixels": 4, "zone_area_km2": 0.0013, "cover_m2": 20.4, "p_mean": 0.974, "p_max": 0.996, "cover_m2_km2": 15692.3, "h3": "882d5612a3fffff", "valid_frac_scene": 1.0, "wind_ms": 5.2, "sea": "спокойное", "scene_reliable": true, "field_event_id": "S4:DOORS3:T23", "field_profile": "B", "field_date": "2024-06-10", "field_distance_km": 179.6, "field_date_gap_days": 752, "field_conc_items_km2": 102.37, "conc_A_items_km2": null, "conc_A_lo80": null, "conc_A_hi80": null, "conc_A_lo95": null, "conc_A_hi95": null, "conc_A_status": "unavailable", "conc_A_status_ru": "концентрация недоступна", "conc_A_reasons": "вне бассейна профиля: nw_atlantic_subtropical", "conc_A_model": "conc-A-c6bce5631d2b", "conc_B_items_km2": 666.4, "conc_B_lo80": 142.3, "conc_B_hi80": 2238.5, "conc_B_lo95": 88.8, "conc_B_hi95": 4191.4, "conc_B_status": "research_estimate", "conc_B_status_ru": "исследовательская оценка", "conc_B_reasons": "ближайшее полевое измерение в 180 км (> 60 км); месяц 7 вне месяцев обучения [6]; log_dist_coast_km = 0.9 вне диапазона обучения [1.7; 5.0]", "conc_B_model": "conc-B-c6bce5631d2b"}}, {"type": "Feature", "geometry": {"type": "Polygon", "coordinates": [[[39.918814139017684, 43.40292106641993], [39.918812778272525, 43.40283103347843], [39.9186892975324, 43.40283202556334], [39.91868793697634, 43.402741992617294], [39.91881141753367, 43.40274100053547], [39.91881005680109, 43.402650967591065], [39.91905837862943, 43.40273901597193], [39.91905973973392, 43.40282904890867], [39.918936259006365, 43.40283004126021], [39.91893761993433, 43.402920074198605], [39.918814139017684, 43.40292106641993]]]}, "properties": {"zone_id": "sochi-2026-07-02-016", "aoi": "sochi", "date": "2026-07-02", "scene_id": "S2A_MSIL2A_20260702T081021_R078_T37TEJ_20260702T115115", "scene_datetime_utc": "2026-07-02T08:10:21.024000+00:00", "detection_status": "detected", "detection_status_ru": "обнаружено", "lon": 39.91887, "lat": 43.40279, "n_pixels": 1, "zone_area_km2": 0.0005, "cover_m2": 5.1, "p_mean": 0.969, "p_max": 0.969, "cover_m2_km2": 10200.0, "h3": "882d5610c5fffff", "valid_frac_scene": 1.0, "wind_ms": 5.2, "sea": "спокойное", "scene_reliable": true, "field_event_id": "S4:DOORS3:T23", "field_profile": "B", "field_date": "2024-06-10", "field_distance_km": 177.7, "field_date_gap_days": 752, "field_conc_items_km2": 102.37, "conc_A_items_km2": null, "conc_A_lo80": null, "conc_A_hi80": null, "conc_A_lo95": null, "conc_A_hi95": null, "conc_A_status": "unavailable", "conc_A_status_ru": "концентрация недоступна", "conc_A_reasons": "вне бассейна профиля: nw_atlantic_subtropical", "conc_A_model": "conc-A-c6bce5631d2b", "conc_B_items_km2": 621.6, "conc_B_lo80": 132.7, "conc_B_hi80": 2088.3, "conc_B_lo95": 82.8, "conc_B_hi95": 3910.2, "conc_B_status": "research_estimate", "conc_B_status_ru": "исследовательская оценка", "conc_B_reasons": "ближайшее полевое измерение в 178 км (> 60 км); месяц 7 вне месяцев обучения [6]; log_dist_coast_km = 1.0 вне диапазона обучения [1.7; 5.0]", "conc_B_model": "conc-B-c6bce5631d2b"}}, {"type": "Feature", "geometry": {"type": "Polygon", "coordinates": [[[39.95091007576719, 43.39419454813159], [39.95090866792173, 43.39410451587671], [39.95078520603173, 43.39410554245249], [39.950783798375504, 43.39401551019296], [39.95090726008278, 43.39401448362038], [39.95090585225034, 43.39392445136259], [39.950782390725784, 43.39392547793196], [39.950780983082566, 43.393835445669495], [39.951026497757596, 43.39374336014643], [39.95102790575974, 43.39383339240393], [39.95115136708856, 43.39383236557126], [39.95115277527994, 43.39392239782409], [39.951029313768395, 43.393923424659974], [39.95103072178355, 43.39401345691455], [39.95115418347781, 43.394012430075456], [39.95115559168221, 43.394102462325364], [39.95091007576719, 43.39419454813159]]]}, "properties": {"zone_id": "sochi-2026-07-02-017", "aoi": "sochi", "date": "2026-07-02", "scene_id": "S2A_MSIL2A_20260702T081021_R078_T37TEJ_20260702T115115", "scene_datetime_utc": "2026-07-02T08:10:21.024000+00:00", "detection_status": "detected", "detection_status_ru": "обнаружено", "lon": 39.95097, "lat": 43.39397, "n_pixels": 2, "zone_area_km2": 0.0009, "cover_m2": 13.3, "p_mean": 0.947, "p_max": 0.984, "cover_m2_km2": 14777.8, "h3": "882d561085fffff", "valid_frac_scene": 1.0, "wind_ms": 5.2, "sea": "спокойное", "scene_reliable": true, "field_event_id": "S4:DOORS3:T23", "field_profile": "B", "field_date": "2024-06-10", "field_distance_km": 175.1, "field_date_gap_days": 752, "field_conc_items_km2": 102.37, "conc_A_items_km2": null, "conc_A_lo80": null, "conc_A_hi80": null, "conc_A_lo95": null, "conc_A_hi95": null, "conc_A_status": "unavailable", "conc_A_status_ru": "концентрация недоступна", "conc_A_reasons": "вне бассейна профиля: nw_atlantic_subtropical", "conc_A_model": "conc-A-c6bce5631d2b", "conc_B_items_km2": 621.6, "conc_B_lo80": 132.7, "conc_B_hi80": 2088.3, "conc_B_lo95": 82.8, "conc_B_hi95": 3910.2, "conc_B_status": "research_estimate", "conc_B_status_ru": "исследовательская оценка", "conc_B_reasons": "ближайшее полевое измерение в 175 км (> 60 км); месяц 7 вне месяцев обучения [6]; log_dist_coast_km = 1.0 вне диапазона обучения [1.7; 5.0]", "conc_B_model": "conc-B-c6bce5631d2b"}}, {"type": "Feature", "geometry": {"type": "Polygon", "coordinates": [[[39.91675558008763, 43.38925090284969], [39.91675422303854, 43.38916086964024], [39.91663076998154, 43.38916185925512], [39.9166294131214, 43.38907182604113], [39.916752865995726, 43.38907083642935], [39.91675150895918, 43.38898080321699], [39.91687496164455, 43.38897981347507], [39.9168736044316, 43.38888978026434], [39.917121866996474, 43.38897783359146], [39.91712458217192, 43.38915789999613], [39.91700112913374, 43.38915889001075], [39.91700248654819, 43.38924892321401], [39.91675558008763, 43.38925090284969]]]}, "properties": {"zone_id": "sochi-2026-07-02-018", "aoi": "sochi", "date": "2026-07-02", "scene_id": "S2A_MSIL2A_20260702T081021_R078_T37TEJ_20260702T115115", "scene_datetime_utc": "2026-07-02T08:10:21.024000+00:00", "detection_status": "detected", "detection_status_ru": "обнаружено", "lon": 39.9169, "lat": 43.38908, "n_pixels": 3, "zone_area_km2": 0.001, "cover_m2": 23.5, "p_mean": 0.984, "p_max": 0.996, "cover_m2_km2": 23500.0, "h3": "882d561017fffff", "valid_frac_scene": 1.0, "wind_ms": 5.2, "sea": "спокойное", "scene_reliable": true, "field_event_id": "S4:DOORS3:T23", "field_profile": "B", "field_date": "2024-06-10", "field_distance_km": 176.8, "field_date_gap_days": 752, "field_conc_items_km2": 102.37, "conc_A_items_km2": null, "conc_A_lo80": null, "conc_A_hi80": null, "conc_A_lo95": null, "conc_A_hi95": null, "conc_A_status": "unavailable", "conc_A_status_ru": "концентрация недоступна", "conc_A_reasons": "вне бассейна профиля: nw_atlantic_subtropical", "conc_A_model": "conc-A-c6bce5631d2b", "conc_B_items_km2": 539.0, "conc_B_lo80": 114.9, "conc_B_hi80": 1811.0, "conc_B_lo95": 71.7, "conc_B_hi95": 3391.1, "conc_B_status": "research_estimate", "conc_B_status_ru": "исследовательская оценка", "conc_B_reasons": "ближайшее полевое измерение в 177 км (> 60 км); месяц 7 вне месяцев обучения [6]", "conc_B_model": "conc-B-c6bce5631d2b"}}, {"type": "Feature", "geometry": {"type": "Polygon", "coordinates": [[[39.949948803291825, 43.38798950082634], [39.949947397173986, 43.38789946844832], [39.94982394784422, 43.38790049387001], [39.949822541915545, 43.38781046148731], [39.949945991062656, 43.387809436068835], [39.94994458495782, 43.38771940368788], [39.95019288933738, 43.38780738483215], [39.95019429581404, 43.38789741720524], [39.95007084649727, 43.3878984428934], [39.95007225279777, 43.387988475268216], [39.949948803291825, 43.38798950082634]]]}, "properties": {"zone_id": "sochi-2026-07-02-019", "aoi": "sochi", "date": "2026-07-02", "scene_id": "S2A_MSIL2A_20260702T081021_R078_T37TEJ_20260702T115115", "scene_datetime_utc": "2026-07-02T08:10:21.024000+00:00", "detection_status": "detected", "detection_status_ru": "обнаружено", "lon": 39.95001, "lat": 43.38785, "n_pixels": 1, "zone_area_km2": 0.0005, "cover_m2": 6.3, "p_mean": 0.996, "p_max": 0.996, "cover_m2_km2": 12600.0, "h3": "882d5610a9fffff", "valid_frac_scene": 1.0, "wind_ms": 5.2, "sea": "спокойное", "scene_reliable": true, "field_event_id": "S4:DOORS3:T23", "field_profile": "B", "field_date": "2024-06-10", "field_distance_km": 174.7, "field_date_gap_days": 752, "field_conc_items_km2": 102.37, "conc_A_items_km2": null, "conc_A_lo80": null, "conc_A_hi80": null, "conc_A_lo95": null, "conc_A_hi95": null, "conc_A_status": "unavailable", "conc_A_status_ru": "концентрация недоступна", "conc_A_reasons": "вне бассейна профиля: nw_atlantic_subtropical", "conc_A_model": "conc-A-c6bce5631d2b", "conc_B_items_km2": 621.6, "conc_B_lo80": 132.7, "conc_B_hi80": 2088.3, "conc_B_lo95": 82.8, "conc_B_hi95": 3910.2, "conc_B_status": "research_estimate", "conc_B_status_ru": "исследовательская оценка", "conc_B_reasons": "ближайшее полевое измерение в 175 км (> 60 км); месяц 7 вне месяцев обучения [6]; log_dist_coast_km = 1.0 вне диапазона обучения [1.7; 5.0]", "conc_B_model": "conc-B-c6bce5631d2b"}}, {"type": "Feature", "geometry": {"type": "Polygon", "coordinates": [[[39.95792338183831, 43.3847714356448], [39.95792196407682, 43.38468140342496], [39.957798521563895, 43.384682437393714], [39.95779568642582, 43.38450237294319], [39.95804115279014, 43.384410272664404], [39.958042570714596, 43.384500304885385], [39.958166012849155, 43.38449927065666], [39.95816884908301, 43.38467933508779], [39.95792338183831, 43.3847714356448]]]}, "properties": {"zone_id": "sochi-2026-07-02-020", "aoi": "sochi", "date": "2026-07-02", "scene_id": "S2A_MSIL2A_20260702T081021_R078_T37TEJ_20260702T115115", "scene_datetime_utc": "2026-07-02T08:10:21.024000+00:00", "detection_status": "detected", "detection_status_ru": "обнаружено", "lon": 39.95798, "lat": 43.38459, "n_pixels": 2, "zone_area_km2": 0.0008, "cover_m2": 4.7, "p_mean": 0.753, "p_max": 0.816, "cover_m2_km2": 5875.0, "h3": "882d5610a1fffff", "valid_frac_scene": 1.0, "wind_ms": 5.2, "sea": "спокойное", "scene_reliable": true, "field_event_id": "S4:DOORS3:T23", "field_profile": "B", "field_date": "2024-06-10", "field_distance_km": 174.0, "field_date_gap_days": 752, "field_conc_items_km2": 102.37, "conc_A_items_km2": null, "conc_A_lo80": null, "conc_A_hi80": null, "conc_A_lo95": null, "conc_A_hi95": null, "conc_A_status": "unavailable", "conc_A_status_ru": "концентрация недоступна", "conc_A_reasons": "вне бассейна профиля: nw_atlantic_subtropical", "conc_A_model": "conc-A-c6bce5631d2b", "conc_B_items_km2": 621.6, "conc_B_lo80": 132.7, "conc_B_hi80": 2088.3, "conc_B_lo95": 82.8, "conc_B_hi95": 3910.2, "conc_B_status": "research_estimate", "conc_B_status_ru": "исследовательская оценка", "conc_B_reasons": "ближайшее полевое измерение в 174 км (> 60 км); месяц 7 вне месяцев обучения [6]; log_dist_coast_km = 1.0 вне диапазона обучения [1.7; 5.0]", "conc_B_model": "conc-B-c6bce5631d2b"}}]}