{"type": "FeatureCollection", "features": [{"type": "Feature", "geometry": {"type": "Polygon", "coordinates": [[[37.81022562017093, 44.712661542522305], [37.81022746448835, 44.712571538144054], [37.810101242444105, 44.71257022296135], [37.81010308694842, 44.71248021858571], [37.81035737475904, 44.71239284441815], [37.81035553065446, 44.71248284880346], [37.810481752520445, 44.712484163703145], [37.81047990860277, 44.71257416809109], [37.810353686541234, 44.71257285318732], [37.81035184241937, 44.712662857569654], [37.81022562017093, 44.712661542522305]]]}, "properties": {"zone_id": "novorossiysk-2026-08-22-001", "aoi": "novorossiysk", "date": "2026-08-22", "scene_id": "S2C_MSIL2A_20260822T081601_R121_T37TCK_20260822T120711", "scene_datetime_utc": "2026-08-22T08:16:01.025000+00:00", "detection_status": "detected", "detection_status_ru": "обнаружено", "lon": 37.81029, "lat": 44.71253, "n_pixels": 1, "zone_area_km2": 0.0005, "cover_m2": 13.3, "p_mean": 0.765, "p_max": 0.765, "cover_m2_km2": 26600.0, "h3": "882d72125bfffff", "valid_frac_scene": 1.0, "wind_ms": 3.9, "sea": "спокойное", "scene_reliable": true, "field_event_id": "S4:DOORS3:T12", "field_profile": "B", "field_date": "2024-06-04", "field_distance_km": 260.6, "field_date_gap_days": 809, "field_conc_items_km2": 48.97, "conc_A_items_km2": null, "conc_A_lo80": null, "conc_A_hi80": null, "conc_A_lo95": null, "conc_A_hi95": null, "conc_A_status": "unavailable", "conc_A_status_ru": "концентрация недоступна", "conc_A_reasons": "вне бассейна профиля: nw_atlantic_subtropical", "conc_A_model": "conc-A-c6bce5631d2b", "conc_B_items_km2": 621.6, "conc_B_lo80": 132.7, "conc_B_hi80": 2088.3, "conc_B_lo95": 82.8, "conc_B_hi95": 3910.2, "conc_B_status": "research_estimate", "conc_B_status_ru": "исследовательская оценка", "conc_B_reasons": "ближайшее полевое измерение в 261 км (> 60 км); месяц 8 вне месяцев обучения [6]; log_dist_coast_km = 1.0 вне диапазона обучения [1.7; 5.0]", "conc_B_model": "conc-B-c6bce5631d2b"}}, {"type": "Feature", "geometry": {"type": "Polygon", "coordinates": [[[37.55125102912534, 44.66861863660822], [37.551253271368, 44.668528640917586], [37.55112715809716, 44.66852704076501], [37.551131642941, 44.66834704938918], [37.55138611072925, 44.668260253834994], [37.55138386871311, 44.66835024953515], [37.55150998161491, 44.66835184939933], [37.55150549794118, 44.66853184080511], [37.55125102912534, 44.66861863660822]]]}, "properties": {"zone_id": "novorossiysk-2026-08-22-002", "aoi": "novorossiysk", "date": "2026-08-22", "scene_id": "S2C_MSIL2A_20260822T081601_R121_T37TCK_20260822T120711", "scene_datetime_utc": "2026-08-22T08:16:01.025000+00:00", "detection_status": "detected", "detection_status_ru": "обнаружено", "lon": 37.55132, "lat": 44.66844, "n_pixels": 2, "zone_area_km2": 0.0008, "cover_m2": 11.8, "p_mean": 0.996, "p_max": 0.996, "cover_m2_km2": 14750.0, "h3": "882d7299a7fffff", "valid_frac_scene": 1.0, "wind_ms": 3.9, "sea": "спокойное", "scene_reliable": true, "field_event_id": "S4:DOORS3:T12", "field_profile": "B", "field_date": "2024-06-04", "field_distance_km": 251.5, "field_date_gap_days": 809, "field_conc_items_km2": 48.97, "conc_A_items_km2": null, "conc_A_lo80": null, "conc_A_hi80": null, "conc_A_lo95": null, "conc_A_hi95": null, "conc_A_status": "unavailable", "conc_A_status_ru": "концентрация недоступна", "conc_A_reasons": "вне бассейна профиля: nw_atlantic_subtropical", "conc_A_model": "conc-A-c6bce5631d2b", "conc_B_items_km2": 621.6, "conc_B_lo80": 132.7, "conc_B_hi80": 2088.3, "conc_B_lo95": 82.8, "conc_B_hi95": 3910.2, "conc_B_status": "research_estimate", "conc_B_status_ru": "исследовательская оценка", "conc_B_reasons": "ближайшее полевое измерение в 252 км (> 60 км); месяц 8 вне месяцев обучения [6]; log_dist_coast_km = 1.0 вне диапазона обучения [1.7; 5.0]", "conc_B_model": "conc-B-c6bce5631d2b"}}, {"type": "Feature", "geometry": {"type": "Polygon", "coordinates": [[[37.66602660027103, 44.66416559177183], [37.666028664587365, 44.66407559162433], [37.665902554824584, 44.66407411832751], [37.66590668381826, 44.66389411803721], [37.66603279319101, 44.66389559132483], [37.66603485747834, 44.66380559117283], [37.66628707586281, 44.66380853732124], [37.66628501196551, 44.66389853748242], [37.66641112136727, 44.6639000103524], [37.66640905765531, 44.663990010516706], [37.666282948058544, 44.663988537642126], [37.66628088414191, 44.664078537800314], [37.66602660027103, 44.66416559177183]]]}, "properties": {"zone_id": "novorossiysk-2026-08-22-003", "aoi": "novorossiysk", "date": "2026-08-22", "scene_id": "S2C_MSIL2A_20260822T081601_R121_T37TCK_20260822T120711", "scene_datetime_utc": "2026-08-22T08:16:01.025000+00:00", "detection_status": "detected", "detection_status_ru": "обнаружено", "lon": 37.66614, "lat": 44.66397, "n_pixels": 3, "zone_area_km2": 0.001, "cover_m2": 22.4, "p_mean": 0.982, "p_max": 0.992, "cover_m2_km2": 22400.0, "h3": "882d72895bfffff", "valid_frac_scene": 1.0, "wind_ms": 3.9, "sea": "спокойное", "scene_reliable": true, "field_event_id": "S4:DOORS3:T12", "field_profile": "B", "field_date": "2024-06-04", "field_distance_km": 252.7, "field_date_gap_days": 809, "field_conc_items_km2": 48.97, "conc_A_items_km2": null, "conc_A_lo80": null, "conc_A_hi80": null, "conc_A_lo95": null, "conc_A_hi95": null, "conc_A_status": "unavailable", "conc_A_status_ru": "концентрация недоступна", "conc_A_reasons": "вне бассейна профиля: nw_atlantic_subtropical", "conc_A_model": "conc-A-c6bce5631d2b", "conc_B_items_km2": 901.4, "conc_B_lo80": 192.7, "conc_B_hi80": 3027.3, "conc_B_lo95": 120.4, "conc_B_hi95": 5668.0, "conc_B_status": "research_estimate", "conc_B_status_ru": "исследовательская оценка", "conc_B_reasons": "ближайшее полевое измерение в 253 км (> 60 км); месяц 8 вне месяцев обучения [6]; log_dist_coast_km = 0.0 вне диапазона обучения [1.7; 5.0]", "conc_B_model": "conc-B-c6bce5631d2b"}}, {"type": "Feature", "geometry": {"type": "Polygon", "coordinates": [[[37.89948829803557, 44.63910668184108], [37.899489999633445, 44.63901667349114], [37.899363933228564, 44.63901545852493], [37.89936733679005, 44.63883544182821], [37.899493402805284, 44.63883665678686], [37.89949510437924, 44.6387466484325], [37.89974723604396, 44.63874907792482], [37.89974553485964, 44.63883908628676], [37.89987160089877, 44.63884030082802], [37.89986819889588, 44.63902031755506], [37.8997421324671, 44.63901910300621], [37.89974043125889, 44.63910911136372], [37.89948829803557, 44.63910668184108]]]}, "properties": {"zone_id": "novorossiysk-2026-08-22-004", "aoi": "novorossiysk", "date": "2026-08-22", "scene_id": "S2C_MSIL2A_20260822T081601_R121_T37TCK_20260822T120711", "scene_datetime_utc": "2026-08-22T08:16:01.025000+00:00", "detection_status": "detected", "detection_status_ru": "обнаружено", "lon": 37.89962, "lat": 44.63893, "n_pixels": 4, "zone_area_km2": 0.0012, "cover_m2": 54.5, "p_mean": 0.876, "p_max": 0.992, "cover_m2_km2": 45416.7, "h3": "882d721021fffff", "valid_frac_scene": 1.0, "wind_ms": 3.9, "sea": "спокойное", "scene_reliable": true, "field_event_id": "S4:DOORS3:T13", "field_profile": "B", "field_date": "2024-06-04", "field_distance_km": 254.2, "field_date_gap_days": 809, "field_conc_items_km2": 263.57, "conc_A_items_km2": null, "conc_A_lo80": null, "conc_A_hi80": null, "conc_A_lo95": null, "conc_A_hi95": null, "conc_A_status": "unavailable", "conc_A_status_ru": "концентрация недоступна", "conc_A_reasons": "вне бассейна профиля: nw_atlantic_subtropical", "conc_A_model": "conc-A-c6bce5631d2b", "conc_B_items_km2": 592.0, "conc_B_lo80": 126.3, "conc_B_hi80": 1989.0, "conc_B_lo95": 78.8, "conc_B_hi95": 3724.3, "conc_B_status": "research_estimate", "conc_B_status_ru": "исследовательская оценка", "conc_B_reasons": "ближайшее полевое измерение в 254 км (> 60 км); месяц 8 вне месяцев обучения [6]; log_dist_coast_km = 1.2 вне диапазона обучения [1.7; 5.0]", "conc_B_model": "conc-B-c6bce5631d2b"}}, {"type": "Feature", "geometry": {"type": "Polygon", "coordinates": [[[37.60905467019922, 44.63062688253002], [37.609056820147984, 44.630536883984], [37.608930786019, 44.63053534868108], [37.60893508627565, 44.63035535159411], [37.609061120015326, 44.630356886887455], [37.609063269933905, 44.63026688833692], [37.609441370629376, 44.630271493368326], [37.60944351995393, 44.63018149480192], [37.609695586745254, 44.630184564118075], [37.60969343781001, 44.63027456269406], [37.60981947141541, 44.630276097148375], [37.60981732266475, 44.63036609572765], [37.609691288864695, 44.63036456126854], [37.60968913990932, 44.63045455984152], [37.609311037985556, 44.630449955615624], [37.60930888843616, 44.63053995417272], [37.609182854287035, 44.630538419147875], [37.609180704532925, 44.63062841769869], [37.60905467019922, 44.63062688253002]]]}, "properties": {"zone_id": "novorossiysk-2026-08-22-005", "aoi": "novorossiysk", "date": "2026-08-22", "scene_id": "S2C_MSIL2A_20260822T081601_R121_T37TCK_20260822T120711", "scene_datetime_utc": "2026-08-22T08:16:01.025000+00:00", "detection_status": "detected", "detection_status_ru": "обнаружено", "lon": 37.60933, "lat": 44.63039, "n_pixels": 5, "zone_area_km2": 0.0018, "cover_m2": 32.9, "p_mean": 0.839, "p_max": 0.976, "cover_m2_km2": 18277.8, "h3": "882d72d4d3fffff", "valid_frac_scene": 1.0, "wind_ms": 3.9, "sea": "спокойное", "scene_reliable": true, "field_event_id": "S4:DOORS3:T12", "field_profile": "B", "field_date": "2024-06-04", "field_distance_km": 248.2, "field_date_gap_days": 809, "field_conc_items_km2": 48.97, "conc_A_items_km2": null, "conc_A_lo80": null, "conc_A_hi80": null, "conc_A_lo95": null, "conc_A_hi95": null, "conc_A_status": "unavailable", "conc_A_status_ru": "концентрация недоступна", "conc_A_reasons": "вне бассейна профиля: nw_atlantic_subtropical", "conc_A_model": "conc-A-c6bce5631d2b", "conc_B_items_km2": 520.5, "conc_B_lo80": 111.0, "conc_B_hi80": 1749.2, "conc_B_lo95": 69.2, "conc_B_hi95": 3275.4, "conc_B_status": "research_estimate", "conc_B_status_ru": "исследовательская оценка", "conc_B_reasons": "ближайшее полевое измерение в 248 км (> 60 км); месяц 8 вне месяцев обучения [6]", "conc_B_model": "conc-B-c6bce5631d2b"}}, {"type": "Feature", "geometry": {"type": "Polygon", "coordinates": [[[37.8982480276257, 44.624690745542026], [37.89824973028538, 44.624600737001494], [37.89812369513664, 44.62459952097315], [37.89812539798303, 44.62450951243494], [37.89837917034818, 44.62442193579773], [37.89837746789912, 44.624511944344995], [37.898503502869126, 44.62451316009143], [37.898501800606766, 44.62460316864103], [37.89837576544209, 44.624601952890785], [37.898374062977084, 44.62469196143511], [37.8982480276257, 44.624690745542026]]]}, "properties": {"zone_id": "novorossiysk-2026-08-22-006", "aoi": "novorossiysk", "date": "2026-08-22", "scene_id": "S2C_MSIL2A_20260822T081601_R121_T37TCK_20260822T120711", "scene_datetime_utc": "2026-08-22T08:16:01.025000+00:00", "detection_status": "detected", "detection_status_ru": "обнаружено", "lon": 37.89831, "lat": 44.62456, "n_pixels": 1, "zone_area_km2": 0.0005, "cover_m2": 3.9, "p_mean": 0.851, "p_max": 0.851, "cover_m2_km2": 7800.0, "h3": "882d721153fffff", "valid_frac_scene": 1.0, "wind_ms": 3.9, "sea": "спокойное", "scene_reliable": true, "field_event_id": "S4:DOORS3:T13", "field_profile": "B", "field_date": "2024-06-04", "field_distance_km": 252.6, "field_date_gap_days": 809, "field_conc_items_km2": 263.57, "conc_A_items_km2": null, "conc_A_lo80": null, "conc_A_hi80": null, "conc_A_lo95": null, "conc_A_hi95": null, "conc_A_status": "unavailable", "conc_A_status_ru": "концентрация недоступна", "conc_A_reasons": "вне бассейна профиля: nw_atlantic_subtropical", "conc_A_model": "conc-A-c6bce5631d2b", "conc_B_items_km2": 669.1, "conc_B_lo80": 142.9, "conc_B_hi80": 2247.7, "conc_B_lo95": 89.2, "conc_B_hi95": 4208.5, "conc_B_status": "research_estimate", "conc_B_status_ru": "исследовательская оценка", "conc_B_reasons": "ближайшее полевое измерение в 253 км (> 60 км); месяц 8 вне месяцев обучения [6]; log_dist_coast_km = 0.8 вне диапазона обучения [1.7; 5.0]", "conc_B_model": "conc-B-c6bce5631d2b"}}, {"type": "Feature", "geometry": {"type": "Polygon", "coordinates": [[[37.65800700781676, 44.62356057085073], [37.6580090816044, 44.623470570355515], [37.65788306019215, 44.623469089256176], [37.657887208127484, 44.623289088270525], [37.65801322915054, 44.62329056936063], [37.65801530290905, 44.62320056886093], [37.65839336545267, 44.62320501128329], [37.65839543861768, 44.62311501076822], [37.65852145929037, 44.62311649129302], [37.65851938631995, 44.62320649181271], [37.65864540719694, 44.62320797220312], [37.65864126161618, 44.623387973247226], [37.65851524035, 44.62338649284757], [37.65851316735046, 44.62347649336275], [37.65800700781676, 44.62356057085073]]]}, "properties": {"zone_id": "novorossiysk-2026-08-22-007", "aoi": "novorossiysk", "date": "2026-08-22", "scene_id": "S2C_MSIL2A_20260822T081601_R121_T37TCK_20260822T120711", "scene_datetime_utc": "2026-08-22T08:16:01.025000+00:00", "detection_status": "detected", "detection_status_ru": "обнаружено", "lon": 37.65824, "lat": 44.62335, "n_pixels": 6, "zone_area_km2": 0.0019, "cover_m2": 54.5, "p_mean": 0.679, "p_max": 0.827, "cover_m2_km2": 28684.2, "h3": "882d72896bfffff", "valid_frac_scene": 1.0, "wind_ms": 3.9, "sea": "спокойное", "scene_reliable": true, "field_event_id": "S4:DOORS3:T12", "field_profile": "B", "field_date": "2024-06-04", "field_distance_km": 248.2, "field_date_gap_days": 809, "field_conc_items_km2": 48.97, "conc_A_items_km2": null, "conc_A_lo80": null, "conc_A_hi80": null, "conc_A_lo95": null, "conc_A_hi95": null, "conc_A_status": "unavailable", "conc_A_status_ru": "концентрация недоступна", "conc_A_reasons": "вне бассейна профиля: nw_atlantic_subtropical", "conc_A_model": "conc-A-c6bce5631d2b", "conc_B_items_km2": 520.5, "conc_B_lo80": 111.0, "conc_B_hi80": 1749.2, "conc_B_lo95": 69.2, "conc_B_hi95": 3275.4, "conc_B_status": "research_estimate", "conc_B_status_ru": "исследовательская оценка", "conc_B_reasons": "ближайшее полевое измерение в 248 км (> 60 км); месяц 8 вне месяцев обучения [6]", "conc_B_model": "conc-B-c6bce5631d2b"}}, {"type": "Feature", "geometry": {"type": "Polygon", "coordinates": [[[37.92026990941535, 44.60635591053838], [37.920271576980326, 44.606265901047905], [37.920145580560124, 44.60626470970395], [37.920148916055666, 44.606084690726036], [37.920402575472934, 44.605997063761514], [37.92040090812587, 44.60608707326011], [37.92052690417268, 44.606088264318686], [37.92052356984415, 44.60626828331891], [37.92026990941535, 44.60635591053838]]]}, "properties": {"zone_id": "novorossiysk-2026-08-22-008", "aoi": "novorossiysk", "date": "2026-08-22", "scene_id": "S2C_MSIL2A_20260822T081601_R121_T37TCK_20260822T120711", "scene_datetime_utc": "2026-08-22T08:16:01.025000+00:00", "detection_status": "detected", "detection_status_ru": "обнаружено", "lon": 37.92034, "lat": 44.60618, "n_pixels": 2, "zone_area_km2": 0.0008, "cover_m2": 19.2, "p_mean": 0.99, "p_max": 0.992, "cover_m2_km2": 24000.0, "h3": "882d721115fffff", "valid_frac_scene": 1.0, "wind_ms": 3.9, "sea": "спокойное", "scene_reliable": true, "field_event_id": "S4:DOORS3:T13", "field_profile": "B", "field_date": "2024-06-04", "field_distance_km": 251.0, "field_date_gap_days": 809, "field_conc_items_km2": 263.57, "conc_A_items_km2": null, "conc_A_lo80": null, "conc_A_hi80": null, "conc_A_lo95": null, "conc_A_hi95": null, "conc_A_status": "unavailable", "conc_A_status_ru": "концентрация недоступна", "conc_A_reasons": "вне бассейна профиля: nw_atlantic_subtropical", "conc_A_model": "conc-A-c6bce5631d2b", "conc_B_items_km2": 901.4, "conc_B_lo80": 192.7, "conc_B_hi80": 3027.3, "conc_B_lo95": 120.4, "conc_B_hi95": 5668.0, "conc_B_status": "research_estimate", "conc_B_status_ru": "исследовательская оценка", "conc_B_reasons": "ближайшее полевое измерение в 251 км (> 60 км); месяц 8 вне месяцев обучения [6]; log_dist_coast_km = 0.0 вне диапазона обучения [1.7; 5.0]", "conc_B_model": "conc-B-c6bce5631d2b"}}]}