{"type": "FeatureCollection", "features": [{"type": "Feature", "geometry": {"type": "Polygon", "coordinates": [[[36.85120371799528, 45.11120394640058], [36.85120709496973, 45.11111399229294], [36.85095302434124, 45.11110920952976], [36.85095640169834, 45.111019255435416], [36.8508293666072, 45.11101686384948], [36.850836121672266, 45.11083695567084], [36.85109356818354, 45.11075178456501], [36.851090191073375, 45.11084173867169], [36.85121722579777, 45.110844129960306], [36.851213848870984, 45.1109340840728], [36.85146454222183, 45.11102882036713], [36.851461165661796, 45.11111877449132], [36.85133413030782, 45.111116383462736], [36.851330753532636, 45.11120633757782], [36.85120371799528, 45.11120394640058]]]}, "properties": {"zone_id": "kerch-2025-05-07-001", "aoi": "kerch", "date": "2025-05-07", "scene_id": "S2B_MSIL2A_20250507T082559_R021_T37TCK_20250507T112528", "scene_datetime_utc": "2025-05-07T08:25:59.024000+00:00", "detection_status": "detected", "detection_status_ru": "обнаружено", "lon": 36.85112, "lat": 45.11098, "n_pixels": 4, "zone_area_km2": 0.0013, "cover_m2": 32.9, "p_mean": 0.773, "p_max": 0.914, "cover_m2_km2": 25307.7, "h3": "882d7632e5fffff", "valid_frac_scene": 0.767, "wind_ms": 7.5, "sea": "волнение", "scene_reliable": false, "field_event_id": "S4:DOORS3:T11", "field_profile": "B", "field_date": "2024-06-04", "field_distance_km": 291.5, "field_date_gap_days": 337, "field_conc_items_km2": 62.52, "conc_A_items_km2": null, "conc_A_lo80": null, "conc_A_hi80": null, "conc_A_lo95": null, "conc_A_hi95": null, "conc_A_status": "unavailable", "conc_A_status_ru": "концентрация недоступна", "conc_A_reasons": "вне бассейна профиля: nw_atlantic_subtropical", "conc_A_model": "conc-A-c6bce5631d2b", "conc_B_items_km2": 621.6, "conc_B_lo80": 132.7, "conc_B_hi80": 2088.3, "conc_B_lo95": 82.8, "conc_B_hi95": 3910.2, "conc_B_status": "research_estimate", "conc_B_status_ru": "исследовательская оценка", "conc_B_reasons": "ближайшее полевое измерение в 291 км (> 60 км); месяц 5 вне месяцев обучения [6]; log_dist_coast_km = 1.0 вне диапазона обучения [1.7; 5.0]", "conc_B_model": "conc-B-c6bce5631d2b"}}, {"type": "Feature", "geometry": {"type": "Polygon", "coordinates": [[[36.86210930861994, 45.10852813987745], [36.8621126681502, 45.10843818508563], [36.86186196749266, 45.10834347202384], [36.86186532738979, 45.10825351724363], [36.86199235726865, 45.10825589644099], [36.86199571695073, 45.108165941651734], [36.86225313562515, 45.10808074480231], [36.862249776357366, 45.10817069960802], [36.8623768060844, 45.10817307837436], [36.86236672878394, 45.10844294280404], [36.86210930861994, 45.10852813987745]]]}, "properties": {"zone_id": "kerch-2025-05-07-002", "aoi": "kerch", "date": "2025-05-07", "scene_id": "S2B_MSIL2A_20250507T082559_R021_T37TCK_20250507T112528", "scene_datetime_utc": "2025-05-07T08:25:59.024000+00:00", "detection_status": "detected", "detection_status_ru": "обнаружено", "lon": 36.86215, "lat": 45.1083, "n_pixels": 4, "zone_area_km2": 0.0012, "cover_m2": 14.1, "p_mean": 0.792, "p_max": 0.953, "cover_m2_km2": 11750.0, "h3": "882d76305bfffff", "valid_frac_scene": 0.767, "wind_ms": 7.5, "sea": "волнение", "scene_reliable": false, "field_event_id": "S4:DOORS3:T11", "field_profile": "B", "field_date": "2024-06-04", "field_distance_km": 291.2, "field_date_gap_days": 337, "field_conc_items_km2": 62.52, "conc_A_items_km2": null, "conc_A_lo80": null, "conc_A_hi80": null, "conc_A_lo95": null, "conc_A_hi95": null, "conc_A_status": "unavailable", "conc_A_status_ru": "концентрация недоступна", "conc_A_reasons": "вне бассейна профиля: nw_atlantic_subtropical", "conc_A_model": "conc-A-c6bce5631d2b", "conc_B_items_km2": 621.6, "conc_B_lo80": 132.7, "conc_B_hi80": 2088.3, "conc_B_lo95": 82.8, "conc_B_hi95": 3910.2, "conc_B_status": "research_estimate", "conc_B_status_ru": "исследовательская оценка", "conc_B_reasons": "ближайшее полевое измерение в 291 км (> 60 км); месяц 5 вне месяцев обучения [6]; log_dist_coast_km = 1.0 вне диапазона обучения [1.7; 5.0]", "conc_B_model": "conc-B-c6bce5631d2b"}}, {"type": "Feature", "geometry": {"type": "Polygon", "coordinates": [[[36.87300054484016, 45.10621109307434], [36.873003886993665, 45.10612113760812], [36.87275317743617, 45.10602644828864], [36.87275651995667, 45.105936492833955], [36.872883545597205, 45.105938859822984], [36.87288688790275, 45.1058489043593], [36.87314428072392, 45.10576368241898], [36.873140938832556, 45.105853637899045], [36.873267964321045, 45.10585600445715], [36.87325793915028, 45.10612587090979], [36.87300054484016, 45.10621109307434]]]}, "properties": {"zone_id": "kerch-2025-05-07-003", "aoi": "kerch", "date": "2025-05-07", "scene_id": "S2B_MSIL2A_20250507T082559_R021_T37TCK_20250507T112528", "scene_datetime_utc": "2025-05-07T08:25:59.024000+00:00", "detection_status": "detected", "detection_status_ru": "обнаружено", "lon": 36.87304, "lat": 45.10599, "n_pixels": 4, "zone_area_km2": 0.0012, "cover_m2": 15.3, "p_mean": 0.861, "p_max": 0.965, "cover_m2_km2": 12750.0, "h3": "882d763053fffff", "valid_frac_scene": 0.767, "wind_ms": 7.5, "sea": "волнение", "scene_reliable": false, "field_event_id": "S4:DOORS3:T11", "field_profile": "B", "field_date": "2024-06-04", "field_distance_km": 291.0, "field_date_gap_days": 337, "field_conc_items_km2": 62.52, "conc_A_items_km2": null, "conc_A_lo80": null, "conc_A_hi80": null, "conc_A_lo95": null, "conc_A_hi95": null, "conc_A_status": "unavailable", "conc_A_status_ru": "концентрация недоступна", "conc_A_reasons": "вне бассейна профиля: nw_atlantic_subtropical", "conc_A_model": "conc-A-c6bce5631d2b", "conc_B_items_km2": 670.1, "conc_B_lo80": 143.1, "conc_B_hi80": 2251.0, "conc_B_lo95": 89.3, "conc_B_hi95": 4214.8, "conc_B_status": "research_estimate", "conc_B_status_ru": "исследовательская оценка", "conc_B_reasons": "ближайшее полевое измерение в 291 км (> 60 км); месяц 5 вне месяцев обучения [6]; log_dist_coast_km = 0.8 вне диапазона обучения [1.7; 5.0]", "conc_B_model": "conc-B-c6bce5631d2b"}}, {"type": "Feature", "geometry": {"type": "Polygon", "coordinates": [[[36.666233771643846, 45.067604159733435], [36.66623743358903, 45.06751421632052], [36.66611051094166, 45.067511621228114], [36.66611783517781, 45.06733173441351], [36.665990912945084, 45.067329139196346], [36.665994575236034, 45.06723919579466], [36.66612149727005, 45.067241791003724], [36.666125159345064, 45.06715184759228], [36.66637900306731, 45.06715703757141], [36.66637534138972, 45.067246980999045], [36.66650226347538, 45.0672495757853], [36.66649494046596, 45.06742946265177], [36.666621862966274, 45.06743205731327], [36.66661820163445, 45.06752200075211], [36.666491278935425, 45.06751940608252], [36.66648761738767, 45.06760934951162], [36.666233771643846, 45.067604159733435]]]}, "properties": {"zone_id": "kerch-2025-05-07-004", "aoi": "kerch", "date": "2025-05-07", "scene_id": "S2B_MSIL2A_20250507T082559_R021_T37TCK_20250507T112528", "scene_datetime_utc": "2025-05-07T08:25:59.024000+00:00", "detection_status": "detected", "detection_status_ru": "обнаружено", "lon": 36.66631, "lat": 45.06738, "n_pixels": 5, "zone_area_km2": 0.0015, "cover_m2": 21.6, "p_mean": 0.837, "p_max": 0.984, "cover_m2_km2": 14400.0, "h3": "882d76a91dfffff", "valid_frac_scene": 0.767, "wind_ms": 7.5, "sea": "волнение", "scene_reliable": false, "field_event_id": "S4:DOORS3:T11", "field_profile": "B", "field_date": "2024-06-04", "field_distance_km": 286.3, "field_date_gap_days": 337, "field_conc_items_km2": 62.52, "conc_A_items_km2": null, "conc_A_lo80": null, "conc_A_hi80": null, "conc_A_lo95": null, "conc_A_hi95": null, "conc_A_status": "unavailable", "conc_A_status_ru": "концентрация недоступна", "conc_A_reasons": "вне бассейна профиля: nw_atlantic_subtropical", "conc_A_model": "conc-A-c6bce5631d2b", "conc_B_items_km2": 448.9, "conc_B_lo80": 95.6, "conc_B_hi80": 1508.9, "conc_B_lo95": 59.5, "conc_B_hi95": 2825.5, "conc_B_status": "research_estimate", "conc_B_status_ru": "исследовательская оценка", "conc_B_reasons": "ближайшее полевое измерение в 286 км (> 60 км); месяц 5 вне месяцев обучения [6]", "conc_B_model": "conc-B-c6bce5631d2b"}}, {"type": "Feature", "geometry": {"type": "Polygon", "coordinates": [[[36.72080948093549, 44.937639074416076], [36.720813041129944, 44.93754912549205], [36.720686400252895, 44.93754659673685], [36.72069352098644, 44.93736669889963], [36.720566880520906, 44.93736417001989], [36.72057044106, 44.93727422110668], [36.72069708132813, 44.93727674997852], [36.72070064165311, 44.9371868010558], [36.72095392184473, 44.93719185836277], [36.720950361914554, 44.93728180730127], [36.72107700223284, 44.93728433575217], [36.72106632293419, 44.93755418258145], [36.72080948093549, 44.937639074416076]]]}, "properties": {"zone_id": "kerch-2025-05-07-005", "aoi": "kerch", "date": "2025-05-07", "scene_id": "S2B_MSIL2A_20250507T082559_R021_T37TCK_20250507T112528", "scene_datetime_utc": "2025-05-07T08:25:59.024000+00:00", "detection_status": "detected", "detection_status_ru": "обнаружено", "lon": 36.72085, "lat": 44.93739, "n_pixels": 4, "zone_area_km2": 0.0013, "cover_m2": 28.2, "p_mean": 0.803, "p_max": 0.902, "cover_m2_km2": 21692.3, "h3": "882d760559fffff", "valid_frac_scene": 0.767, "wind_ms": 7.5, "sea": "волнение", "scene_reliable": false, "field_event_id": "S4:DOORS3:T11", "field_profile": "B", "field_date": "2024-06-04", "field_distance_km": 271.8, "field_date_gap_days": 337, "field_conc_items_km2": 62.52, "conc_A_items_km2": null, "conc_A_lo80": null, "conc_A_hi80": null, "conc_A_lo95": null, "conc_A_hi95": null, "conc_A_status": "unavailable", "conc_A_status_ru": "концентрация недоступна", "conc_A_reasons": "вне бассейна профиля: nw_atlantic_subtropical", "conc_A_model": "conc-A-c6bce5631d2b", "conc_B_items_km2": 304.3, "conc_B_lo80": 64.5, "conc_B_hi80": 1023.4, "conc_B_lo95": 40.1, "conc_B_hi95": 1916.7, "conc_B_status": "research_estimate", "conc_B_status_ru": "исследовательская оценка", "conc_B_reasons": "ближайшее полевое измерение в 272 км (> 60 км); месяц 5 вне месяцев обучения [6]", "conc_B_model": "conc-B-c6bce5631d2b"}}, {"type": "Feature", "geometry": {"type": "Polygon", "coordinates": [[[37.30718920487174, 44.90490051193688], [37.307191846411364, 44.904810530513565], [37.30706523243062, 44.904808653171045], [37.30706787415517, 44.90471867175204], [37.306817288732425, 44.90462493524896], [37.306819930826855, 44.90453495383858], [37.30694654419077, 44.904536831444155], [37.306949186075464, 44.90444685002637], [37.30682257290889, 44.90444497242667], [37.306827857035735, 44.904265009598184], [37.30695446980762, 44.90426688718618], [37.3069571116551, 44.904176905763755], [37.30720769538863, 44.904270641941245], [37.307205053923425, 44.904360623373826], [37.30733166692987, 44.90436250054675], [37.307321101734395, 44.90472242628507], [37.30744771554261, 44.90472430334112], [37.307445074410076, 44.90481428477768], [37.30731846040452, 44.90481240771576], [37.30731581906224, 44.90490238914495], [37.30718920487174, 44.90490051193688]]]}, "properties": {"zone_id": "kerch-2025-05-07-006", "aoi": "kerch", "date": "2025-05-07", "scene_id": "S2B_MSIL2A_20250507T082559_R021_T37TCK_20250507T112528", "scene_datetime_utc": "2025-05-07T08:25:59.024000+00:00", "detection_status": "detected", "detection_status_ru": "обнаружено", "lon": 37.30711, "lat": 44.90453, "n_pixels": 8, "zone_area_km2": 0.0022, "cover_m2": 36.1, "p_mean": 0.71, "p_max": 0.984, "cover_m2_km2": 16409.1, "h3": "882d729209fffff", "valid_frac_scene": 0.767, "wind_ms": 7.5, "sea": "волнение", "scene_reliable": false, "field_event_id": "S4:DOORS3:T11", "field_profile": "B", "field_date": "2024-06-04", "field_distance_km": 272.9, "field_date_gap_days": 337, "field_conc_items_km2": 62.52, "conc_A_items_km2": null, "conc_A_lo80": null, "conc_A_hi80": null, "conc_A_lo95": null, "conc_A_hi95": null, "conc_A_status": "unavailable", "conc_A_status_ru": "концентрация недоступна", "conc_A_reasons": "вне бассейна профиля: nw_atlantic_subtropical", "conc_A_model": "conc-A-c6bce5631d2b", "conc_B_items_km2": 669.6, "conc_B_lo80": 143.0, "conc_B_hi80": 2249.6, "conc_B_lo95": 89.2, "conc_B_hi95": 4212.0, "conc_B_status": "research_estimate", "conc_B_status_ru": "исследовательская оценка", "conc_B_reasons": "ближайшее полевое измерение в 273 км (> 60 км); месяц 5 вне месяцев обучения [6]; log_dist_coast_km = 0.8 вне диапазона обучения [1.7; 5.0]", "conc_B_model": "conc-B-c6bce5631d2b"}}, {"type": "Feature", "geometry": {"type": "Polygon", "coordinates": [[[36.82694831262661, 44.86220131853171], [36.82695169819672, 44.86211136192649], [36.82682521368675, 44.86210895402282], [36.82685568487308, 44.8612993445704], [36.826982167612954, 44.86130175240649], [36.82698555302422, 44.861211795785046], [36.82723851815827, 44.86121661102224], [36.82723513314035, 44.861306567658715], [36.82736161592787, 44.86130897507486], [36.82734807648406, 44.86166880163455], [36.82722159290984, 44.861666394188376], [36.827214822699275, 44.86184630744346], [36.82734130666686, 44.86184871490465], [36.82733792173444, 44.86193867153726], [36.82721143757018, 44.86193626406856], [36.827204667264326, 44.862116177313894], [36.82694831262661, 44.86220131853171]]]}, "properties": {"zone_id": "kerch-2025-05-07-007", "aoi": "kerch", "date": "2025-05-07", "scene_id": "S2B_MSIL2A_20250507T082559_R021_T37TCK_20250507T112528", "scene_datetime_utc": "2025-05-07T08:25:59.024000+00:00", "detection_status": "detected", "detection_status_ru": "обнаружено", "lon": 36.82708, "lat": 44.86166, "n_pixels": 14, "zone_area_km2": 0.0035, "cover_m2": 87.5, "p_mean": 0.865, "p_max": 0.984, "cover_m2_km2": 25000.0, "h3": "882d760ea1fffff", "valid_frac_scene": 0.767, "wind_ms": 7.5, "sea": "волнение", "scene_reliable": false, "field_event_id": "S4:DOORS3:T11", "field_profile": "B", "field_date": "2024-06-04", "field_distance_km": 263.7, "field_date_gap_days": 337, "field_conc_items_km2": 62.52, "conc_A_items_km2": null, "conc_A_lo80": null, "conc_A_hi80": null, "conc_A_lo95": null, "conc_A_hi95": null, "conc_A_status": "unavailable", "conc_A_status_ru": "концентрация недоступна", "conc_A_reasons": "вне бассейна профиля: nw_atlantic_subtropical", "conc_A_model": "conc-A-c6bce5631d2b", "conc_B_items_km2": 279.1, "conc_B_lo80": 59.1, "conc_B_hi80": 938.9, "conc_B_lo95": 36.7, "conc_B_hi95": 1758.5, "conc_B_status": "research_estimate", "conc_B_status_ru": "исследовательская оценка", "conc_B_reasons": "ближайшее полевое измерение в 264 км (> 60 км); месяц 5 вне месяцев обучения [6]", "conc_B_model": "conc-B-c6bce5631d2b"}}]}