{"type": "FeatureCollection", "features": [{"type": "Feature", "geometry": {"type": "Polygon", "coordinates": [[[32.909560915176066, 43.01288839558913], [32.9095610473084, 43.012798344997876], [32.909438335175075, 43.01279824796884], [32.90943846748608, 43.01270819737645], [32.909193176248785, 43.0126179523311], [32.90919344158487, 43.01243785114042], [32.90931615299985, 43.01243794843136], [32.9093162854877, 43.01234789783359], [32.90956157583164, 43.01243814261856], [32.90956144370174, 43.01252819321552], [32.90968415529783, 43.01252829011208], [32.90968402334661, 43.012618340707924], [32.90980673512258, 43.01261843747322], [32.90980647157687, 43.012798538661244], [32.909560915176066, 43.01288839558913]]]}, "properties": {"zone_id": "s4_amasra-2024-06-04-001", "aoi": "s4_amasra", "date": "2024-06-04", "scene_id": "S2B_MSIL2A_20240604T083559_R064_T36TVN_20240604T132043", "scene_datetime_utc": "2024-06-04T08:35:59.024000+00:00", "detection_status": "detected", "detection_status_ru": "обнаружено", "lon": 32.9095, "lat": 43.01263, "n_pixels": 5, "zone_area_km2": 0.0016, "cover_m2": 21.2, "p_mean": 0.64, "p_max": 0.875, "cover_m2_km2": 13250.0, "h3": "882d2ec9b5fffff", "valid_frac_scene": 0.546, "wind_ms": 10.1, "sea": "шторм", "scene_reliable": false, "field_event_id": "S4:DOORS3:T5", "field_profile": "B", "field_date": "2024-06-03", "field_distance_km": 10.1, "field_date_gap_days": 1, "field_conc_items_km2": 389.72, "conc_A_items_km2": null, "conc_A_lo80": null, "conc_A_hi80": null, "conc_A_lo95": null, "conc_A_hi95": null, "conc_A_status": "unavailable", "conc_A_status_ru": "концентрация недоступна", "conc_A_reasons": "вне бассейна профиля: nw_atlantic_subtropical", "conc_A_model": "conc-A-c6bce5631d2b", "conc_B_items_km2": 166.4, "conc_B_lo80": 34.9, "conc_B_hi80": 560.8, "conc_B_lo95": 21.5, "conc_B_hi95": 1050.6, "conc_B_status": "model_estimate", "conc_B_status_ru": "модельная оценка", "conc_B_reasons": "", "conc_B_model": "conc-B-c6bce5631d2b"}}, {"type": "Feature", "geometry": {"type": "Polygon", "coordinates": [[[32.876661012917495, 42.95801653762573], [32.87666119277173, 42.957926486264554], [32.876416167163526, 42.95783617043631], [32.87641670779143, 42.95756601634247], [32.87653930998548, 42.95756614863972], [32.876539490014345, 42.95747609727184], [32.87678451437608, 42.95756641284028], [32.87678397535717, 42.95783656693782], [32.876906578090036, 42.957836698842364], [32.876906398594194, 42.957926750205786], [32.87678379568255, 42.957926618300824], [32.8767836160071, 42.95801666966243], [32.876661012917495, 42.95801653762573]]]}, "properties": {"zone_id": "s4_amasra-2024-06-04-002", "aoi": "s4_amasra", "date": "2024-06-04", "scene_id": "S2B_MSIL2A_20240604T083559_R064_T36TVN_20240604T132043", "scene_datetime_utc": "2024-06-04T08:35:59.024000+00:00", "detection_status": "detected", "detection_status_ru": "обнаружено", "lon": 32.87663, "lat": 42.95775, "n_pixels": 4, "zone_area_km2": 0.0014, "cover_m2": 7.8, "p_mean": 0.743, "p_max": 0.992, "cover_m2_km2": 5571.4, "h3": "882d23268dfffff", "valid_frac_scene": 0.546, "wind_ms": 10.1, "sea": "шторм", "scene_reliable": false, "field_event_id": "S4:DOORS3:T5", "field_profile": "B", "field_date": "2024-06-03", "field_distance_km": 14.5, "field_date_gap_days": 1, "field_conc_items_km2": 389.72, "conc_A_items_km2": null, "conc_A_lo80": null, "conc_A_hi80": null, "conc_A_lo95": null, "conc_A_hi95": null, "conc_A_status": "unavailable", "conc_A_status_ru": "концентрация недоступна", "conc_A_reasons": "вне бассейна профиля: nw_atlantic_subtropical", "conc_A_model": "conc-A-c6bce5631d2b", "conc_B_items_km2": 168.7, "conc_B_lo80": 35.4, "conc_B_hi80": 568.6, "conc_B_lo95": 21.8, "conc_B_hi95": 1065.3, "conc_B_status": "model_estimate", "conc_B_status_ru": "модельная оценка", "conc_B_reasons": "", "conc_B_model": "conc-B-c6bce5631d2b"}}]}