{"type": "FeatureCollection", "features": [{"type": "Feature", "geometry": {"type": "Polygon", "coordinates": [[[37.6401784709852, 44.66368065570676], [37.6401805752584, 44.66359065650788], [37.63967614583189, 44.66358464837178], [37.63967825087523, 44.663494649190135], [37.63942603661113, 44.66349164429625], [37.6394281420346, 44.663401645122484], [37.63930203511234, 44.663400142471424], [37.63930414072095, 44.66331014330084], [37.63943024744822, 44.66331164594721], [37.639432352851976, 44.66322164677045], [37.63981067250794, 44.66322615386029], [37.63980856768918, 44.66331615305112], [37.64018688801886, 44.663320658902194], [37.64018478377523, 44.66341065810559], [37.64043699776763, 44.663413661319666], [37.640434893904136, 44.66350366053093], [37.640561001110115, 44.663505161933834], [37.640558897431774, 44.66359516114829], [37.64043279003079, 44.663593659740684], [37.640430686147596, 44.663683658948955], [37.6401784709852, 44.66368065570676]]]}, "properties": {"zone_id": "novorossiysk-2025-08-27-001", "aoi": "novorossiysk", "date": "2025-08-27", "scene_id": "S2C_MSIL2A_20250827T081621_R121_T37TCK_20250827T120223", "scene_datetime_utc": "2025-08-27T08:16:21.024000+00:00", "detection_status": "detected", "detection_status_ru": "обнаружено", "lon": 37.63991, "lat": 44.66344, "n_pixels": 9, "zone_area_km2": 0.0027, "cover_m2": 49.0, "p_mean": 0.921, "p_max": 0.996, "cover_m2_km2": 18148.1, "h3": "882d728b3bfffff", "valid_frac_scene": 1.0, "wind_ms": 8.1, "sea": "шторм", "scene_reliable": false, "field_event_id": "S4:DOORS3:T12", "field_profile": "B", "field_date": "2024-06-04", "field_distance_km": 252.3, "field_date_gap_days": 449, "field_conc_items_km2": 48.97, "conc_A_items_km2": null, "conc_A_lo80": null, "conc_A_hi80": null, "conc_A_lo95": null, "conc_A_hi95": null, "conc_A_status": "unavailable", "conc_A_status_ru": "концентрация недоступна", "conc_A_reasons": "вне бассейна профиля: nw_atlantic_subtropical", "conc_A_model": "conc-A-c6bce5631d2b", "conc_B_items_km2": 901.4, "conc_B_lo80": 192.7, "conc_B_hi80": 3027.3, "conc_B_lo95": 120.4, "conc_B_hi95": 5668.0, "conc_B_status": "research_estimate", "conc_B_status_ru": "исследовательская оценка", "conc_B_reasons": "ближайшее полевое измерение в 252 км (> 60 км); месяц 8 вне месяцев обучения [6]; log_dist_coast_km = 0.0 вне диапазона обучения [1.7; 5.0]", "conc_B_model": "conc-B-c6bce5631d2b"}}]}