{"type": "FeatureCollection", "features": [{"type": "Feature", "geometry": {"type": "Polygon", "coordinates": [[[44.662346382902946, 48.81126209874217], [44.662346986951505, 48.81117214118076], [44.66221078409473, 48.81117174214684], [44.66221138838395, 48.81108178458529], [44.662484397412115, 48.810992624924204], [44.662483793613184, 48.81108258248969], [44.66261999623229, 48.81108298120051], [44.66261939267402, 48.811172938765814], [44.66248318981126, 48.811172540053754], [44.662482586006355, 48.81126249761642], [44.662346382902946, 48.81126209874217]]]}, "properties": {"zone_id": "volgograd-2025-04-21-001", "aoi": "volgograd", "date": "2025-04-21", "scene_id": "S2B_MSIL2A_20250421T080609_R078_T38UMV_20250421T100416", "scene_datetime_utc": "2025-04-21T08:06:09.024000+00:00", "detection_status": "detected", "detection_status_ru": "обнаружено", "lon": 44.66242, "lat": 48.81113, "n_pixels": 1, "zone_area_km2": 0.0005, "cover_m2": 3.1, "p_mean": 0.988, "p_max": 0.988, "cover_m2_km2": 6200.0, "h3": "882d48a185fffff", "valid_frac_scene": 1.0, "wind_ms": 5.1, "sea": "спокойное", "scene_reliable": true, "field_event_id": "S4:DOORS3:T23", "field_profile": "B", "field_date": "2024-06-10", "field_distance_km": 759.0, "field_date_gap_days": 315, "field_conc_items_km2": 102.37, "conc_A_items_km2": null, "conc_A_lo80": null, "conc_A_hi80": null, "conc_A_lo95": null, "conc_A_hi95": null, "conc_A_status": "unavailable", "conc_A_status_ru": "концентрация недоступна", "conc_A_reasons": "вне бассейна профиля: nw_atlantic_subtropical", "conc_A_model": "conc-A-c6bce5631d2b", "conc_B_items_km2": null, "conc_B_lo80": null, "conc_B_hi80": null, "conc_B_lo95": null, "conc_B_hi95": null, "conc_B_status": "unavailable", "conc_B_status_ru": "концентрация недоступна", "conc_B_reasons": "вне бассейна профиля: black_sea", "conc_B_model": "conc-B-c6bce5631d2b"}}, {"type": "Feature", "geometry": {"type": "Polygon", "coordinates": [[[44.5460091814051, 48.70749823295689], [44.54600999061547, 48.70740827503098], [44.54587406991908, 48.70740773938332], [44.54587568881231, 48.70722782353059], [44.54614833819622, 48.70713893672697], [44.546147529240095, 48.70722889465883], [44.54628344945999, 48.70722942998245], [44.54628183202025, 48.707409345845285], [44.5460091814051, 48.70749823295689]]]}, "properties": {"zone_id": "volgograd-2025-04-21-002", "aoi": "volgograd", "date": "2025-04-21", "scene_id": "S2B_MSIL2A_20250421T080609_R078_T38UMV_20250421T100416", "scene_datetime_utc": "2025-04-21T08:06:09.024000+00:00", "detection_status": "detected", "detection_status_ru": "обнаружено", "lon": 44.54608, "lat": 48.70732, "n_pixels": 2, "zone_area_km2": 0.0008, "cover_m2": 16.5, "p_mean": 0.916, "p_max": 0.933, "cover_m2_km2": 20625.0, "h3": "882d48b9b3fffff", "valid_frac_scene": 1.0, "wind_ms": 5.1, "sea": "спокойное", "scene_reliable": true, "field_event_id": "S4:DOORS3:T23", "field_profile": "B", "field_date": "2024-06-10", "field_distance_km": 745.3, "field_date_gap_days": 315, "field_conc_items_km2": 102.37, "conc_A_items_km2": null, "conc_A_lo80": null, "conc_A_hi80": null, "conc_A_lo95": null, "conc_A_hi95": null, "conc_A_status": "unavailable", "conc_A_status_ru": "концентрация недоступна", "conc_A_reasons": "вне бассейна профиля: nw_atlantic_subtropical", "conc_A_model": "conc-A-c6bce5631d2b", "conc_B_items_km2": null, "conc_B_lo80": null, "conc_B_hi80": null, "conc_B_lo95": null, "conc_B_hi95": null, "conc_B_status": "unavailable", "conc_B_status_ru": "концентрация недоступна", "conc_B_reasons": "вне бассейна профиля: black_sea", "conc_B_model": "conc-B-c6bce5631d2b"}}]}