{"type": "FeatureCollection", "features": [{"type": "Feature", "geometry": {"type": "Polygon", "coordinates": [[[37.580484579429715, 44.66484468673067], [37.580486776147694, 44.66475468982876], [37.5803606694457, 44.664753122060226], [37.58036286634839, 44.66466312516172], [37.58061727587508, 44.66457626363999], [37.58061507937267, 44.66466626054981], [37.580741185900244, 44.66466782803506], [37.580738989582535, 44.66475782494824], [37.580612882859974, 44.664756257458116], [37.58061068633698, 44.6648462543649], [37.580484579429715, 44.66484468673067]]]}, "properties": {"zone_id": "novorossiysk-2025-07-28-001", "aoi": "novorossiysk", "date": "2025-07-28", "scene_id": "S2C_MSIL2A_20250728T081631_R121_T37TCK_20250728T115713", "scene_datetime_utc": "2025-07-28T08:16:31.025000+00:00", "detection_status": "detected", "detection_status_ru": "обнаружено", "lon": 37.58055, "lat": 44.66471, "n_pixels": 1, "zone_area_km2": 0.0005, "cover_m2": 6.7, "p_mean": 0.988, "p_max": 0.988, "cover_m2_km2": 13400.0, "h3": "882d728b41fffff", "valid_frac_scene": 1.0, "wind_ms": 5.6, "sea": "спокойное", "scene_reliable": true, "field_event_id": "S4:DOORS3:T12", "field_profile": "B", "field_date": "2024-06-04", "field_distance_km": 251.5, "field_date_gap_days": 419, "field_conc_items_km2": 48.97, "conc_A_items_km2": null, "conc_A_lo80": null, "conc_A_hi80": null, "conc_A_lo95": null, "conc_A_hi95": null, "conc_A_status": "unavailable", "conc_A_status_ru": "концентрация недоступна", "conc_A_reasons": "вне бассейна профиля: nw_atlantic_subtropical", "conc_A_model": "conc-A-c6bce5631d2b", "conc_B_items_km2": 901.4, "conc_B_lo80": 192.7, "conc_B_hi80": 3027.3, "conc_B_lo95": 120.4, "conc_B_hi95": 5668.0, "conc_B_status": "research_estimate", "conc_B_status_ru": "исследовательская оценка", "conc_B_reasons": "ближайшее полевое измерение в 252 км (> 60 км); месяц 7 вне месяцев обучения [6]; log_dist_coast_km = 0.0 вне диапазона обучения [1.7; 5.0]", "conc_B_model": "conc-B-c6bce5631d2b"}}, {"type": "Feature", "geometry": {"type": "Polygon", "coordinates": [[[37.61021676377103, 44.661159340124584], [37.61021891421094, 44.66106934201725], [37.609968864399995, 44.660976274098424], [37.609971015209695, 44.66088627599765], [37.61009711513008, 44.66088781096743], [37.610099265734746, 44.660797812860366], [37.61035146521582, 44.660800882372804], [37.61034931500109, 44.66089088048945], [37.61047541495169, 44.66089241504167], [37.61047111488194, 44.66107241128004], [37.61021676377103, 44.661159340124584]]]}, "properties": {"zone_id": "novorossiysk-2025-07-28-002", "aoi": "novorossiysk", "date": "2025-07-28", "scene_id": "S2C_MSIL2A_20250728T081631_R121_T37TCK_20250728T115713", "scene_datetime_utc": "2025-07-28T08:16:31.025000+00:00", "detection_status": "detected", "detection_status_ru": "обнаружено", "lon": 37.61024, "lat": 44.66096, "n_pixels": 3, "zone_area_km2": 0.001, "cover_m2": 15.7, "p_mean": 0.978, "p_max": 0.996, "cover_m2_km2": 15700.0, "h3": "882d728b01fffff", "valid_frac_scene": 1.0, "wind_ms": 5.6, "sea": "спокойное", "scene_reliable": true, "field_event_id": "S4:DOORS3:T12", "field_profile": "B", "field_date": "2024-06-04", "field_distance_km": 251.5, "field_date_gap_days": 419, "field_conc_items_km2": 48.97, "conc_A_items_km2": null, "conc_A_lo80": null, "conc_A_hi80": null, "conc_A_lo95": null, "conc_A_hi95": null, "conc_A_status": "unavailable", "conc_A_status_ru": "концентрация недоступна", "conc_A_reasons": "вне бассейна профиля: nw_atlantic_subtropical", "conc_A_model": "conc-A-c6bce5631d2b", "conc_B_items_km2": 621.6, "conc_B_lo80": 132.7, "conc_B_hi80": 2088.3, "conc_B_lo95": 82.8, "conc_B_hi95": 3910.2, "conc_B_status": "research_estimate", "conc_B_status_ru": "исследовательская оценка", "conc_B_reasons": "ближайшее полевое измерение в 252 км (> 60 км); месяц 7 вне месяцев обучения [6]; log_dist_coast_km = 1.0 вне диапазона обучения [1.7; 5.0]", "conc_B_model": "conc-B-c6bce5631d2b"}}, {"type": "Feature", "geometry": {"type": "Polygon", "coordinates": [[[37.926591062849326, 44.64629655554328], [37.92659272296209, 44.646206546497915], [37.92646663985216, 44.646205361298826], [37.92646996044419, 44.64602534321105], [37.92672378578674, 44.64593770440174], [37.926722125892205, 44.64602771345525], [37.926848208627874, 44.64602889836859], [37.926844889205285, 44.64620891647856], [37.926591062849326, 44.64629655554328]]]}, "properties": {"zone_id": "novorossiysk-2025-07-28-003", "aoi": "novorossiysk", "date": "2025-07-28", "scene_id": "S2C_MSIL2A_20250728T081631_R121_T37TCK_20250728T115713", "scene_datetime_utc": "2025-07-28T08:16:31.025000+00:00", "detection_status": "detected", "detection_status_ru": "обнаружено", "lon": 37.92666, "lat": 44.64612, "n_pixels": 2, "zone_area_km2": 0.0008, "cover_m2": 23.1, "p_mean": 0.912, "p_max": 0.957, "cover_m2_km2": 28875.0, "h3": "882d721035fffff", "valid_frac_scene": 1.0, "wind_ms": 5.6, "sea": "спокойное", "scene_reliable": true, "field_event_id": "S4:DOORS3:T13", "field_profile": "B", "field_date": "2024-06-04", "field_distance_km": 255.4, "field_date_gap_days": 419, "field_conc_items_km2": 263.57, "conc_A_items_km2": null, "conc_A_lo80": null, "conc_A_hi80": null, "conc_A_lo95": null, "conc_A_hi95": null, "conc_A_status": "unavailable", "conc_A_status_ru": "концентрация недоступна", "conc_A_reasons": "вне бассейна профиля: nw_atlantic_subtropical", "conc_A_model": "conc-A-c6bce5631d2b", "conc_B_items_km2": 901.4, "conc_B_lo80": 192.7, "conc_B_hi80": 3027.3, "conc_B_lo95": 120.4, "conc_B_hi95": 5668.0, "conc_B_status": "research_estimate", "conc_B_status_ru": "исследовательская оценка", "conc_B_reasons": "ближайшее полевое измерение в 255 км (> 60 км); месяц 7 вне месяцев обучения [6]; log_dist_coast_km = 0.0 вне диапазона обучения [1.7; 5.0]", "conc_B_model": "conc-B-c6bce5631d2b"}}, {"type": "Feature", "geometry": {"type": "Polygon", "coordinates": [[[37.92597061281001, 44.645750573954366], [37.92597227385065, 44.64566056491865], [37.92584619194902, 44.64565937904596], [37.92584785317676, 44.64556937001246], [37.926101677428164, 44.645481732568925], [37.92610001659799, 44.64557174161129], [37.92622609832028, 44.645572927201954], [37.92622443767723, 44.645662936246545], [37.92609835576005, 44.645661750652195], [37.92609669491432, 44.6457517596916], [37.92597061281001, 44.645750573954366]]]}, "properties": {"zone_id": "novorossiysk-2025-07-28-004", "aoi": "novorossiysk", "date": "2025-07-28", "scene_id": "S2C_MSIL2A_20250728T081631_R121_T37TCK_20250728T115713", "scene_datetime_utc": "2025-07-28T08:16:31.025000+00:00", "detection_status": "detected", "detection_status_ru": "обнаружено", "lon": 37.92604, "lat": 44.64562, "n_pixels": 1, "zone_area_km2": 0.0005, "cover_m2": 11.4, "p_mean": 0.918, "p_max": 0.918, "cover_m2_km2": 22800.0, "h3": "882d721035fffff", "valid_frac_scene": 1.0, "wind_ms": 5.6, "sea": "спокойное", "scene_reliable": true, "field_event_id": "S4:DOORS3:T13", "field_profile": "B", "field_date": "2024-06-04", "field_distance_km": 255.4, "field_date_gap_days": 419, "field_conc_items_km2": 263.57, "conc_A_items_km2": null, "conc_A_lo80": null, "conc_A_hi80": null, "conc_A_lo95": null, "conc_A_hi95": null, "conc_A_status": "unavailable", "conc_A_status_ru": "концентрация недоступна", "conc_A_reasons": "вне бассейна профиля: nw_atlantic_subtropical", "conc_A_model": "conc-A-c6bce5631d2b", "conc_B_items_km2": 901.4, "conc_B_lo80": 192.7, "conc_B_hi80": 3027.3, "conc_B_lo95": 120.4, "conc_B_hi95": 5668.0, "conc_B_status": "research_estimate", "conc_B_status_ru": "исследовательская оценка", "conc_B_reasons": "ближайшее полевое измерение в 255 км (> 60 км); месяц 7 вне месяцев обучения [6]; log_dist_coast_km = 0.0 вне диапазона обучения [1.7; 5.0]", "conc_B_model": "conc-B-c6bce5631d2b"}}, {"type": "Feature", "geometry": {"type": "Polygon", "coordinates": [[[37.91494589548434, 44.64186531709776], [37.91494757334602, 44.64177530832748], [37.91482150031737, 44.6417741103656], [37.91482317836606, 44.6416841015976], [37.91507700169261, 44.64159648859776], [37.915075324041496, 44.64168649737472], [37.91520139689099, 44.64168769505456], [37.91519971942688, 44.64177770383379], [37.915073646382524, 44.6417765061502], [37.915071968715694, 44.641866514924224], [37.91494589548434, 44.64186531709776]]]}, "properties": {"zone_id": "novorossiysk-2025-07-28-005", "aoi": "novorossiysk", "date": "2025-07-28", "scene_id": "S2C_MSIL2A_20250728T081631_R121_T37TCK_20250728T115713", "scene_datetime_utc": "2025-07-28T08:16:31.025000+00:00", "detection_status": "detected", "detection_status_ru": "обнаружено", "lon": 37.91501, "lat": 44.64173, "n_pixels": 1, "zone_area_km2": 0.0005, "cover_m2": 7.1, "p_mean": 0.949, "p_max": 0.949, "cover_m2_km2": 14200.0, "h3": "882d721023fffff", "valid_frac_scene": 1.0, "wind_ms": 5.6, "sea": "спокойное", "scene_reliable": true, "field_event_id": "S4:DOORS3:T13", "field_profile": "B", "field_date": "2024-06-04", "field_distance_km": 254.8, "field_date_gap_days": 419, "field_conc_items_km2": 263.57, "conc_A_items_km2": null, "conc_A_lo80": null, "conc_A_hi80": null, "conc_A_lo95": null, "conc_A_hi95": null, "conc_A_status": "unavailable", "conc_A_status_ru": "концентрация недоступна", "conc_A_reasons": "вне бассейна профиля: nw_atlantic_subtropical", "conc_A_model": "conc-A-c6bce5631d2b", "conc_B_items_km2": 669.0, "conc_B_lo80": 142.9, "conc_B_hi80": 2247.4, "conc_B_lo95": 89.1, "conc_B_hi95": 4208.0, "conc_B_status": "research_estimate", "conc_B_status_ru": "исследовательская оценка", "conc_B_reasons": "ближайшее полевое измерение в 255 км (> 60 км); месяц 7 вне месяцев обучения [6]; log_dist_coast_km = 0.8 вне диапазона обучения [1.7; 5.0]", "conc_B_model": "conc-B-c6bce5631d2b"}}, {"type": "Feature", "geometry": {"type": "Polygon", "coordinates": [[[37.9327264000756, 44.600531335011915], [37.932728048070096, 44.60044132506195], [37.932602063724524, 44.60044014757992], [37.932603711905735, 44.60035013763217], [37.93272969605687, 44.60035131511053], [37.93273134403593, 44.60026130515763], [37.93298331197245, 44.600263659690164], [37.93298166438227, 44.6003536696504], [37.93310764855654, 44.60035484671193], [37.9331060011531, 44.60044485667437], [37.93298001678439, 44.600443679609185], [37.93297836917879, 44.600533689566504], [37.9327264000756, 44.600531335011915]]]}, "properties": {"zone_id": "novorossiysk-2025-07-28-006", "aoi": "novorossiysk", "date": "2025-07-28", "scene_id": "S2C_MSIL2A_20250728T081631_R121_T37TCK_20250728T115713", "scene_datetime_utc": "2025-07-28T08:16:31.025000+00:00", "detection_status": "detected", "detection_status_ru": "обнаружено", "lon": 37.93285, "lat": 44.6004, "n_pixels": 2, "zone_area_km2": 0.0008, "cover_m2": 7.8, "p_mean": 0.71, "p_max": 0.796, "cover_m2_km2": 9750.0, "h3": "882d721133fffff", "valid_frac_scene": 1.0, "wind_ms": 5.6, "sea": "спокойное", "scene_reliable": true, "field_event_id": "S4:DOORS3:T13", "field_profile": "B", "field_date": "2024-06-04", "field_distance_km": 250.5, "field_date_gap_days": 419, "field_conc_items_km2": 263.57, "conc_A_items_km2": null, "conc_A_lo80": null, "conc_A_hi80": null, "conc_A_lo95": null, "conc_A_hi95": null, "conc_A_status": "unavailable", "conc_A_status_ru": "концентрация недоступна", "conc_A_reasons": "вне бассейна профиля: nw_atlantic_subtropical", "conc_A_model": "conc-A-c6bce5631d2b", "conc_B_items_km2": 669.0, "conc_B_lo80": 142.9, "conc_B_hi80": 2247.4, "conc_B_lo95": 89.1, "conc_B_hi95": 4208.0, "conc_B_status": "research_estimate", "conc_B_status_ru": "исследовательская оценка", "conc_B_reasons": "ближайшее полевое измерение в 251 км (> 60 км); месяц 7 вне месяцев обучения [6]; log_dist_coast_km = 0.8 вне диапазона обучения [1.7; 5.0]", "conc_B_model": "conc-B-c6bce5631d2b"}}, {"type": "Feature", "geometry": {"type": "Polygon", "coordinates": [[[37.92895348249956, 44.60013591063242], [37.928955136296395, 44.60004590078701], [37.92882915296043, 44.60004471915137], [37.928832460919786, 44.59986469946352], [37.928958443866875, 44.59986588109179], [37.92896009764049, 44.59977587124195], [37.92921206316902, 44.59977823407427], [37.92921040978427, 44.59986824393146], [37.92933639275458, 44.5998694251429], [37.92933308635074, 44.60004944486025], [37.929207102991555, 44.600048263641455], [37.929205449583584, 44.60013827349423], [37.92895348249956, 44.60013591063242]]]}, "properties": {"zone_id": "novorossiysk-2025-07-28-007", "aoi": "novorossiysk", "date": "2025-07-28", "scene_id": "S2C_MSIL2A_20250728T081631_R121_T37TCK_20250728T115713", "scene_datetime_utc": "2025-07-28T08:16:31.025000+00:00", "detection_status": "detected", "detection_status_ru": "обнаружено", "lon": 37.92908, "lat": 44.59996, "n_pixels": 4, "zone_area_km2": 0.0012, "cover_m2": 27.5, "p_mean": 0.864, "p_max": 0.988, "cover_m2_km2": 22916.7, "h3": "882d72113bfffff", "valid_frac_scene": 1.0, "wind_ms": 5.6, "sea": "спокойное", "scene_reliable": true, "field_event_id": "S4:DOORS3:T13", "field_profile": "B", "field_date": "2024-06-04", "field_distance_km": 250.4, "field_date_gap_days": 419, "field_conc_items_km2": 263.57, "conc_A_items_km2": null, "conc_A_lo80": null, "conc_A_hi80": null, "conc_A_lo95": null, "conc_A_hi95": null, "conc_A_status": "unavailable", "conc_A_status_ru": "концентрация недоступна", "conc_A_reasons": "вне бассейна профиля: nw_atlantic_subtropical", "conc_A_model": "conc-A-c6bce5631d2b", "conc_B_items_km2": 669.0, "conc_B_lo80": 142.9, "conc_B_hi80": 2247.4, "conc_B_lo95": 89.1, "conc_B_hi95": 4208.0, "conc_B_status": "research_estimate", "conc_B_status_ru": "исследовательская оценка", "conc_B_reasons": "ближайшее полевое измерение в 250 км (> 60 км); месяц 7 вне месяцев обучения [6]; log_dist_coast_km = 0.8 вне диапазона обучения [1.7; 5.0]", "conc_B_model": "conc-B-c6bce5631d2b"}}, {"type": "Feature", "geometry": {"type": "Polygon", "coordinates": [[[37.95458298794987, 44.583268563206495], [37.95458460122811, 44.58317855234917], [37.95433431900502, 44.58308623531138], [37.95433593265672, 44.5829962244583], [37.954461880205564, 44.582997377613616], [37.95446349365543, 44.58290736675548], [37.95471377532591, 44.58299968350768], [37.95471216225703, 44.58308969437156], [37.9548381100228, 44.58309084711388], [37.954836497140654, 44.58318085797988], [37.95471054918061, 44.58317970523396], [37.95470893609664, 44.58326971609488], [37.95458298794987, 44.583268563206495]]]}, "properties": {"zone_id": "novorossiysk-2025-07-28-008", "aoi": "novorossiysk", "date": "2025-07-28", "scene_id": "S2C_MSIL2A_20250728T081631_R121_T37TCK_20250728T115713", "scene_datetime_utc": "2025-07-28T08:16:31.025000+00:00", "detection_status": "detected", "detection_status_ru": "обнаружено", "lon": 37.95459, "lat": 44.58309, "n_pixels": 2, "zone_area_km2": 0.0008, "cover_m2": 13.3, "p_mean": 0.775, "p_max": 0.973, "cover_m2_km2": 16625.0, "h3": "882d721ad5fffff", "valid_frac_scene": 1.0, "wind_ms": 5.6, "sea": "спокойное", "scene_reliable": true, "field_event_id": "S4:DOORS3:T13", "field_profile": "B", "field_date": "2024-06-04", "field_distance_km": 249.0, "field_date_gap_days": 419, "field_conc_items_km2": 263.57, "conc_A_items_km2": null, "conc_A_lo80": null, "conc_A_hi80": null, "conc_A_lo95": null, "conc_A_hi95": null, "conc_A_status": "unavailable", "conc_A_status_ru": "концентрация недоступна", "conc_A_reasons": "вне бассейна профиля: nw_atlantic_subtropical", "conc_A_model": "conc-A-c6bce5631d2b", "conc_B_items_km2": 901.4, "conc_B_lo80": 192.7, "conc_B_hi80": 3027.3, "conc_B_lo95": 120.4, "conc_B_hi95": 5668.0, "conc_B_status": "research_estimate", "conc_B_status_ru": "исследовательская оценка", "conc_B_reasons": "ближайшее полевое измерение в 249 км (> 60 км); месяц 7 вне месяцев обучения [6]; log_dist_coast_km = 0.0 вне диапазона обучения [1.7; 5.0]", "conc_B_model": "conc-B-c6bce5631d2b"}}]}