{"type": "FeatureCollection", "features": [{"type": "Feature", "geometry": {"type": "Polygon", "coordinates": [[[37.91204789567695, 44.64174772000153], [37.91204957801249, 44.641657711315894], [37.91192350535968, 44.641656510157496], [37.91192687039685, 44.64147649278928], [37.912052942659955, 44.64147769394016], [37.912054624971866, 44.641387685250095], [37.912306769132, 44.64139008712696], [37.912305087209795, 44.64148009582453], [37.912431159496535, 44.64148129655799], [37.912427796018214, 44.64166131395621], [37.91230172334176, 44.641660113215245], [37.91230004139593, 44.64175012190838], [37.91204789567695, 44.64174772000153]]]}, "properties": {"zone_id": "novorossiysk-2025-10-04-001", "aoi": "novorossiysk", "date": "2025-10-04", "scene_id": "S2B_MSIL2A_20251004T082709_R021_T37TCK_20251004T111028", "scene_datetime_utc": "2025-10-04T08:27:09.024000+00:00", "detection_status": "detected", "detection_status_ru": "обнаружено", "lon": 37.91218, "lat": 44.64157, "n_pixels": 4, "zone_area_km2": 0.0012, "cover_m2": 33.3, "p_mean": 0.935, "p_max": 0.992, "cover_m2_km2": 27750.0, "h3": "882d721023fffff", "valid_frac_scene": 1.0, "wind_ms": 8.7, "sea": "шторм", "scene_reliable": false, "field_event_id": "S4:DOORS3:T13", "field_profile": "B", "field_date": "2024-06-04", "field_distance_km": 254.7, "field_date_gap_days": 487, "field_conc_items_km2": 263.57, "conc_A_items_km2": null, "conc_A_lo80": null, "conc_A_hi80": null, "conc_A_lo95": null, "conc_A_hi95": null, "conc_A_status": "unavailable", "conc_A_status_ru": "концентрация недоступна", "conc_A_reasons": "вне бассейна профиля: nw_atlantic_subtropical", "conc_A_model": "conc-A-c6bce5631d2b", "conc_B_items_km2": 669.0, "conc_B_lo80": 142.9, "conc_B_hi80": 2247.5, "conc_B_lo95": 89.1, "conc_B_hi95": 4208.2, "conc_B_status": "research_estimate", "conc_B_status_ru": "исследовательская оценка", "conc_B_reasons": "ближайшее полевое измерение в 255 км (> 60 км); месяц 10 вне месяцев обучения [6]; log_dist_coast_km = 0.8 вне диапазона обучения [1.7; 5.0]", "conc_B_model": "conc-B-c6bce5631d2b"}}, {"type": "Feature", "geometry": {"type": "Polygon", "coordinates": [[[37.63488980772586, 44.63102868424886], [37.63489191777905, 44.63093868473132], [37.63476588141096, 44.630937177927485], [37.63477010187703, 44.63075717889726], [37.634896137855804, 44.63075868569168], [37.63489824787935, 44.630668686169614], [37.63502428367334, 44.63067019282029], [37.635026393492346, 44.630580193292005], [37.635532645018884, 44.63049621893686], [37.63553053598841, 44.63058621848543], [37.63565657163711, 44.630587724436175], [37.635654462791415, 44.63067772398796], [37.635400281869664, 44.630764711478896], [37.63539817261489, 44.630854711018266], [37.63527213640195, 44.63085320477532], [37.635270026942635, 44.6309432043085], [37.635017954157036, 44.63094019139608], [37.635015844298515, 44.63103019091834], [37.63488980772586, 44.63102868424886]]]}, "properties": {"zone_id": "novorossiysk-2025-10-04-002", "aoi": "novorossiysk", "date": "2025-10-04", "scene_id": "S2B_MSIL2A_20251004T082709_R021_T37TCK_20251004T111028", "scene_datetime_utc": "2025-10-04T08:27:09.024000+00:00", "detection_status": "detected", "detection_status_ru": "обнаружено", "lon": 37.63518, "lat": 44.63075, "n_pixels": 9, "zone_area_km2": 0.0022, "cover_m2": 78.0, "p_mean": 0.957, "p_max": 1.0, "cover_m2_km2": 35454.5, "h3": "882d72d49bfffff", "valid_frac_scene": 1.0, "wind_ms": 8.7, "sea": "шторм", "scene_reliable": false, "field_event_id": "S4:DOORS3:T12", "field_profile": "B", "field_date": "2024-06-04", "field_distance_km": 248.6, "field_date_gap_days": 487, "field_conc_items_km2": 48.97, "conc_A_items_km2": null, "conc_A_lo80": null, "conc_A_hi80": null, "conc_A_lo95": null, "conc_A_hi95": null, "conc_A_status": "unavailable", "conc_A_status_ru": "концентрация недоступна", "conc_A_reasons": "вне бассейна профиля: nw_atlantic_subtropical", "conc_A_model": "conc-A-c6bce5631d2b", "conc_B_items_km2": 520.5, "conc_B_lo80": 111.0, "conc_B_hi80": 1749.2, "conc_B_lo95": 69.2, "conc_B_hi95": 3275.4, "conc_B_status": "research_estimate", "conc_B_status_ru": "исследовательская оценка", "conc_B_reasons": "ближайшее полевое измерение в 249 км (> 60 км); месяц 10 вне месяцев обучения [6]", "conc_B_model": "conc-B-c6bce5631d2b"}}]}