{"type": "FeatureCollection", "features": [{"type": "Feature", "geometry": {"type": "Polygon", "coordinates": [[[131.98100713967926, 43.069622416434676], [131.98100277771638, 43.069532488713484], [131.98088011882396, 43.06953568662645], [131.98087575705998, 43.0694457588935], [131.9809984157736, 43.06944256099052], [131.98099405385088, 43.06935263326576], [131.9812437331406, 43.06943616479074], [131.98124809544106, 43.0695260924937], [131.98112543658877, 43.06952929066924], [131.98112979873045, 43.06961921838044], [131.98100713967926, 43.069622416434676]]]}, "properties": {"zone_id": "vladivostok-2025-11-06-001", "aoi": "vladivostok", "date": "2025-11-06", "scene_id": "S2A_MSIL2A_20251106T021121_R103_T52TGN_20251106T061814", "scene_datetime_utc": "2025-11-06T02:11:21.024000+00:00", "detection_status": "detected", "detection_status_ru": "обнаружено", "lon": 131.98106, "lat": 43.06949, "n_pixels": 1, "zone_area_km2": 0.0005, "cover_m2": 0.0, "p_mean": 0.91, "p_max": 0.91, "cover_m2_km2": 0.0, "h3": "88316c08e9fffff", "valid_frac_scene": 0.983, "wind_ms": 4.9, "sea": "спокойное", "scene_reliable": true, "field_event_id": "S4:DOORS3:T23", "field_profile": "B", "field_date": "2024-06-10", "field_distance_km": 6991.8, "field_date_gap_days": 514, "field_conc_items_km2": 102.37, "conc_A_items_km2": null, "conc_A_lo80": null, "conc_A_hi80": null, "conc_A_lo95": null, "conc_A_hi95": null, "conc_A_status": "unavailable", "conc_A_status_ru": "концентрация недоступна", "conc_A_reasons": "вне бассейна профиля: nw_atlantic_subtropical", "conc_A_model": "conc-A-c6bce5631d2b", "conc_B_items_km2": null, "conc_B_lo80": null, "conc_B_hi80": null, "conc_B_lo95": null, "conc_B_hi95": null, "conc_B_status": "unavailable", "conc_B_status_ru": "концентрация недоступна", "conc_B_reasons": "вне бассейна профиля: black_sea", "conc_B_model": "conc-B-c6bce5631d2b"}}]}