{"type": "FeatureCollection", "features": [{"type": "Feature", "geometry": {"type": "Polygon", "coordinates": [[[49.34859744049984, 53.4640152884301], [49.348600928303306, 53.46392543853248], [49.348450363118396, 53.46392335709378], [49.348453851220725, 53.46383350720141], [49.34875846842231, 53.463747819968134], [49.34875498097404, 53.46383766987558], [49.34890554587888, 53.46383975092817], [49.34890205872948, 53.46392960084089], [49.348751493507, 53.46392751978151], [49.34874800602118, 53.46401736968592], [49.34859744049984, 53.4640152884301]]]}, "properties": {"zone_id": "kuibyshev-2026-08-03-001", "aoi": "kuibyshev", "date": "2026-08-03", "scene_id": "S2C_MSIL2A_20260803T074611_R135_T39UUV_20260803T105109", "scene_datetime_utc": "2026-08-03T07:46:11.025000+00:00", "detection_status": "detected", "detection_status_ru": "обнаружено", "lon": 49.34868, "lat": 53.46388, "n_pixels": 1, "zone_area_km2": 0.0005, "cover_m2": 4.3, "p_mean": 0.996, "p_max": 0.996, "cover_m2_km2": 8600.0, "h3": "881081d2abfffff", "valid_frac_scene": 0.999, "wind_ms": 4.2, "sea": "спокойное", "scene_reliable": true, "field_event_id": "S4:DOORS3:T23", "field_profile": "B", "field_date": "2024-06-10", "field_distance_km": 1364.8, "field_date_gap_days": 784, "field_conc_items_km2": 102.37, "conc_A_items_km2": null, "conc_A_lo80": null, "conc_A_hi80": null, "conc_A_lo95": null, "conc_A_hi95": null, "conc_A_status": "unavailable", "conc_A_status_ru": "концентрация недоступна", "conc_A_reasons": "вне бассейна профиля: nw_atlantic_subtropical", "conc_A_model": "conc-A-c6bce5631d2b", "conc_B_items_km2": null, "conc_B_lo80": null, "conc_B_hi80": null, "conc_B_lo95": null, "conc_B_hi95": null, "conc_B_status": "unavailable", "conc_B_status_ru": "концентрация недоступна", "conc_B_reasons": "вне бассейна профиля: black_sea", "conc_B_model": "conc-B-c6bce5631d2b"}}, {"type": "Feature", "geometry": {"type": "Polygon", "coordinates": [[[49.328401890892955, 53.46040816471217], [49.32840542087403, 53.460318315679395], [49.32825486999125, 53.46031620889143], [49.32825840027087, 53.460226359863995], [49.3284089508361, 53.4602284666451], [49.32841248077916, 53.46013861760928], [49.32871358133149, 53.46014283058887], [49.32871005202355, 53.46023267963842], [49.32886060264579, 53.460234785850645], [49.328857073636414, 53.46032463490553], [49.32870652269661, 53.46032252868645], [49.328702993350674, 53.46041237773294], [49.328401890892955, 53.46040816471217]]]}, "properties": {"zone_id": "kuibyshev-2026-08-03-002", "aoi": "kuibyshev", "date": "2026-08-03", "scene_id": "S2C_MSIL2A_20260803T074611_R135_T39UUV_20260803T105109", "scene_datetime_utc": "2026-08-03T07:46:11.025000+00:00", "detection_status": "detected", "detection_status_ru": "обнаружено", "lon": 49.32856, "lat": 53.46028, "n_pixels": 2, "zone_area_km2": 0.0008, "cover_m2": 7.5, "p_mean": 0.775, "p_max": 0.855, "cover_m2_km2": 9375.0, "h3": "881081d2e7fffff", "valid_frac_scene": 0.999, "wind_ms": 4.2, "sea": "спокойное", "scene_reliable": true, "field_event_id": "S4:DOORS3:T23", "field_profile": "B", "field_date": "2024-06-10", "field_distance_km": 1363.8, "field_date_gap_days": 784, "field_conc_items_km2": 102.37, "conc_A_items_km2": null, "conc_A_lo80": null, "conc_A_hi80": null, "conc_A_lo95": null, "conc_A_hi95": null, "conc_A_status": "unavailable", "conc_A_status_ru": "концентрация недоступна", "conc_A_reasons": "вне бассейна профиля: nw_atlantic_subtropical", "conc_A_model": "conc-A-c6bce5631d2b", "conc_B_items_km2": null, "conc_B_lo80": null, "conc_B_hi80": null, "conc_B_lo95": null, "conc_B_hi95": null, "conc_B_status": "unavailable", "conc_B_status_ru": "концентрация недоступна", "conc_B_reasons": "вне бассейна профиля: black_sea", "conc_B_model": "conc-B-c6bce5631d2b"}}, {"type": "Feature", "geometry": {"type": "Polygon", "coordinates": [[[49.36108925317131, 53.46041160127516], [49.36109271414456, 53.4603217507599], [49.36094216076532, 53.46031968515597], [49.36094908329109, 53.460139984134386], [49.36125364939764, 53.46005426459916], [49.361250188797875, 53.460144115125686], [49.36140074157922, 53.460146180336885], [49.36139382095895, 53.460325881398845], [49.36108925317131, 53.46041160127516]]]}, "properties": {"zone_id": "kuibyshev-2026-08-03-003", "aoi": "kuibyshev", "date": "2026-08-03", "scene_id": "S2C_MSIL2A_20260803T074611_R135_T39UUV_20260803T105109", "scene_datetime_utc": "2026-08-03T07:46:11.025000+00:00", "detection_status": "detected", "detection_status_ru": "обнаружено", "lon": 49.36117, "lat": 53.46023, "n_pixels": 2, "zone_area_km2": 0.0008, "cover_m2": 5.9, "p_mean": 0.686, "p_max": 0.812, "cover_m2_km2": 7375.0, "h3": "881081d2a3fffff", "valid_frac_scene": 0.999, "wind_ms": 4.2, "sea": "спокойное", "scene_reliable": true, "field_event_id": "S4:DOORS3:T23", "field_profile": "B", "field_date": "2024-06-10", "field_distance_km": 1364.8, "field_date_gap_days": 784, "field_conc_items_km2": 102.37, "conc_A_items_km2": null, "conc_A_lo80": null, "conc_A_hi80": null, "conc_A_lo95": null, "conc_A_hi95": null, "conc_A_status": "unavailable", "conc_A_status_ru": "концентрация недоступна", "conc_A_reasons": "вне бассейна профиля: nw_atlantic_subtropical", "conc_A_model": "conc-A-c6bce5631d2b", "conc_B_items_km2": null, "conc_B_lo80": null, "conc_B_hi80": null, "conc_B_lo95": null, "conc_B_hi95": null, "conc_B_status": "unavailable", "conc_B_status_ru": "концентрация недоступна", "conc_B_reasons": "вне бассейна профиля: black_sea", "conc_B_model": "conc-B-c6bce5631d2b"}}, {"type": "Feature", "geometry": {"type": "Polygon", "coordinates": [[[49.318823455047315, 53.45883536989697], [49.31882700504638, 53.45874552128036], [49.31867646046422, 53.458743402466816], [49.31868356104005, 53.45856370524286], [49.31898819857758, 53.45847809402468], [49.31898464895338, 53.45856794265275], [49.31913519293871, 53.45857006107327], [49.31912809426804, 53.458749758338634], [49.318823455047315, 53.45883536989697]]]}, "properties": {"zone_id": "kuibyshev-2026-08-03-004", "aoi": "kuibyshev", "date": "2026-08-03", "scene_id": "S2C_MSIL2A_20260803T074611_R135_T39UUV_20260803T105109", "scene_datetime_utc": "2026-08-03T07:46:11.025000+00:00", "detection_status": "detected", "detection_status_ru": "обнаружено", "lon": 49.31891, "lat": 53.45866, "n_pixels": 2, "zone_area_km2": 0.0008, "cover_m2": 12.9, "p_mean": 0.782, "p_max": 0.98, "cover_m2_km2": 16125.0, "h3": "881081d2e7fffff", "valid_frac_scene": 0.999, "wind_ms": 4.2, "sea": "спокойное", "scene_reliable": true, "field_event_id": "S4:DOORS3:T23", "field_profile": "B", "field_date": "2024-06-10", "field_distance_km": 1363.4, "field_date_gap_days": 784, "field_conc_items_km2": 102.37, "conc_A_items_km2": null, "conc_A_lo80": null, "conc_A_hi80": null, "conc_A_lo95": null, "conc_A_hi95": null, "conc_A_status": "unavailable", "conc_A_status_ru": "концентрация недоступна", "conc_A_reasons": "вне бассейна профиля: nw_atlantic_subtropical", "conc_A_model": "conc-A-c6bce5631d2b", "conc_B_items_km2": null, "conc_B_lo80": null, "conc_B_hi80": null, "conc_B_lo95": null, "conc_B_hi95": null, "conc_B_status": "unavailable", "conc_B_status_ru": "концентрация недоступна", "conc_B_reasons": "вне бассейна профиля: black_sea", "conc_B_model": "conc-B-c6bce5631d2b"}}, {"type": "Feature", "geometry": {"type": "Polygon", "coordinates": [[[49.43095405203017, 53.44076319612849], [49.43095736313324, 53.44067334224539], [49.43080687407583, 53.44067136516535], [49.43081349686301, 53.4404916574075], [49.43111778445899, 53.44040575745825], [49.43111447372664, 53.44049561135232], [49.43126496218518, 53.440497588040444], [49.431258341301515, 53.44067729583693], [49.43095405203017, 53.44076319612849]]]}, "properties": {"zone_id": "kuibyshev-2026-08-03-005", "aoi": "kuibyshev", "date": "2026-08-03", "scene_id": "S2C_MSIL2A_20260803T074611_R135_T39UUV_20260803T105109", "scene_datetime_utc": "2026-08-03T07:46:11.025000+00:00", "detection_status": "detected", "detection_status_ru": "обнаружено", "lon": 49.43104, "lat": 53.44058, "n_pixels": 2, "zone_area_km2": 0.0008, "cover_m2": 18.8, "p_mean": 0.965, "p_max": 0.965, "cover_m2_km2": 23500.0, "h3": "881081d087fffff", "valid_frac_scene": 0.999, "wind_ms": 4.2, "sea": "спокойное", "scene_reliable": true, "field_event_id": "S4:DOORS3:T23", "field_profile": "B", "field_date": "2024-06-10", "field_distance_km": 1365.1, "field_date_gap_days": 784, "field_conc_items_km2": 102.37, "conc_A_items_km2": null, "conc_A_lo80": null, "conc_A_hi80": null, "conc_A_lo95": null, "conc_A_hi95": null, "conc_A_status": "unavailable", "conc_A_status_ru": "концентрация недоступна", "conc_A_reasons": "вне бассейна профиля: nw_atlantic_subtropical", "conc_A_model": "conc-A-c6bce5631d2b", "conc_B_items_km2": null, "conc_B_lo80": null, "conc_B_hi80": null, "conc_B_lo95": null, "conc_B_hi95": null, "conc_B_status": "unavailable", "conc_B_status_ru": "концентрация недоступна", "conc_B_reasons": "вне бассейна профиля: black_sea", "conc_B_model": "conc-B-c6bce5631d2b"}}]}