{"type": "FeatureCollection", "features": [{"type": "Feature", "geometry": {"type": "Polygon", "coordinates": [[[39.718918481641346, 43.56309805682023], [39.718917410951875, 43.563008021912516], [39.71879359736103, 43.56300880042889], [39.71879252686087, 43.562918765517296], [39.718916340267356, 43.562917987003345], [39.7189152695878, 43.56282795209275], [39.719162896017195, 43.56282639466754], [39.719163967065455, 43.56291642957327], [39.71928778045707, 43.56291565065712], [39.71928885169466, 43.56300568555898], [39.71916503811868, 43.56300646447756], [39.719166109176875, 43.5630964993804], [39.718918481641346, 43.56309805682023]]]}, "properties": {"zone_id": "sochi-2025-09-01-001", "aoi": "sochi", "date": "2025-09-01", "scene_id": "S2B_MSIL2A_20250901T081609_R121_T37TEJ_20250901T110328", "scene_datetime_utc": "2025-09-01T08:16:09.024000+00:00", "detection_status": "detected", "detection_status_ru": "обнаружено", "lon": 39.71904, "lat": 43.56296, "n_pixels": 2, "zone_area_km2": 0.0008, "cover_m2": 5.9, "p_mean": 0.725, "p_max": 0.753, "cover_m2_km2": 7375.0, "h3": "882d568e41fffff", "valid_frac_scene": 1.0, "wind_ms": 2.4, "sea": "спокойное", "scene_reliable": true, "field_event_id": "S4:DOORS3:T17", "field_profile": "B", "field_date": "2024-06-04", "field_distance_km": 183.4, "field_date_gap_days": 454, "field_conc_items_km2": 89.61, "conc_A_items_km2": null, "conc_A_lo80": null, "conc_A_hi80": null, "conc_A_lo95": null, "conc_A_hi95": null, "conc_A_status": "unavailable", "conc_A_status_ru": "концентрация недоступна", "conc_A_reasons": "вне бассейна профиля: nw_atlantic_subtropical", "conc_A_model": "conc-A-c6bce5631d2b", "conc_B_items_km2": 621.6, "conc_B_lo80": 132.7, "conc_B_hi80": 2088.3, "conc_B_lo95": 82.8, "conc_B_hi95": 3910.2, "conc_B_status": "research_estimate", "conc_B_status_ru": "исследовательская оценка", "conc_B_reasons": "ближайшее полевое измерение в 183 км (> 60 км); месяц 9 вне месяцев обучения [6]; log_dist_coast_km = 1.0 вне диапазона обучения [1.7; 5.0]", "conc_B_model": "conc-B-c6bce5631d2b"}}, {"type": "Feature", "geometry": {"type": "Polygon", "coordinates": [[[39.72479893202737, 43.55783851001713], [39.72479785277865, 43.55774847514291], [39.724674050117976, 43.5577492599524], [39.724671892004146, 43.55756919019473], [39.72491841716524, 43.55747758557542], [39.724919496583276, 43.55756762045152], [39.72504329886534, 43.55756683537885], [39.72504545808501, 43.55774690512179], [39.72479893202737, 43.55783851001713]]]}, "properties": {"zone_id": "sochi-2025-09-01-002", "aoi": "sochi", "date": "2025-09-01", "scene_id": "S2B_MSIL2A_20250901T081609_R121_T37TEJ_20250901T110328", "scene_datetime_utc": "2025-09-01T08:16:09.024000+00:00", "detection_status": "detected", "detection_status_ru": "обнаружено", "lon": 39.72486, "lat": 43.55766, "n_pixels": 2, "zone_area_km2": 0.0008, "cover_m2": 8.6, "p_mean": 0.929, "p_max": 0.98, "cover_m2_km2": 10750.0, "h3": "882d568e47fffff", "valid_frac_scene": 1.0, "wind_ms": 2.4, "sea": "спокойное", "scene_reliable": true, "field_event_id": "S4:DOORS3:T17", "field_profile": "B", "field_date": "2024-06-04", "field_distance_km": 183.2, "field_date_gap_days": 454, "field_conc_items_km2": 89.61, "conc_A_items_km2": null, "conc_A_lo80": null, "conc_A_hi80": null, "conc_A_lo95": null, "conc_A_hi95": null, "conc_A_status": "unavailable", "conc_A_status_ru": "концентрация недоступна", "conc_A_reasons": "вне бассейна профиля: nw_atlantic_subtropical", "conc_A_model": "conc-A-c6bce5631d2b", "conc_B_items_km2": 621.6, "conc_B_lo80": 132.7, "conc_B_hi80": 2088.3, "conc_B_lo95": 82.8, "conc_B_hi95": 3910.2, "conc_B_status": "research_estimate", "conc_B_status_ru": "исследовательская оценка", "conc_B_reasons": "ближайшее полевое измерение в 183 км (> 60 км); месяц 9 вне месяцев обучения [6]; log_dist_coast_km = 1.0 вне диапазона обучения [1.7; 5.0]", "conc_B_model": "conc-B-c6bce5631d2b"}}, {"type": "Feature", "geometry": {"type": "Polygon", "coordinates": [[[39.72614454437643, 43.55647934537891], [39.72614346317543, 43.55638931051004], [39.72601966333428, 43.55639009675718], [39.72601858232258, 43.55630006188439], [39.72614238197944, 43.55629927563972], [39.726141300788456, 43.55620924076796], [39.726388899718586, 43.5562076678814], [39.72638998127816, 43.556297702748246], [39.72651378092, 43.55629691610145], [39.726514862668864, 43.556386950964395], [39.72639106284273, 43.556387737613655], [39.726392144412316, 43.556477772477606], [39.72614454437643, 43.55647934537891]]]}, "properties": {"zone_id": "sochi-2025-09-01-003", "aoi": "sochi", "date": "2025-09-01", "scene_id": "S2B_MSIL2A_20250901T081609_R121_T37TEJ_20250901T110328", "scene_datetime_utc": "2025-09-01T08:16:09.024000+00:00", "detection_status": "detected", "detection_status_ru": "обнаружено", "lon": 39.72627, "lat": 43.55634, "n_pixels": 2, "zone_area_km2": 0.0008, "cover_m2": 12.5, "p_mean": 0.855, "p_max": 0.957, "cover_m2_km2": 15625.0, "h3": "882d568e47fffff", "valid_frac_scene": 1.0, "wind_ms": 2.4, "sea": "спокойное", "scene_reliable": true, "field_event_id": "S4:DOORS3:T17", "field_profile": "B", "field_date": "2024-06-04", "field_distance_km": 183.1, "field_date_gap_days": 454, "field_conc_items_km2": 89.61, "conc_A_items_km2": null, "conc_A_lo80": null, "conc_A_hi80": null, "conc_A_lo95": null, "conc_A_hi95": null, "conc_A_status": "unavailable", "conc_A_status_ru": "концентрация недоступна", "conc_A_reasons": "вне бассейна профиля: nw_atlantic_subtropical", "conc_A_model": "conc-A-c6bce5631d2b", "conc_B_items_km2": 539.0, "conc_B_lo80": 114.9, "conc_B_hi80": 1811.1, "conc_B_lo95": 71.7, "conc_B_hi95": 3391.2, "conc_B_status": "research_estimate", "conc_B_status_ru": "исследовательская оценка", "conc_B_reasons": "ближайшее полевое измерение в 183 км (> 60 км); месяц 9 вне месяцев обучения [6]", "conc_B_model": "conc-B-c6bce5631d2b"}}, {"type": "Feature", "geometry": {"type": "Polygon", "coordinates": [[[39.72240472668155, 43.554342035542184], [39.72240365112892, 43.55425200056508], [39.722279855560785, 43.554252782732334], [39.7222787801974, 43.55416274775134], [39.72240257558126, 43.55416196558654], [39.722401500038586, 43.554071930606554], [39.72265016633405, 43.55416040085484], [39.72265124225025, 43.55425043582849], [39.72252744669208, 43.55425121826381], [39.72252852242898, 43.55434125323845], [39.72240472668155, 43.554342035542184]]]}, "properties": {"zone_id": "sochi-2025-09-01-004", "aoi": "sochi", "date": "2025-09-01", "scene_id": "S2B_MSIL2A_20250901T081609_R121_T37TEJ_20250901T110328", "scene_datetime_utc": "2025-09-01T08:16:09.024000+00:00", "detection_status": "detected", "detection_status_ru": "обнаружено", "lon": 39.72247, "lat": 43.55421, "n_pixels": 1, "zone_area_km2": 0.0005, "cover_m2": 4.3, "p_mean": 0.769, "p_max": 0.769, "cover_m2_km2": 8600.0, "h3": "882d568e47fffff", "valid_frac_scene": 1.0, "wind_ms": 2.4, "sea": "спокойное", "scene_reliable": true, "field_event_id": "S4:DOORS3:T17", "field_profile": "B", "field_date": "2024-06-04", "field_distance_km": 182.8, "field_date_gap_days": 454, "field_conc_items_km2": 89.61, "conc_A_items_km2": null, "conc_A_lo80": null, "conc_A_hi80": null, "conc_A_lo95": null, "conc_A_hi95": null, "conc_A_status": "unavailable", "conc_A_status_ru": "концентрация недоступна", "conc_A_reasons": "вне бассейна профиля: nw_atlantic_subtropical", "conc_A_model": "conc-A-c6bce5631d2b", "conc_B_items_km2": 539.0, "conc_B_lo80": 114.9, "conc_B_hi80": 1811.1, "conc_B_lo95": 71.7, "conc_B_hi95": 3391.2, "conc_B_status": "research_estimate", "conc_B_status_ru": "исследовательская оценка", "conc_B_reasons": "ближайшее полевое измерение в 183 км (> 60 км); месяц 9 вне месяцев обучения [6]", "conc_B_model": "conc-B-c6bce5631d2b"}}, {"type": "Feature", "geometry": {"type": "Polygon", "coordinates": [[[39.75221309693363, 43.54208419071736], [39.75221197748218, 43.5419941561504], [39.75208820782825, 43.54199497041144], [39.752087088566135, 43.541904935840506], [39.752210858035916, 43.54190412158202], [39.75220973859483, 43.54181408701218], [39.75245839695992, 43.54190249266314], [39.75245951677449, 43.54199252722644], [39.75233574713093, 43.54199334175541], [39.752336866766534, 43.542083376319816], [39.75221309693363, 43.54208419071736]]]}, "properties": {"zone_id": "sochi-2025-09-01-005", "aoi": "sochi", "date": "2025-09-01", "scene_id": "S2B_MSIL2A_20250901T081609_R121_T37TEJ_20250901T110328", "scene_datetime_utc": "2025-09-01T08:16:09.024000+00:00", "detection_status": "detected", "detection_status_ru": "обнаружено", "lon": 39.75227, "lat": 43.54195, "n_pixels": 1, "zone_area_km2": 0.0005, "cover_m2": 6.3, "p_mean": 0.973, "p_max": 0.973, "cover_m2_km2": 12600.0, "h3": "882d568e2bfffff", "valid_frac_scene": 1.0, "wind_ms": 2.4, "sea": "спокойное", "scene_reliable": true, "field_event_id": "S4:DOORS3:T17", "field_profile": "B", "field_date": "2024-06-04", "field_distance_km": 183.1, "field_date_gap_days": 454, "field_conc_items_km2": 89.61, "conc_A_items_km2": null, "conc_A_lo80": null, "conc_A_hi80": null, "conc_A_lo95": null, "conc_A_hi95": null, "conc_A_status": "unavailable", "conc_A_status_ru": "концентрация недоступна", "conc_A_reasons": "вне бассейна профиля: nw_atlantic_subtropical", "conc_A_model": "conc-A-c6bce5631d2b", "conc_B_items_km2": 621.6, "conc_B_lo80": 132.7, "conc_B_hi80": 2088.3, "conc_B_lo95": 82.8, "conc_B_hi95": 3910.2, "conc_B_status": "research_estimate", "conc_B_status_ru": "исследовательская оценка", "conc_B_reasons": "ближайшее полевое измерение в 183 км (> 60 км); месяц 9 вне месяцев обучения [6]; log_dist_coast_km = 1.0 вне диапазона обучения [1.7; 5.0]", "conc_B_model": "conc-B-c6bce5631d2b"}}, {"type": "Feature", "geometry": {"type": "Polygon", "coordinates": [[[39.74634814936198, 43.53825082347342], [39.74634703878687, 43.53816078872512], [39.74622327680816, 43.53816159658092], [39.7462210560416, 43.53798152707493], [39.74646746851363, 43.537889876489366], [39.746468579257424, 43.537979911239475], [39.746592340857624, 43.53797910312082], [39.74659456272888, 43.53815917261166], [39.74634814936198, 43.53825082347342]]]}, "properties": {"zone_id": "sochi-2025-09-01-006", "aoi": "sochi", "date": "2025-09-01", "scene_id": "S2B_MSIL2A_20250901T081609_R121_T37TEJ_20250901T110328", "scene_datetime_utc": "2025-09-01T08:16:09.024000+00:00", "detection_status": "detected", "detection_status_ru": "обнаружено", "lon": 39.74641, "lat": 43.53807, "n_pixels": 2, "zone_area_km2": 0.0008, "cover_m2": 13.7, "p_mean": 0.986, "p_max": 0.988, "cover_m2_km2": 17125.0, "h3": "882d568e29fffff", "valid_frac_scene": 1.0, "wind_ms": 2.4, "sea": "спокойное", "scene_reliable": true, "field_event_id": "S4:DOORS3:T17", "field_profile": "B", "field_date": "2024-06-04", "field_distance_km": 182.5, "field_date_gap_days": 454, "field_conc_items_km2": 89.61, "conc_A_items_km2": null, "conc_A_lo80": null, "conc_A_hi80": null, "conc_A_lo95": null, "conc_A_hi95": null, "conc_A_status": "unavailable", "conc_A_status_ru": "концентрация недоступна", "conc_A_reasons": "вне бассейна профиля: nw_atlantic_subtropical", "conc_A_model": "conc-A-c6bce5631d2b", "conc_B_items_km2": 511.6, "conc_B_lo80": 109.1, "conc_B_hi80": 1719.1, "conc_B_lo95": 68.0, "conc_B_hi95": 3219.0, "conc_B_status": "research_estimate", "conc_B_status_ru": "исследовательская оценка", "conc_B_reasons": "ближайшее полевое измерение в 182 км (> 60 км); месяц 9 вне месяцев обучения [6]", "conc_B_model": "conc-B-c6bce5631d2b"}}, {"type": "Feature", "geometry": {"type": "Polygon", "coordinates": [[[39.71015654832785, 43.53397925172306], [39.710155491760965, 43.53388921618298], [39.71003173752262, 43.53388998480364], [39.710029624771686, 43.53370991371436], [39.71027607577088, 43.53361834080671], [39.710277132507166, 43.533708376348706], [39.71040088636758, 43.53370760746498], [39.710403000222996, 43.53388767853984], [39.71015654832785, 43.53397925172306]]]}, "properties": {"zone_id": "sochi-2025-09-01-007", "aoi": "sochi", "date": "2025-09-01", "scene_id": "S2B_MSIL2A_20250901T081609_R121_T37TEJ_20250901T110328", "scene_datetime_utc": "2025-09-01T08:16:09.024000+00:00", "detection_status": "detected", "detection_status_ru": "обнаружено", "lon": 39.71022, "lat": 43.5338, "n_pixels": 2, "zone_area_km2": 0.0008, "cover_m2": 11.0, "p_mean": 0.814, "p_max": 0.976, "cover_m2_km2": 13750.0, "h3": "882d5681bbfffff", "valid_frac_scene": 1.0, "wind_ms": 2.4, "sea": "спокойное", "scene_reliable": true, "field_event_id": "S4:DOORS3:T17", "field_profile": "B", "field_date": "2024-06-04", "field_distance_km": 180.4, "field_date_gap_days": 454, "field_conc_items_km2": 89.61, "conc_A_items_km2": null, "conc_A_lo80": null, "conc_A_hi80": null, "conc_A_lo95": null, "conc_A_hi95": null, "conc_A_status": "unavailable", "conc_A_status_ru": "концентрация недоступна", "conc_A_reasons": "вне бассейна профиля: nw_atlantic_subtropical", "conc_A_model": "conc-A-c6bce5631d2b", "conc_B_items_km2": 464.8, "conc_B_lo80": 99.0, "conc_B_hi80": 1562.1, "conc_B_lo95": 61.7, "conc_B_hi95": 2925.0, "conc_B_status": "research_estimate", "conc_B_status_ru": "исследовательская оценка", "conc_B_reasons": "ближайшее полевое измерение в 180 км (> 60 км); месяц 9 вне месяцев обучения [6]", "conc_B_model": "conc-B-c6bce5631d2b"}}, {"type": "Feature", "geometry": {"type": "Polygon", "coordinates": [[[39.83392736129789, 43.50757147972419], [39.83392612174023, 43.507481446392454], [39.8338024250728, 43.50748234854268], [39.8337999463423, 43.50730228186921], [39.83392364264212, 43.507301379724616], [39.83392240310167, 43.50721134638853], [39.834169795316456, 43.5072095417036], [39.83417103522453, 43.507299575034054], [39.83429473150712, 43.50729867248807], [39.834297211708105, 43.50747873913899], [39.834173515057884, 43.50747964169061], [39.83417475498317, 43.507569675016704], [39.83392736129789, 43.50757147972419]]]}, "properties": {"zone_id": "sochi-2025-09-01-008", "aoi": "sochi", "date": "2025-09-01", "scene_id": "S2B_MSIL2A_20250901T081609_R121_T37TEJ_20250901T110328", "scene_datetime_utc": "2025-09-01T08:16:09.024000+00:00", "detection_status": "detected", "detection_status_ru": "обнаружено", "lon": 39.83405, "lat": 43.50739, "n_pixels": 4, "zone_area_km2": 0.0012, "cover_m2": 24.3, "p_mean": 0.885, "p_max": 0.988, "cover_m2_km2": 20250.0, "h3": "882d568c23fffff", "valid_frac_scene": 1.0, "wind_ms": 2.4, "sea": "спокойное", "scene_reliable": true, "field_event_id": "S4:DOORS3:T17", "field_profile": "B", "field_date": "2024-06-04", "field_distance_km": 184.2, "field_date_gap_days": 454, "field_conc_items_km2": 89.61, "conc_A_items_km2": null, "conc_A_lo80": null, "conc_A_hi80": null, "conc_A_lo95": null, "conc_A_hi95": null, "conc_A_status": "unavailable", "conc_A_status_ru": "концентрация недоступна", "conc_A_reasons": "вне бассейна профиля: nw_atlantic_subtropical", "conc_A_model": "conc-A-c6bce5631d2b", "conc_B_items_km2": 666.4, "conc_B_lo80": 142.3, "conc_B_hi80": 2238.6, "conc_B_lo95": 88.8, "conc_B_hi95": 4191.4, "conc_B_status": "research_estimate", "conc_B_status_ru": "исследовательская оценка", "conc_B_reasons": "ближайшее полевое измерение в 184 км (> 60 км); месяц 9 вне месяцев обучения [6]; log_dist_coast_km = 0.9 вне диапазона обучения [1.7; 5.0]", "conc_B_model": "conc-B-c6bce5631d2b"}}, {"type": "Feature", "geometry": {"type": "Polygon", "coordinates": [[[39.835384405597665, 43.50557991056269], [39.83538316396069, 43.50548987723289], [39.8352594714058, 43.505490780926586], [39.83525698851666, 43.50531071425698], [39.83538068070396, 43.50530981056893], [39.83537943908422, 43.505219777234764], [39.835628065061336, 43.50530800279146], [39.83562930705441, 43.50539803611852], [39.83575299940827, 43.50539713202627], [39.83575424159088, 43.50548716534905], [39.83563054905323, 43.50548806944412], [39.83563179105779, 43.50557810276827], [39.835384405597665, 43.50557991056269]]]}, "properties": {"zone_id": "sochi-2025-09-01-009", "aoi": "sochi", "date": "2025-09-01", "scene_id": "S2B_MSIL2A_20250901T081609_R121_T37TEJ_20250901T110328", "scene_datetime_utc": "2025-09-01T08:16:09.024000+00:00", "detection_status": "detected", "detection_status_ru": "обнаружено", "lon": 39.83549, "lat": 43.50541, "n_pixels": 3, "zone_area_km2": 0.001, "cover_m2": 13.3, "p_mean": 0.813, "p_max": 0.988, "cover_m2_km2": 13300.0, "h3": "882d568c23fffff", "valid_frac_scene": 1.0, "wind_ms": 2.4, "sea": "спокойное", "scene_reliable": true, "field_event_id": "S4:DOORS3:T17", "field_profile": "B", "field_date": "2024-06-04", "field_distance_km": 184.1, "field_date_gap_days": 454, "field_conc_items_km2": 89.61, "conc_A_items_km2": null, "conc_A_lo80": null, "conc_A_hi80": null, "conc_A_lo95": null, "conc_A_hi95": null, "conc_A_status": "unavailable", "conc_A_status_ru": "концентрация недоступна", "conc_A_reasons": "вне бассейна профиля: nw_atlantic_subtropical", "conc_A_model": "conc-A-c6bce5631d2b", "conc_B_items_km2": 591.0, "conc_B_lo80": 126.1, "conc_B_hi80": 1985.7, "conc_B_lo95": 78.7, "conc_B_hi95": 3718.0, "conc_B_status": "research_estimate", "conc_B_status_ru": "исследовательская оценка", "conc_B_reasons": "ближайшее полевое измерение в 184 км (> 60 км); месяц 9 вне месяцев обучения [6]; log_dist_coast_km = 1.2 вне диапазона обучения [1.7; 5.0]", "conc_B_model": "conc-B-c6bce5631d2b"}}, {"type": "Feature", "geometry": {"type": "Polygon", "coordinates": [[[39.83708375574465, 43.50322637874584], [39.83708251168427, 43.50313634541789], [39.83695882398822, 43.50313725091108], [39.83695633625227, 43.50295718424516], [39.83720246667666, 43.50286533980683], [39.83720371090354, 43.50295537313631], [39.83732739822054, 43.502954467381215], [39.837329887059106, 43.50313453403016], [39.83708375574465, 43.50322637874584]]]}, "properties": {"zone_id": "sochi-2025-09-01-010", "aoi": "sochi", "date": "2025-09-01", "scene_id": "S2B_MSIL2A_20250901T081609_R121_T37TEJ_20250901T110328", "scene_datetime_utc": "2025-09-01T08:16:09.024000+00:00", "detection_status": "detected", "detection_status_ru": "обнаружено", "lon": 39.83714, "lat": 43.50305, "n_pixels": 2, "zone_area_km2": 0.0008, "cover_m2": 7.8, "p_mean": 0.961, "p_max": 0.996, "cover_m2_km2": 9750.0, "h3": "882d568dc9fffff", "valid_frac_scene": 1.0, "wind_ms": 2.4, "sea": "спокойное", "scene_reliable": true, "field_event_id": "S4:DOORS3:T17", "field_profile": "B", "field_date": "2024-06-04", "field_distance_km": 183.9, "field_date_gap_days": 454, "field_conc_items_km2": 89.61, "conc_A_items_km2": null, "conc_A_lo80": null, "conc_A_hi80": null, "conc_A_lo95": null, "conc_A_hi95": null, "conc_A_status": "unavailable", "conc_A_status_ru": "концентрация недоступна", "conc_A_reasons": "вне бассейна профиля: nw_atlantic_subtropical", "conc_A_model": "conc-A-c6bce5631d2b", "conc_B_items_km2": 591.0, "conc_B_lo80": 126.1, "conc_B_hi80": 1985.7, "conc_B_lo95": 78.7, "conc_B_hi95": 3718.0, "conc_B_status": "research_estimate", "conc_B_status_ru": "исследовательская оценка", "conc_B_reasons": "ближайшее полевое измерение в 184 км (> 60 км); месяц 9 вне месяцев обучения [6]; log_dist_coast_km = 1.2 вне диапазона обучения [1.7; 5.0]", "conc_B_model": "conc-B-c6bce5631d2b"}}, {"type": "Feature", "geometry": {"type": "Polygon", "coordinates": [[[39.84809591033006, 43.49459118799122], [39.84809465028452, 43.49450115478174], [39.847846051165504, 43.494412955953386], [39.84784479149901, 43.49432292273527], [39.84796846085789, 43.49432200561371], [39.847967201013525, 43.49423197239702], [39.84821453934644, 43.49423013775842], [39.84821579955817, 43.49432017096939], [39.84833946889957, 43.49431925344662], [39.84834198970789, 43.494499319858456], [39.84809591033006, 43.49459118799122]]]}, "properties": {"zone_id": "sochi-2025-09-01-011", "aoi": "sochi", "date": "2025-09-01", "scene_id": "S2B_MSIL2A_20250901T081609_R121_T37TEJ_20250901T110328", "scene_datetime_utc": "2025-09-01T08:16:09.024000+00:00", "detection_status": "detected", "detection_status_ru": "обнаружено", "lon": 39.84811, "lat": 43.4944, "n_pixels": 3, "zone_area_km2": 0.001, "cover_m2": 27.1, "p_mean": 0.959, "p_max": 1.0, "cover_m2_km2": 27100.0, "h3": "882d568dcdfffff", "valid_frac_scene": 1.0, "wind_ms": 2.4, "sea": "спокойное", "scene_reliable": true, "field_event_id": "S4:DOORS3:T17", "field_profile": "B", "field_date": "2024-06-04", "field_distance_km": 183.8, "field_date_gap_days": 454, "field_conc_items_km2": 89.61, "conc_A_items_km2": null, "conc_A_lo80": null, "conc_A_hi80": null, "conc_A_lo95": null, "conc_A_hi95": null, "conc_A_status": "unavailable", "conc_A_status_ru": "концентрация недоступна", "conc_A_reasons": "вне бассейна профиля: nw_atlantic_subtropical", "conc_A_model": "conc-A-c6bce5631d2b", "conc_B_items_km2": 591.0, "conc_B_lo80": 126.1, "conc_B_hi80": 1985.7, "conc_B_lo95": 78.7, "conc_B_hi95": 3718.0, "conc_B_status": "research_estimate", "conc_B_status_ru": "исследовательская оценка", "conc_B_reasons": "ближайшее полевое измерение в 184 км (> 60 км); месяц 9 вне месяцев обучения [6]; log_dist_coast_km = 1.2 вне диапазона обучения [1.7; 5.0]", "conc_B_model": "conc-B-c6bce5631d2b"}}, {"type": "Feature", "geometry": {"type": "Polygon", "coordinates": [[[39.84756723133268, 43.49216395876904], [39.847565972179225, 43.492073925508876], [39.847442307394715, 43.492074842157564], [39.847441048430746, 43.4919848088931], [39.84756471303159, 43.49198389224726], [39.847563453889784, 43.4918938589842], [39.84781204221581, 43.49198205855442], [39.84781330173077, 43.49207209181029], [39.84768963695791, 43.49207300872645], [39.847690896295035, 43.492163041983744], [39.84756723133268, 43.49216395876904]]]}, "properties": {"zone_id": "sochi-2025-09-01-012", "aoi": "sochi", "date": "2025-09-01", "scene_id": "S2B_MSIL2A_20250901T081609_R121_T37TEJ_20250901T110328", "scene_datetime_utc": "2025-09-01T08:16:09.024000+00:00", "detection_status": "detected", "detection_status_ru": "обнаружено", "lon": 39.84763, "lat": 43.49203, "n_pixels": 1, "zone_area_km2": 0.0005, "cover_m2": 9.4, "p_mean": 0.792, "p_max": 0.792, "cover_m2_km2": 18800.0, "h3": "882d568dc5fffff", "valid_frac_scene": 1.0, "wind_ms": 2.4, "sea": "спокойное", "scene_reliable": true, "field_event_id": "S4:DOORS3:T17", "field_profile": "B", "field_date": "2024-06-04", "field_distance_km": 183.5, "field_date_gap_days": 454, "field_conc_items_km2": 89.61, "conc_A_items_km2": null, "conc_A_lo80": null, "conc_A_hi80": null, "conc_A_lo95": null, "conc_A_hi95": null, "conc_A_status": "unavailable", "conc_A_status_ru": "концентрация недоступна", "conc_A_reasons": "вне бассейна профиля: nw_atlantic_subtropical", "conc_A_model": "conc-A-c6bce5631d2b", "conc_B_items_km2": 591.0, "conc_B_lo80": 126.1, "conc_B_hi80": 1985.7, "conc_B_lo95": 78.7, "conc_B_hi95": 3718.0, "conc_B_status": "research_estimate", "conc_B_status_ru": "исследовательская оценка", "conc_B_reasons": "ближайшее полевое измерение в 184 км (> 60 км); месяц 9 вне месяцев обучения [6]; log_dist_coast_km = 1.2 вне диапазона обучения [1.7; 5.0]", "conc_B_model": "conc-B-c6bce5631d2b"}}, {"type": "Feature", "geometry": {"type": "Polygon", "coordinates": [[[39.85114719053176, 43.49168715180256], [39.85114592608131, 43.49159711861842], [39.85102226238441, 43.491598039130864], [39.851020998123474, 43.49150800594238], [39.85114466163671, 43.49150708543282], [39.85114339719796, 43.49141705224577], [39.851391988645624, 43.49150524401251], [39.85139325345754, 43.49159527719235], [39.85126958977235, 43.49159619797224], [39.85127085440646, 43.49168623115351], [39.85114719053176, 43.49168715180256]]]}, "properties": {"zone_id": "sochi-2025-09-01-013", "aoi": "sochi", "date": "2025-09-01", "scene_id": "S2B_MSIL2A_20250901T081609_R121_T37TEJ_20250901T110328", "scene_datetime_utc": "2025-09-01T08:16:09.024000+00:00", "detection_status": "detected", "detection_status_ru": "обнаружено", "lon": 39.85121, "lat": 43.49155, "n_pixels": 1, "zone_area_km2": 0.0005, "cover_m2": 7.1, "p_mean": 0.769, "p_max": 0.769, "cover_m2_km2": 14200.0, "h3": "882d568dc5fffff", "valid_frac_scene": 1.0, "wind_ms": 2.4, "sea": "спокойное", "scene_reliable": true, "field_event_id": "S4:DOORS3:T17", "field_profile": "B", "field_date": "2024-06-04", "field_distance_km": 183.7, "field_date_gap_days": 454, "field_conc_items_km2": 89.61, "conc_A_items_km2": null, "conc_A_lo80": null, "conc_A_hi80": null, "conc_A_lo95": null, "conc_A_hi95": null, "conc_A_status": "unavailable", "conc_A_status_ru": "концентрация недоступна", "conc_A_reasons": "вне бассейна профиля: nw_atlantic_subtropical", "conc_A_model": "conc-A-c6bce5631d2b", "conc_B_items_km2": 621.6, "conc_B_lo80": 132.7, "conc_B_hi80": 2088.3, "conc_B_lo95": 82.8, "conc_B_hi95": 3910.2, "conc_B_status": "research_estimate", "conc_B_status_ru": "исследовательская оценка", "conc_B_reasons": "ближайшее полевое измерение в 184 км (> 60 км); месяц 9 вне месяцев обучения [6]; log_dist_coast_km = 1.0 вне диапазона обучения [1.7; 5.0]", "conc_B_model": "conc-B-c6bce5631d2b"}}, {"type": "Feature", "geometry": {"type": "Polygon", "coordinates": [[[39.83545628256639, 43.483879126249995], [39.83545504176257, 43.483789092578846], [39.835206504789326, 43.4837008655953], [39.83520526436417, 43.48361083191559], [39.83532891227103, 43.483609928640725], [39.835327671668026, 43.483519894962384], [39.83557496709737, 43.48351808801722], [39.83557620806755, 43.48360812168991], [39.835699855957195, 43.483607218013965], [39.835702338281955, 43.483787285349344], [39.83545628256639, 43.483879126249995]]]}, "properties": {"zone_id": "sochi-2025-09-01-014", "aoi": "sochi", "date": "2025-09-01", "scene_id": "S2B_MSIL2A_20250901T081609_R121_T37TEJ_20250901T110328", "scene_datetime_utc": "2025-09-01T08:16:09.024000+00:00", "detection_status": "detected", "detection_status_ru": "обнаружено", "lon": 39.83547, "lat": 43.48368, "n_pixels": 3, "zone_area_km2": 0.001, "cover_m2": 21.6, "p_mean": 0.995, "p_max": 1.0, "cover_m2_km2": 21600.0, "h3": "882d568d11fffff", "valid_frac_scene": 1.0, "wind_ms": 2.4, "sea": "спокойное", "scene_reliable": true, "field_event_id": "S4:DOORS3:T17", "field_profile": "B", "field_date": "2024-06-04", "field_distance_km": 182.2, "field_date_gap_days": 454, "field_conc_items_km2": 89.61, "conc_A_items_km2": null, "conc_A_lo80": null, "conc_A_hi80": null, "conc_A_lo95": null, "conc_A_hi95": null, "conc_A_status": "unavailable", "conc_A_status_ru": "концентрация недоступна", "conc_A_reasons": "вне бассейна профиля: nw_atlantic_subtropical", "conc_A_model": "conc-A-c6bce5631d2b", "conc_B_items_km2": 511.6, "conc_B_lo80": 109.1, "conc_B_hi80": 1719.1, "conc_B_lo95": 68.0, "conc_B_hi95": 3219.0, "conc_B_status": "research_estimate", "conc_B_status_ru": "исследовательская оценка", "conc_B_reasons": "ближайшее полевое измерение в 182 км (> 60 км); месяц 9 вне месяцев обучения [6]", "conc_B_model": "conc-B-c6bce5631d2b"}}, {"type": "Feature", "geometry": {"type": "Polygon", "coordinates": [[[39.87054459904465, 43.47308235060339], [39.87054330661928, 43.47299231758403], [39.87041968149447, 43.47299325875544], [39.870417097028636, 43.47281319270647], [39.87066305394747, 43.47272127722102], [39.87066434653837, 43.472811310241795], [39.870787971284265, 43.47281036880901], [39.87079055685097, 43.47299043484031], [39.87054459904465, 43.47308235060339]]]}, "properties": {"zone_id": "sochi-2025-09-01-015", "aoi": "sochi", "date": "2025-09-01", "scene_id": "S2B_MSIL2A_20250901T081609_R121_T37TEJ_20250901T110328", "scene_datetime_utc": "2025-09-01T08:16:09.024000+00:00", "detection_status": "detected", "detection_status_ru": "обнаружено", "lon": 39.8706, "lat": 43.4729, "n_pixels": 2, "zone_area_km2": 0.0008, "cover_m2": 7.1, "p_mean": 0.749, "p_max": 0.988, "cover_m2_km2": 8875.0, "h3": "882d568de7fffff", "valid_frac_scene": 1.0, "wind_ms": 2.4, "sea": "спокойное", "scene_reliable": true, "field_event_id": "S4:DOORS3:T17", "field_profile": "B", "field_date": "2024-06-04", "field_distance_km": 183.1, "field_date_gap_days": 454, "field_conc_items_km2": 89.61, "conc_A_items_km2": null, "conc_A_lo80": null, "conc_A_hi80": null, "conc_A_lo95": null, "conc_A_hi95": null, "conc_A_status": "unavailable", "conc_A_status_ru": "концентрация недоступна", "conc_A_reasons": "вне бассейна профиля: nw_atlantic_subtropical", "conc_A_model": "conc-A-c6bce5631d2b", "conc_B_items_km2": 567.4, "conc_B_lo80": 121.0, "conc_B_hi80": 1906.6, "conc_B_lo95": 75.5, "conc_B_hi95": 3570.0, "conc_B_status": "research_estimate", "conc_B_status_ru": "исследовательская оценка", "conc_B_reasons": "ближайшее полевое измерение в 183 км (> 60 км); месяц 9 вне месяцев обучения [6]; log_dist_coast_km = 1.3 вне диапазона обучения [1.7; 5.0]", "conc_B_model": "conc-B-c6bce5631d2b"}}, {"type": "Feature", "geometry": {"type": "Polygon", "coordinates": [[[39.756516957333716, 43.47047201865172], [39.756515834287526, 43.470381983042], [39.75639221098358, 43.47038280089475], [39.756389965273726, 43.470202729665864], [39.75651358821073, 43.470201911818236], [39.75651246518012, 43.470111876204186], [39.756759710671595, 43.47011024011314], [39.75676083406915, 43.47020027572209], [39.75688445699056, 43.470199457473555], [39.7568867041682, 43.47037952868198], [39.75676308087984, 43.47038034693563], [39.756764204292985, 43.47047038254022], [39.756516957333716, 43.47047201865172]]]}, "properties": {"zone_id": "sochi-2025-09-01-016", "aoi": "sochi", "date": "2025-09-01", "scene_id": "S2B_MSIL2A_20250901T081609_R121_T37TEJ_20250901T110328", "scene_datetime_utc": "2025-09-01T08:16:09.024000+00:00", "detection_status": "detected", "detection_status_ru": "обнаружено", "lon": 39.75664, "lat": 43.47029, "n_pixels": 4, "zone_area_km2": 0.0012, "cover_m2": 40.4, "p_mean": 0.786, "p_max": 0.98, "cover_m2_km2": 33666.7, "h3": "882d568f25fffff", "valid_frac_scene": 1.0, "wind_ms": 2.4, "sea": "спокойное", "scene_reliable": true, "field_event_id": "S4:DOORS3:T17", "field_profile": "B", "field_date": "2024-06-04", "field_distance_km": 177.0, "field_date_gap_days": 454, "field_conc_items_km2": 89.61, "conc_A_items_km2": null, "conc_A_lo80": null, "conc_A_hi80": null, "conc_A_lo95": null, "conc_A_hi95": null, "conc_A_status": "unavailable", "conc_A_status_ru": "концентрация недоступна", "conc_A_reasons": "вне бассейна профиля: nw_atlantic_subtropical", "conc_A_model": "conc-A-c6bce5631d2b", "conc_B_items_km2": 396.2, "conc_B_lo80": 84.3, "conc_B_hi80": 1332.1, "conc_B_lo95": 52.4, "conc_B_hi95": 2494.5, "conc_B_status": "research_estimate", "conc_B_status_ru": "исследовательская оценка", "conc_B_reasons": "ближайшее полевое измерение в 177 км (> 60 км); месяц 9 вне месяцев обучения [6]", "conc_B_model": "conc-B-c6bce5631d2b"}}, {"type": "Feature", "geometry": {"type": "Polygon", "coordinates": [[[39.85961052764336, 43.46055906036051], [39.85960925200732, 43.46046902688331], [39.85948565204473, 43.460469956021385], [39.85948310115707, 43.46028988905679], [39.85960670075292, 43.460288959924526], [39.85960542513457, 43.46019892644296], [39.85985389992691, 43.46028710125925], [39.85985517591788, 43.460377134733555], [39.85997877567939, 43.46037620519764], [39.85998005185962, 43.46046623866758], [39.85985645191475, 43.4604671682064], [39.85985772791753, 43.46055720167781], [39.85961052764336, 43.46055906036051]]]}, "properties": {"zone_id": "sochi-2025-09-01-017", "aoi": "sochi", "date": "2025-09-01", "scene_id": "S2B_MSIL2A_20250901T081609_R121_T37TEJ_20250901T110328", "scene_datetime_utc": "2025-09-01T08:16:09.024000+00:00", "detection_status": "detected", "detection_status_ru": "обнаружено", "lon": 39.85971, "lat": 43.46039, "n_pixels": 3, "zone_area_km2": 0.001, "cover_m2": 34.5, "p_mean": 0.906, "p_max": 0.949, "cover_m2_km2": 34500.0, "h3": "882d5612d9fffff", "valid_frac_scene": 1.0, "wind_ms": 2.4, "sea": "спокойное", "scene_reliable": true, "field_event_id": "S4:DOORS3:T17", "field_profile": "B", "field_date": "2024-06-04", "field_distance_km": 181.5, "field_date_gap_days": 454, "field_conc_items_km2": 89.61, "conc_A_items_km2": null, "conc_A_lo80": null, "conc_A_hi80": null, "conc_A_lo95": null, "conc_A_hi95": null, "conc_A_status": "unavailable", "conc_A_status_ru": "концентрация недоступна", "conc_A_reasons": "вне бассейна профиля: nw_atlantic_subtropical", "conc_A_model": "conc-A-c6bce5631d2b", "conc_B_items_km2": 508.2, "conc_B_lo80": 108.3, "conc_B_hi80": 1707.9, "conc_B_lo95": 67.5, "conc_B_hi95": 3198.1, "conc_B_status": "research_estimate", "conc_B_status_ru": "исследовательская оценка", "conc_B_reasons": "ближайшее полевое измерение в 181 км (> 60 км); месяц 9 вне месяцев обучения [6]", "conc_B_model": "conc-B-c6bce5631d2b"}}, {"type": "Feature", "geometry": {"type": "Polygon", "coordinates": [[[39.90299083061975, 43.43510264857721], [39.902989491803766, 43.435012615748235], [39.902865945105226, 43.43501359132163], [39.902864606478545, 43.434923558488144], [39.90298815299397, 43.4349225829178], [39.90298681419036, 43.4348325500859], [39.903110360516486, 43.43483157438515], [39.90310902153596, 43.43474154155484], [39.90335745315015, 43.43482962258327], [39.90336013186223, 43.43500968822731], [39.90323658518227, 43.43501066420108], [39.90323792436448, 43.435100697023955], [39.90299083061975, 43.43510264857721]]]}, "properties": {"zone_id": "sochi-2025-09-01-018", "aoi": "sochi", "date": "2025-09-01", "scene_id": "S2B_MSIL2A_20250901T081609_R121_T37TEJ_20250901T110328", "scene_datetime_utc": "2025-09-01T08:16:09.024000+00:00", "detection_status": "detected", "detection_status_ru": "обнаружено", "lon": 39.90313, "lat": 43.43494, "n_pixels": 3, "zone_area_km2": 0.001, "cover_m2": 20.8, "p_mean": 0.966, "p_max": 0.996, "cover_m2_km2": 20800.0, "h3": "882d5612b9fffff", "valid_frac_scene": 1.0, "wind_ms": 2.4, "sea": "спокойное", "scene_reliable": true, "field_event_id": "S4:DOORS3:T23", "field_profile": "B", "field_date": "2024-06-10", "field_distance_km": 181.0, "field_date_gap_days": 448, "field_conc_items_km2": 102.37, "conc_A_items_km2": null, "conc_A_lo80": null, "conc_A_hi80": null, "conc_A_lo95": null, "conc_A_hi95": null, "conc_A_status": "unavailable", "conc_A_status_ru": "концентрация недоступна", "conc_A_reasons": "вне бассейна профиля: nw_atlantic_subtropical", "conc_A_model": "conc-A-c6bce5631d2b", "conc_B_items_km2": 666.4, "conc_B_lo80": 142.3, "conc_B_hi80": 2238.6, "conc_B_lo95": 88.8, "conc_B_hi95": 4191.4, "conc_B_status": "research_estimate", "conc_B_status_ru": "исследовательская оценка", "conc_B_reasons": "ближайшее полевое измерение в 181 км (> 60 км); месяц 9 вне месяцев обучения [6]; log_dist_coast_km = 0.9 вне диапазона обучения [1.7; 5.0]", "conc_B_model": "conc-B-c6bce5631d2b"}}, {"type": "Feature", "geometry": {"type": "Polygon", "coordinates": [[[39.91725222373835, 43.39762101444215], [39.917250865557435, 43.397530981377486], [39.9171273955262, 43.397531971680024], [39.91712603753432, 43.39744193861082], [39.91724950738279, 43.39744094831138], [39.91724814921442, 43.39735091524381], [39.91749508852701, 43.3973489342513], [39.9174964470609, 43.397438967312674], [39.91761991689053, 43.397437976613396], [39.91762127561345, 43.39752800967022], [39.91749780560106, 43.397529000372586], [39.91749916414751, 43.397619033431056], [39.91725222373835, 43.39762101444215]]]}, "properties": {"zone_id": "sochi-2025-09-01-019", "aoi": "sochi", "date": "2025-09-01", "scene_id": "S2B_MSIL2A_20250901T081609_R121_T37TEJ_20250901T110328", "scene_datetime_utc": "2025-09-01T08:16:09.024000+00:00", "detection_status": "detected", "detection_status_ru": "обнаружено", "lon": 39.91737, "lat": 43.39748, "n_pixels": 2, "zone_area_km2": 0.0008, "cover_m2": 32.9, "p_mean": 0.773, "p_max": 0.839, "cover_m2_km2": 41125.0, "h3": "882d561013fffff", "valid_frac_scene": 1.0, "wind_ms": 2.4, "sea": "спокойное", "scene_reliable": true, "field_event_id": "S4:DOORS3:T23", "field_profile": "B", "field_date": "2024-06-10", "field_distance_km": 177.4, "field_date_gap_days": 448, "field_conc_items_km2": 102.37, "conc_A_items_km2": null, "conc_A_lo80": null, "conc_A_hi80": null, "conc_A_lo95": null, "conc_A_hi95": null, "conc_A_status": "unavailable", "conc_A_status_ru": "концентрация недоступна", "conc_A_reasons": "вне бассейна профиля: nw_atlantic_subtropical", "conc_A_model": "conc-A-c6bce5631d2b", "conc_B_items_km2": 591.0, "conc_B_lo80": 126.1, "conc_B_hi80": 1985.7, "conc_B_lo95": 78.7, "conc_B_hi95": 3718.0, "conc_B_status": "research_estimate", "conc_B_status_ru": "исследовательская оценка", "conc_B_reasons": "ближайшее полевое измерение в 177 км (> 60 км); месяц 9 вне месяцев обучения [6]; log_dist_coast_km = 1.2 вне диапазона обучения [1.7; 5.0]", "conc_B_model": "conc-B-c6bce5631d2b"}}, {"type": "Feature", "geometry": {"type": "Polygon", "coordinates": [[[40.01380172516644, 43.38185851780549], [40.01380022486385, 43.38176848705342], [40.01367679033627, 43.38176958127595], [40.01367529022322, 43.381679550518996], [40.0137987245682, 43.38167845629989], [40.01379722427948, 43.38158842554487], [40.01404409258346, 43.381586236713886], [40.014045593237356, 43.38167626746205], [40.014169027561536, 43.38167517284332], [40.01417052840496, 43.3817652035866], [40.01404709389819, 43.38176629820874], [40.01404859456596, 43.381856328953965], [40.01380172516644, 43.38185851780549]]]}, "properties": {"zone_id": "sochi-2025-09-01-020", "aoi": "sochi", "date": "2025-09-01", "scene_id": "S2B_MSIL2A_20250901T081609_R121_T37TEJ_20250901T110328", "scene_datetime_utc": "2025-09-01T08:16:09.024000+00:00", "detection_status": "detected", "detection_status_ru": "обнаружено", "lon": 40.01392, "lat": 43.38172, "n_pixels": 2, "zone_area_km2": 0.0008, "cover_m2": 20.4, "p_mean": 0.943, "p_max": 0.949, "cover_m2_km2": 25500.0, "h3": "882d560255fffff", "valid_frac_scene": 1.0, "wind_ms": 2.4, "sea": "спокойное", "scene_reliable": true, "field_event_id": "S4:DOORS3:T23", "field_profile": "B", "field_date": "2024-06-10", "field_distance_km": 170.4, "field_date_gap_days": 448, "field_conc_items_km2": 102.37, "conc_A_items_km2": null, "conc_A_lo80": null, "conc_A_hi80": null, "conc_A_lo95": null, "conc_A_hi95": null, "conc_A_status": "unavailable", "conc_A_status_ru": "концентрация недоступна", "conc_A_reasons": "вне бассейна профиля: nw_atlantic_subtropical", "conc_A_model": "conc-A-c6bce5631d2b", "conc_B_items_km2": 901.4, "conc_B_lo80": 192.7, "conc_B_hi80": 3027.3, "conc_B_lo95": 120.4, "conc_B_hi95": 5668.0, "conc_B_status": "research_estimate", "conc_B_status_ru": "исследовательская оценка", "conc_B_reasons": "ближайшее полевое измерение в 170 км (> 60 км); месяц 9 вне месяцев обучения [6]; log_dist_coast_km = 0.0 вне диапазона обучения [1.7; 5.0]", "conc_B_model": "conc-B-c6bce5631d2b"}}, {"type": "Feature", "geometry": {"type": "Polygon", "coordinates": [[[39.96101626564139, 43.37736186564109], [39.96101484367054, 43.37727183338571], [39.96089141630112, 43.37727287055222], [39.960889994519405, 43.37718283829212], [39.96101342170626, 43.37718180112887], [39.96101199974856, 43.377091768870564], [39.961260276060266, 43.37717972640282], [39.96126169838966, 43.37726975865318], [39.96113827103339, 43.377270796086044], [39.9611396931868, 43.377360828338176], [39.96101626564139, 43.37736186564109]]]}, "properties": {"zone_id": "sochi-2025-09-01-021", "aoi": "sochi", "date": "2025-09-01", "scene_id": "S2B_MSIL2A_20250901T081609_R121_T37TEJ_20250901T110328", "scene_datetime_utc": "2025-09-01T08:16:09.024000+00:00", "detection_status": "detected", "detection_status_ru": "обнаружено", "lon": 39.96108, "lat": 43.37723, "n_pixels": 1, "zone_area_km2": 0.0005, "cover_m2": 10.6, "p_mean": 0.584, "p_max": 0.584, "cover_m2_km2": 21200.0, "h3": "882d5610a5fffff", "valid_frac_scene": 1.0, "wind_ms": 2.4, "sea": "спокойное", "scene_reliable": true, "field_event_id": "S4:DOORS3:T23", "field_profile": "B", "field_date": "2024-06-10", "field_distance_km": 173.3, "field_date_gap_days": 448, "field_conc_items_km2": 102.37, "conc_A_items_km2": null, "conc_A_lo80": null, "conc_A_hi80": null, "conc_A_lo95": null, "conc_A_hi95": null, "conc_A_status": "unavailable", "conc_A_status_ru": "концентрация недоступна", "conc_A_reasons": "вне бассейна профиля: nw_atlantic_subtropical", "conc_A_model": "conc-A-c6bce5631d2b", "conc_B_items_km2": 591.0, "conc_B_lo80": 126.1, "conc_B_hi80": 1985.7, "conc_B_lo95": 78.7, "conc_B_hi95": 3718.0, "conc_B_status": "research_estimate", "conc_B_status_ru": "исследовательская оценка", "conc_B_reasons": "ближайшее полевое измерение в 173 км (> 60 км); месяц 9 вне месяцев обучения [6]; log_dist_coast_km = 1.2 вне диапазона обучения [1.7; 5.0]", "conc_B_model": "conc-B-c6bce5631d2b"}}]}