{"type": "FeatureCollection", "features": [{"type": "Feature", "id": 0, "geometry": {"type": "Polygon", "coordinates": [[[33.430833, 42.8654], [33.42784, 42.861109], [33.431613, 42.856946], [33.438379, 42.857072], [33.441372, 42.861363], [33.437599, 42.865527], [33.430833, 42.8654]]]}, "properties": {"i": 0, "h3": "882d05b241fffff", "lon": 33.43461, "lat": 42.86124, "water_km2": 0.778, "dist_coast_km": 94.6, "persistence": 0.0, "mean_cover": 0.0, "max_cover": 0.0, "trend_cover": 0.0, "hot": 0.0, "n_obs": 0}}, {"type": "Feature", "id": 1, "geometry": {"type": "Polygon", "coordinates": [[[33.440593, 42.869817], [33.437599, 42.865527], [33.441372, 42.861363], [33.448138, 42.861489], [33.451132, 42.865779], [33.447359, 42.869943], [33.440593, 42.869817]]]}, "properties": {"i": 1, "h3": "882d05b243fffff", "lon": 33.44437, "lat": 42.86565, "water_km2": 0.431, "dist_coast_km": 94.6, "persistence": 0.0, "mean_cover": 0.0, "max_cover": 0.0, "trend_cover": 0.0, "hot": 0.0, "n_obs": 0}}, {"type": "Feature", "id": 2, "geometry": {"type": "Polygon", "coordinates": [[[33.431613, 42.856946], [33.428621, 42.852655], [33.432394, 42.84849], [33.439159, 42.848617], [33.442151, 42.852908], [33.438379, 42.857072], [33.431613, 42.856946]]]}, "properties": {"i": 2, "h3": "882d05b245fffff", "lon": 33.43539, "lat": 42.85278, "water_km2": 0.759, "dist_coast_km": 92.8, "persistence": 0.0, "mean_cover": 0.0, "max_cover": 0.0, "trend_cover": 0.0, "hot": 0.0, "n_obs": 0}}, {"type": "Feature", "id": 3, "geometry": {"type": "Polygon", "coordinates": [[[33.441372, 42.861363], [33.438379, 42.857072], [33.442151, 42.852908], [33.448916, 42.853034], [33.45191, 42.857324], [33.448138, 42.861489], [33.441372, 42.861363]]]}, "properties": {"i": 3, "h3": "882d05b247fffff", "lon": 33.44514, "lat": 42.8572, "water_km2": 0.21, "dist_coast_km": 92.8, "persistence": 0.0, "mean_cover": 0.0, "max_cover": 0.0, "trend_cover": 0.0, "hot": 0.0, "n_obs": 0}}, {"type": "Feature", "id": 4, "geometry": {"type": "Polygon", "coordinates": [[[33.420292, 42.869437], [33.4173, 42.865146], [33.421074, 42.860982], [33.42784, 42.861109], [33.430833, 42.8654], [33.427059, 42.869564], [33.420292, 42.869437]]]}, "properties": {"i": 4, "h3": "882d05b249fffff", "lon": 33.42407, "lat": 42.86527, "water_km2": 0.024, "dist_coast_km": 94.6, "persistence": 0.0, "mean_cover": 0.0, "max_cover": 0.0, "trend_cover": 0.0, "hot": 0.0, "n_obs": 0}}, {"type": "Feature", "id": 5, "geometry": {"type": "Polygon", "coordinates": [[[33.430053, 42.873854], [33.427059, 42.869564], [33.430833, 42.8654], [33.437599, 42.865527], [33.440593, 42.869817], [33.43682, 42.873981], [33.430053, 42.873854]]]}, "properties": {"i": 5, "h3": "882d05b24bfffff", "lon": 33.43383, "lat": 42.86969, "water_km2": 0.275, "dist_coast_km": 94.6, "persistence": 0.0, "mean_cover": 0.0, "max_cover": 0.0, "trend_cover": 0.0, "hot": 0.0, "n_obs": 0}}, {"type": "Feature", "id": 6, "geometry": {"type": "Polygon", "coordinates": [[[33.421074, 42.860982], [33.418082, 42.856691], [33.421855, 42.852527], [33.428621, 42.852655], [33.431613, 42.856946], [33.42784, 42.861109], [33.421074, 42.860982]]]}, "properties": {"i": 6, "h3": "882d05b24dfffff", "lon": 33.42485, "lat": 42.85682, "water_km2": 0.688, "dist_coast_km": 92.8, "persistence": 0.0, "mean_cover": 0.0, "max_cover": 0.0, "trend_cover": 0.0, "hot": 0.0, "n_obs": 0}}, {"type": "Feature", "id": 7, "geometry": {"type": "Polygon", "coordinates": [[[33.439813, 42.87827], [33.43682, 42.873981], [33.440593, 42.869817], [33.447359, 42.869943], [33.450353, 42.874232], [33.44658, 42.878396], [33.439813, 42.87827]]]}, "properties": {"i": 7, "h3": "882d05b25dfffff", "lon": 33.44359, "lat": 42.87411, "water_km2": 0.009, "dist_coast_km": 94.6, "persistence": 0.0, "mean_cover": 0.0, "max_cover": 0.0, "trend_cover": 0.0, "hot": 0.0, "n_obs": 0}}, {"type": "Feature", "id": 8, "geometry": {"type": "Polygon", "coordinates": [[[33.432394, 42.84849], [33.429401, 42.844199], [33.433174, 42.840035], [33.439938, 42.840161], [33.44293, 42.844453], [33.439159, 42.848617], [33.432394, 42.84849]]]}, "properties": {"i": 8, "h3": "882d05b269fffff", "lon": 33.43617, "lat": 42.84433, "water_km2": 0.024, "dist_coast_km": 92.8, "persistence": 0.0, "mean_cover": 0.0, "max_cover": 0.0, "trend_cover": 0.0, "hot": 0.0, "n_obs": 0}}, {"type": "Feature", "id": 9, "geometry": {"type": "Polygon", "coordinates": [[[33.442151, 42.852908], [33.439159, 42.848617], [33.44293, 42.844453], [33.449695, 42.844579], [33.452688, 42.848869], [33.448916, 42.853034], [33.442151, 42.852908]]]}, "properties": {"i": 9, "h3": "882d05b26bfffff", "lon": 33.44592, "lat": 42.84874, "water_km2": 0.07, "dist_coast_km": 92.8, "persistence": 0.0, "mean_cover": 0.0, "max_cover": 0.0, "trend_cover": 0.0, "hot": 0.0, "n_obs": 0}}, {"type": "Feature", "id": 10, "geometry": {"type": "Polygon", "coordinates": [[[33.671225, 43.017671], [33.668218, 43.013396], [33.671982, 43.00923], [33.678753, 43.00934], [33.681761, 43.013616], [33.677997, 43.017781], [33.671225, 43.017671]]]}, "properties": {"i": 10, "h3": "882d05b683fffff", "lon": 33.67499, "lat": 43.01351, "water_km2": 0.015, "dist_coast_km": 112.7, "persistence": 0.0, "mean_cover": 0.0, "max_cover": 0.0, "trend_cover": 0.0, "hot": 0.0, "n_obs": 0}}, {"type": "Feature", "id": 11, "geometry": {"type": "Polygon", "coordinates": [[[33.660688, 43.021725], [33.657681, 43.01745], [33.661446, 43.013285], [33.668218, 43.013396], [33.671225, 43.017671], [33.66746, 43.021836], [33.660688, 43.021725]]]}, "properties": {"i": 11, "h3": "882d05b68bfffff", "lon": 33.66445, "lat": 43.01756, "water_km2": 0.506, "dist_coast_km": 112.5, "persistence": 0.0, "mean_cover": 0.0, "max_cover": 0.0, "trend_cover": 0.0, "hot": 0.0, "n_obs": 0}}, {"type": "Feature", "id": 12, "geometry": {"type": "Polygon", "coordinates": [[[33.680248, 43.030495], [33.67724, 43.026221], [33.681004, 43.022056], [33.687776, 43.022165], [33.690785, 43.026439], [33.687021, 43.030605], [33.680248, 43.030495]]]}, "properties": {"i": 12, "h3": "882d05b691fffff", "lon": 33.68401, "lat": 43.02633, "water_km2": 0.785, "dist_coast_km": 114.5, "persistence": 0.0, "mean_cover": 0.0, "max_cover": 0.0, "trend_cover": 0.0, "hot": 0.0, "n_obs": 0}}, {"type": "Feature", "id": 13, "geometry": {"type": "Polygon", "coordinates": [[[33.690029, 43.034879], [33.687021, 43.030605], [33.690785, 43.026439], [33.697557, 43.026548], [33.700566, 43.030822], [33.696802, 43.034987], [33.690029, 43.034879]]]}, "properties": {"i": 13, "h3": "882d05b693fffff", "lon": 33.69379, "lat": 43.03071, "water_km2": 0.778, "dist_coast_km": 114.8, "persistence": 0.0, "mean_cover": 0.0, "max_cover": 0.0, "trend_cover": 0.0, "hot": 0.0, "n_obs": 0}}, {"type": "Feature", "id": 14, "geometry": {"type": "Polygon", "coordinates": [[[33.681004, 43.022056], [33.677997, 43.017781], [33.681761, 43.013616], [33.688532, 43.013725], [33.69154, 43.018], [33.687776, 43.022165], [33.681004, 43.022056]]]}, "properties": {"i": 14, "h3": "882d05b695fffff", "lon": 33.68477, "lat": 43.01789, "water_km2": 0.251, "dist_coast_km": 112.7, "persistence": 0.0, "mean_cover": 0.0, "max_cover": 0.0, "trend_cover": 0.0, "hot": 0.0, "n_obs": 0}}, {"type": "Feature", "id": 15, "geometry": {"type": "Polygon", "coordinates": [[[33.690785, 43.026439], [33.687776, 43.022165], [33.69154, 43.018], [33.698311, 43.018109], [33.70132, 43.022383], [33.697557, 43.026548], [33.690785, 43.026439]]]}, "properties": {"i": 15, "h3": "882d05b697fffff", "lon": 33.69455, "lat": 43.02227, "water_km2": 0.302, "dist_coast_km": 112.9, "persistence": 0.0, "mean_cover": 0.0, "max_cover": 0.0, "trend_cover": 0.0, "hot": 0.0, "n_obs": 0}}, {"type": "Feature", "id": 16, "geometry": {"type": "Polygon", "coordinates": [[[33.66971, 43.03455], [33.666703, 43.030276], [33.670468, 43.026111], [33.67724, 43.026221], [33.680248, 43.030495], [33.676484, 43.03466], [33.66971, 43.03455]]]}, "properties": {"i": 16, "h3": "882d05b699fffff", "lon": 33.67348, "lat": 43.03039, "water_km2": 0.785, "dist_coast_km": 114.3, "persistence": 0.0, "mean_cover": 0.0, "max_cover": 0.0, "trend_cover": 0.0, "hot": 0.0, "n_obs": 0}}, {"type": "Feature", "id": 17, "geometry": {"type": "Polygon", "coordinates": [[[33.679492, 43.038934], [33.676484, 43.03466], [33.680248, 43.030495], [33.687021, 43.030605], [33.690029, 43.034879], [33.686265, 43.039043], [33.679492, 43.038934]]]}, "properties": {"i": 17, "h3": "882d05b69bfffff", "lon": 33.68326, "lat": 43.03477, "water_km2": 0.785, "dist_coast_km": 114.5, "persistence": 0.0, "mean_cover": 0.0, "max_cover": 0.0, "trend_cover": 0.0, "hot": 0.0, "n_obs": 0}}, {"type": "Feature", "id": 18, "geometry": {"type": "Polygon", "coordinates": [[[33.670468, 43.026111], [33.66746, 43.021836], [33.671225, 43.017671], [33.677997, 43.017781], [33.681004, 43.022056], [33.67724, 43.026221], [33.670468, 43.026111]]]}, "properties": {"i": 18, "h3": "882d05b69dfffff", "lon": 33.67423, "lat": 43.02195, "water_km2": 0.701, "dist_coast_km": 112.7, "persistence": 0.0, "mean_cover": 0.0, "max_cover": 0.0, "trend_cover": 0.0, "hot": 0.0, "n_obs": 0}}, {"type": "Feature", "id": 19, "geometry": {"type": "Polygon", "coordinates": [[[33.640369, 43.021391], [33.637363, 43.017115], [33.641129, 43.012951], [33.647902, 43.013063], [33.650908, 43.017339], [33.647142, 43.021503], [33.640369, 43.021391]]]}, "properties": {"i": 19, "h3": "882d05b6c3fffff", "lon": 33.64414, "lat": 43.01723, "water_km2": 0.003, "dist_coast_km": 112.3, "persistence": 0.0, "mean_cover": 0.0, "max_cover": 0.0, "trend_cover": 0.0, "hot": 0.0, "n_obs": 0}}, {"type": "Feature", "id": 20, "geometry": {"type": "Polygon", "coordinates": [[[33.629829, 43.025443], [33.626823, 43.021167], [33.63059, 43.017003], [33.637363, 43.017115], [33.640369, 43.021391], [33.636602, 43.025555], [33.629829, 43.025443]]]}, "properties": {"i": 20, "h3": "882d05b6cbfffff", "lon": 33.6336, "lat": 43.02128, "water_km2": 0.02, "dist_coast_km": 112.1, "persistence": 0.0, "mean_cover": 0.0, "max_cover": 0.0, "trend_cover": 0.0, "hot": 0.0, "n_obs": 0}}, {"type": "Feature", "id": 21, "geometry": {"type": "Polygon", "coordinates": [[[33.64939, 43.034218], [33.646383, 43.029943], [33.650149, 43.025779], [33.656922, 43.02589], [33.659929, 43.030165], [33.656163, 43.034329], [33.64939, 43.034218]]]}, "properties": {"i": 21, "h3": "882d05b6d1fffff", "lon": 33.65316, "lat": 43.03005, "water_km2": 0.79, "dist_coast_km": 114.2, "persistence": 0.0, "mean_cover": 0.0, "max_cover": 0.0, "trend_cover": 0.0, "hot": 0.0, "n_obs": 0}}, {"type": "Feature", "id": 22, "geometry": {"type": "Polygon", "coordinates": [[[33.659171, 43.038604], [33.656163, 43.034329], [33.659929, 43.030165], [33.666703, 43.030276], [33.66971, 43.03455], [33.665945, 43.038715], [33.659171, 43.038604]]]}, "properties": {"i": 22, "h3": "882d05b6d3fffff", "lon": 33.66294, "lat": 43.03444, "water_km2": 0.798, "dist_coast_km": 114.3, "persistence": 0.0, "mean_cover": 0.0, "max_cover": 0.0, "trend_cover": 0.0, "hot": 0.0, "n_obs": 0}}, {"type": "Feature", "id": 23, "geometry": {"type": "Polygon", "coordinates": [[[33.650149, 43.025779], [33.647142, 43.021503], [33.650908, 43.017339], [33.657681, 43.01745], [33.660688, 43.021725], [33.656922, 43.02589], [33.650149, 43.025779]]]}, "properties": {"i": 23, "h3": "882d05b6d5fffff", "lon": 33.65392, "lat": 43.02161, "water_km2": 0.564, "dist_coast_km": 112.3, "persistence": 0.0, "mean_cover": 0.0, "max_cover": 0.0, "trend_cover": 0.0, "hot": 0.0, "n_obs": 0}}, {"type": "Feature", "id": 24, "geometry": {"type": "Polygon", "coordinates": [[[33.659929, 43.030165], [33.656922, 43.02589], [33.660688, 43.021725], [33.66746, 43.021836], [33.670468, 43.026111], [33.666703, 43.030276], [33.659929, 43.030165]]]}, "properties": {"i": 24, "h3": "882d05b6d7fffff", "lon": 33.66369, "lat": 43.026, "water_km2": 0.778, "dist_coast_km": 114.3, "persistence": 0.0, "mean_cover": 0.0, "max_cover": 0.0, "trend_cover": 0.0, "hot": 0.0, "n_obs": 0}}, {"type": "Feature", "id": 25, "geometry": {"type": "Polygon", "coordinates": [[[33.638848, 43.038271], [33.635842, 43.033995], [33.639609, 43.029831], [33.646383, 43.029943], [33.64939, 43.034218], [33.645623, 43.038382], [33.638848, 43.038271]]]}, "properties": {"i": 25, "h3": "882d05b6d9fffff", "lon": 33.64262, "lat": 43.03411, "water_km2": 0.368, "dist_coast_km": 114.2, "persistence": 0.0, "mean_cover": 0.0, "max_cover": 0.0, "trend_cover": 0.0, "hot": 0.0, "n_obs": 0}}, {"type": "Feature", "id": 26, "geometry": {"type": "Polygon", "coordinates": [[[33.64863, 43.042657], [33.645623, 43.038382], [33.64939, 43.034218], [33.656163, 43.034329], [33.659171, 43.038604], [33.655405, 43.042768], [33.64863, 43.042657]]]}, "properties": {"i": 26, "h3": "882d05b6dbfffff", "lon": 33.6524, "lat": 43.03849, "water_km2": 0.733, "dist_coast_km": 114.2, "persistence": 0.0, "mean_cover": 0.0, "max_cover": 0.0, "trend_cover": 0.0, "hot": 0.0, "n_obs": 0}}, {"type": "Feature", "id": 27, "geometry": {"type": "Polygon", "coordinates": [[[33.639609, 43.029831], [33.636602, 43.025555], [33.640369, 43.021391], [33.647142, 43.021503], [33.650149, 43.025779], [33.646383, 43.029943], [33.639609, 43.029831]]]}, "properties": {"i": 27, "h3": "882d05b6ddfffff", "lon": 33.64338, "lat": 43.02567, "water_km2": 0.725, "dist_coast_km": 114.2, "persistence": 0.0, "mean_cover": 0.0, "max_cover": 0.0, "trend_cover": 0.0, "hot": 0.0, "n_obs": 0}}, {"type": "Feature", "id": 28, "geometry": {"type": "Polygon", "coordinates": [[[34.12684, 43.036843], [34.123816, 43.032585], [34.127551, 43.02841], [34.13431, 43.028493], [34.137335, 43.032751], [34.133601, 43.036926], [34.12684, 43.036843]]]}, "properties": {"i": 28, "h3": "882d2ac269fffff", "lon": 34.13058, "lat": 43.03267, "water_km2": 0.127, "dist_coast_km": 116.9, "persistence": 0.0, "mean_cover": 0.0, "max_cover": 0.0, "trend_cover": 0.0, "hot": 0.0, "n_obs": 0}}, {"type": "Feature", "id": 29, "geometry": {"type": "Polygon", "coordinates": [[[34.127551, 43.02841], [34.124526, 43.024151], [34.128261, 43.019976], [34.13502, 43.020059], [34.138045, 43.024317], [34.13431, 43.028493], [34.127551, 43.02841]]]}, "properties": {"i": 29, "h3": "882d2ac26dfffff", "lon": 34.13129, "lat": 43.02423, "water_km2": 0.508, "dist_coast_km": 115.0, "persistence": 0.0, "mean_cover": 0.0, "max_cover": 0.0, "trend_cover": 0.0, "hot": 0.0, "n_obs": 0}}, {"type": "Feature", "id": 30, "geometry": {"type": "Polygon", "coordinates": [[[34.130391, 42.99467], [34.127367, 42.99041], [34.1311, 42.986233], [34.137856, 42.986316], [34.14088, 42.990576], [34.137147, 42.994753], [34.130391, 42.99467]]]}, "properties": {"i": 30, "h3": "882d2ac341fffff", "lon": 34.13412, "lat": 42.99049, "water_km2": 0.001, "dist_coast_km": 111.3, "persistence": 0.0, "mean_cover": 0.0, "max_cover": 0.0, "trend_cover": 0.0, "hot": 0.0, "n_obs": 0}}, {"type": "Feature", "id": 31, "geometry": {"type": "Polygon", "coordinates": [[[34.1199, 42.998762], [34.116877, 42.994502], [34.120611, 42.990326], [34.127367, 42.99041], [34.130391, 42.99467], [34.126657, 42.998846], [34.1199, 42.998762]]]}, "properties": {"i": 31, "h3": "882d2ac349fffff", "lon": 34.12363, "lat": 42.99459, "water_km2": 0.008, "dist_coast_km": 113.2, "persistence": 0.0, "mean_cover": 0.0, "max_cover": 0.0, "trend_cover": 0.0, "hot": 0.0, "n_obs": 0}}, {"type": "Feature", "id": 32, "geometry": {"type": "Polygon", "coordinates": [[[34.129681, 43.003106], [34.126657, 42.998846], [34.130391, 42.99467], [34.137147, 42.994753], [34.140171, 42.999012], [34.136438, 43.003189], [34.129681, 43.003106]]]}, "properties": {"i": 32, "h3": "882d2ac34bfffff", "lon": 34.13341, "lat": 42.99893, "water_km2": 0.226, "dist_coast_km": 113.2, "persistence": 0.0, "mean_cover": 0.0, "max_cover": 0.0, "trend_cover": 0.0, "hot": 0.0, "n_obs": 0}}, {"type": "Feature", "id": 33, "geometry": {"type": "Polygon", "coordinates": [[[34.087704, 43.01947], [34.084681, 43.015209], [34.088418, 43.011034], [34.095178, 43.01112], [34.098201, 43.01538], [34.094464, 43.019555], [34.087704, 43.01947]]]}, "properties": {"i": 33, "h3": "882d2ad181fffff", "lon": 34.09144, "lat": 43.01529, "water_km2": 0.277, "dist_coast_km": 115.0, "persistence": 0.0, "mean_cover": 0.0, "max_cover": 0.0, "trend_cover": 0.0, "hot": 0.0, "n_obs": 0}}, {"type": "Feature", "id": 34, "geometry": {"type": "Polygon", "coordinates": [[[34.097487, 43.023815], [34.094464, 43.019555], [34.098201, 43.01538], [34.10496, 43.015465], [34.107983, 43.019724], [34.104247, 43.0239], [34.097487, 43.023815]]]}, "properties": {"i": 34, "h3": "882d2ad183fffff", "lon": 34.10122, "lat": 43.01964, "water_km2": 0.435, "dist_coast_km": 115.0, "persistence": 0.0, "mean_cover": 0.0, "max_cover": 0.0, "trend_cover": 0.0, "hot": 0.0, "n_obs": 0}}, {"type": "Feature", "id": 35, "geometry": {"type": "Polygon", "coordinates": [[[34.088418, 43.011034], [34.085396, 43.006774], [34.089132, 43.002598], [34.095891, 43.002684], [34.098914, 43.006945], [34.095178, 43.01112], [34.088418, 43.011034]]]}, "properties": {"i": 35, "h3": "882d2ad185fffff", "lon": 34.09215, "lat": 43.00686, "water_km2": 0.512, "dist_coast_km": 113.2, "persistence": 0.0, "mean_cover": 0.0, "max_cover": 0.0, "trend_cover": 0.0, "hot": 0.0, "n_obs": 0}}, {"type": "Feature", "id": 36, "geometry": {"type": "Polygon", "coordinates": [[[34.098201, 43.01538], [34.095178, 43.01112], [34.098914, 43.006945], [34.105672, 43.007029], [34.108696, 43.011289], [34.10496, 43.015465], [34.098201, 43.01538]]]}, "properties": {"i": 36, "h3": "882d2ad187fffff", "lon": 34.10194, "lat": 43.0112, "water_km2": 0.672, "dist_coast_km": 115.0, "persistence": 0.0, "mean_cover": 0.0, "max_cover": 0.0, "trend_cover": 0.0, "hot": 0.0, "n_obs": 0}}, {"type": "Feature", "id": 37, "geometry": {"type": "Polygon", "coordinates": [[[34.08699, 43.027904], [34.083967, 43.023644], [34.087704, 43.01947], [34.094464, 43.019555], [34.097487, 43.023815], [34.09375, 43.02799], [34.08699, 43.027904]]]}, "properties": {"i": 37, "h3": "882d2ad18bfffff", "lon": 34.09073, "lat": 43.02373, "water_km2": 0.014, "dist_coast_km": 115.0, "persistence": 0.0, "mean_cover": 0.0, "max_cover": 0.0, "trend_cover": 0.0, "hot": 0.0, "n_obs": 0}}, {"type": "Feature", "id": 38, "geometry": {"type": "Polygon", "coordinates": [[[34.077921, 43.015123], [34.074899, 43.010862], [34.078637, 43.006688], [34.085396, 43.006774], [34.088418, 43.011034], [34.084681, 43.015209], [34.077921, 43.015123]]]}, "properties": {"i": 38, "h3": "882d2ad18dfffff", "lon": 34.08166, "lat": 43.01095, "water_km2": 0.414, "dist_coast_km": 115.0, "persistence": 0.0, "mean_cover": 0.0, "max_cover": 0.0, "trend_cover": 0.0, "hot": 0.0, "n_obs": 0}}, {"type": "Feature", "id": 39, "geometry": {"type": "Polygon", "coordinates": [[[34.106559, 43.036593], [34.103535, 43.032334], [34.107271, 43.028159], [34.114031, 43.028243], [34.117056, 43.032502], [34.11332, 43.036677], [34.106559, 43.036593]]]}, "properties": {"i": 39, "h3": "882d2ad191fffff", "lon": 34.1103, "lat": 43.03242, "water_km2": 0.007, "dist_coast_km": 116.9, "persistence": 0.0, "mean_cover": 0.0, "max_cover": 0.0, "trend_cover": 0.0, "hot": 0.0, "n_obs": 0}}, {"type": "Feature", "id": 40, "geometry": {"type": "Polygon", "coordinates": [[[34.107271, 43.028159], [34.104247, 43.0239], [34.107983, 43.019724], [34.114743, 43.019809], [34.117767, 43.024068], [34.114031, 43.028243], [34.107271, 43.028159]]]}, "properties": {"i": 40, "h3": "882d2ad195fffff", "lon": 34.11101, "lat": 43.02398, "water_km2": 0.757, "dist_coast_km": 115.0, "persistence": 0.0, "mean_cover": 0.0, "max_cover": 0.0, "trend_cover": 0.0, "hot": 0.0, "n_obs": 0}}, {"type": "Feature", "id": 41, "geometry": {"type": "Polygon", "coordinates": [[[34.117056, 43.032502], [34.114031, 43.028243], [34.117767, 43.024068], [34.124526, 43.024151], [34.127551, 43.02841], [34.123816, 43.032585], [34.117056, 43.032502]]]}, "properties": {"i": 41, "h3": "882d2ad197fffff", "lon": 34.12079, "lat": 43.02833, "water_km2": 0.552, "dist_coast_km": 116.9, "persistence": 0.0, "mean_cover": 0.0, "max_cover": 0.0, "trend_cover": 0.0, "hot": 0.0, "n_obs": 0}}, {"type": "Feature", "id": 42, "geometry": {"type": "Polygon", "coordinates": [[[34.096774, 43.032249], [34.09375, 43.02799], [34.097487, 43.023815], [34.104247, 43.0239], [34.107271, 43.028159], [34.103535, 43.032334], [34.096774, 43.032249]]]}, "properties": {"i": 42, "h3": "882d2ad19dfffff", "lon": 34.10051, "lat": 43.02807, "water_km2": 0.126, "dist_coast_km": 116.9, "persistence": 0.0, "mean_cover": 0.0, "max_cover": 0.0, "trend_cover": 0.0, "hot": 0.0, "n_obs": 0}}, {"type": "Feature", "id": 43, "geometry": {"type": "Polygon", "coordinates": [[[34.099627, 42.998508], [34.096604, 42.994247], [34.100339, 42.990072], [34.107097, 42.990157], [34.110119, 42.994417], [34.106385, 42.998593], [34.099627, 42.998508]]]}, "properties": {"i": 43, "h3": "882d2ad1a1fffff", "lon": 34.10336, "lat": 42.99433, "water_km2": 0.03, "dist_coast_km": 113.2, "persistence": 0.0, "mean_cover": 0.0, "max_cover": 0.0, "trend_cover": 0.0, "hot": 0.0, "n_obs": 0}}, {"type": "Feature", "id": 44, "geometry": {"type": "Polygon", "coordinates": [[[34.109408, 43.002854], [34.106385, 42.998593], [34.110119, 42.994417], [34.116877, 42.994502], [34.1199, 42.998762], [34.116165, 43.002938], [34.109408, 43.002854]]]}, "properties": {"i": 44, "h3": "882d2ad1a3fffff", "lon": 34.11314, "lat": 42.99868, "water_km2": 0.488, "dist_coast_km": 113.2, "persistence": 0.0, "mean_cover": 0.0, "max_cover": 0.0, "trend_cover": 0.0, "hot": 0.0, "n_obs": 0}}, {"type": "Feature", "id": 45, "geometry": {"type": "Polygon", "coordinates": [[[34.089132, 43.002598], [34.08611, 42.998337], [34.089846, 42.994162], [34.096604, 42.994247], [34.099627, 42.998508], [34.095891, 43.002684], [34.089132, 43.002598]]]}, "properties": {"i": 45, "h3": "882d2ad1a9fffff", "lon": 34.09287, "lat": 42.99842, "water_km2": 0.033, "dist_coast_km": 113.2, "persistence": 0.0, "mean_cover": 0.0, "max_cover": 0.0, "trend_cover": 0.0, "hot": 0.0, "n_obs": 0}}, {"type": "Feature", "id": 46, "geometry": {"type": "Polygon", "coordinates": [[[34.098914, 43.006945], [34.095891, 43.002684], [34.099627, 42.998508], [34.106385, 42.998593], [34.109408, 43.002854], [34.105672, 43.007029], [34.098914, 43.006945]]]}, "properties": {"i": 46, "h3": "882d2ad1abfffff", "lon": 34.10265, "lat": 43.00277, "water_km2": 0.673, "dist_coast_km": 113.2, "persistence": 0.0, "mean_cover": 0.0, "max_cover": 0.0, "trend_cover": 0.0, "hot": 0.0, "n_obs": 0}}, {"type": "Feature", "id": 47, "geometry": {"type": "Polygon", "coordinates": [[[34.118478, 43.015633], [34.115454, 43.011374], [34.119189, 43.007198], [34.125947, 43.007282], [34.128971, 43.011541], [34.125237, 43.015717], [34.118478, 43.015633]]]}, "properties": {"i": 47, "h3": "882d2ad1b1fffff", "lon": 34.12221, "lat": 43.01146, "water_km2": 0.79, "dist_coast_km": 115.0, "persistence": 0.0, "mean_cover": 0.0, "max_cover": 0.0, "trend_cover": 0.0, "hot": 0.0, "n_obs": 0}}, {"type": "Feature", "id": 48, "geometry": {"type": "Polygon", "coordinates": [[[34.128261, 43.019976], [34.125237, 43.015717], [34.128971, 43.011541], [34.135729, 43.011624], [34.138754, 43.015883], [34.13502, 43.020059], [34.128261, 43.019976]]]}, "properties": {"i": 48, "h3": "882d2ad1b3fffff", "lon": 34.132, "lat": 43.0158, "water_km2": 0.47, "dist_coast_km": 115.0, "persistence": 0.0, "mean_cover": 0.0, "max_cover": 0.0, "trend_cover": 0.0, "hot": 0.0, "n_obs": 0}}, {"type": "Feature", "id": 49, "geometry": {"type": "Polygon", "coordinates": [[[34.119189, 43.007198], [34.116165, 43.002938], [34.1199, 42.998762], [34.126657, 42.998846], [34.129681, 43.003106], [34.125947, 43.007282], [34.119189, 43.007198]]]}, "properties": {"i": 49, "h3": "882d2ad1b5fffff", "lon": 34.12292, "lat": 43.00302, "water_km2": 0.651, "dist_coast_km": 113.2, "persistence": 0.0, "mean_cover": 0.0, "max_cover": 0.0, "trend_cover": 0.0, "hot": 0.0, "n_obs": 0}}, {"type": "Feature", "id": 50, "geometry": {"type": "Polygon", "coordinates": [[[34.128971, 43.011541], [34.125947, 43.007282], [34.129681, 43.003106], [34.136438, 43.003189], [34.139463, 43.007448], [34.135729, 43.011624], [34.128971, 43.011541]]]}, "properties": {"i": 50, "h3": "882d2ad1b7fffff", "lon": 34.1327, "lat": 43.00736, "water_km2": 0.402, "dist_coast_km": 113.2, "persistence": 0.0, "mean_cover": 0.0, "max_cover": 0.0, "trend_cover": 0.0, "hot": 0.0, "n_obs": 0}}, {"type": "Feature", "id": 51, "geometry": {"type": "Polygon", "coordinates": [[[34.107983, 43.019724], [34.10496, 43.015465], [34.108696, 43.011289], [34.115454, 43.011374], [34.118478, 43.015633], [34.114743, 43.019809], [34.107983, 43.019724]]]}, "properties": {"i": 51, "h3": "882d2ad1b9fffff", "lon": 34.11172, "lat": 43.01555, "water_km2": 0.76, "dist_coast_km": 115.0, "persistence": 0.0, "mean_cover": 0.0, "max_cover": 0.0, "trend_cover": 0.0, "hot": 0.0, "n_obs": 0}}, {"type": "Feature", "id": 52, "geometry": {"type": "Polygon", "coordinates": [[[34.117767, 43.024068], [34.114743, 43.019809], [34.118478, 43.015633], [34.125237, 43.015717], [34.128261, 43.019976], [34.124526, 43.024151], [34.117767, 43.024068]]]}, "properties": {"i": 52, "h3": "882d2ad1bbfffff", "lon": 34.1215, "lat": 43.01989, "water_km2": 0.763, "dist_coast_km": 115.0, "persistence": 0.0, "mean_cover": 0.0, "max_cover": 0.0, "trend_cover": 0.0, "hot": 0.0, "n_obs": 0}}, {"type": "Feature", "id": 53, "geometry": {"type": "Polygon", "coordinates": [[[34.108696, 43.011289], [34.105672, 43.007029], [34.109408, 43.002854], [34.116165, 43.002938], [34.119189, 43.007198], [34.115454, 43.011374], [34.108696, 43.011289]]]}, "properties": {"i": 53, "h3": "882d2ad1bdfffff", "lon": 34.11243, "lat": 43.00711, "water_km2": 0.778, "dist_coast_km": 113.2, "persistence": 0.0, "mean_cover": 0.0, "max_cover": 0.0, "trend_cover": 0.0, "hot": 0.0, "n_obs": 0}}, {"type": "Feature", "id": 54, "geometry": {"type": "Polygon", "coordinates": [[[34.078637, 43.006688], [34.075615, 43.002426], [34.079352, 42.998251], [34.08611, 42.998337], [34.089132, 43.002598], [34.085396, 43.006774], [34.078637, 43.006688]]]}, "properties": {"i": 54, "h3": "882d2ad1e3fffff", "lon": 34.08237, "lat": 43.00251, "water_km2": 0.359, "dist_coast_km": 113.2, "persistence": 0.0, "mean_cover": 0.0, "max_cover": 0.0, "trend_cover": 0.0, "hot": 0.0, "n_obs": 0}}, {"type": "Feature", "id": 55, "geometry": {"type": "Polygon", "coordinates": [[[34.079352, 42.998251], [34.07633, 42.993989], [34.080067, 42.989814], [34.086824, 42.9899], [34.089846, 42.994162], [34.08611, 42.998337], [34.079352, 42.998251]]]}, "properties": {"i": 55, "h3": "882d2ad1e7fffff", "lon": 34.08309, "lat": 42.99408, "water_km2": 0.002, "dist_coast_km": 113.2, "persistence": 0.0, "mean_cover": 0.0, "max_cover": 0.0, "trend_cover": 0.0, "hot": 0.0, "n_obs": 0}}, {"type": "Feature", "id": 56, "geometry": {"type": "Polygon", "coordinates": [[[34.068139, 43.010776], [34.065118, 43.006514], [34.068856, 43.002339], [34.075615, 43.002426], [34.078637, 43.006688], [34.074899, 43.010862], [34.068139, 43.010776]]]}, "properties": {"i": 56, "h3": "882d2ad1ebfffff", "lon": 34.07188, "lat": 43.0066, "water_km2": 0.064, "dist_coast_km": 113.2, "persistence": 0.0, "mean_cover": 0.0, "max_cover": 0.0, "trend_cover": 0.0, "hot": 0.0, "n_obs": 0}}, {"type": "Feature", "id": 57, "geometry": {"type": "Polygon", "coordinates": [[[34.124872, 42.939694], [34.121851, 42.935431], [34.125582, 42.931253], [34.132333, 42.931338], [34.135355, 42.9356], [34.131624, 42.939779], [34.124872, 42.939694]]]}, "properties": {"i": 57, "h3": "882d2ad8c9fffff", "lon": 34.1286, "lat": 42.93552, "water_km2": 0.005, "dist_coast_km": 105.8, "persistence": 0.0, "mean_cover": 0.0, "max_cover": 0.0, "trend_cover": 0.0, "hot": 0.0, "n_obs": 0}}, {"type": "Feature", "id": 58, "geometry": {"type": "Polygon", "coordinates": [[[33.394066, 43.042427], [33.391068, 43.038143], [33.394852, 43.033986], [33.401632, 43.034112], [33.40463, 43.038396], [33.400847, 43.042553], [33.394066, 43.042427]]]}, "properties": {"i": 58, "h3": "882d2e4527fffff", "lon": 33.39785, "lat": 43.03827, "water_km2": 0.06, "dist_coast_km": 113.2, "persistence": 0.0, "mean_cover": 0.0, "max_cover": 0.0, "trend_cover": 0.0, "hot": 0.0, "n_obs": 0}}, {"type": "Feature", "id": 59, "geometry": {"type": "Polygon", "coordinates": [[[33.36017, 42.859819], [33.35718, 42.855526], [33.360957, 42.851363], [33.367724, 42.851494], [33.370715, 42.855787], [33.366937, 42.85995], [33.36017, 42.859819]]]}, "properties": {"i": 59, "h3": "882d2e4833fffff", "lon": 33.36395, "lat": 42.85566, "water_km2": 0.603, "dist_coast_km": 92.8, "persistence": 0.0, "mean_cover": 0.0, "max_cover": 0.0, "trend_cover": 0.0, "hot": 0.0, "n_obs": 0}}, {"type": "Feature", "id": 60, "geometry": {"type": "Polygon", "coordinates": [[[33.349623, 42.86385], [33.346633, 42.859556], [33.350412, 42.855394], [33.35718, 42.855526], [33.36017, 42.859819], [33.356392, 42.863981], [33.349623, 42.86385]]]}, "properties": {"i": 60, "h3": "882d2e483bfffff", "lon": 33.3534, "lat": 42.85969, "water_km2": 0.01, "dist_coast_km": 94.6, "persistence": 0.0, "mean_cover": 0.0, "max_cover": 0.0, "trend_cover": 0.0, "hot": 0.0, "n_obs": 0}}, {"type": "Feature", "id": 61, "geometry": {"type": "Polygon", "coordinates": [[[33.399991, 42.869053], [33.396999, 42.864761], [33.400774, 42.860598], [33.407541, 42.860727], [33.410533, 42.865018], [33.406758, 42.869181], [33.399991, 42.869053]]]}, "properties": {"i": 61, "h3": "882d2e48a1fffff", "lon": 33.40377, "lat": 42.86489, "water_km2": 0.0, "dist_coast_km": 94.6, "persistence": 0.0, "mean_cover": 0.0, "max_cover": 0.0, "trend_cover": 0.0, "hot": 0.0, "n_obs": 0}}, {"type": "Feature", "id": 62, "geometry": {"type": "Polygon", "coordinates": [[[33.40975, 42.873472], [33.406758, 42.869181], [33.410533, 42.865018], [33.4173, 42.865146], [33.420292, 42.869437], [33.416518, 42.8736], [33.40975, 42.873472]]]}, "properties": {"i": 62, "h3": "882d2e48a3fffff", "lon": 33.41353, "lat": 42.86931, "water_km2": 0.064, "dist_coast_km": 94.6, "persistence": 0.0, "mean_cover": 0.0, "max_cover": 0.0, "trend_cover": 0.0, "hot": 0.0, "n_obs": 0}}, {"type": "Feature", "id": 63, "geometry": {"type": "Polygon", "coordinates": [[[33.400774, 42.860598], [33.397782, 42.856306], [33.401557, 42.852143], [33.408324, 42.852271], [33.411315, 42.856563], [33.407541, 42.860727], [33.400774, 42.860598]]]}, "properties": {"i": 63, "h3": "882d2e48a5fffff", "lon": 33.40455, "lat": 42.85643, "water_km2": 0.004, "dist_coast_km": 92.8, "persistence": 0.0, "mean_cover": 0.0, "max_cover": 0.0, "trend_cover": 0.0, "hot": 0.0, "n_obs": 0}}, {"type": "Feature", "id": 64, "geometry": {"type": "Polygon", "coordinates": [[[33.410533, 42.865018], [33.407541, 42.860727], [33.411315, 42.856563], [33.418082, 42.856691], [33.421074, 42.860982], [33.4173, 42.865146], [33.410533, 42.865018]]]}, "properties": {"i": 64, "h3": "882d2e48a7fffff", "lon": 33.41431, "lat": 42.86085, "water_km2": 0.584, "dist_coast_km": 94.6, "persistence": 0.0, "mean_cover": 0.0, "max_cover": 0.0, "trend_cover": 0.0, "hot": 0.0, "n_obs": 0}}, {"type": "Feature", "id": 65, "geometry": {"type": "Polygon", "coordinates": [[[33.389447, 42.873087], [33.386455, 42.868795], [33.390231, 42.864632], [33.396999, 42.864761], [33.399991, 42.869053], [33.396215, 42.873216], [33.389447, 42.873087]]]}, "properties": {"i": 65, "h3": "882d2e48a9fffff", "lon": 33.39322, "lat": 42.86892, "water_km2": 0.308, "dist_coast_km": 94.6, "persistence": 0.0, "mean_cover": 0.0, "max_cover": 0.0, "trend_cover": 0.0, "hot": 0.0, "n_obs": 0}}, {"type": "Feature", "id": 66, "geometry": {"type": "Polygon", "coordinates": [[[33.390231, 42.864632], [33.38724, 42.86034], [33.391016, 42.856177], [33.397782, 42.856306], [33.400774, 42.860598], [33.396999, 42.864761], [33.390231, 42.864632]]]}, "properties": {"i": 66, "h3": "882d2e48adfffff", "lon": 33.39401, "lat": 42.86047, "water_km2": 0.504, "dist_coast_km": 94.6, "persistence": 0.0, "mean_cover": 0.0, "max_cover": 0.0, "trend_cover": 0.0, "hot": 0.0, "n_obs": 0}}, {"type": "Feature", "id": 67, "geometry": {"type": "Polygon", "coordinates": [[[33.369141, 42.872698], [33.36615, 42.868405], [33.369928, 42.864243], [33.376696, 42.864373], [33.379687, 42.868665], [33.37591, 42.872828], [33.369141, 42.872698]]]}, "properties": {"i": 67, "h3": "882d2e48e1fffff", "lon": 33.37292, "lat": 42.86854, "water_km2": 0.264, "dist_coast_km": 94.6, "persistence": 0.0, "mean_cover": 0.0, "max_cover": 0.0, "trend_cover": 0.0, "hot": 0.0, "n_obs": 0}}, {"type": "Feature", "id": 68, "geometry": {"type": "Polygon", "coordinates": [[[33.378901, 42.87712], [33.37591, 42.872828], [33.379687, 42.868665], [33.386455, 42.868795], [33.389447, 42.873087], [33.38567, 42.877249], [33.378901, 42.87712]]]}, "properties": {"i": 68, "h3": "882d2e48e3fffff", "lon": 33.38268, "lat": 42.87296, "water_km2": 0.004, "dist_coast_km": 94.6, "persistence": 0.0, "mean_cover": 0.0, "max_cover": 0.0, "trend_cover": 0.0, "hot": 0.0, "n_obs": 0}}, {"type": "Feature", "id": 69, "geometry": {"type": "Polygon", "coordinates": [[[33.369928, 42.864243], [33.366937, 42.85995], [33.370715, 42.855787], [33.377482, 42.855918], [33.380473, 42.86021], [33.376696, 42.864373], [33.369928, 42.864243]]]}, "properties": {"i": 69, "h3": "882d2e48e5fffff", "lon": 33.37371, "lat": 42.86008, "water_km2": 0.798, "dist_coast_km": 94.6, "persistence": 0.0, "mean_cover": 0.0, "max_cover": 0.0, "trend_cover": 0.0, "hot": 0.0, "n_obs": 0}}, {"type": "Feature", "id": 70, "geometry": {"type": "Polygon", "coordinates": [[[33.379687, 42.868665], [33.376696, 42.864373], [33.380473, 42.86021], [33.38724, 42.86034], [33.390231, 42.864632], [33.386455, 42.868795], [33.379687, 42.868665]]]}, "properties": {"i": 70, "h3": "882d2e48e7fffff", "lon": 33.38346, "lat": 42.8645, "water_km2": 0.771, "dist_coast_km": 94.6, "persistence": 0.0, "mean_cover": 0.0, "max_cover": 0.0, "trend_cover": 0.0, "hot": 0.0, "n_obs": 0}}, {"type": "Feature", "id": 71, "geometry": {"type": "Polygon", "coordinates": [[[33.359382, 42.868274], [33.356392, 42.863981], [33.36017, 42.859819], [33.366937, 42.85995], [33.369928, 42.864243], [33.36615, 42.868405], [33.359382, 42.868274]]]}, "properties": {"i": 71, "h3": "882d2e48edfffff", "lon": 33.36316, "lat": 42.86411, "water_km2": 0.388, "dist_coast_km": 94.6, "persistence": 0.0, "mean_cover": 0.0, "max_cover": 0.0, "trend_cover": 0.0, "hot": 0.0, "n_obs": 0}}, {"type": "Feature", "id": 72, "geometry": {"type": "Polygon", "coordinates": [[[33.421855, 42.852527], [33.418863, 42.848236], [33.422636, 42.844072], [33.429401, 42.844199], [33.432394, 42.84849], [33.428621, 42.852655], [33.421855, 42.852527]]]}, "properties": {"i": 72, "h3": "882d2e4993fffff", "lon": 33.42563, "lat": 42.84836, "water_km2": 0.335, "dist_coast_km": 92.8, "persistence": 0.0, "mean_cover": 0.0, "max_cover": 0.0, "trend_cover": 0.0, "hot": 0.0, "n_obs": 0}}, {"type": "Feature", "id": 73, "geometry": {"type": "Polygon", "coordinates": [[[33.411315, 42.856563], [33.408324, 42.852271], [33.412098, 42.848108], [33.418863, 42.848236], [33.421855, 42.852527], [33.418082, 42.856691], [33.411315, 42.856563]]]}, "properties": {"i": 73, "h3": "882d2e499bfffff", "lon": 33.41509, "lat": 42.8524, "water_km2": 0.374, "dist_coast_km": 92.8, "persistence": 0.0, "mean_cover": 0.0, "max_cover": 0.0, "trend_cover": 0.0, "hot": 0.0, "n_obs": 0}}, {"type": "Feature", "id": 74, "geometry": {"type": "Polygon", "coordinates": [[[33.381258, 42.851755], [33.378268, 42.847462], [33.382043, 42.843299], [33.388809, 42.843429], [33.3918, 42.847721], [33.388025, 42.851885], [33.381258, 42.851755]]]}, "properties": {"i": 74, "h3": "882d2e49d1fffff", "lon": 33.38503, "lat": 42.84759, "water_km2": 0.019, "dist_coast_km": 92.8, "persistence": 0.0, "mean_cover": 0.0, "max_cover": 0.0, "trend_cover": 0.0, "hot": 0.0, "n_obs": 0}}, {"type": "Feature", "id": 75, "geometry": {"type": "Polygon", "coordinates": [[[33.391016, 42.856177], [33.388025, 42.851885], [33.3918, 42.847721], [33.398566, 42.847851], [33.401557, 42.852143], [33.397782, 42.856306], [33.391016, 42.856177]]]}, "properties": {"i": 75, "h3": "882d2e49d3fffff", "lon": 33.39479, "lat": 42.85201, "water_km2": 0.048, "dist_coast_km": 92.8, "persistence": 0.0, "mean_cover": 0.0, "max_cover": 0.0, "trend_cover": 0.0, "hot": 0.0, "n_obs": 0}}, {"type": "Feature", "id": 76, "geometry": {"type": "Polygon", "coordinates": [[[33.370715, 42.855787], [33.367724, 42.851494], [33.371501, 42.847331], [33.378268, 42.847462], [33.381258, 42.851755], [33.377482, 42.855918], [33.370715, 42.855787]]]}, "properties": {"i": 76, "h3": "882d2e49d9fffff", "lon": 33.37449, "lat": 42.85162, "water_km2": 0.507, "dist_coast_km": 92.8, "persistence": 0.0, "mean_cover": 0.0, "max_cover": 0.0, "trend_cover": 0.0, "hot": 0.0, "n_obs": 0}}, {"type": "Feature", "id": 77, "geometry": {"type": "Polygon", "coordinates": [[[33.380473, 42.86021], [33.377482, 42.855918], [33.381258, 42.851755], [33.388025, 42.851885], [33.391016, 42.856177], [33.38724, 42.86034], [33.380473, 42.86021]]]}, "properties": {"i": 77, "h3": "882d2e49dbfffff", "lon": 33.38425, "lat": 42.85605, "water_km2": 0.743, "dist_coast_km": 92.8, "persistence": 0.0, "mean_cover": 0.0, "max_cover": 0.0, "trend_cover": 0.0, "hot": 0.0, "n_obs": 0}}, {"type": "Feature", "id": 78, "geometry": {"type": "Polygon", "coordinates": [[[33.469542, 42.997297], [33.466543, 42.993014], [33.47032, 42.988853], [33.477095, 42.988975], [33.480094, 42.993258], [33.476318, 42.99742], [33.469542, 42.997297]]]}, "properties": {"i": 78, "h3": "882d2e4c11fffff", "lon": 33.47332, "lat": 42.99314, "water_km2": 0.08, "dist_coast_km": 109.5, "persistence": 0.0, "mean_cover": 0.0, "max_cover": 0.0, "trend_cover": 0.0, "hot": 0.0, "n_obs": 0}}, {"type": "Feature", "id": 79, "geometry": {"type": "Polygon", "coordinates": [[[33.479317, 43.001702], [33.476318, 42.99742], [33.480094, 42.993258], [33.486869, 42.99338], [33.489869, 42.997663], [33.486093, 43.001824], [33.479317, 43.001702]]]}, "properties": {"i": 79, "h3": "882d2e4c13fffff", "lon": 33.48309, "lat": 42.99754, "water_km2": 0.593, "dist_coast_km": 109.5, "persistence": 0.0, "mean_cover": 0.0, "max_cover": 0.0, "trend_cover": 0.0, "hot": 0.0, "n_obs": 0}}, {"type": "Feature", "id": 80, "geometry": {"type": "Polygon", "coordinates": [[[33.458989, 43.001335], [33.45599, 42.997052], [33.459767, 42.992891], [33.466543, 42.993014], [33.469542, 42.997297], [33.465765, 43.001458], [33.458989, 43.001335]]]}, "properties": {"i": 80, "h3": "882d2e4c19fffff", "lon": 33.46277, "lat": 42.99717, "water_km2": 0.094, "dist_coast_km": 109.5, "persistence": 0.0, "mean_cover": 0.0, "max_cover": 0.0, "trend_cover": 0.0, "hot": 0.0, "n_obs": 0}}, {"type": "Feature", "id": 81, "geometry": {"type": "Polygon", "coordinates": [[[33.468764, 43.005741], [33.465765, 43.001458], [33.469542, 42.997297], [33.476318, 42.99742], [33.479317, 43.001702], [33.475541, 43.005863], [33.468764, 43.005741]]]}, "properties": {"i": 81, "h3": "882d2e4c1bfffff", "lon": 33.47254, "lat": 43.00158, "water_km2": 0.31, "dist_coast_km": 109.5, "persistence": 0.0, "mean_cover": 0.0, "max_cover": 0.0, "trend_cover": 0.0, "hot": 0.0, "n_obs": 0}}, {"type": "Feature", "id": 82, "geometry": {"type": "Polygon", "coordinates": [[[33.438658, 43.000964], [33.43566, 42.99668], [33.439439, 42.99252], [33.446215, 42.992644], [33.449214, 42.996928], [33.445435, 43.001088], [33.438658, 43.000964]]]}, "properties": {"i": 82, "h3": "882d2e4c51fffff", "lon": 33.44244, "lat": 42.9968, "water_km2": 0.134, "dist_coast_km": 109.5, "persistence": 0.0, "mean_cover": 0.0, "max_cover": 0.0, "trend_cover": 0.0, "hot": 0.0, "n_obs": 0}}, {"type": "Feature", "id": 83, "geometry": {"type": "Polygon", "coordinates": [[[33.448434, 43.005372], [33.445435, 43.001088], [33.449214, 42.996928], [33.45599, 42.997052], [33.458989, 43.001335], [33.455211, 43.005496], [33.448434, 43.005372]]]}, "properties": {"i": 83, "h3": "882d2e4c53fffff", "lon": 33.45221, "lat": 43.00121, "water_km2": 0.408, "dist_coast_km": 109.5, "persistence": 0.0, "mean_cover": 0.0, "max_cover": 0.0, "trend_cover": 0.0, "hot": 0.0, "n_obs": 0}}, {"type": "Feature", "id": 84, "geometry": {"type": "Polygon", "coordinates": [[[33.449214, 42.996928], [33.446215, 42.992644], [33.449993, 42.988483], [33.456769, 42.988607], [33.459767, 42.992891], [33.45599, 42.997052], [33.449214, 42.996928]]]}, "properties": {"i": 84, "h3": "882d2e4c57fffff", "lon": 33.45299, "lat": 42.99277, "water_km2": 0.005, "dist_coast_km": 109.5, "persistence": 0.0, "mean_cover": 0.0, "max_cover": 0.0, "trend_cover": 0.0, "hot": 0.0, "n_obs": 0}}, {"type": "Feature", "id": 85, "geometry": {"type": "Polygon", "coordinates": [[[33.428102, 43.005], [33.425104, 43.000715], [33.428883, 42.996555], [33.43566, 42.99668], [33.438658, 43.000964], [33.434879, 43.005124], [33.428102, 43.005]]]}, "properties": {"i": 85, "h3": "882d2e4c59fffff", "lon": 33.43188, "lat": 43.00084, "water_km2": 0.352, "dist_coast_km": 109.5, "persistence": 0.0, "mean_cover": 0.0, "max_cover": 0.0, "trend_cover": 0.0, "hot": 0.0, "n_obs": 0}}, {"type": "Feature", "id": 86, "geometry": {"type": "Polygon", "coordinates": [[[33.437877, 43.009408], [33.434879, 43.005124], [33.438658, 43.000964], [33.445435, 43.001088], [33.448434, 43.005372], [33.444655, 43.009532], [33.437877, 43.009408]]]}, "properties": {"i": 86, "h3": "882d2e4c5bfffff", "lon": 33.44166, "lat": 43.00525, "water_km2": 0.784, "dist_coast_km": 109.5, "persistence": 0.0, "mean_cover": 0.0, "max_cover": 0.0, "trend_cover": 0.0, "hot": 0.0, "n_obs": 0}}, {"type": "Feature", "id": 87, "geometry": {"type": "Polygon", "coordinates": [[[33.519197, 43.010869], [33.516196, 43.006588], [33.51997, 43.002426], [33.526745, 43.002545], [33.529746, 43.006826], [33.525973, 43.010988], [33.519197, 43.010869]]]}, "properties": {"i": 87, "h3": "882d2e4c81fffff", "lon": 33.52297, "lat": 43.00671, "water_km2": 0.783, "dist_coast_km": 109.5, "persistence": 0.0, "mean_cover": 0.0, "max_cover": 0.0, "trend_cover": 0.0, "hot": 0.0, "n_obs": 0}}, {"type": "Feature", "id": 88, "geometry": {"type": "Polygon", "coordinates": [[[33.528975, 43.015268], [33.525973, 43.010988], [33.529746, 43.006826], [33.536521, 43.006944], [33.539523, 43.011225], [33.53575, 43.015387], [33.528975, 43.015268]]]}, "properties": {"i": 88, "h3": "882d2e4c83fffff", "lon": 33.53275, "lat": 43.01111, "water_km2": 0.77, "dist_coast_km": 111.5, "persistence": 0.0, "mean_cover": 0.0, "max_cover": 0.0, "trend_cover": 0.0, "hot": 0.0, "n_obs": 0}}, {"type": "Feature", "id": 89, "geometry": {"type": "Polygon", "coordinates": [[[33.51997, 43.002426], [33.516969, 42.998144], [33.520742, 42.993982], [33.527517, 42.994102], [33.530518, 42.998383], [33.526745, 43.002545], [33.51997, 43.002426]]]}, "properties": {"i": 89, "h3": "882d2e4c85fffff", "lon": 33.52374, "lat": 42.99826, "water_km2": 0.056, "dist_coast_km": 109.5, "persistence": 0.0, "mean_cover": 0.0, "max_cover": 0.0, "trend_cover": 0.0, "hot": 0.0, "n_obs": 0}}, {"type": "Feature", "id": 90, "geometry": {"type": "Polygon", "coordinates": [[[33.529746, 43.006826], [33.526745, 43.002545], [33.530518, 42.998383], [33.537292, 42.998502], [33.540294, 43.002782], [33.536521, 43.006944], [33.529746, 43.006826]]]}, "properties": {"i": 90, "h3": "882d2e4c87fffff", "lon": 33.53352, "lat": 43.00266, "water_km2": 0.152, "dist_coast_km": 109.6, "persistence": 0.0, "mean_cover": 0.0, "max_cover": 0.0, "trend_cover": 0.0, "hot": 0.0, "n_obs": 0}}, {"type": "Feature", "id": 91, "geometry": {"type": "Polygon", "coordinates": [[[33.508647, 43.014911], [33.505646, 43.010629], [33.509421, 43.006468], [33.516196, 43.006588], [33.519197, 43.010869], [33.515423, 43.01503], [33.508647, 43.014911]]]}, "properties": {"i": 91, "h3": "882d2e4c89fffff", "lon": 33.51242, "lat": 43.01075, "water_km2": 0.765, "dist_coast_km": 111.4, "persistence": 0.0, "mean_cover": 0.0, "max_cover": 0.0, "trend_cover": 0.0, "hot": 0.0, "n_obs": 0}}, {"type": "Feature", "id": 92, "geometry": {"type": "Polygon", "coordinates": [[[33.518425, 43.019311], [33.515423, 43.01503], [33.519197, 43.010869], [33.525973, 43.010988], [33.528975, 43.015268], [33.525201, 43.01943], [33.518425, 43.019311]]]}, "properties": {"i": 92, "h3": "882d2e4c8bfffff", "lon": 33.5222, "lat": 43.01515, "water_km2": 0.763, "dist_coast_km": 111.4, "persistence": 0.0, "mean_cover": 0.0, "max_cover": 0.0, "trend_cover": 0.0, "hot": 0.0, "n_obs": 0}}, {"type": "Feature", "id": 93, "geometry": {"type": "Polygon", "coordinates": [[[33.509421, 43.006468], [33.50642, 43.002186], [33.510194, 42.998025], [33.516969, 42.998144], [33.51997, 43.002426], [33.516196, 43.006588], [33.509421, 43.006468]]]}, "properties": {"i": 93, "h3": "882d2e4c8dfffff", "lon": 33.51319, "lat": 43.00231, "water_km2": 0.669, "dist_coast_km": 109.5, "persistence": 0.0, "mean_cover": 0.0, "max_cover": 0.0, "trend_cover": 0.0, "hot": 0.0, "n_obs": 0}}, {"type": "Feature", "id": 94, "geometry": {"type": "Polygon", "coordinates": [[[33.537982, 43.028108], [33.534979, 43.023829], [33.538753, 43.019667], [33.545528, 43.019785], [33.548531, 43.024064], [33.544758, 43.028226], [33.537982, 43.028108]]]}, "properties": {"i": 94, "h3": "882d2e4c91fffff", "lon": 33.54176, "lat": 43.02395, "water_km2": 0.788, "dist_coast_km": 111.5, "persistence": 0.0, "mean_cover": 0.0, "max_cover": 0.0, "trend_cover": 0.0, "hot": 0.0, "n_obs": 0}}, {"type": "Feature", "id": 95, "geometry": {"type": "Polygon", "coordinates": [[[33.547762, 43.032505], [33.544758, 43.028226], [33.548531, 43.024064], [33.555307, 43.024181], [33.558311, 43.02846], [33.554538, 43.032622], [33.547762, 43.032505]]]}, "properties": {"i": 95, "h3": "882d2e4c93fffff", "lon": 33.55153, "lat": 43.02834, "water_km2": 0.798, "dist_coast_km": 113.4, "persistence": 0.0, "mean_cover": 0.0, "max_cover": 0.0, "trend_cover": 0.0, "hot": 0.0, "n_obs": 0}}, {"type": "Feature", "id": 96, "geometry": {"type": "Polygon", "coordinates": [[[33.538753, 43.019667], [33.53575, 43.015387], [33.539523, 43.011225], [33.546298, 43.011343], [33.549301, 43.015622], [33.545528, 43.019785], [33.538753, 43.019667]]]}, "properties": {"i": 96, "h3": "882d2e4c95fffff", "lon": 33.54253, "lat": 43.0155, "water_km2": 0.659, "dist_coast_km": 111.5, "persistence": 0.0, "mean_cover": 0.0, "max_cover": 0.0, "trend_cover": 0.0, "hot": 0.0, "n_obs": 0}}, {"type": "Feature", "id": 97, "geometry": {"type": "Polygon", "coordinates": [[[33.548531, 43.024064], [33.545528, 43.019785], [33.549301, 43.015622], [33.556076, 43.01574], [33.559079, 43.020019], [33.555307, 43.024181], [33.548531, 43.024064]]]}, "properties": {"i": 97, "h3": "882d2e4c97fffff", "lon": 33.5523, "lat": 43.0199, "water_km2": 0.391, "dist_coast_km": 111.5, "persistence": 0.0, "mean_cover": 0.0, "max_cover": 0.0, "trend_cover": 0.0, "hot": 0.0, "n_obs": 0}}, {"type": "Feature", "id": 98, "geometry": {"type": "Polygon", "coordinates": [[[33.527431, 43.032151], [33.524429, 43.027872], [33.528203, 43.02371], [33.534979, 43.023829], [33.537982, 43.028108], [33.534208, 43.03227], [33.527431, 43.032151]]]}, "properties": {"i": 98, "h3": "882d2e4c99fffff", "lon": 33.53121, "lat": 43.02799, "water_km2": 0.778, "dist_coast_km": 113.3, "persistence": 0.0, "mean_cover": 0.0, "max_cover": 0.0, "trend_cover": 0.0, "hot": 0.0, "n_obs": 0}}, {"type": "Feature", "id": 99, "geometry": {"type": "Polygon", "coordinates": [[[33.537211, 43.036549], [33.534208, 43.03227], [33.537982, 43.028108], [33.544758, 43.028226], [33.547762, 43.032505], [33.543988, 43.036666], [33.537211, 43.036549]]]}, "properties": {"i": 99, "h3": "882d2e4c9bfffff", "lon": 33.54098, "lat": 43.03239, "water_km2": 0.785, "dist_coast_km": 113.4, "persistence": 0.0, "mean_cover": 0.0, "max_cover": 0.0, "trend_cover": 0.0, "hot": 0.0, "n_obs": 0}}, {"type": "Feature", "id": 100, "geometry": {"type": "Polygon", "coordinates": [[[33.528203, 43.02371], [33.525201, 43.01943], [33.528975, 43.015268], [33.53575, 43.015387], [33.538753, 43.019667], [33.534979, 43.023829], [33.528203, 43.02371]]]}, "properties": {"i": 100, "h3": "882d2e4c9dfffff", "lon": 33.53198, "lat": 43.01955, "water_km2": 0.768, "dist_coast_km": 111.5, "persistence": 0.0, "mean_cover": 0.0, "max_cover": 0.0, "trend_cover": 0.0, "hot": 0.0, "n_obs": 0}}, {"type": "Feature", "id": 101, "geometry": {"type": "Polygon", "coordinates": [[[33.539523, 43.011225], [33.536521, 43.006944], [33.540294, 43.002782], [33.547068, 43.0029], [33.550071, 43.00718], [33.546298, 43.011343], [33.539523, 43.011225]]]}, "properties": {"i": 101, "h3": "882d2e4cb9fffff", "lon": 33.5433, "lat": 43.00706, "water_km2": 0.08, "dist_coast_km": 109.7, "persistence": 0.0, "mean_cover": 0.0, "max_cover": 0.0, "trend_cover": 0.0, "hot": 0.0, "n_obs": 0}}, {"type": "Feature", "id": 102, "geometry": {"type": "Polygon", "coordinates": [[[33.488317, 43.014549], [33.485317, 43.010267], [33.489093, 43.006106], [33.495869, 43.006227], [33.49887, 43.010509], [33.495094, 43.01467], [33.488317, 43.014549]]]}, "properties": {"i": 102, "h3": "882d2e4cc1fffff", "lon": 33.49209, "lat": 43.01039, "water_km2": 0.77, "dist_coast_km": 111.4, "persistence": 0.0, "mean_cover": 0.0, "max_cover": 0.0, "trend_cover": 0.0, "hot": 0.0, "n_obs": 0}}, {"type": "Feature", "id": 103, "geometry": {"type": "Polygon", "coordinates": [[[33.498095, 43.018952], [33.495094, 43.01467], [33.49887, 43.010509], [33.505646, 43.010629], [33.508647, 43.014911], [33.504872, 43.019072], [33.498095, 43.018952]]]}, "properties": {"i": 103, "h3": "882d2e4cc3fffff", "lon": 33.50187, "lat": 43.01479, "water_km2": 0.438, "dist_coast_km": 111.4, "persistence": 0.0, "mean_cover": 0.0, "max_cover": 0.0, "trend_cover": 0.0, "hot": 0.0, "n_obs": 0}}, {"type": "Feature", "id": 104, "geometry": {"type": "Polygon", "coordinates": [[[33.489093, 43.006106], [33.486093, 43.001824], [33.489869, 42.997663], [33.496644, 42.997784], [33.499644, 43.002066], [33.495869, 43.006227], [33.489093, 43.006106]]]}, "properties": {"i": 104, "h3": "882d2e4cc5fffff", "lon": 33.49287, "lat": 43.00195, "water_km2": 0.783, "dist_coast_km": 109.5, "persistence": 0.0, "mean_cover": 0.0, "max_cover": 0.0, "trend_cover": 0.0, "hot": 0.0, "n_obs": 0}}, {"type": "Feature", "id": 105, "geometry": {"type": "Polygon", "coordinates": [[[33.49887, 43.010509], [33.495869, 43.006227], [33.499644, 43.002066], [33.50642, 43.002186], [33.509421, 43.006468], [33.505646, 43.010629], [33.49887, 43.010509]]]}, "properties": {"i": 105, "h3": "882d2e4cc7fffff", "lon": 33.50265, "lat": 43.00635, "water_km2": 0.778, "dist_coast_km": 109.5, "persistence": 0.0, "mean_cover": 0.0, "max_cover": 0.0, "trend_cover": 0.0, "hot": 0.0, "n_obs": 0}}, {"type": "Feature", "id": 106, "geometry": {"type": "Polygon", "coordinates": [[[33.477764, 43.018588], [33.474764, 43.014306], [33.478541, 43.010146], [33.485317, 43.010267], [33.488317, 43.014549], [33.484541, 43.01871], [33.477764, 43.018588]]]}, "properties": {"i": 106, "h3": "882d2e4cc9fffff", "lon": 33.48154, "lat": 43.01443, "water_km2": 0.765, "dist_coast_km": 111.3, "persistence": 0.0, "mean_cover": 0.0, "max_cover": 0.0, "trend_cover": 0.0, "hot": 0.0, "n_obs": 0}}, {"type": "Feature", "id": 107, "geometry": {"type": "Polygon", "coordinates": [[[33.487542, 43.022992], [33.484541, 43.01871], [33.488317, 43.014549], [33.495094, 43.01467], [33.498095, 43.018952], [33.494319, 43.023112], [33.487542, 43.022992]]]}, "properties": {"i": 107, "h3": "882d2e4ccbfffff", "lon": 33.49132, "lat": 43.01883, "water_km2": 0.755, "dist_coast_km": 111.4, "persistence": 0.0, "mean_cover": 0.0, "max_cover": 0.0, "trend_cover": 0.0, "hot": 0.0, "n_obs": 0}}, {"type": "Feature", "id": 108, "geometry": {"type": "Polygon", "coordinates": [[[33.478541, 43.010146], [33.475541, 43.005863], [33.479317, 43.001702], [33.486093, 43.001824], [33.489093, 43.006106], [33.485317, 43.010267], [33.478541, 43.010146]]]}, "properties": {"i": 108, "h3": "882d2e4ccdfffff", "lon": 33.48232, "lat": 43.00598, "water_km2": 0.751, "dist_coast_km": 109.5, "persistence": 0.0, "mean_cover": 0.0, "max_cover": 0.0, "trend_cover": 0.0, "hot": 0.0, "n_obs": 0}}, {"type": "Feature", "id": 109, "geometry": {"type": "Polygon", "coordinates": [[[33.507099, 43.031794], [33.504097, 43.027514], [33.507873, 43.023353], [33.51465, 43.023472], [33.517652, 43.027753], [33.513877, 43.031914], [33.507099, 43.031794]]]}, "properties": {"i": 109, "h3": "882d2e4cd1fffff", "lon": 33.51087, "lat": 43.02763, "water_km2": 0.778, "dist_coast_km": 113.2, "persistence": 0.0, "mean_cover": 0.0, "max_cover": 0.0, "trend_cover": 0.0, "hot": 0.0, "n_obs": 0}}, {"type": "Feature", "id": 110, "geometry": {"type": "Polygon", "coordinates": [[[33.516879, 43.036194], [33.513877, 43.031914], [33.517652, 43.027753], [33.524429, 43.027872], [33.527431, 43.032151], [33.523656, 43.036312], [33.516879, 43.036194]]]}, "properties": {"i": 110, "h3": "882d2e4cd3fffff", "lon": 33.52065, "lat": 43.03203, "water_km2": 0.778, "dist_coast_km": 113.2, "persistence": 0.0, "mean_cover": 0.0, "max_cover": 0.0, "trend_cover": 0.0, "hot": 0.0, "n_obs": 0}}, {"type": "Feature", "id": 111, "geometry": {"type": "Polygon", "coordinates": [[[33.507873, 43.023353], [33.504872, 43.019072], [33.508647, 43.014911], [33.515423, 43.01503], [33.518425, 43.019311], [33.51465, 43.023472], [33.507873, 43.023353]]]}, "properties": {"i": 111, "h3": "882d2e4cd5fffff", "lon": 33.51165, "lat": 43.01919, "water_km2": 0.782, "dist_coast_km": 111.4, "persistence": 0.0, "mean_cover": 0.0, "max_cover": 0.0, "trend_cover": 0.0, "hot": 0.0, "n_obs": 0}}, {"type": "Feature", "id": 112, "geometry": {"type": "Polygon", "coordinates": [[[33.517652, 43.027753], [33.51465, 43.023472], [33.518425, 43.019311], [33.525201, 43.01943], [33.528203, 43.02371], [33.524429, 43.027872], [33.517652, 43.027753]]]}, "properties": {"i": 112, "h3": "882d2e4cd7fffff", "lon": 33.52143, "lat": 43.02359, "water_km2": 0.785, "dist_coast_km": 111.4, "persistence": 0.0, "mean_cover": 0.0, "max_cover": 0.0, "trend_cover": 0.0, "hot": 0.0, "n_obs": 0}}, {"type": "Feature", "id": 113, "geometry": {"type": "Polygon", "coordinates": [[[33.496545, 43.035835], [33.493543, 43.031554], [33.49732, 43.027393], [33.504097, 43.027514], [33.507099, 43.031794], [33.503323, 43.035955], [33.496545, 43.035835]]]}, "properties": {"i": 113, "h3": "882d2e4cd9fffff", "lon": 33.50032, "lat": 43.03167, "water_km2": 0.79, "dist_coast_km": 113.2, "persistence": 0.0, "mean_cover": 0.0, "max_cover": 0.0, "trend_cover": 0.0, "hot": 0.0, "n_obs": 0}}, {"type": "Feature", "id": 114, "geometry": {"type": "Polygon", "coordinates": [[[33.506325, 43.040235], [33.503323, 43.035955], [33.507099, 43.031794], [33.513877, 43.031914], [33.516879, 43.036194], [33.513103, 43.040354], [33.506325, 43.040235]]]}, "properties": {"i": 114, "h3": "882d2e4cdbfffff", "lon": 33.5101, "lat": 43.03607, "water_km2": 0.79, "dist_coast_km": 113.2, "persistence": 0.0, "mean_cover": 0.0, "max_cover": 0.0, "trend_cover": 0.0, "hot": 0.0, "n_obs": 0}}, {"type": "Feature", "id": 115, "geometry": {"type": "Polygon", "coordinates": [[[33.49732, 43.027393], [33.494319, 43.023112], [33.498095, 43.018952], [33.504872, 43.019072], [33.507873, 43.023353], [33.504097, 43.027514], [33.49732, 43.027393]]]}, "properties": {"i": 115, "h3": "882d2e4cddfffff", "lon": 33.5011, "lat": 43.02323, "water_km2": 0.525, "dist_coast_km": 111.4, "persistence": 0.0, "mean_cover": 0.0, "max_cover": 0.0, "trend_cover": 0.0, "hot": 0.0, "n_obs": 0}}, {"type": "Feature", "id": 116, "geometry": {"type": "Polygon", "coordinates": [[[33.489869, 42.997663], [33.486869, 42.99338], [33.490644, 42.989219], [33.497419, 42.98934], [33.500419, 42.993622], [33.496644, 42.997784], [33.489869, 42.997663]]]}, "properties": {"i": 116, "h3": "882d2e4ce9fffff", "lon": 33.49364, "lat": 42.9935, "water_km2": 0.148, "dist_coast_km": 109.5, "persistence": 0.0, "mean_cover": 0.0, "max_cover": 0.0, "trend_cover": 0.0, "hot": 0.0, "n_obs": 0}}, {"type": "Feature", "id": 117, "geometry": {"type": "Polygon", "coordinates": [[[33.499644, 43.002066], [33.496644, 42.997784], [33.500419, 42.993622], [33.507194, 42.993743], [33.510194, 42.998025], [33.50642, 43.002186], [33.499644, 43.002066]]]}, "properties": {"i": 117, "h3": "882d2e4cebfffff", "lon": 33.50342, "lat": 42.9979, "water_km2": 0.475, "dist_coast_km": 109.5, "persistence": 0.0, "mean_cover": 0.0, "max_cover": 0.0, "trend_cover": 0.0, "hot": 0.0, "n_obs": 0}}, {"type": "Feature", "id": 118, "geometry": {"type": "Polygon", "coordinates": [[[33.445679, 42.924942], [33.442684, 42.920654], [33.446459, 42.916492], [33.453229, 42.916617], [33.456225, 42.920904], [33.45245, 42.925067], [33.445679, 42.924942]]]}, "properties": {"i": 118, "h3": "882d2e4d09fffff", "lon": 33.44945, "lat": 42.92078, "water_km2": 0.558, "dist_coast_km": 100.2, "persistence": 0.0, "mean_cover": 0.0, "max_cover": 0.0, "trend_cover": 0.0, "hot": 0.0, "n_obs": 0}}, {"type": "Feature", "id": 119, "geometry": {"type": "Polygon", "coordinates": [[[33.455446, 42.929354], [33.45245, 42.925067], [33.456225, 42.920904], [33.462995, 42.921028], [33.465991, 42.925315], [33.462217, 42.929478], [33.455446, 42.929354]]]}, "properties": {"i": 119, "h3": "882d2e4d0bfffff", "lon": 33.45922, "lat": 42.92519, "water_km2": 0.518, "dist_coast_km": 102.0, "persistence": 0.0, "mean_cover": 0.0, "max_cover": 0.0, "trend_cover": 0.0, "hot": 0.0, "n_obs": 0}}, {"type": "Feature", "id": 120, "geometry": {"type": "Polygon", "coordinates": [[[33.446459, 42.916492], [33.443464, 42.912204], [33.447238, 42.908041], [33.454007, 42.908166], [33.457003, 42.912454], [33.453229, 42.916617], [33.446459, 42.916492]]]}, "properties": {"i": 120, "h3": "882d2e4d0dfffff", "lon": 33.45023, "lat": 42.91233, "water_km2": 0.067, "dist_coast_km": 100.2, "persistence": 0.0, "mean_cover": 0.0, "max_cover": 0.0, "trend_cover": 0.0, "hot": 0.0, "n_obs": 0}}, {"type": "Feature", "id": 121, "geometry": {"type": "Polygon", "coordinates": [[[33.465214, 42.933764], [33.462217, 42.929478], [33.465991, 42.925315], [33.472761, 42.925438], [33.475758, 42.929725], [33.471984, 42.933888], [33.465214, 42.933764]]]}, "properties": {"i": 121, "h3": "882d2e4d1dfffff", "lon": 33.46899, "lat": 42.9296, "water_km2": 0.008, "dist_coast_km": 102.0, "persistence": 0.0, "mean_cover": 0.0, "max_cover": 0.0, "trend_cover": 0.0, "hot": 0.0, "n_obs": 0}}, {"type": "Feature", "id": 122, "geometry": {"type": "Polygon", "coordinates": [[[33.435133, 42.928979], [33.432138, 42.924691], [33.435913, 42.920529], [33.442684, 42.920654], [33.445679, 42.924942], [33.441904, 42.929104], [33.435133, 42.928979]]]}, "properties": {"i": 122, "h3": "882d2e4d43fffff", "lon": 33.43891, "lat": 42.92482, "water_km2": 0.173, "dist_coast_km": 102.0, "persistence": 0.0, "mean_cover": 0.0, "max_cover": 0.0, "trend_cover": 0.0, "hot": 0.0, "n_obs": 0}}, {"type": "Feature", "id": 123, "geometry": {"type": "Polygon", "coordinates": [[[33.435913, 42.920529], [33.432918, 42.916241], [33.436694, 42.912078], [33.443464, 42.912204], [33.446459, 42.916492], [33.442684, 42.920654], [33.435913, 42.920529]]]}, "properties": {"i": 123, "h3": "882d2e4d47fffff", "lon": 33.43969, "lat": 42.91637, "water_km2": 0.117, "dist_coast_km": 100.2, "persistence": 0.0, "mean_cover": 0.0, "max_cover": 0.0, "trend_cover": 0.0, "hot": 0.0, "n_obs": 0}}, {"type": "Feature", "id": 124, "geometry": {"type": "Polygon", "coordinates": [[[33.4449, 42.933391], [33.441904, 42.929104], [33.445679, 42.924942], [33.45245, 42.925067], [33.455446, 42.929354], [33.451671, 42.933516], [33.4449, 42.933391]]]}, "properties": {"i": 124, "h3": "882d2e4d55fffff", "lon": 33.44868, "lat": 42.92923, "water_km2": 0.243, "dist_coast_km": 102.0, "persistence": 0.0, "mean_cover": 0.0, "max_cover": 0.0, "trend_cover": 0.0, "hot": 0.0, "n_obs": 0}}, {"type": "Feature", "id": 125, "geometry": {"type": "Polygon", "coordinates": [[[33.454668, 42.937803], [33.451671, 42.933516], [33.455446, 42.929354], [33.462217, 42.929478], [33.465214, 42.933764], [33.461439, 42.937927], [33.454668, 42.937803]]]}, "properties": {"i": 125, "h3": "882d2e4d57fffff", "lon": 33.45844, "lat": 42.93364, "water_km2": 0.212, "dist_coast_km": 102.0, "persistence": 0.0, "mean_cover": 0.0, "max_cover": 0.0, "trend_cover": 0.0, "hot": 0.0, "n_obs": 0}}, {"type": "Feature", "id": 126, "geometry": {"type": "Polygon", "coordinates": [[[33.376083, 43.016719], [33.373087, 43.012433], [33.376871, 43.008275], [33.38365, 43.008402], [33.386646, 43.012688], [33.382863, 43.016846], [33.376083, 43.016719]]]}, "properties": {"i": 126, "h3": "882d2e4e0bfffff", "lon": 33.37987, "lat": 43.01256, "water_km2": 0.022, "dist_coast_km": 111.3, "persistence": 0.0, "mean_cover": 0.0, "max_cover": 0.0, "trend_cover": 0.0, "hot": 0.0, "n_obs": 0}}, {"type": "Feature", "id": 127, "geometry": {"type": "Polygon", "coordinates": [[[33.395637, 43.025543], [33.39264, 43.021258], [33.396423, 43.0171], [33.403202, 43.017226], [33.406199, 43.021511], [33.402417, 43.025669], [33.395637, 43.025543]]]}, "properties": {"i": 127, "h3": "882d2e4e11fffff", "lon": 33.39942, "lat": 43.02138, "water_km2": 0.047, "dist_coast_km": 111.3, "persistence": 0.0, "mean_cover": 0.0, "max_cover": 0.0, "trend_cover": 0.0, "hot": 0.0, "n_obs": 0}}, {"type": "Feature", "id": 128, "geometry": {"type": "Polygon", "coordinates": [[[33.405415, 43.029953], [33.402417, 43.025669], [33.406199, 43.021511], [33.412979, 43.021636], [33.415977, 43.02592], [33.412195, 43.030079], [33.405415, 43.029953]]]}, "properties": {"i": 128, "h3": "882d2e4e13fffff", "lon": 33.4092, "lat": 43.0258, "water_km2": 0.592, "dist_coast_km": 113.2, "persistence": 0.0, "mean_cover": 0.0, "max_cover": 0.0, "trend_cover": 0.0, "hot": 0.0, "n_obs": 0}}, {"type": "Feature", "id": 129, "geometry": {"type": "Polygon", "coordinates": [[[33.406199, 43.021511], [33.403202, 43.017226], [33.406984, 43.013067], [33.413762, 43.013193], [33.41676, 43.017477], [33.412979, 43.021636], [33.406199, 43.021511]]]}, "properties": {"i": 129, "h3": "882d2e4e17fffff", "lon": 33.40998, "lat": 43.01735, "water_km2": 0.315, "dist_coast_km": 111.3, "persistence": 0.0, "mean_cover": 0.0, "max_cover": 0.0, "trend_cover": 0.0, "hot": 0.0, "n_obs": 0}}, {"type": "Feature", "id": 130, "geometry": {"type": "Polygon", "coordinates": [[[33.385073, 43.029574], [33.382076, 43.025289], [33.38586, 43.021131], [33.39264, 43.021258], [33.395637, 43.025543], [33.391854, 43.029701], [33.385073, 43.029574]]]}, "properties": {"i": 130, "h3": "882d2e4e19fffff", "lon": 33.38886, "lat": 43.02542, "water_km2": 0.001, "dist_coast_km": 113.2, "persistence": 0.0, "mean_cover": 0.0, "max_cover": 0.0, "trend_cover": 0.0, "hot": 0.0, "n_obs": 0}}, {"type": "Feature", "id": 131, "geometry": {"type": "Polygon", "coordinates": [[[33.394852, 43.033986], [33.391854, 43.029701], [33.395637, 43.025543], [33.402417, 43.025669], [33.405415, 43.029953], [33.401632, 43.034112], [33.394852, 43.033986]]]}, "properties": {"i": 131, "h3": "882d2e4e1bfffff", "lon": 33.39863, "lat": 43.02983, "water_km2": 0.016, "dist_coast_km": 113.2, "persistence": 0.0, "mean_cover": 0.0, "max_cover": 0.0, "trend_cover": 0.0, "hot": 0.0, "n_obs": 0}}, {"type": "Feature", "id": 132, "geometry": {"type": "Polygon", "coordinates": [[[33.417543, 43.009034], [33.414546, 43.004749], [33.418326, 43.00059], [33.425104, 43.000715], [33.428102, 43.005], [33.424322, 43.009159], [33.417543, 43.009034]]]}, "properties": {"i": 132, "h3": "882d2e4e33fffff", "lon": 33.42132, "lat": 43.00487, "water_km2": 0.514, "dist_coast_km": 109.5, "persistence": 0.0, "mean_cover": 0.0, "max_cover": 0.0, "trend_cover": 0.0, "hot": 0.0, "n_obs": 0}}, {"type": "Feature", "id": 133, "geometry": {"type": "Polygon", "coordinates": [[[33.418326, 43.00059], [33.415329, 42.996305], [33.419109, 42.992145], [33.425886, 42.99227], [33.428883, 42.996555], [33.425104, 43.000715], [33.418326, 43.00059]]]}, "properties": {"i": 133, "h3": "882d2e4e37fffff", "lon": 33.42211, "lat": 42.99643, "water_km2": 0.176, "dist_coast_km": 109.5, "persistence": 0.0, "mean_cover": 0.0, "max_cover": 0.0, "trend_cover": 0.0, "hot": 0.0, "n_obs": 0}}, {"type": "Feature", "id": 134, "geometry": {"type": "Polygon", "coordinates": [[[33.406984, 43.013067], [33.403987, 43.008783], [33.407768, 43.004623], [33.414546, 43.004749], [33.417543, 43.009034], [33.413762, 43.013193], [33.406984, 43.013067]]]}, "properties": {"i": 134, "h3": "882d2e4e3bfffff", "lon": 33.41077, "lat": 43.00891, "water_km2": 0.139, "dist_coast_km": 111.3, "persistence": 0.0, "mean_cover": 0.0, "max_cover": 0.0, "trend_cover": 0.0, "hot": 0.0, "n_obs": 0}}, {"type": "Feature", "id": 135, "geometry": {"type": "Polygon", "coordinates": [[[33.445313, 43.039142], [33.442313, 43.03486], [33.446093, 43.030701], [33.452872, 43.030824], [33.455872, 43.035106], [33.452093, 43.039265], [33.445313, 43.039142]]]}, "properties": {"i": 135, "h3": "882d2e4e81fffff", "lon": 33.44909, "lat": 43.03498, "water_km2": 0.783, "dist_coast_km": 113.2, "persistence": 0.0, "mean_cover": 0.0, "max_cover": 0.0, "trend_cover": 0.0, "hot": 0.0, "n_obs": 0}}, {"type": "Feature", "id": 136, "geometry": {"type": "Polygon", "coordinates": [[[33.455093, 43.043547], [33.452093, 43.039265], [33.455872, 43.035106], [33.462651, 43.035228], [33.465652, 43.03951], [33.461873, 43.043669], [33.455093, 43.043547]]]}, "properties": {"i": 136, "h3": "882d2e4e83fffff", "lon": 33.45887, "lat": 43.03939, "water_km2": 0.746, "dist_coast_km": 113.2, "persistence": 0.0, "mean_cover": 0.0, "max_cover": 0.0, "trend_cover": 0.0, "hot": 0.0, "n_obs": 0}}, {"type": "Feature", "id": 137, "geometry": {"type": "Polygon", "coordinates": [[[33.446093, 43.030701], [33.443094, 43.026418], [33.446874, 43.022258], [33.453652, 43.022382], [33.456652, 43.026664], [33.452872, 43.030824], [33.446093, 43.030701]]]}, "properties": {"i": 137, "h3": "882d2e4e85fffff", "lon": 33.44987, "lat": 43.02654, "water_km2": 0.78, "dist_coast_km": 113.2, "persistence": 0.0, "mean_cover": 0.0, "max_cover": 0.0, "trend_cover": 0.0, "hot": 0.0, "n_obs": 0}}, {"type": "Feature", "id": 138, "geometry": {"type": "Polygon", "coordinates": [[[33.455872, 43.035106], [33.452872, 43.030824], [33.456652, 43.026664], [33.46343, 43.026787], [33.46643, 43.031069], [33.462651, 43.035228], [33.455872, 43.035106]]]}, "properties": {"i": 138, "h3": "882d2e4e87fffff", "lon": 33.45965, "lat": 43.03095, "water_km2": 0.778, "dist_coast_km": 113.2, "persistence": 0.0, "mean_cover": 0.0, "max_cover": 0.0, "trend_cover": 0.0, "hot": 0.0, "n_obs": 0}}, {"type": "Feature", "id": 139, "geometry": {"type": "Polygon", "coordinates": [[[33.434752, 43.043177], [33.431753, 43.038895], [33.435534, 43.034736], [33.442313, 43.03486], [33.445313, 43.039142], [33.441532, 43.043301], [33.434752, 43.043177]]]}, "properties": {"i": 139, "h3": "882d2e4e89fffff", "lon": 33.43853, "lat": 43.03902, "water_km2": 0.78, "dist_coast_km": 113.2, "persistence": 0.0, "mean_cover": 0.0, "max_cover": 0.0, "trend_cover": 0.0, "hot": 0.0, "n_obs": 0}}, {"type": "Feature", "id": 140, "geometry": {"type": "Polygon", "coordinates": [[[33.444532, 43.047583], [33.441532, 43.043301], [33.445313, 43.039142], [33.452093, 43.039265], [33.455093, 43.043547], [33.451313, 43.047706], [33.444532, 43.047583]]]}, "properties": {"i": 140, "h3": "882d2e4e8bfffff", "lon": 33.44831, "lat": 43.04342, "water_km2": 0.498, "dist_coast_km": 115.0, "persistence": 0.0, "mean_cover": 0.0, "max_cover": 0.0, "trend_cover": 0.0, "hot": 0.0, "n_obs": 0}}, {"type": "Feature", "id": 141, "geometry": {"type": "Polygon", "coordinates": [[[33.435534, 43.034736], [33.432535, 43.030453], [33.436315, 43.026294], [33.443094, 43.026418], [33.446093, 43.030701], [33.442313, 43.03486], [33.435534, 43.034736]]]}, "properties": {"i": 141, "h3": "882d2e4e8dfffff", "lon": 33.43931, "lat": 43.03058, "water_km2": 0.783, "dist_coast_km": 113.2, "persistence": 0.0, "mean_cover": 0.0, "max_cover": 0.0, "trend_cover": 0.0, "hot": 0.0, "n_obs": 0}}, {"type": "Feature", "id": 142, "geometry": {"type": "Polygon", "coordinates": [[[33.464873, 43.047951], [33.461873, 43.043669], [33.465652, 43.03951], [33.472431, 43.039632], [33.475432, 43.043913], [33.471653, 43.048072], [33.464873, 43.047951]]]}, "properties": {"i": 142, "h3": "882d2e4e95fffff", "lon": 33.46865, "lat": 43.04379, "water_km2": 0.358, "dist_coast_km": 115.0, "persistence": 0.0, "mean_cover": 0.0, "max_cover": 0.0, "trend_cover": 0.0, "hot": 0.0, "n_obs": 0}}, {"type": "Feature", "id": 143, "geometry": {"type": "Polygon", "coordinates": [[[33.474654, 43.052353], [33.471653, 43.048072], [33.475432, 43.043913], [33.482211, 43.044034], [33.485213, 43.048315], [33.481435, 43.052474], [33.474654, 43.052353]]]}, "properties": {"i": 143, "h3": "882d2e4e97fffff", "lon": 33.47843, "lat": 43.04819, "water_km2": 0.006, "dist_coast_km": 115.0, "persistence": 0.0, "mean_cover": 0.0, "max_cover": 0.0, "trend_cover": 0.0, "hot": 0.0, "n_obs": 0}}, {"type": "Feature", "id": 144, "geometry": {"type": "Polygon", "coordinates": [[[33.454313, 43.051988], [33.451313, 43.047706], [33.455093, 43.043547], [33.461873, 43.043669], [33.464873, 43.047951], [33.461094, 43.05211], [33.454313, 43.051988]]]}, "properties": {"i": 144, "h3": "882d2e4e9dfffff", "lon": 33.45809, "lat": 43.04783, "water_km2": 0.038, "dist_coast_km": 115.0, "persistence": 0.0, "mean_cover": 0.0, "max_cover": 0.0, "trend_cover": 0.0, "hot": 0.0, "n_obs": 0}}, {"type": "Feature", "id": 145, "geometry": {"type": "Polygon", "coordinates": [[[33.457431, 43.018222], [33.454431, 43.013939], [33.45821, 43.009779], [33.464987, 43.009902], [33.467986, 43.014184], [33.464209, 43.018344], [33.457431, 43.018222]]]}, "properties": {"i": 145, "h3": "882d2e4ea1fffff", "lon": 33.46121, "lat": 43.01406, "water_km2": 0.763, "dist_coast_km": 111.3, "persistence": 0.0, "mean_cover": 0.0, "max_cover": 0.0, "trend_cover": 0.0, "hot": 0.0, "n_obs": 0}}, {"type": "Feature", "id": 146, "geometry": {"type": "Polygon", "coordinates": [[[33.467208, 43.022627], [33.464209, 43.018344], [33.467986, 43.014184], [33.474764, 43.014306], [33.477764, 43.018588], [33.473986, 43.022749], [33.467208, 43.022627]]]}, "properties": {"i": 146, "h3": "882d2e4ea3fffff", "lon": 33.47099, "lat": 43.01847, "water_km2": 0.768, "dist_coast_km": 111.3, "persistence": 0.0, "mean_cover": 0.0, "max_cover": 0.0, "trend_cover": 0.0, "hot": 0.0, "n_obs": 0}}, {"type": "Feature", "id": 147, "geometry": {"type": "Polygon", "coordinates": [[[33.45821, 43.009779], [33.455211, 43.005496], [33.458989, 43.001335], [33.465765, 43.001458], [33.468764, 43.005741], [33.464987, 43.009902], [33.45821, 43.009779]]]}, "properties": {"i": 147, "h3": "882d2e4ea5fffff", "lon": 33.46199, "lat": 43.00562, "water_km2": 0.785, "dist_coast_km": 109.5, "persistence": 0.0, "mean_cover": 0.0, "max_cover": 0.0, "trend_cover": 0.0, "hot": 0.0, "n_obs": 0}}, {"type": "Feature", "id": 148, "geometry": {"type": "Polygon", "coordinates": [[[33.467986, 43.014184], [33.464987, 43.009902], [33.468764, 43.005741], [33.475541, 43.005863], [33.478541, 43.010146], [33.474764, 43.014306], [33.467986, 43.014184]]]}, "properties": {"i": 148, "h3": "882d2e4ea7fffff", "lon": 33.47176, "lat": 43.01002, "water_km2": 0.776, "dist_coast_km": 111.3, "persistence": 0.0, "mean_cover": 0.0, "max_cover": 0.0, "trend_cover": 0.0, "hot": 0.0, "n_obs": 0}}, {"type": "Feature", "id": 149, "geometry": {"type": "Polygon", "coordinates": [[[33.446874, 43.022258], [33.443875, 43.017975], [33.447654, 43.013816], [33.454431, 43.013939], [33.457431, 43.018222], [33.453652, 43.022382], [33.446874, 43.022258]]]}, "properties": {"i": 149, "h3": "882d2e4ea9fffff", "lon": 33.45065, "lat": 43.0181, "water_km2": 0.775, "dist_coast_km": 111.3, "persistence": 0.0, "mean_cover": 0.0, "max_cover": 0.0, "trend_cover": 0.0, "hot": 0.0, "n_obs": 0}}, {"type": "Feature", "id": 150, "geometry": {"type": "Polygon", "coordinates": [[[33.456652, 43.026664], [33.453652, 43.022382], [33.457431, 43.018222], [33.464209, 43.018344], [33.467208, 43.022627], [33.46343, 43.026787], [33.456652, 43.026664]]]}, "properties": {"i": 150, "h3": "882d2e4eabfffff", "lon": 33.46043, "lat": 43.0225, "water_km2": 0.793, "dist_coast_km": 111.3, "persistence": 0.0, "mean_cover": 0.0, "max_cover": 0.0, "trend_cover": 0.0, "hot": 0.0, "n_obs": 0}}, {"type": "Feature", "id": 151, "geometry": {"type": "Polygon", "coordinates": [[[33.447654, 43.013816], [33.444655, 43.009532], [33.448434, 43.005372], [33.455211, 43.005496], [33.45821, 43.009779], [33.454431, 43.013939], [33.447654, 43.013816]]]}, "properties": {"i": 151, "h3": "882d2e4eadfffff", "lon": 33.45143, "lat": 43.00966, "water_km2": 0.763, "dist_coast_km": 111.3, "persistence": 0.0, "mean_cover": 0.0, "max_cover": 0.0, "trend_cover": 0.0, "hot": 0.0, "n_obs": 0}}, {"type": "Feature", "id": 152, "geometry": {"type": "Polygon", "coordinates": [[[33.476209, 43.035472], [33.473209, 43.031191], [33.476987, 43.027031], [33.483765, 43.027152], [33.486765, 43.031433], [33.482988, 43.035593], [33.476209, 43.035472]]]}, "properties": {"i": 152, "h3": "882d2e4eb1fffff", "lon": 33.47999, "lat": 43.03131, "water_km2": 0.795, "dist_coast_km": 113.2, "persistence": 0.0, "mean_cover": 0.0, "max_cover": 0.0, "trend_cover": 0.0, "hot": 0.0, "n_obs": 0}}, {"type": "Feature", "id": 153, "geometry": {"type": "Polygon", "coordinates": [[[33.485989, 43.039874], [33.482988, 43.035593], [33.486765, 43.031433], [33.493543, 43.031554], [33.496545, 43.035835], [33.492768, 43.039995], [33.485989, 43.039874]]]}, "properties": {"i": 153, "h3": "882d2e4eb3fffff", "lon": 33.48977, "lat": 43.03571, "water_km2": 0.76, "dist_coast_km": 113.2, "persistence": 0.0, "mean_cover": 0.0, "max_cover": 0.0, "trend_cover": 0.0, "hot": 0.0, "n_obs": 0}}, {"type": "Feature", "id": 154, "geometry": {"type": "Polygon", "coordinates": [[[33.476987, 43.027031], [33.473986, 43.022749], [33.477764, 43.018588], [33.484541, 43.01871], [33.487542, 43.022992], [33.483765, 43.027152], [33.476987, 43.027031]]]}, "properties": {"i": 154, "h3": "882d2e4eb5fffff", "lon": 33.48076, "lat": 43.02287, "water_km2": 0.775, "dist_coast_km": 111.3, "persistence": 0.0, "mean_cover": 0.0, "max_cover": 0.0, "trend_cover": 0.0, "hot": 0.0, "n_obs": 0}}, {"type": "Feature", "id": 155, "geometry": {"type": "Polygon", "coordinates": [[[33.486765, 43.031433], [33.483765, 43.027152], [33.487542, 43.022992], [33.494319, 43.023112], [33.49732, 43.027393], [33.493543, 43.031554], [33.486765, 43.031433]]]}, "properties": {"i": 155, "h3": "882d2e4eb7fffff", "lon": 33.49054, "lat": 43.02727, "water_km2": 0.788, "dist_coast_km": 113.2, "persistence": 0.0, "mean_cover": 0.0, "max_cover": 0.0, "trend_cover": 0.0, "hot": 0.0, "n_obs": 0}}, {"type": "Feature", "id": 156, "geometry": {"type": "Polygon", "coordinates": [[[33.465652, 43.03951], [33.462651, 43.035228], [33.46643, 43.031069], [33.473209, 43.031191], [33.476209, 43.035472], [33.472431, 43.039632], [33.465652, 43.03951]]]}, "properties": {"i": 156, "h3": "882d2e4eb9fffff", "lon": 33.46943, "lat": 43.03535, "water_km2": 0.785, "dist_coast_km": 113.2, "persistence": 0.0, "mean_cover": 0.0, "max_cover": 0.0, "trend_cover": 0.0, "hot": 0.0, "n_obs": 0}}, {"type": "Feature", "id": 157, "geometry": {"type": "Polygon", "coordinates": [[[33.475432, 43.043913], [33.472431, 43.039632], [33.476209, 43.035472], [33.482988, 43.035593], [33.485989, 43.039874], [33.482211, 43.044034], [33.475432, 43.043913]]]}, "properties": {"i": 157, "h3": "882d2e4ebbfffff", "lon": 33.47921, "lat": 43.03975, "water_km2": 0.636, "dist_coast_km": 113.2, "persistence": 0.0, "mean_cover": 0.0, "max_cover": 0.0, "trend_cover": 0.0, "hot": 0.0, "n_obs": 0}}, {"type": "Feature", "id": 158, "geometry": {"type": "Polygon", "coordinates": [[[33.46643, 43.031069], [33.46343, 43.026787], [33.467208, 43.022627], [33.473986, 43.022749], [33.476987, 43.027031], [33.473209, 43.031191], [33.46643, 43.031069]]]}, "properties": {"i": 158, "h3": "882d2e4ebdfffff", "lon": 33.47021, "lat": 43.02691, "water_km2": 0.79, "dist_coast_km": 113.2, "persistence": 0.0, "mean_cover": 0.0, "max_cover": 0.0, "trend_cover": 0.0, "hot": 0.0, "n_obs": 0}}, {"type": "Feature", "id": 159, "geometry": {"type": "Polygon", "coordinates": [[[33.41441, 43.042804], [33.411411, 43.038521], [33.415193, 43.034363], [33.421974, 43.034488], [33.424972, 43.038771], [33.421191, 43.042929], [33.41441, 43.042804]]]}, "properties": {"i": 159, "h3": "882d2e4ec1fffff", "lon": 33.41819, "lat": 43.03865, "water_km2": 0.778, "dist_coast_km": 113.2, "persistence": 0.0, "mean_cover": 0.0, "max_cover": 0.0, "trend_cover": 0.0, "hot": 0.0, "n_obs": 0}}, {"type": "Feature", "id": 160, "geometry": {"type": "Polygon", "coordinates": [[[33.42419, 43.047212], [33.421191, 43.042929], [33.424972, 43.038771], [33.431753, 43.038895], [33.434752, 43.043177], [33.430971, 43.047336], [33.42419, 43.047212]]]}, "properties": {"i": 160, "h3": "882d2e4ec3fffff", "lon": 33.42797, "lat": 43.04305, "water_km2": 0.543, "dist_coast_km": 115.0, "persistence": 0.0, "mean_cover": 0.0, "max_cover": 0.0, "trend_cover": 0.0, "hot": 0.0, "n_obs": 0}}, {"type": "Feature", "id": 161, "geometry": {"type": "Polygon", "coordinates": [[[33.415193, 43.034363], [33.412195, 43.030079], [33.415977, 43.02592], [33.422756, 43.026045], [33.425755, 43.030329], [33.421974, 43.034488], [33.415193, 43.034363]]]}, "properties": {"i": 161, "h3": "882d2e4ec5fffff", "lon": 33.41898, "lat": 43.0302, "water_km2": 0.79, "dist_coast_km": 113.2, "persistence": 0.0, "mean_cover": 0.0, "max_cover": 0.0, "trend_cover": 0.0, "hot": 0.0, "n_obs": 0}}, {"type": "Feature", "id": 162, "geometry": {"type": "Polygon", "coordinates": [[[33.424972, 43.038771], [33.421974, 43.034488], [33.425755, 43.030329], [33.432535, 43.030453], [33.435534, 43.034736], [33.431753, 43.038895], [33.424972, 43.038771]]]}, "properties": {"i": 162, "h3": "882d2e4ec7fffff", "lon": 33.42875, "lat": 43.03461, "water_km2": 0.798, "dist_coast_km": 113.2, "persistence": 0.0, "mean_cover": 0.0, "max_cover": 0.0, "trend_cover": 0.0, "hot": 0.0, "n_obs": 0}}, {"type": "Feature", "id": 163, "geometry": {"type": "Polygon", "coordinates": [[[33.403846, 43.046837], [33.400847, 43.042553], [33.40463, 43.038396], [33.411411, 43.038521], [33.41441, 43.042804], [33.410627, 43.046962], [33.403846, 43.046837]]]}, "properties": {"i": 163, "h3": "882d2e4ec9fffff", "lon": 33.40763, "lat": 43.04268, "water_km2": 0.476, "dist_coast_km": 115.0, "persistence": 0.0, "mean_cover": 0.0, "max_cover": 0.0, "trend_cover": 0.0, "hot": 0.0, "n_obs": 0}}, {"type": "Feature", "id": 164, "geometry": {"type": "Polygon", "coordinates": [[[33.413626, 43.051245], [33.410627, 43.046962], [33.41441, 43.042804], [33.421191, 43.042929], [33.42419, 43.047212], [33.420408, 43.05137], [33.413626, 43.051245]]]}, "properties": {"i": 164, "h3": "882d2e4ecbfffff", "lon": 33.41741, "lat": 43.04709, "water_km2": 0.121, "dist_coast_km": 115.0, "persistence": 0.0, "mean_cover": 0.0, "max_cover": 0.0, "trend_cover": 0.0, "hot": 0.0, "n_obs": 0}}, {"type": "Feature", "id": 165, "geometry": {"type": "Polygon", "coordinates": [[[33.40463, 43.038396], [33.401632, 43.034112], [33.405415, 43.029953], [33.412195, 43.030079], [33.415193, 43.034363], [33.411411, 43.038521], [33.40463, 43.038396]]]}, "properties": {"i": 165, "h3": "882d2e4ecdfffff", "lon": 33.40841, "lat": 43.03424, "water_km2": 0.436, "dist_coast_km": 113.2, "persistence": 0.0, "mean_cover": 0.0, "max_cover": 0.0, "trend_cover": 0.0, "hot": 0.0, "n_obs": 0}}, {"type": "Feature", "id": 166, "geometry": {"type": "Polygon", "coordinates": [[[33.43397, 43.051618], [33.430971, 43.047336], [33.434752, 43.043177], [33.441532, 43.043301], [33.444532, 43.047583], [33.440751, 43.051742], [33.43397, 43.051618]]]}, "properties": {"i": 166, "h3": "882d2e4ed5fffff", "lon": 33.43775, "lat": 43.04746, "water_km2": 0.084, "dist_coast_km": 115.0, "persistence": 0.0, "mean_cover": 0.0, "max_cover": 0.0, "trend_cover": 0.0, "hot": 0.0, "n_obs": 0}}, {"type": "Feature", "id": 167, "geometry": {"type": "Polygon", "coordinates": [[[33.426537, 43.021886], [33.423539, 43.017603], [33.42732, 43.013443], [33.434098, 43.013568], [33.437096, 43.017851], [33.433316, 43.022011], [33.426537, 43.021886]]]}, "properties": {"i": 167, "h3": "882d2e4ee1fffff", "lon": 33.43032, "lat": 43.01773, "water_km2": 0.778, "dist_coast_km": 111.3, "persistence": 0.0, "mean_cover": 0.0, "max_cover": 0.0, "trend_cover": 0.0, "hot": 0.0, "n_obs": 0}}, {"type": "Feature", "id": 168, "geometry": {"type": "Polygon", "coordinates": [[[33.436315, 43.026294], [33.433316, 43.022011], [33.437096, 43.017851], [33.443875, 43.017975], [33.446874, 43.022258], [33.443094, 43.026418], [33.436315, 43.026294]]]}, "properties": {"i": 168, "h3": "882d2e4ee3fffff", "lon": 33.4401, "lat": 43.02213, "water_km2": 0.785, "dist_coast_km": 111.3, "persistence": 0.0, "mean_cover": 0.0, "max_cover": 0.0, "trend_cover": 0.0, "hot": 0.0, "n_obs": 0}}, {"type": "Feature", "id": 169, "geometry": {"type": "Polygon", "coordinates": [[[33.42732, 43.013443], [33.424322, 43.009159], [33.428102, 43.005], [33.434879, 43.005124], [33.437877, 43.009408], [33.434098, 43.013568], [33.42732, 43.013443]]]}, "properties": {"i": 169, "h3": "882d2e4ee5fffff", "lon": 33.4311, "lat": 43.00928, "water_km2": 0.77, "dist_coast_km": 111.3, "persistence": 0.0, "mean_cover": 0.0, "max_cover": 0.0, "trend_cover": 0.0, "hot": 0.0, "n_obs": 0}}, {"type": "Feature", "id": 170, "geometry": {"type": "Polygon", "coordinates": [[[33.437096, 43.017851], [33.434098, 43.013568], [33.437877, 43.009408], [33.444655, 43.009532], [33.447654, 43.013816], [33.443875, 43.017975], [33.437096, 43.017851]]]}, "properties": {"i": 170, "h3": "882d2e4ee7fffff", "lon": 33.44088, "lat": 43.01369, "water_km2": 0.758, "dist_coast_km": 111.3, "persistence": 0.0, "mean_cover": 0.0, "max_cover": 0.0, "trend_cover": 0.0, "hot": 0.0, "n_obs": 0}}, {"type": "Feature", "id": 171, "geometry": {"type": "Polygon", "coordinates": [[[33.415977, 43.02592], [33.412979, 43.021636], [33.41676, 43.017477], [33.423539, 43.017603], [33.426537, 43.021886], [33.422756, 43.026045], [33.415977, 43.02592]]]}, "properties": {"i": 171, "h3": "882d2e4ee9fffff", "lon": 33.41976, "lat": 43.02176, "water_km2": 0.775, "dist_coast_km": 111.3, "persistence": 0.0, "mean_cover": 0.0, "max_cover": 0.0, "trend_cover": 0.0, "hot": 0.0, "n_obs": 0}}, {"type": "Feature", "id": 172, "geometry": {"type": "Polygon", "coordinates": [[[33.425755, 43.030329], [33.422756, 43.026045], [33.426537, 43.021886], [33.433316, 43.022011], [33.436315, 43.026294], [33.432535, 43.030453], [33.425755, 43.030329]]]}, "properties": {"i": 172, "h3": "882d2e4eebfffff", "lon": 33.42954, "lat": 43.02617, "water_km2": 0.78, "dist_coast_km": 113.2, "persistence": 0.0, "mean_cover": 0.0, "max_cover": 0.0, "trend_cover": 0.0, "hot": 0.0, "n_obs": 0}}, {"type": "Feature", "id": 173, "geometry": {"type": "Polygon", "coordinates": [[[33.41676, 43.017477], [33.413762, 43.013193], [33.417543, 43.009034], [33.424322, 43.009159], [33.42732, 43.013443], [33.423539, 43.017603], [33.41676, 43.017477]]]}, "properties": {"i": 173, "h3": "882d2e4eedfffff", "lon": 33.42054, "lat": 43.01332, "water_km2": 0.777, "dist_coast_km": 111.3, "persistence": 0.0, "mean_cover": 0.0, "max_cover": 0.0, "trend_cover": 0.0, "hot": 0.0, "n_obs": 0}}, {"type": "Feature", "id": 174, "geometry": {"type": "Polygon", "coordinates": [[[33.699057, 43.047699], [33.696047, 43.043425], [33.699811, 43.039261], [33.706584, 43.039368], [33.709594, 43.043641], [33.70583, 43.047806], [33.699057, 43.047699]]]}, "properties": {"i": 174, "h3": "882d2e6b41fffff", "lon": 33.70282, "lat": 43.04353, "water_km2": 0.314, "dist_coast_km": 116.6, "persistence": 0.0, "mean_cover": 0.0, "max_cover": 0.0, "trend_cover": 0.0, "hot": 0.0, "n_obs": 0}}, {"type": "Feature", "id": 175, "geometry": {"type": "Polygon", "coordinates": [[[33.699811, 43.039261], [33.696802, 43.034987], [33.700566, 43.030822], [33.707338, 43.03093], [33.710347, 43.035203], [33.706584, 43.039368], [33.699811, 43.039261]]]}, "properties": {"i": 175, "h3": "882d2e6b45fffff", "lon": 33.70357, "lat": 43.0351, "water_km2": 0.671, "dist_coast_km": 114.8, "persistence": 0.0, "mean_cover": 0.0, "max_cover": 0.0, "trend_cover": 0.0, "hot": 0.0, "n_obs": 0}}, {"type": "Feature", "id": 176, "geometry": {"type": "Polygon", "coordinates": [[[33.709594, 43.043641], [33.706584, 43.039368], [33.710347, 43.035203], [33.717119, 43.03531], [33.720129, 43.039583], [33.716366, 43.043749], [33.709594, 43.043641]]]}, "properties": {"i": 176, "h3": "882d2e6b47fffff", "lon": 33.71336, "lat": 43.03948, "water_km2": 0.028, "dist_coast_km": 115.0, "persistence": 0.0, "mean_cover": 0.0, "max_cover": 0.0, "trend_cover": 0.0, "hot": 0.0, "n_obs": 0}}, {"type": "Feature", "id": 177, "geometry": {"type": "Polygon", "coordinates": [[[33.689274, 43.043317], [33.686265, 43.039043], [33.690029, 43.034879], [33.696802, 43.034987], [33.699811, 43.039261], [33.696047, 43.043425], [33.689274, 43.043317]]]}, "properties": {"i": 177, "h3": "882d2e6b4dfffff", "lon": 33.69304, "lat": 43.03915, "water_km2": 0.772, "dist_coast_km": 114.8, "persistence": 0.0, "mean_cover": 0.0, "max_cover": 0.0, "trend_cover": 0.0, "hot": 0.0, "n_obs": 0}}, {"type": "Feature", "id": 178, "geometry": {"type": "Polygon", "coordinates": [[[33.700566, 43.030822], [33.697557, 43.026548], [33.70132, 43.022383], [33.708091, 43.022491], [33.7111, 43.026764], [33.707338, 43.03093], [33.700566, 43.030822]]]}, "properties": {"i": 178, "h3": "882d2e6b69fffff", "lon": 33.70433, "lat": 43.02666, "water_km2": 0.212, "dist_coast_km": 114.8, "persistence": 0.0, "mean_cover": 0.0, "max_cover": 0.0, "trend_cover": 0.0, "hot": 0.0, "n_obs": 0}}, {"type": "Feature", "id": 179, "geometry": {"type": "Polygon", "coordinates": [[[33.577104, 43.045688], [33.574099, 43.041411], [33.577871, 43.037249], [33.584647, 43.037364], [33.587652, 43.041641], [33.583881, 43.045803], [33.577104, 43.045688]]]}, "properties": {"i": 179, "h3": "882d2e7909fffff", "lon": 33.58088, "lat": 43.04153, "water_km2": 0.199, "dist_coast_km": 115.4, "persistence": 0.0, "mean_cover": 0.0, "max_cover": 0.0, "trend_cover": 0.0, "hot": 0.0, "n_obs": 0}}, {"type": "Feature", "id": 180, "geometry": {"type": "Polygon", "coordinates": [[[33.618524, 43.037934], [33.615518, 43.033657], [33.619287, 43.029494], [33.626061, 43.029607], [33.629067, 43.033883], [33.625299, 43.038046], [33.618524, 43.037934]]]}, "properties": {"i": 180, "h3": "882d2e7931fffff", "lon": 33.62229, "lat": 43.03377, "water_km2": 0.013, "dist_coast_km": 113.8, "persistence": 0.0, "mean_cover": 0.0, "max_cover": 0.0, "trend_cover": 0.0, "hot": 0.0, "n_obs": 0}}, {"type": "Feature", "id": 181, "geometry": {"type": "Polygon", "coordinates": [[[33.628306, 43.042322], [33.625299, 43.038046], [33.629067, 43.033883], [33.635842, 43.033995], [33.638848, 43.038271], [33.635081, 43.042434], [33.628306, 43.042322]]]}, "properties": {"i": 181, "h3": "882d2e7933fffff", "lon": 33.63207, "lat": 43.03816, "water_km2": 0.072, "dist_coast_km": 114.0, "persistence": 0.0, "mean_cover": 0.0, "max_cover": 0.0, "trend_cover": 0.0, "hot": 0.0, "n_obs": 0}}, {"type": "Feature", "id": 182, "geometry": {"type": "Polygon", "coordinates": [[[33.629067, 43.033883], [33.626061, 43.029607], [33.629829, 43.025443], [33.636602, 43.025555], [33.639609, 43.029831], [33.635842, 43.033995], [33.629067, 43.033883]]]}, "properties": {"i": 182, "h3": "882d2e7937fffff", "lon": 33.63284, "lat": 43.02972, "water_km2": 0.052, "dist_coast_km": 114.0, "persistence": 0.0, "mean_cover": 0.0, "max_cover": 0.0, "trend_cover": 0.0, "hot": 0.0, "n_obs": 0}}, {"type": "Feature", "id": 183, "geometry": {"type": "Polygon", "coordinates": [[[33.617761, 43.046373], [33.614755, 43.042097], [33.618524, 43.037934], [33.625299, 43.038046], [33.628306, 43.042322], [33.624537, 43.046485], [33.617761, 43.046373]]]}, "properties": {"i": 183, "h3": "882d2e793bfffff", "lon": 33.62153, "lat": 43.04221, "water_km2": 0.023, "dist_coast_km": 115.7, "persistence": 0.0, "mean_cover": 0.0, "max_cover": 0.0, "trend_cover": 0.0, "hot": 0.0, "n_obs": 0}}, {"type": "Feature", "id": 184, "geometry": {"type": "Polygon", "coordinates": [[[33.556773, 43.04534], [33.553769, 43.041062], [33.557542, 43.036901], [33.564318, 43.037017], [33.567323, 43.041295], [33.56355, 43.045457], [33.556773, 43.04534]]]}, "properties": {"i": 184, "h3": "882d2e7941fffff", "lon": 33.56055, "lat": 43.04118, "water_km2": 0.665, "dist_coast_km": 115.3, "persistence": 0.0, "mean_cover": 0.0, "max_cover": 0.0, "trend_cover": 0.0, "hot": 0.0, "n_obs": 0}}, {"type": "Feature", "id": 185, "geometry": {"type": "Polygon", "coordinates": [[[33.566554, 43.049734], [33.56355, 43.045457], [33.567323, 43.041295], [33.574099, 43.041411], [33.577104, 43.045688], [33.573332, 43.04985], [33.566554, 43.049734]]]}, "properties": {"i": 185, "h3": "882d2e7943fffff", "lon": 33.57033, "lat": 43.04557, "water_km2": 0.2, "dist_coast_km": 115.3, "persistence": 0.0, "mean_cover": 0.0, "max_cover": 0.0, "trend_cover": 0.0, "hot": 0.0, "n_obs": 0}}, {"type": "Feature", "id": 186, "geometry": {"type": "Polygon", "coordinates": [[[33.557542, 43.036901], [33.554538, 43.032622], [33.558311, 43.02846], [33.565086, 43.028577], [33.56809, 43.032855], [33.564318, 43.037017], [33.557542, 43.036901]]]}, "properties": {"i": 186, "h3": "882d2e7945fffff", "lon": 33.56131, "lat": 43.03274, "water_km2": 0.766, "dist_coast_km": 113.5, "persistence": 0.0, "mean_cover": 0.0, "max_cover": 0.0, "trend_cover": 0.0, "hot": 0.0, "n_obs": 0}}, {"type": "Feature", "id": 187, "geometry": {"type": "Polygon", "coordinates": [[[33.567323, 43.041295], [33.564318, 43.037017], [33.56809, 43.032855], [33.574866, 43.032971], [33.577871, 43.037249], [33.574099, 43.041411], [33.567323, 43.041295]]]}, "properties": {"i": 187, "h3": "882d2e7947fffff", "lon": 33.57109, "lat": 43.03713, "water_km2": 0.611, "dist_coast_km": 113.5, "persistence": 0.0, "mean_cover": 0.0, "max_cover": 0.0, "trend_cover": 0.0, "hot": 0.0, "n_obs": 0}}, {"type": "Feature", "id": 188, "geometry": {"type": "Polygon", "coordinates": [[[33.546221, 43.049385], [33.543218, 43.045107], [33.546992, 43.040945], [33.553769, 43.041062], [33.556773, 43.04534], [33.552999, 43.049502], [33.546221, 43.049385]]]}, "properties": {"i": 188, "h3": "882d2e7949fffff", "lon": 33.55, "lat": 43.04522, "water_km2": 0.247, "dist_coast_km": 115.2, "persistence": 0.0, "mean_cover": 0.0, "max_cover": 0.0, "trend_cover": 0.0, "hot": 0.0, "n_obs": 0}}, {"type": "Feature", "id": 189, "geometry": {"type": "Polygon", "coordinates": [[[33.546992, 43.040945], [33.543988, 43.036666], [33.547762, 43.032505], [33.554538, 43.032622], [33.557542, 43.036901], [33.553769, 43.041062], [33.546992, 43.040945]]]}, "properties": {"i": 189, "h3": "882d2e794dfffff", "lon": 33.55077, "lat": 43.03678, "water_km2": 0.778, "dist_coast_km": 113.4, "persistence": 0.0, "mean_cover": 0.0, "max_cover": 0.0, "trend_cover": 0.0, "hot": 0.0, "n_obs": 0}}, {"type": "Feature", "id": 190, "geometry": {"type": "Polygon", "coordinates": [[[33.558311, 43.02846], [33.555307, 43.024181], [33.559079, 43.020019], [33.565854, 43.020136], [33.568858, 43.024414], [33.565086, 43.028577], [33.558311, 43.02846]]]}, "properties": {"i": 190, "h3": "882d2e7969fffff", "lon": 33.56208, "lat": 43.0243, "water_km2": 0.102, "dist_coast_km": 111.6, "persistence": 0.0, "mean_cover": 0.0, "max_cover": 0.0, "trend_cover": 0.0, "hot": 0.0, "n_obs": 0}}, {"type": "Feature", "id": 191, "geometry": {"type": "Polygon", "coordinates": [[[33.56809, 43.032855], [33.565086, 43.028577], [33.568858, 43.024414], [33.575633, 43.02453], [33.578638, 43.028808], [33.574866, 43.032971], [33.56809, 43.032855]]]}, "properties": {"i": 191, "h3": "882d2e796bfffff", "lon": 33.57186, "lat": 43.02869, "water_km2": 0.042, "dist_coast_km": 113.5, "persistence": 0.0, "mean_cover": 0.0, "max_cover": 0.0, "trend_cover": 0.0, "hot": 0.0, "n_obs": 0}}, {"type": "Feature", "id": 192, "geometry": {"type": "Polygon", "coordinates": [[[33.668195, 43.051427], [33.665187, 43.047153], [33.668953, 43.042989], [33.675727, 43.043099], [33.678735, 43.047373], [33.67497, 43.051537], [33.668195, 43.051427]]]}, "properties": {"i": 192, "h3": "882d2e79a1fffff", "lon": 33.67196, "lat": 43.04726, "water_km2": 0.012, "dist_coast_km": 116.2, "persistence": 0.0, "mean_cover": 0.0, "max_cover": 0.0, "trend_cover": 0.0, "hot": 0.0, "n_obs": 0}}, {"type": "Feature", "id": 193, "geometry": {"type": "Polygon", "coordinates": [[[33.668953, 43.042989], [33.665945, 43.038715], [33.66971, 43.03455], [33.676484, 43.03466], [33.679492, 43.038934], [33.675727, 43.043099], [33.668953, 43.042989]]]}, "properties": {"i": 193, "h3": "882d2e79a5fffff", "lon": 33.67272, "lat": 43.03882, "water_km2": 0.783, "dist_coast_km": 114.3, "persistence": 0.0, "mean_cover": 0.0, "max_cover": 0.0, "trend_cover": 0.0, "hot": 0.0, "n_obs": 0}}, {"type": "Feature", "id": 194, "geometry": {"type": "Polygon", "coordinates": [[[33.678735, 43.047373], [33.675727, 43.043099], [33.679492, 43.038934], [33.686265, 43.039043], [33.689274, 43.043317], [33.685509, 43.047482], [33.678735, 43.047373]]]}, "properties": {"i": 194, "h3": "882d2e79a7fffff", "lon": 33.6825, "lat": 43.04321, "water_km2": 0.391, "dist_coast_km": 116.4, "persistence": 0.0, "mean_cover": 0.0, "max_cover": 0.0, "trend_cover": 0.0, "hot": 0.0, "n_obs": 0}}, {"type": "Feature", "id": 195, "geometry": {"type": "Polygon", "coordinates": [[[33.658412, 43.047043], [33.655405, 43.042768], [33.659171, 43.038604], [33.665945, 43.038715], [33.668953, 43.042989], [33.665187, 43.047153], [33.658412, 43.047043]]]}, "properties": {"i": 195, "h3": "882d2e79adfffff", "lon": 33.66218, "lat": 43.04288, "water_km2": 0.444, "dist_coast_km": 116.2, "persistence": 0.0, "mean_cover": 0.0, "max_cover": 0.0, "trend_cover": 0.0, "hot": 0.0, "n_obs": 0}}, {"type": "Feature", "id": 196, "geometry": {"type": "Polygon", "coordinates": [[[33.638088, 43.04671], [33.635081, 43.042434], [33.638848, 43.038271], [33.645623, 43.038382], [33.64863, 43.042657], [33.644863, 43.046821], [33.638088, 43.04671]]]}, "properties": {"i": 196, "h3": "882d2e79e5fffff", "lon": 33.64186, "lat": 43.04255, "water_km2": 0.046, "dist_coast_km": 116.0, "persistence": 0.0, "mean_cover": 0.0, "max_cover": 0.0, "trend_cover": 0.0, "hot": 0.0, "n_obs": 0}}, {"type": "Feature", "id": 197, "geometry": {"type": "Polygon", "coordinates": [[[33.64787, 43.051096], [33.644863, 43.046821], [33.64863, 43.042657], [33.655405, 43.042768], [33.658412, 43.047043], [33.654646, 43.051207], [33.64787, 43.051096]]]}, "properties": {"i": 197, "h3": "882d2e79e7fffff", "lon": 33.65164, "lat": 43.04693, "water_km2": 0.006, "dist_coast_km": 116.0, "persistence": 0.0, "mean_cover": 0.0, "max_cover": 0.0, "trend_cover": 0.0, "hot": 0.0, "n_obs": 0}}, {"type": "Feature", "id": 198, "geometry": {"type": "Polygon", "coordinates": [[[33.525887, 43.049032], [33.522884, 43.044753], [33.526659, 43.040592], [33.533437, 43.04071], [33.53644, 43.044989], [33.532665, 43.04915], [33.525887, 43.049032]]]}, "properties": {"i": 198, "h3": "882d2e7b21fffff", "lon": 33.52966, "lat": 43.04487, "water_km2": 0.288, "dist_coast_km": 115.2, "persistence": 0.0, "mean_cover": 0.0, "max_cover": 0.0, "trend_cover": 0.0, "hot": 0.0, "n_obs": 0}}, {"type": "Feature", "id": 199, "geometry": {"type": "Polygon", "coordinates": [[[33.526659, 43.040592], [33.523656, 43.036312], [33.527431, 43.032151], [33.534208, 43.03227], [33.537211, 43.036549], [33.533437, 43.04071], [33.526659, 43.040592]]]}, "properties": {"i": 199, "h3": "882d2e7b25fffff", "lon": 33.53043, "lat": 43.03643, "water_km2": 0.785, "dist_coast_km": 113.3, "persistence": 0.0, "mean_cover": 0.0, "max_cover": 0.0, "trend_cover": 0.0, "hot": 0.0, "n_obs": 0}}, {"type": "Feature", "id": 200, "geometry": {"type": "Polygon", "coordinates": [[[33.53644, 43.044989], [33.533437, 43.04071], [33.537211, 43.036549], [33.543988, 43.036666], [33.546992, 43.040945], [33.543218, 43.045107], [33.53644, 43.044989]]]}, "properties": {"i": 200, "h3": "882d2e7b27fffff", "lon": 33.54021, "lat": 43.04083, "water_km2": 0.709, "dist_coast_km": 113.3, "persistence": 0.0, "mean_cover": 0.0, "max_cover": 0.0, "trend_cover": 0.0, "hot": 0.0, "n_obs": 0}}, {"type": "Feature", "id": 201, "geometry": {"type": "Polygon", "coordinates": [[[33.516106, 43.044634], [33.513103, 43.040354], [33.516879, 43.036194], [33.523656, 43.036312], [33.526659, 43.040592], [33.522884, 43.044753], [33.516106, 43.044634]]]}, "properties": {"i": 201, "h3": "882d2e7b2dfffff", "lon": 33.51988, "lat": 43.04047, "water_km2": 0.75, "dist_coast_km": 113.2, "persistence": 0.0, "mean_cover": 0.0, "max_cover": 0.0, "trend_cover": 0.0, "hot": 0.0, "n_obs": 0}}, {"type": "Feature", "id": 202, "geometry": {"type": "Polygon", "coordinates": [[[33.494994, 43.052715], [33.491992, 43.048435], [33.49577, 43.044275], [33.502548, 43.044395], [33.505551, 43.048675], [33.501774, 43.052835], [33.494994, 43.052715]]]}, "properties": {"i": 202, "h3": "882d2e7b61fffff", "lon": 33.49877, "lat": 43.04856, "water_km2": 0.003, "dist_coast_km": 115.1, "persistence": 0.0, "mean_cover": 0.0, "max_cover": 0.0, "trend_cover": 0.0, "hot": 0.0, "n_obs": 0}}, {"type": "Feature", "id": 203, "geometry": {"type": "Polygon", "coordinates": [[[33.49577, 43.044275], [33.492768, 43.039995], [33.496545, 43.035835], [33.503323, 43.035955], [33.506325, 43.040235], [33.502548, 43.044395], [33.49577, 43.044275]]]}, "properties": {"i": 203, "h3": "882d2e7b65fffff", "lon": 33.49955, "lat": 43.04012, "water_km2": 0.756, "dist_coast_km": 113.2, "persistence": 0.0, "mean_cover": 0.0, "max_cover": 0.0, "trend_cover": 0.0, "hot": 0.0, "n_obs": 0}}, {"type": "Feature", "id": 204, "geometry": {"type": "Polygon", "coordinates": [[[33.505551, 43.048675], [33.502548, 43.044395], [33.506325, 43.040235], [33.513103, 43.040354], [33.516106, 43.044634], [33.51233, 43.048794], [33.505551, 43.048675]]]}, "properties": {"i": 204, "h3": "882d2e7b67fffff", "lon": 33.50933, "lat": 43.04451, "water_km2": 0.344, "dist_coast_km": 115.1, "persistence": 0.0, "mean_cover": 0.0, "max_cover": 0.0, "trend_cover": 0.0, "hot": 0.0, "n_obs": 0}}, {"type": "Feature", "id": 205, "geometry": {"type": "Polygon", "coordinates": [[[33.485213, 43.048315], [33.482211, 43.044034], [33.485989, 43.039874], [33.492768, 43.039995], [33.49577, 43.044275], [33.491992, 43.048435], [33.485213, 43.048315]]]}, "properties": {"i": 205, "h3": "882d2e7b6dfffff", "lon": 33.48899, "lat": 43.04415, "water_km2": 0.164, "dist_coast_km": 115.0, "persistence": 0.0, "mean_cover": 0.0, "max_cover": 0.0, "trend_cover": 0.0, "hot": 0.0, "n_obs": 0}}]}