{"type": "FeatureCollection", "features": [{"type": "Feature", "geometry": {"type": "Polygon", "coordinates": [[[49.242829464703426, 53.72285031536021], [49.242833211033314, 53.72276047431136], [49.24268173118587, 53.722758252314314], [49.2426892244299, 53.72257857022654], [49.242840703632254, 53.72258079220907], [49.24284444990129, 53.72249095115562], [49.24314740772172, 53.722495394531904], [49.24314366209777, 53.72258523559988], [49.24329514136095, 53.72258745700814], [49.24329139603928, 53.72267729808182], [49.24313991645355, 53.7226750766663], [49.24313617078905, 53.72276491773119], [49.242829464703426, 53.72285031536021]]]}, "properties": {"zone_id": "kuibyshev-2025-05-12-001", "aoi": "kuibyshev", "date": "2025-05-12", "scene_id": "S2A_MSIL2A_20250512T075021_R135_T39UUV_20250512T091515", "scene_datetime_utc": "2025-05-12T07:50:21.024000+00:00", "detection_status": "detected", "detection_status_ru": "обнаружено", "lon": 49.24296, "lat": 53.72266, "n_pixels": 3, "zone_area_km2": 0.001, "cover_m2": 48.6, "p_mean": 0.996, "p_max": 0.996, "cover_m2_km2": 48600.0, "h3": "8810856431fffff", "valid_frac_scene": 0.998, "wind_ms": 2.3, "sea": "спокойное", "scene_reliable": true, "field_event_id": "S4:DOORS3:T23", "field_profile": "B", "field_date": "2024-06-10", "field_distance_km": 1387.0, "field_date_gap_days": 336, "field_conc_items_km2": 102.37, "conc_A_items_km2": null, "conc_A_lo80": null, "conc_A_hi80": null, "conc_A_lo95": null, "conc_A_hi95": null, "conc_A_status": "unavailable", "conc_A_status_ru": "концентрация недоступна", "conc_A_reasons": "вне бассейна профиля: nw_atlantic_subtropical", "conc_A_model": "conc-A-c6bce5631d2b", "conc_B_items_km2": null, "conc_B_lo80": null, "conc_B_hi80": null, "conc_B_lo95": null, "conc_B_hi95": null, "conc_B_status": "unavailable", "conc_B_status_ru": "концентрация недоступна", "conc_B_reasons": "вне бассейна профиля: black_sea", "conc_B_model": "conc-B-c6bce5631d2b"}}, {"type": "Feature", "geometry": {"type": "Polygon", "coordinates": [[[49.510351606288246, 53.447892792312516], [49.510354750696536, 53.44780293521005], [49.51020423086793, 53.44780105797624], [49.51020737557673, 53.44771120087841], [49.510511558672995, 53.44762509803267], [49.51050841461599, 53.44771495514422], [49.51065893416102, 53.44771683199274], [49.510655790404535, 53.447806689108916], [49.51050527054207, 53.44780481225428], [49.51050212645122, 53.44789466936287], [49.510351606288246, 53.447892792312516]]]}, "properties": {"zone_id": "kuibyshev-2025-05-12-002", "aoi": "kuibyshev", "date": "2025-05-12", "scene_id": "S2A_MSIL2A_20250512T075021_R135_T39UUV_20250512T091515", "scene_datetime_utc": "2025-05-12T07:50:21.024000+00:00", "detection_status": "detected", "detection_status_ru": "обнаружено", "lon": 49.51043, "lat": 53.44776, "n_pixels": 1, "zone_area_km2": 0.0005, "cover_m2": 4.7, "p_mean": 0.973, "p_max": 0.973, "cover_m2_km2": 9400.0, "h3": "881081d52dfffff", "valid_frac_scene": 0.998, "wind_ms": 2.3, "sea": "спокойное", "scene_reliable": true, "field_event_id": "S4:DOORS3:T23", "field_profile": "B", "field_date": "2024-06-10", "field_distance_km": 1368.3, "field_date_gap_days": 336, "field_conc_items_km2": 102.37, "conc_A_items_km2": null, "conc_A_lo80": null, "conc_A_hi80": null, "conc_A_lo95": null, "conc_A_hi95": null, "conc_A_status": "unavailable", "conc_A_status_ru": "концентрация недоступна", "conc_A_reasons": "вне бассейна профиля: nw_atlantic_subtropical", "conc_A_model": "conc-A-c6bce5631d2b", "conc_B_items_km2": null, "conc_B_lo80": null, "conc_B_hi80": null, "conc_B_lo95": null, "conc_B_hi95": null, "conc_B_status": "unavailable", "conc_B_status_ru": "концентрация недоступна", "conc_B_reasons": "вне бассейна профиля: black_sea", "conc_B_model": "conc-B-c6bce5631d2b"}}]}