{"type": "FeatureCollection", "features": [{"type": "Feature", "geometry": {"type": "Polygon", "coordinates": [[[37.79408238759396, 44.72401521218065], [37.794084257671784, 44.72392520851319], [37.79395801168694, 44.72392387522507], [37.793959881951665, 44.7238338715603], [37.794086127740854, 44.723835204844264], [37.79408799780116, 44.72374520117382], [37.794340489014516, 44.723747867314856], [37.794338619345524, 44.723837870993606], [37.794464865161004, 44.723839203859], [37.79446299567892, 44.72392920754041], [37.79433674966778, 44.723927874670856], [37.79433487998127, 44.72401787834663], [37.79408238759396, 44.72401521218065]]]}, "properties": {"zone_id": "novorossiysk-2026-04-26-001", "aoi": "novorossiysk", "date": "2026-04-26", "scene_id": "S2A_MSIL2A_20260426T082021_R121_T37TCK_20260426T122009", "scene_datetime_utc": "2026-04-26T08:20:21.024000+00:00", "detection_status": "detected", "detection_status_ru": "обнаружено", "lon": 37.79421, "lat": 44.72388, "n_pixels": 2, "zone_area_km2": 0.0008, "cover_m2": 20.0, "p_mean": 0.78, "p_max": 0.831, "cover_m2_km2": 25000.0, "h3": "882d728d6dfffff", "valid_frac_scene": 1.0, "wind_ms": 5.3, "sea": "спокойное", "scene_reliable": true, "field_event_id": "S4:DOORS3:T12", "field_profile": "B", "field_date": "2024-06-04", "field_distance_km": 261.5, "field_date_gap_days": 691, "field_conc_items_km2": 48.97, "conc_A_items_km2": null, "conc_A_lo80": null, "conc_A_hi80": null, "conc_A_lo95": null, "conc_A_hi95": null, "conc_A_status": "unavailable", "conc_A_status_ru": "концентрация недоступна", "conc_A_reasons": "вне бассейна профиля: nw_atlantic_subtropical", "conc_A_model": "conc-A-c6bce5631d2b", "conc_B_items_km2": 901.4, "conc_B_lo80": 192.7, "conc_B_hi80": 3027.3, "conc_B_lo95": 120.4, "conc_B_hi95": 5668.0, "conc_B_status": "research_estimate", "conc_B_status_ru": "исследовательская оценка", "conc_B_reasons": "ближайшее полевое измерение в 261 км (> 60 км); месяц 4 вне месяцев обучения [6]; log_dist_coast_km = 0.0 вне диапазона обучения [1.7; 5.0]", "conc_B_model": "conc-B-c6bce5631d2b"}}, {"type": "Feature", "geometry": {"type": "Polygon", "coordinates": [[[37.796482933048274, 44.72395051447826], [37.79648479939979, 44.72386051073035], [37.79635855344423, 44.72385918009731], [37.79636228651234, 44.72367917260533], [37.79661664377922, 44.723591829958785], [37.796614777649594, 44.7236818337153], [37.79674102323134, 44.723683164061], [37.79673729133718, 44.72386317157789], [37.796482933048274, 44.72395051447826]]]}, "properties": {"zone_id": "novorossiysk-2026-04-26-002", "aoi": "novorossiysk", "date": "2026-04-26", "scene_id": "S2A_MSIL2A_20260426T082021_R121_T37TCK_20260426T122009", "scene_datetime_utc": "2026-04-26T08:20:21.024000+00:00", "detection_status": "detected", "detection_status_ru": "обнаружено", "lon": 37.79655, "lat": 44.72377, "n_pixels": 2, "zone_area_km2": 0.0008, "cover_m2": 25.1, "p_mean": 0.871, "p_max": 0.922, "cover_m2_km2": 31375.0, "h3": "882d728d65fffff", "valid_frac_scene": 1.0, "wind_ms": 5.3, "sea": "спокойное", "scene_reliable": true, "field_event_id": "S4:DOORS3:T12", "field_profile": "B", "field_date": "2024-06-04", "field_distance_km": 261.5, "field_date_gap_days": 691, "field_conc_items_km2": 48.97, "conc_A_items_km2": null, "conc_A_lo80": null, "conc_A_hi80": null, "conc_A_lo95": null, "conc_A_hi95": null, "conc_A_status": "unavailable", "conc_A_status_ru": "концентрация недоступна", "conc_A_reasons": "вне бассейна профиля: nw_atlantic_subtropical", "conc_A_model": "conc-A-c6bce5631d2b", "conc_B_items_km2": 901.4, "conc_B_lo80": 192.7, "conc_B_hi80": 3027.3, "conc_B_lo95": 120.4, "conc_B_hi95": 5668.0, "conc_B_status": "research_estimate", "conc_B_status_ru": "исследовательская оценка", "conc_B_reasons": "ближайшее полевое измерение в 262 км (> 60 км); месяц 4 вне месяцев обучения [6]; log_dist_coast_km = 0.0 вне диапазона обучения [1.7; 5.0]", "conc_B_model": "conc-B-c6bce5631d2b"}}, {"type": "Feature", "geometry": {"type": "Polygon", "coordinates": [[[37.799960721178685, 44.7145346491111], [37.79996258152727, 44.714444645099405], [37.79983635588396, 44.714443318528694], [37.79983821641939, 44.714353314519656], [37.799964441867125, 44.714354641086224], [37.79996630219827, 44.71426463707154], [37.80009252745916, 44.7142659634945], [37.80009438758602, 44.71417595947421], [37.8003449780071, 44.71426861592199], [37.800341258509484, 44.714448623974675], [37.80021503284002, 44.71444729782241], [37.80021317288257, 44.714537301842384], [37.799960721178685, 44.7145346491111]]]}, "properties": {"zone_id": "novorossiysk-2026-04-26-003", "aoi": "novorossiysk", "date": "2026-04-26", "scene_id": "S2A_MSIL2A_20260426T082021_R121_T37TCK_20260426T122009", "scene_datetime_utc": "2026-04-26T08:20:21.024000+00:00", "detection_status": "detected", "detection_status_ru": "обнаружено", "lon": 37.80011, "lat": 44.71437, "n_pixels": 3, "zone_area_km2": 0.001, "cover_m2": 12.2, "p_mean": 0.884, "p_max": 0.996, "cover_m2_km2": 12200.0, "h3": "882d721259fffff", "valid_frac_scene": 1.0, "wind_ms": 5.3, "sea": "спокойное", "scene_reliable": true, "field_event_id": "S4:DOORS3:T12", "field_profile": "B", "field_date": "2024-06-04", "field_distance_km": 260.6, "field_date_gap_days": 691, "field_conc_items_km2": 48.97, "conc_A_items_km2": null, "conc_A_lo80": null, "conc_A_hi80": null, "conc_A_lo95": null, "conc_A_hi95": null, "conc_A_status": "unavailable", "conc_A_status_ru": "концентрация недоступна", "conc_A_reasons": "вне бассейна профиля: nw_atlantic_subtropical", "conc_A_model": "conc-A-c6bce5631d2b", "conc_B_items_km2": 669.1, "conc_B_lo80": 142.9, "conc_B_hi80": 2247.7, "conc_B_lo95": 89.2, "conc_B_hi95": 4208.5, "conc_B_status": "research_estimate", "conc_B_status_ru": "исследовательская оценка", "conc_B_reasons": "ближайшее полевое измерение в 261 км (> 60 км); месяц 4 вне месяцев обучения [6]; log_dist_coast_km = 0.8 вне диапазона обучения [1.7; 5.0]", "conc_B_model": "conc-B-c6bce5631d2b"}}, {"type": "Feature", "geometry": {"type": "Polygon", "coordinates": [[[37.79862438412601, 44.711999937503045], [37.798626246381424, 44.7119099334953], [37.79850002630954, 44.71190860550639], [37.79850561361003, 44.7116385934867], [37.79875991461426, 44.711551245282365], [37.79875805258929, 44.711641249300186], [37.79888427209201, 44.711642576997725], [37.79887868655136, 44.71191258905473], [37.79862438412601, 44.711999937503045]]]}, "properties": {"zone_id": "novorossiysk-2026-04-26-004", "aoi": "novorossiysk", "date": "2026-04-26", "scene_id": "S2A_MSIL2A_20260426T082021_R121_T37TCK_20260426T122009", "scene_datetime_utc": "2026-04-26T08:20:21.024000+00:00", "detection_status": "detected", "detection_status_ru": "обнаружено", "lon": 37.79869, "lat": 44.71178, "n_pixels": 3, "zone_area_km2": 0.0011, "cover_m2": 15.3, "p_mean": 0.927, "p_max": 0.984, "cover_m2_km2": 13909.1, "h3": "882d721259fffff", "valid_frac_scene": 1.0, "wind_ms": 5.3, "sea": "спокойное", "scene_reliable": true, "field_event_id": "S4:DOORS3:T12", "field_profile": "B", "field_date": "2024-06-04", "field_distance_km": 260.3, "field_date_gap_days": 691, "field_conc_items_km2": 48.97, "conc_A_items_km2": null, "conc_A_lo80": null, "conc_A_hi80": null, "conc_A_lo95": null, "conc_A_hi95": null, "conc_A_status": "unavailable", "conc_A_status_ru": "концентрация недоступна", "conc_A_reasons": "вне бассейна профиля: nw_atlantic_subtropical", "conc_A_model": "conc-A-c6bce5631d2b", "conc_B_items_km2": 669.1, "conc_B_lo80": 142.9, "conc_B_hi80": 2247.7, "conc_B_lo95": 89.2, "conc_B_hi95": 4208.5, "conc_B_status": "research_estimate", "conc_B_status_ru": "исследовательская оценка", "conc_B_reasons": "ближайшее полевое измерение в 260 км (> 60 км); месяц 4 вне месяцев обучения [6]; log_dist_coast_km = 0.8 вне диапазона обучения [1.7; 5.0]", "conc_B_model": "conc-B-c6bce5631d2b"}}, {"type": "Feature", "geometry": {"type": "Polygon", "coordinates": [[[37.829592917832, 44.70385932210634], [37.82959473157511, 44.703769316961015], [37.82946852777865, 44.70376802338167], [37.829472155630306, 44.70358801309466], [37.829726375972015, 44.70350059494396], [37.82972456244986, 44.703590600097776], [37.829850765872386, 44.70359189339018], [37.82984713919352, 44.70377190370141], [37.829592917832, 44.70385932210634]]]}, "properties": {"zone_id": "novorossiysk-2026-04-26-005", "aoi": "novorossiysk", "date": "2026-04-26", "scene_id": "S2A_MSIL2A_20260426T082021_R121_T37TCK_20260426T122009", "scene_datetime_utc": "2026-04-26T08:20:21.024000+00:00", "detection_status": "detected", "detection_status_ru": "обнаружено", "lon": 37.82966, "lat": 44.70368, "n_pixels": 2, "zone_area_km2": 0.0008, "cover_m2": 9.8, "p_mean": 0.771, "p_max": 0.8, "cover_m2_km2": 12250.0, "h3": "882d721219fffff", "valid_frac_scene": 1.0, "wind_ms": 5.3, "sea": "спокойное", "scene_reliable": true, "field_event_id": "S4:DOORS3:T12", "field_profile": "B", "field_date": "2024-06-04", "field_distance_km": 260.0, "field_date_gap_days": 691, "field_conc_items_km2": 48.97, "conc_A_items_km2": null, "conc_A_lo80": null, "conc_A_hi80": null, "conc_A_lo95": null, "conc_A_hi95": null, "conc_A_status": "unavailable", "conc_A_status_ru": "концентрация недоступна", "conc_A_reasons": "вне бассейна профиля: nw_atlantic_subtropical", "conc_A_model": "conc-A-c6bce5631d2b", "conc_B_items_km2": 621.6, "conc_B_lo80": 132.7, "conc_B_hi80": 2088.3, "conc_B_lo95": 82.8, "conc_B_hi95": 3910.2, "conc_B_status": "research_estimate", "conc_B_status_ru": "исследовательская оценка", "conc_B_reasons": "ближайшее полевое измерение в 260 км (> 60 км); месяц 4 вне месяцев обучения [6]; log_dist_coast_km = 1.0 вне диапазона обучения [1.7; 5.0]", "conc_B_model": "conc-B-c6bce5631d2b"}}, {"type": "Feature", "geometry": {"type": "Polygon", "coordinates": [[[37.83197141181034, 44.673455575006706], [37.83197321995122, 44.673365569303904], [37.83159480627603, 44.67336169808936], [37.831596614993906, 44.673271692397165], [37.83147047731428, 44.67327040171777], [37.831474095114906, 44.673090390336974], [37.83172817819933, 44.67300296583969], [37.831726369702025, 44.67309297154035], [37.83185250700829, 44.67309426193312], [37.83185069869768, 44.673184267636344], [37.83210478164624, 44.673096842300815], [37.83210297372593, 44.673186848012094], [37.83222911125276, 44.67318813799104], [37.83222730351913, 44.67327814370486], [37.83235344124959, 44.67327943354856], [37.83235163370265, 44.67336943926492], [37.83222549577704, 44.67336814941719], [37.83222368802648, 44.67345815512805], [37.83197141181034, 44.673455575006706]]]}, "properties": {"zone_id": "novorossiysk-2026-04-26-006", "aoi": "novorossiysk", "date": "2026-04-26", "scene_id": "S2A_MSIL2A_20260426T082021_R121_T37TCK_20260426T122009", "scene_datetime_utc": "2026-04-26T08:20:21.024000+00:00", "detection_status": "detected", "detection_status_ru": "обнаружено", "lon": 37.83189, "lat": 44.67324, "n_pixels": 6, "zone_area_km2": 0.0019, "cover_m2": 23.1, "p_mean": 0.881, "p_max": 0.988, "cover_m2_km2": 12157.9, "h3": "882d72122bfffff", "valid_frac_scene": 1.0, "wind_ms": 5.3, "sea": "спокойное", "scene_reliable": true, "field_event_id": "S4:DOORS3:T12", "field_profile": "B", "field_date": "2024-06-04", "field_distance_km": 256.8, "field_date_gap_days": 691, "field_conc_items_km2": 48.97, "conc_A_items_km2": null, "conc_A_lo80": null, "conc_A_hi80": null, "conc_A_lo95": null, "conc_A_hi95": null, "conc_A_status": "unavailable", "conc_A_status_ru": "концентрация недоступна", "conc_A_reasons": "вне бассейна профиля: nw_atlantic_subtropical", "conc_A_model": "conc-A-c6bce5631d2b", "conc_B_items_km2": 540.9, "conc_B_lo80": 115.4, "conc_B_hi80": 1817.7, "conc_B_lo95": 71.9, "conc_B_hi95": 3403.6, "conc_B_status": "research_estimate", "conc_B_status_ru": "исследовательская оценка", "conc_B_reasons": "ближайшее полевое измерение в 257 км (> 60 км); месяц 4 вне месяцев обучения [6]", "conc_B_model": "conc-B-c6bce5631d2b"}}, {"type": "Feature", "geometry": {"type": "Polygon", "coordinates": [[[37.738532693577255, 44.64212337762443], [37.738534644210354, 44.64203337454363], [37.73840857858688, 44.64203198184565], [37.738410529405655, 44.6419419787677], [37.73853659483431, 44.64194337146135], [37.73853854544914, 44.64185336837757], [37.73866461069212, 44.641854760927764], [37.738666561102995, 44.641764757838146], [37.73891674120548, 44.641857545610776], [37.73891284113556, 44.64203755180291], [37.73878677548469, 44.64203615952226], [37.73878482524122, 44.642126162611746], [37.738532693577255, 44.64212337762443]]]}, "properties": {"zone_id": "novorossiysk-2026-04-26-007", "aoi": "novorossiysk", "date": "2026-04-26", "scene_id": "S2A_MSIL2A_20260426T082021_R121_T37TCK_20260426T122009", "scene_datetime_utc": "2026-04-26T08:20:21.024000+00:00", "detection_status": "detected", "detection_status_ru": "обнаружено", "lon": 37.73868, "lat": 44.64196, "n_pixels": 3, "zone_area_km2": 0.001, "cover_m2": 11.4, "p_mean": 0.987, "p_max": 0.996, "cover_m2_km2": 11400.0, "h3": "882d7289e7fffff", "valid_frac_scene": 1.0, "wind_ms": 5.3, "sea": "спокойное", "scene_reliable": true, "field_event_id": "S4:DOORS3:T12", "field_profile": "B", "field_date": "2024-06-04", "field_distance_km": 251.6, "field_date_gap_days": 691, "field_conc_items_km2": 48.97, "conc_A_items_km2": null, "conc_A_lo80": null, "conc_A_hi80": null, "conc_A_lo95": null, "conc_A_hi95": null, "conc_A_status": "unavailable", "conc_A_status_ru": "концентрация недоступна", "conc_A_reasons": "вне бассейна профиля: nw_atlantic_subtropical", "conc_A_model": "conc-A-c6bce5631d2b", "conc_B_items_km2": 901.4, "conc_B_lo80": 192.7, "conc_B_hi80": 3027.3, "conc_B_lo95": 120.4, "conc_B_hi95": 5668.0, "conc_B_status": "research_estimate", "conc_B_status_ru": "исследовательская оценка", "conc_B_reasons": "ближайшее полевое измерение в 252 км (> 60 км); месяц 4 вне месяцев обучения [6]; log_dist_coast_km = 0.0 вне диапазона обучения [1.7; 5.0]", "conc_B_model": "conc-B-c6bce5631d2b"}}, {"type": "Feature", "geometry": {"type": "Polygon", "coordinates": [[[37.72795696556054, 44.641375886635736], [37.727958932493195, 44.64128588391112], [37.72783286900389, 44.64128447955804], [37.72783483612214, 44.641194476836304], [37.727960899416644, 44.64119588118499], [37.72796286633088, 44.641105878457374], [37.728341055685256, 44.64111009065561], [37.728339089355416, 44.641200093396364], [37.72846515268676, 44.641201497188604], [37.728463186542506, 44.641291499932244], [37.728337123016374, 44.64129009613563], [37.728335156668116, 44.641380098873405], [37.72795696556054, 44.641375886635736]]]}, "properties": {"zone_id": "novorossiysk-2026-04-26-008", "aoi": "novorossiysk", "date": "2026-04-26", "scene_id": "S2A_MSIL2A_20260426T082021_R121_T37TCK_20260426T122009", "scene_datetime_utc": "2026-04-26T08:20:21.024000+00:00", "detection_status": "detected", "detection_status_ru": "обнаружено", "lon": 37.72815, "lat": 44.64124, "n_pixels": 3, "zone_area_km2": 0.0011, "cover_m2": 9.4, "p_mean": 0.978, "p_max": 0.992, "cover_m2_km2": 8545.5, "h3": "882d7289e1fffff", "valid_frac_scene": 1.0, "wind_ms": 5.3, "sea": "спокойное", "scene_reliable": true, "field_event_id": "S4:DOORS3:T12", "field_profile": "B", "field_date": "2024-06-04", "field_distance_km": 251.3, "field_date_gap_days": 691, "field_conc_items_km2": 48.97, "conc_A_items_km2": null, "conc_A_lo80": null, "conc_A_hi80": null, "conc_A_lo95": null, "conc_A_hi95": null, "conc_A_status": "unavailable", "conc_A_status_ru": "концентрация недоступна", "conc_A_reasons": "вне бассейна профиля: nw_atlantic_subtropical", "conc_A_model": "conc-A-c6bce5631d2b", "conc_B_items_km2": 901.4, "conc_B_lo80": 192.7, "conc_B_hi80": 3027.3, "conc_B_lo95": 120.4, "conc_B_hi95": 5668.0, "conc_B_status": "research_estimate", "conc_B_status_ru": "исследовательская оценка", "conc_B_reasons": "ближайшее полевое измерение в 251 км (> 60 км); месяц 4 вне месяцев обучения [6]; log_dist_coast_km = 0.0 вне диапазона обучения [1.7; 5.0]", "conc_B_model": "conc-B-c6bce5631d2b"}}, {"type": "Feature", "geometry": {"type": "Polygon", "coordinates": [[[37.860528687205765, 44.593892093221044], [37.86053044626068, 44.59380208535425], [37.860404479322746, 44.59380082838034], [37.86040799779661, 44.593620812650165], [37.86053396434583, 44.593622069616224], [37.86053572337605, 44.593532061744995], [37.86078765611049, 44.59353457525258], [37.86078589746898, 44.59362458313166], [37.8609118640429, 44.59362583968103], [37.86091010558751, 44.59371584756254], [37.860784138819234, 44.59371459100925], [37.86078238016126, 44.59380459888538], [37.860528687205765, 44.593892093221044]]]}, "properties": {"zone_id": "novorossiysk-2026-04-26-009", "aoi": "novorossiysk", "date": "2026-04-26", "scene_id": "S2A_MSIL2A_20260426T082021_R121_T37TCK_20260426T122009", "scene_datetime_utc": "2026-04-26T08:20:21.024000+00:00", "detection_status": "detected", "detection_status_ru": "обнаружено", "lon": 37.86064, "lat": 44.5937, "n_pixels": 3, "zone_area_km2": 0.001, "cover_m2": 15.3, "p_mean": 0.967, "p_max": 0.996, "cover_m2_km2": 15300.0, "h3": "882d721145fffff", "valid_frac_scene": 1.0, "wind_ms": 5.3, "sea": "спокойное", "scene_reliable": true, "field_event_id": "S4:DOORS3:T13", "field_profile": "B", "field_date": "2024-06-04", "field_distance_km": 248.7, "field_date_gap_days": 691, "field_conc_items_km2": 263.57, "conc_A_items_km2": null, "conc_A_lo80": null, "conc_A_hi80": null, "conc_A_lo95": null, "conc_A_hi95": null, "conc_A_status": "unavailable", "conc_A_status_ru": "концентрация недоступна", "conc_A_reasons": "вне бассейна профиля: nw_atlantic_subtropical", "conc_A_model": "conc-A-c6bce5631d2b", "conc_B_items_km2": 496.8, "conc_B_lo80": 105.9, "conc_B_hi80": 1669.7, "conc_B_lo95": 66.0, "conc_B_hi95": 3126.5, "conc_B_status": "research_estimate", "conc_B_status_ru": "исследовательская оценка", "conc_B_reasons": "ближайшее полевое измерение в 249 км (> 60 км); месяц 4 вне месяцев обучения [6]", "conc_B_model": "conc-B-c6bce5631d2b"}}]}