{"type": "FeatureCollection", "features": [{"type": "Feature", "geometry": {"type": "Polygon", "coordinates": [[[36.54958611353266, 45.01789975813742], [36.54958995174901, 45.017809821600856], [36.54946314975825, 45.017807099214814], [36.5494708265331, 45.017627226153614], [36.5495976281276, 45.01762994852269], [36.54960146628984, 45.017540011981076], [36.54998187058716, 45.01754817821888], [36.549978033019315, 45.017638114785946], [36.55010483468595, 45.01764083659239], [36.5501009972982, 45.01773077316628], [36.54984355578464, 45.01781526595098], [36.54983971796456, 45.01790520250452], [36.54958611353266, 45.01789975813742]]]}, "properties": {"zone_id": "kerch-2025-01-02-001", "aoi": "kerch", "date": "2025-01-02", "scene_id": "S2A_MSIL2A_20250102T083341_R021_T37TCK_20250102T114251", "scene_datetime_utc": "2025-01-02T08:33:41.024000+00:00", "detection_status": "detected", "detection_status_ru": "обнаружено", "lon": 36.54976, "lat": 45.01771, "n_pixels": 5, "zone_area_km2": 0.0014, "cover_m2": 28.6, "p_mean": 0.864, "p_max": 0.98, "cover_m2_km2": 20428.6, "h3": "882d761413fffff", "valid_frac_scene": 0.48, "wind_ms": 11.3, "sea": "шторм", "scene_reliable": false, "field_event_id": "S4:DOORS3:T11", "field_profile": "B", "field_date": "2024-06-04", "field_distance_km": 280.9, "field_date_gap_days": 212, "field_conc_items_km2": 62.52, "conc_A_items_km2": null, "conc_A_lo80": null, "conc_A_hi80": null, "conc_A_lo95": null, "conc_A_hi95": null, "conc_A_status": "unavailable", "conc_A_status_ru": "концентрация недоступна", "conc_A_reasons": "вне бассейна профиля: nw_atlantic_subtropical", "conc_A_model": "conc-A-c6bce5631d2b", "conc_B_items_km2": 365.1, "conc_B_lo80": 77.6, "conc_B_hi80": 1227.7, "conc_B_lo95": 48.3, "conc_B_hi95": 2299.1, "conc_B_status": "research_estimate", "conc_B_status_ru": "исследовательская оценка", "conc_B_reasons": "ближайшее полевое измерение в 281 км (> 60 км); месяц 1 вне месяцев обучения [6]", "conc_B_model": "conc-B-c6bce5631d2b"}}]}