{"type": "FeatureCollection", "features": [{"type": "Feature", "geometry": {"type": "Polygon", "coordinates": [[[39.760694337934346, 43.53734589277679], [39.76069320604891, 43.53725585831122], [39.76056944632928, 43.53725668168234], [39.76056831463319, 43.53716664721277], [39.760692074168716, 43.53716582384422], [39.76069094229376, 43.53707578937577], [39.76093846098088, 43.53707414224199], [39.760939593224045, 43.537164176705296], [39.761063352743854, 43.53716335293491], [39.76106448517636, 43.537253387394195], [39.76094072547245, 43.53725421116715], [39.760941857726095, 43.53734424562755], [39.760694337934346, 43.53734589277679]]]}, "properties": {"zone_id": "sochi-2025-10-03-001", "aoi": "sochi", "date": "2025-10-03", "scene_id": "S2C_MSIL2A_20251003T080811_R078_T37TEJ_20251003T115817", "scene_datetime_utc": "2025-10-03T08:08:11.025000+00:00", "detection_status": "detected", "detection_status_ru": "обнаружено", "lon": 39.76082, "lat": 43.53721, "n_pixels": 2, "zone_area_km2": 0.0008, "cover_m2": 11.4, "p_mean": 0.957, "p_max": 0.965, "cover_m2_km2": 14250.0, "h3": "882d568e23fffff", "valid_frac_scene": 1.0, "wind_ms": 2.9, "sea": "спокойное", "scene_reliable": true, "field_event_id": "S4:DOORS3:T17", "field_profile": "B", "field_date": "2024-06-04", "field_distance_km": 183.1, "field_date_gap_days": 486, "field_conc_items_km2": 89.61, "conc_A_items_km2": null, "conc_A_lo80": null, "conc_A_hi80": null, "conc_A_lo95": null, "conc_A_hi95": null, "conc_A_status": "unavailable", "conc_A_status_ru": "концентрация недоступна", "conc_A_reasons": "вне бассейна профиля: nw_atlantic_subtropical", "conc_A_model": "conc-A-c6bce5631d2b", "conc_B_items_km2": 591.0, "conc_B_lo80": 126.1, "conc_B_hi80": 1985.6, "conc_B_lo95": 78.6, "conc_B_hi95": 3717.9, "conc_B_status": "research_estimate", "conc_B_status_ru": "исследовательская оценка", "conc_B_reasons": "ближайшее полевое измерение в 183 км (> 60 км); месяц 10 вне месяцев обучения [6]; log_dist_coast_km = 1.2 вне диапазона обучения [1.7; 5.0]", "conc_B_model": "conc-B-c6bce5631d2b"}}, {"type": "Feature", "geometry": {"type": "Polygon", "coordinates": [[[39.86022607171683, 43.50395502722106], [39.860224793232746, 43.503864994444314], [39.86010110479041, 43.50386592498345], [39.86009982649601, 43.503775892202334], [39.860223514754566, 43.5037749616661], [39.86022223628231, 43.50368492888642], [39.86047089125394, 43.5037731001923], [39.860472170099655, 43.50386313296468], [39.860348481669156, 43.503864063771395], [39.86034976033702, 43.50395409654524], [39.86022607171683, 43.50395502722106]]]}, "properties": {"zone_id": "sochi-2025-10-03-002", "aoi": "sochi", "date": "2025-10-03", "scene_id": "S2C_MSIL2A_20251003T080811_R078_T37TEJ_20251003T115817", "scene_datetime_utc": "2025-10-03T08:08:11.025000+00:00", "detection_status": "detected", "detection_status_ru": "обнаружено", "lon": 39.86029, "lat": 43.50382, "n_pixels": 1, "zone_area_km2": 0.0005, "cover_m2": 3.5, "p_mean": 0.663, "p_max": 0.663, "cover_m2_km2": 7000.0, "h3": "882d568dc3fffff", "valid_frac_scene": 1.0, "wind_ms": 2.9, "sea": "спокойное", "scene_reliable": true, "field_event_id": "S4:DOORS3:T17", "field_profile": "B", "field_date": "2024-06-04", "field_distance_km": 185.2, "field_date_gap_days": 486, "field_conc_items_km2": 89.61, "conc_A_items_km2": null, "conc_A_lo80": null, "conc_A_hi80": null, "conc_A_lo95": null, "conc_A_hi95": null, "conc_A_status": "unavailable", "conc_A_status_ru": "концентрация недоступна", "conc_A_reasons": "вне бассейна профиля: nw_atlantic_subtropical", "conc_A_model": "conc-A-c6bce5631d2b", "conc_B_items_km2": 666.3, "conc_B_lo80": 142.3, "conc_B_hi80": 2238.4, "conc_B_lo95": 88.8, "conc_B_hi95": 4191.2, "conc_B_status": "research_estimate", "conc_B_status_ru": "исследовательская оценка", "conc_B_reasons": "ближайшее полевое измерение в 185 км (> 60 км); месяц 10 вне месяцев обучения [6]; log_dist_coast_km = 0.9 вне диапазона обучения [1.7; 5.0]", "conc_B_model": "conc-B-c6bce5631d2b"}}, {"type": "Feature", "geometry": {"type": "Polygon", "coordinates": [[[39.85136065838761, 43.49807858331029], [39.85135939333793, 43.49798855023217], [39.85123571660499, 43.4979894710827], [39.85123445174489, 43.497899438000246], [39.851358128294116, 43.49789851715259], [39.85135686325615, 43.49780848407156], [39.851605481374996, 43.497896675056026], [39.85160674678625, 43.497986708129844], [39.85148307006502, 43.49798762924788], [39.851484335298416, 43.498077662323126], [39.85136065838761, 43.49807858331029]]]}, "properties": {"zone_id": "sochi-2025-10-03-003", "aoi": "sochi", "date": "2025-10-03", "scene_id": "S2C_MSIL2A_20251003T080811_R078_T37TEJ_20251003T115817", "scene_datetime_utc": "2025-10-03T08:08:11.025000+00:00", "detection_status": "detected", "detection_status_ru": "обнаружено", "lon": 39.85142, "lat": 43.49794, "n_pixels": 1, "zone_area_km2": 0.0005, "cover_m2": 3.9, "p_mean": 0.882, "p_max": 0.882, "cover_m2_km2": 7800.0, "h3": "882d568dc1fffff", "valid_frac_scene": 1.0, "wind_ms": 2.9, "sea": "спокойное", "scene_reliable": true, "field_event_id": "S4:DOORS3:T17", "field_profile": "B", "field_date": "2024-06-04", "field_distance_km": 184.2, "field_date_gap_days": 486, "field_conc_items_km2": 89.61, "conc_A_items_km2": null, "conc_A_lo80": null, "conc_A_hi80": null, "conc_A_lo95": null, "conc_A_hi95": null, "conc_A_status": "unavailable", "conc_A_status_ru": "концентрация недоступна", "conc_A_reasons": "вне бассейна профиля: nw_atlantic_subtropical", "conc_A_model": "conc-A-c6bce5631d2b", "conc_B_items_km2": 591.0, "conc_B_lo80": 126.1, "conc_B_hi80": 1985.6, "conc_B_lo95": 78.6, "conc_B_hi95": 3717.9, "conc_B_status": "research_estimate", "conc_B_status_ru": "исследовательская оценка", "conc_B_reasons": "ближайшее полевое измерение в 184 км (> 60 км); месяц 10 вне месяцев обучения [6]; log_dist_coast_km = 1.2 вне диапазона обучения [1.7; 5.0]", "conc_B_model": "conc-B-c6bce5631d2b"}}, {"type": "Feature", "geometry": {"type": "Polygon", "coordinates": [[[39.902865945105226, 43.43501359132163], [39.902864606478545, 43.434923558488144], [39.902741059956924, 43.43492453392502], [39.90273972151955, 43.434834501087025], [39.90286326785805, 43.43483352565319], [39.902861929243755, 43.43474349281679], [39.90310902153596, 43.43474154155484], [39.903110360516486, 43.43483157438515], [39.90323390683641, 43.434830598550946], [39.90323524600625, 43.43492063137674], [39.90311169950321, 43.434921607213994], [39.90311303849611, 43.435011640041374], [39.902865945105226, 43.43501359132163]]]}, "properties": {"zone_id": "sochi-2025-10-03-004", "aoi": "sochi", "date": "2025-10-03", "scene_id": "S2C_MSIL2A_20251003T080811_R078_T37TEJ_20251003T115817", "scene_datetime_utc": "2025-10-03T08:08:11.025000+00:00", "detection_status": "detected", "detection_status_ru": "обнаружено", "lon": 39.90299, "lat": 43.43488, "n_pixels": 2, "zone_area_km2": 0.0008, "cover_m2": 7.1, "p_mean": 0.794, "p_max": 0.824, "cover_m2_km2": 8875.0, "h3": "882d5612b9fffff", "valid_frac_scene": 1.0, "wind_ms": 2.9, "sea": "спокойное", "scene_reliable": true, "field_event_id": "S4:DOORS3:T23", "field_profile": "B", "field_date": "2024-06-10", "field_distance_km": 181.0, "field_date_gap_days": 480, "field_conc_items_km2": 102.37, "conc_A_items_km2": null, "conc_A_lo80": null, "conc_A_hi80": null, "conc_A_lo95": null, "conc_A_hi95": null, "conc_A_status": "unavailable", "conc_A_status_ru": "концентрация недоступна", "conc_A_reasons": "вне бассейна профиля: nw_atlantic_subtropical", "conc_A_model": "conc-A-c6bce5631d2b", "conc_B_items_km2": 901.4, "conc_B_lo80": 192.7, "conc_B_hi80": 3027.3, "conc_B_lo95": 120.4, "conc_B_hi95": 5668.0, "conc_B_status": "research_estimate", "conc_B_status_ru": "исследовательская оценка", "conc_B_reasons": "ближайшее полевое измерение в 181 км (> 60 км); месяц 10 вне месяцев обучения [6]; log_dist_coast_km = 0.0 вне диапазона обучения [1.7; 5.0]", "conc_B_model": "conc-B-c6bce5631d2b"}}, {"type": "Feature", "geometry": {"type": "Polygon", "coordinates": [[[39.929944392045776, 43.387793750549136], [39.92994301554534, 43.38770371765131], [39.92981956590442, 43.387704721476155], [39.92981818959301, 43.38761468857374], [39.929941639051265, 43.38761368475203], [39.92994026256355, 43.38752365185129], [39.93018853794869, 43.3876116767089], [39.930189914808096, 43.387701709601906], [39.930066465179905, 43.38770271369322], [39.93006784186301, 43.38779274658792], [39.929944392045776, 43.387793750549136]]]}, "properties": {"zone_id": "sochi-2025-10-03-005", "aoi": "sochi", "date": "2025-10-03", "scene_id": "S2C_MSIL2A_20251003T080811_R078_T37TEJ_20251003T115817", "scene_datetime_utc": "2025-10-03T08:08:11.025000+00:00", "detection_status": "detected", "detection_status_ru": "обнаружено", "lon": 39.93, "lat": 43.38766, "n_pixels": 1, "zone_area_km2": 0.0005, "cover_m2": 4.3, "p_mean": 0.988, "p_max": 0.988, "cover_m2_km2": 8600.0, "h3": "882d5610e1fffff", "valid_frac_scene": 1.0, "wind_ms": 2.9, "sea": "спокойное", "scene_reliable": true, "field_event_id": "S4:DOORS3:T23", "field_profile": "B", "field_date": "2024-06-10", "field_distance_km": 175.9, "field_date_gap_days": 480, "field_conc_items_km2": 102.37, "conc_A_items_km2": null, "conc_A_lo80": null, "conc_A_hi80": null, "conc_A_lo95": null, "conc_A_hi95": null, "conc_A_status": "unavailable", "conc_A_status_ru": "концентрация недоступна", "conc_A_reasons": "вне бассейна профиля: nw_atlantic_subtropical", "conc_A_model": "conc-A-c6bce5631d2b", "conc_B_items_km2": 621.6, "conc_B_lo80": 132.7, "conc_B_hi80": 2088.3, "conc_B_lo95": 82.8, "conc_B_hi95": 3910.2, "conc_B_status": "research_estimate", "conc_B_status_ru": "исследовательская оценка", "conc_B_reasons": "ближайшее полевое измерение в 176 км (> 60 км); месяц 10 вне месяцев обучения [6]; log_dist_coast_km = 1.0 вне диапазона обучения [1.7; 5.0]", "conc_B_model": "conc-B-c6bce5631d2b"}}, {"type": "Feature", "geometry": {"type": "Polygon", "coordinates": [[[39.9360339085697, 43.37432748472737], [39.936032523707446, 43.37423745177286], [39.93590910159961, 43.37423846192202], [39.9359077169263, 43.374148428962904], [39.93603113885159, 43.374147418816904], [39.93602975400214, 43.3740573858595], [39.93627659746845, 43.3740553651743], [39.93627798268297, 43.37414539812539], [39.936401404589056, 43.37414438757988], [39.93640278999252, 43.37423442052636], [39.9362793679039, 43.37423543107504], [39.93628075313123, 43.374325464023215], [39.9360339085697, 43.37432748472737]]]}, "properties": {"zone_id": "sochi-2025-10-03-006", "aoi": "sochi", "date": "2025-10-03", "scene_id": "S2C_MSIL2A_20251003T080811_R078_T37TEJ_20251003T115817", "scene_datetime_utc": "2025-10-03T08:08:11.025000+00:00", "detection_status": "detected", "detection_status_ru": "обнаружено", "lon": 39.93616, "lat": 43.37419, "n_pixels": 2, "zone_area_km2": 0.0008, "cover_m2": 20.8, "p_mean": 0.882, "p_max": 0.953, "cover_m2_km2": 26000.0, "h3": "882d5611d9fffff", "valid_frac_scene": 1.0, "wind_ms": 2.9, "sea": "спокойное", "scene_reliable": true, "field_event_id": "S4:DOORS3:T23", "field_profile": "B", "field_date": "2024-06-10", "field_distance_km": 174.6, "field_date_gap_days": 480, "field_conc_items_km2": 102.37, "conc_A_items_km2": null, "conc_A_lo80": null, "conc_A_hi80": null, "conc_A_lo95": null, "conc_A_hi95": null, "conc_A_status": "unavailable", "conc_A_status_ru": "концентрация недоступна", "conc_A_reasons": "вне бассейна профиля: nw_atlantic_subtropical", "conc_A_model": "conc-A-c6bce5631d2b", "conc_B_items_km2": 538.9, "conc_B_lo80": 114.9, "conc_B_hi80": 1811.0, "conc_B_lo95": 71.6, "conc_B_hi95": 3391.0, "conc_B_status": "research_estimate", "conc_B_status_ru": "исследовательская оценка", "conc_B_reasons": "ближайшее полевое измерение в 175 км (> 60 км); месяц 10 вне месяцев обучения [6]", "conc_B_model": "conc-B-c6bce5631d2b"}}]}