{"type": "FeatureCollection", "features": [{"type": "Feature", "geometry": {"type": "Polygon", "coordinates": [[[37.67434069638943, 44.65913102997133], [37.67434274748212, 44.65904102944049], [37.674216648207235, 44.65903956545293], [37.67421869948529, 44.658949564925145], [37.67434479856521, 44.65895102890814], [37.67434684963869, 44.65886102837429], [37.67447294853325, 44.65886249221353], [37.674474999402165, 44.65877249167363], [37.67472719683018, 44.65877541892539], [37.6747251463512, 44.658865419474424], [37.674851245274574, 44.65886688289609], [37.67484714467772, 44.65904688399882], [37.674721045364414, 44.65904542056803], [37.67471899485662, 44.65913542111256], [37.67434069638943, 44.65913102997133]]]}, "properties": {"zone_id": "novorossiysk-2026-06-23-001", "aoi": "novorossiysk", "date": "2026-06-23", "scene_id": "S2C_MSIL2A_20260623T081601_R121_T37TCK_20260623T121313", "scene_datetime_utc": "2026-06-23T08:16:01.025000+00:00", "detection_status": "detected", "detection_status_ru": "обнаружено", "lon": 37.67456, "lat": 44.65896, "n_pixels": 5, "zone_area_km2": 0.0014, "cover_m2": 31.0, "p_mean": 0.868, "p_max": 0.996, "cover_m2_km2": 22142.9, "h3": "882d728953fffff", "valid_frac_scene": 1.0, "wind_ms": 3.4, "sea": "спокойное", "scene_reliable": true, "field_event_id": "S4:DOORS3:T12", "field_profile": "B", "field_date": "2024-06-04", "field_distance_km": 252.3, "field_date_gap_days": 749, "field_conc_items_km2": 48.97, "conc_A_items_km2": null, "conc_A_lo80": null, "conc_A_hi80": null, "conc_A_lo95": null, "conc_A_hi95": null, "conc_A_status": "unavailable", "conc_A_status_ru": "концентрация недоступна", "conc_A_reasons": "вне бассейна профиля: nw_atlantic_subtropical", "conc_A_model": "conc-A-c6bce5631d2b", "conc_B_items_km2": 901.4, "conc_B_lo80": 192.7, "conc_B_hi80": 3027.3, "conc_B_lo95": 120.4, "conc_B_hi95": 5668.0, "conc_B_status": "research_estimate", "conc_B_status_ru": "исследовательская оценка", "conc_B_reasons": "ближайшее полевое измерение в 252 км (> 60 км); log_dist_coast_km = 0.0 вне диапазона обучения [1.7; 5.0]", "conc_B_model": "conc-B-c6bce5631d2b"}}, {"type": "Feature", "geometry": {"type": "Polygon", "coordinates": [[[37.63551050978519, 44.642199160624855], [37.63551261970038, 44.642109161260755], [37.63538655911738, 44.64210765484743], [37.635388669217456, 44.64201765548654], [37.635514729605674, 44.642019161895156], [37.63551683950109, 44.64192916252805], [37.635768959917606, 44.64193217491859], [37.63576685041174, 44.6420221742951], [37.635892910829604, 44.642023680286414], [37.63589080150864, 44.64211367966611], [37.63576474089601, 44.64211217367009], [37.63576263137039, 44.64220217304359], [37.63551050978519, 44.642199160624855]]]}, "properties": {"zone_id": "novorossiysk-2026-06-23-002", "aoi": "novorossiysk", "date": "2026-06-23", "scene_id": "S2C_MSIL2A_20260623T081601_R121_T37TCK_20260623T121313", "scene_datetime_utc": "2026-06-23T08:16:01.025000+00:00", "detection_status": "detected", "detection_status_ru": "обнаружено", "lon": 37.63564, "lat": 44.64207, "n_pixels": 2, "zone_area_km2": 0.0008, "cover_m2": 17.3, "p_mean": 0.982, "p_max": 0.996, "cover_m2_km2": 21625.0, "h3": "882d728949fffff", "valid_frac_scene": 1.0, "wind_ms": 3.4, "sea": "спокойное", "scene_reliable": true, "field_event_id": "S4:DOORS3:T12", "field_profile": "B", "field_date": "2024-06-04", "field_distance_km": 249.9, "field_date_gap_days": 749, "field_conc_items_km2": 48.97, "conc_A_items_km2": null, "conc_A_lo80": null, "conc_A_hi80": null, "conc_A_lo95": null, "conc_A_hi95": null, "conc_A_status": "unavailable", "conc_A_status_ru": "концентрация недоступна", "conc_A_reasons": "вне бассейна профиля: nw_atlantic_subtropical", "conc_A_model": "conc-A-c6bce5631d2b", "conc_B_items_km2": 621.6, "conc_B_lo80": 132.7, "conc_B_hi80": 2088.3, "conc_B_lo95": 82.8, "conc_B_hi95": 3910.2, "conc_B_status": "research_estimate", "conc_B_status_ru": "исследовательская оценка", "conc_B_reasons": "ближайшее полевое измерение в 250 км (> 60 км); log_dist_coast_km = 1.0 вне диапазона обучения [1.7; 5.0]", "conc_B_model": "conc-B-c6bce5631d2b"}}, {"type": "Feature", "geometry": {"type": "Polygon", "coordinates": [[[37.91481478804405, 44.642134145422915], [37.914816466124165, 44.6420441366608], [37.9146903925188, 44.64204293854857], [37.91469207078592, 44.64195292978872], [37.91494589548434, 44.64186531709776], [37.914944217614796, 44.64195532586656], [37.91507029104101, 44.641956523696756], [37.91506861335847, 44.642046532467816], [37.91494253973739, 44.642045334633885], [37.91494086185213, 44.642135343399744], [37.91481478804405, 44.642134145422915]]]}, "properties": {"zone_id": "novorossiysk-2026-06-23-003", "aoi": "novorossiysk", "date": "2026-06-23", "scene_id": "S2C_MSIL2A_20260623T081601_R121_T37TCK_20260623T121313", "scene_datetime_utc": "2026-06-23T08:16:01.025000+00:00", "detection_status": "detected", "detection_status_ru": "обнаружено", "lon": 37.91488, "lat": 44.642, "n_pixels": 1, "zone_area_km2": 0.0005, "cover_m2": 3.5, "p_mean": 0.961, "p_max": 0.961, "cover_m2_km2": 7000.0, "h3": "882d721023fffff", "valid_frac_scene": 1.0, "wind_ms": 3.4, "sea": "спокойное", "scene_reliable": true, "field_event_id": "S4:DOORS3:T13", "field_profile": "B", "field_date": "2024-06-04", "field_distance_km": 254.8, "field_date_gap_days": 749, "field_conc_items_km2": 263.57, "conc_A_items_km2": null, "conc_A_lo80": null, "conc_A_hi80": null, "conc_A_lo95": null, "conc_A_hi95": null, "conc_A_status": "unavailable", "conc_A_status_ru": "концентрация недоступна", "conc_A_reasons": "вне бассейна профиля: nw_atlantic_subtropical", "conc_A_model": "conc-A-c6bce5631d2b", "conc_B_items_km2": 621.6, "conc_B_lo80": 132.7, "conc_B_hi80": 2088.3, "conc_B_lo95": 82.8, "conc_B_hi95": 3910.2, "conc_B_status": "research_estimate", "conc_B_status_ru": "исследовательская оценка", "conc_B_reasons": "ближайшее полевое измерение в 255 км (> 60 км); log_dist_coast_km = 1.0 вне диапазона обучения [1.7; 5.0]", "conc_B_model": "conc-B-c6bce5631d2b"}}]}