{"type": "FeatureCollection", "features": [{"type": "Feature", "geometry": {"type": "Polygon", "coordinates": [[[39.71986880766352, 43.5701153204557], [39.71986773529626, 43.570025285677694], [39.719743907357675, 43.57002606532262], [39.71974176300691, 43.56984599575744], [39.71998834560464, 43.56975440156336], [39.71998941814142, 43.56984443634324], [39.72011324570123, 43.56984365643498], [39.72011539115853, 43.57002372598553], [39.71986880766352, 43.5701153204557]]]}, "properties": {"zone_id": "sochi-2025-09-23-001", "aoi": "sochi", "date": "2025-09-23", "scene_id": "S2C_MSIL2A_20250923T080701_R078_T37TEJ_20250923T134018", "scene_datetime_utc": "2025-09-23T08:07:01.025000+00:00", "detection_status": "detected", "detection_status_ru": "обнаружено", "lon": 39.71993, "lat": 43.56993, "n_pixels": 2, "zone_area_km2": 0.0008, "cover_m2": 7.8, "p_mean": 0.833, "p_max": 0.992, "cover_m2_km2": 9750.0, "h3": "882d568e43fffff", "valid_frac_scene": 1.0, "wind_ms": 2.8, "sea": "спокойное", "scene_reliable": true, "field_event_id": "S4:DOORS3:T17", "field_profile": "B", "field_date": "2024-06-04", "field_distance_km": 184.1, "field_date_gap_days": 476, "field_conc_items_km2": 89.61, "conc_A_items_km2": null, "conc_A_lo80": null, "conc_A_hi80": null, "conc_A_lo95": null, "conc_A_hi95": null, "conc_A_status": "unavailable", "conc_A_status_ru": "концентрация недоступна", "conc_A_reasons": "вне бассейна профиля: nw_atlantic_subtropical", "conc_A_model": "conc-A-c6bce5631d2b", "conc_B_items_km2": 621.6, "conc_B_lo80": 132.7, "conc_B_hi80": 2088.3, "conc_B_lo95": 82.8, "conc_B_hi95": 3910.2, "conc_B_status": "research_estimate", "conc_B_status_ru": "исследовательская оценка", "conc_B_reasons": "ближайшее полевое измерение в 184 км (> 60 км); месяц 9 вне месяцев обучения [6]; log_dist_coast_km = 1.0 вне диапазона обучения [1.7; 5.0]", "conc_B_model": "conc-B-c6bce5631d2b"}}, {"type": "Feature", "geometry": {"type": "Polygon", "coordinates": [[[39.72855532530632, 43.56132625941667], [39.72855424033248, 43.5612362246726], [39.72843043063352, 43.56123701359964], [39.728429345849044, 43.56114697885165], [39.72855315536366, 43.56114618992707], [39.72855207039988, 43.56105615518012], [39.728800774377824, 43.56114461167574], [39.72880185971532, 43.56123464641633], [39.72867805002642, 43.56123543561149], [39.728679135184585, 43.5613254703531], [39.72855532530632, 43.56132625941667]]]}, "properties": {"zone_id": "sochi-2025-09-23-002", "aoi": "sochi", "date": "2025-09-23", "scene_id": "S2C_MSIL2A_20250923T080701_R078_T37TEJ_20250923T134018", "scene_datetime_utc": "2025-09-23T08:07:01.025000+00:00", "detection_status": "detected", "detection_status_ru": "обнаружено", "lon": 39.72862, "lat": 43.56119, "n_pixels": 1, "zone_area_km2": 0.0005, "cover_m2": 7.5, "p_mean": 0.902, "p_max": 0.902, "cover_m2_km2": 15000.0, "h3": "882d568e09fffff", "valid_frac_scene": 1.0, "wind_ms": 2.8, "sea": "спокойное", "scene_reliable": true, "field_event_id": "S4:DOORS3:T17", "field_profile": "B", "field_date": "2024-06-04", "field_distance_km": 183.7, "field_date_gap_days": 476, "field_conc_items_km2": 89.61, "conc_A_items_km2": null, "conc_A_lo80": null, "conc_A_hi80": null, "conc_A_lo95": null, "conc_A_hi95": null, "conc_A_status": "unavailable", "conc_A_status_ru": "концентрация недоступна", "conc_A_reasons": "вне бассейна профиля: nw_atlantic_subtropical", "conc_A_model": "conc-A-c6bce5631d2b", "conc_B_items_km2": 666.4, "conc_B_lo80": 142.3, "conc_B_hi80": 2238.6, "conc_B_lo95": 88.8, "conc_B_hi95": 4191.6, "conc_B_status": "research_estimate", "conc_B_status_ru": "исследовательская оценка", "conc_B_reasons": "ближайшее полевое измерение в 184 км (> 60 км); месяц 9 вне месяцев обучения [6]; log_dist_coast_km = 0.9 вне диапазона обучения [1.7; 5.0]", "conc_B_model": "conc-B-c6bce5631d2b"}}, {"type": "Feature", "geometry": {"type": "Polygon", "coordinates": [[[39.70249864966421, 43.55662708687164], [39.70249760366385, 43.55653705154097], [39.702373802882114, 43.5565378121862], [39.70237171126453, 43.556357741515775], [39.702618265915845, 43.55626618476812], [39.70261931208597, 43.55635622010077], [39.70274311248942, 43.5563554591922], [39.70274520521279, 43.55653552984836], [39.70249864966421, 43.55662708687164]]]}, "properties": {"zone_id": "sochi-2025-09-23-003", "aoi": "sochi", "date": "2025-09-23", "scene_id": "S2C_MSIL2A_20250923T080701_R078_T37TEJ_20250923T134018", "scene_datetime_utc": "2025-09-23T08:07:01.025000+00:00", "detection_status": "detected", "detection_status_ru": "обнаружено", "lon": 39.70256, "lat": 43.55645, "n_pixels": 2, "zone_area_km2": 0.0008, "cover_m2": 10.6, "p_mean": 0.861, "p_max": 0.965, "cover_m2_km2": 13250.0, "h3": "882d568e4dfffff", "valid_frac_scene": 1.0, "wind_ms": 2.8, "sea": "спокойное", "scene_reliable": true, "field_event_id": "S4:DOORS3:T17", "field_profile": "B", "field_date": "2024-06-04", "field_distance_km": 182.0, "field_date_gap_days": 476, "field_conc_items_km2": 89.61, "conc_A_items_km2": null, "conc_A_lo80": null, "conc_A_hi80": null, "conc_A_lo95": null, "conc_A_hi95": null, "conc_A_status": "unavailable", "conc_A_status_ru": "концентрация недоступна", "conc_A_reasons": "вне бассейна профиля: nw_atlantic_subtropical", "conc_A_model": "conc-A-c6bce5631d2b", "conc_B_items_km2": 591.0, "conc_B_lo80": 126.1, "conc_B_hi80": 1985.7, "conc_B_lo95": 78.7, "conc_B_hi95": 3718.1, "conc_B_status": "research_estimate", "conc_B_status_ru": "исследовательская оценка", "conc_B_reasons": "ближайшее полевое измерение в 182 км (> 60 км); месяц 9 вне месяцев обучения [6]; log_dist_coast_km = 1.2 вне диапазона обучения [1.7; 5.0]", "conc_B_model": "conc-B-c6bce5631d2b"}}, {"type": "Feature", "geometry": {"type": "Polygon", "coordinates": [[[39.71133605154504, 43.55008943288383], [39.711334992628295, 43.549999397621484], [39.71121120546462, 43.55000016774443], [39.71121014673702, 43.54991013247821], [39.71133393371646, 43.54990936235769], [39.71133287480952, 43.549819327092436], [39.71158150766062, 43.54990782171458], [39.711582566940926, 43.54999785697357], [39.71145877978706, 43.549998627364545], [39.71145983888804, 43.55008866262449], [39.71133605154504, 43.55008943288383]]]}, "properties": {"zone_id": "sochi-2025-09-23-004", "aoi": "sochi", "date": "2025-09-23", "scene_id": "S2C_MSIL2A_20250923T080701_R078_T37TEJ_20250923T134018", "scene_datetime_utc": "2025-09-23T08:07:01.025000+00:00", "detection_status": "detected", "detection_status_ru": "обнаружено", "lon": 39.7114, "lat": 43.54995, "n_pixels": 1, "zone_area_km2": 0.0005, "cover_m2": 6.7, "p_mean": 0.514, "p_max": 0.514, "cover_m2_km2": 13400.0, "h3": "882d568e69fffff", "valid_frac_scene": 1.0, "wind_ms": 2.8, "sea": "спокойное", "scene_reliable": true, "field_event_id": "S4:DOORS3:T17", "field_profile": "B", "field_date": "2024-06-04", "field_distance_km": 181.9, "field_date_gap_days": 476, "field_conc_items_km2": 89.61, "conc_A_items_km2": null, "conc_A_lo80": null, "conc_A_hi80": null, "conc_A_lo95": null, "conc_A_hi95": null, "conc_A_status": "unavailable", "conc_A_status_ru": "концентрация недоступна", "conc_A_reasons": "вне бассейна профиля: nw_atlantic_subtropical", "conc_A_model": "conc-A-c6bce5631d2b", "conc_B_items_km2": 539.0, "conc_B_lo80": 114.9, "conc_B_hi80": 1811.1, "conc_B_lo95": 71.7, "conc_B_hi95": 3391.3, "conc_B_status": "research_estimate", "conc_B_status_ru": "исследовательская оценка", "conc_B_reasons": "ближайшее полевое измерение в 182 км (> 60 км); месяц 9 вне месяцев обучения [6]", "conc_B_model": "conc-B-c6bce5631d2b"}}, {"type": "Feature", "geometry": {"type": "Polygon", "coordinates": [[[39.7020321308531, 43.54843614676067], [39.70203108584605, 43.5483461112915], [39.70190730181745, 43.548346871318394], [39.701904167378, 43.54807676489511], [39.702027950853946, 43.54807600487535], [39.70202690586625, 43.54798596940039], [39.70227447243518, 43.547984448963604], [39.702275517791314, 43.5480744844338], [39.70239930125274, 43.54807372401202], [39.70240139234795, 43.548253794943314], [39.702154869869815, 43.54834535113061], [39.702155915061084, 43.54843538659739], [39.7020321308531, 43.54843614676067]]]}, "properties": {"zone_id": "sochi-2025-09-23-005", "aoi": "sochi", "date": "2025-09-23", "scene_id": "S2C_MSIL2A_20250923T080701_R078_T37TEJ_20250923T134018", "scene_datetime_utc": "2025-09-23T08:07:01.025000+00:00", "detection_status": "detected", "detection_status_ru": "обнаружено", "lon": 39.70214, "lat": 43.54819, "n_pixels": 5, "zone_area_km2": 0.0014, "cover_m2": 24.3, "p_mean": 0.978, "p_max": 1.0, "cover_m2_km2": 17357.1, "h3": "882d568193fffff", "valid_frac_scene": 1.0, "wind_ms": 2.8, "sea": "спокойное", "scene_reliable": true, "field_event_id": "S4:DOORS3:T17", "field_profile": "B", "field_date": "2024-06-04", "field_distance_km": 181.3, "field_date_gap_days": 476, "field_conc_items_km2": 89.61, "conc_A_items_km2": null, "conc_A_lo80": null, "conc_A_hi80": null, "conc_A_lo95": null, "conc_A_hi95": null, "conc_A_status": "unavailable", "conc_A_status_ru": "концентрация недоступна", "conc_A_reasons": "вне бассейна профиля: nw_atlantic_subtropical", "conc_A_model": "conc-A-c6bce5631d2b", "conc_B_items_km2": 511.6, "conc_B_lo80": 109.1, "conc_B_hi80": 1719.1, "conc_B_lo95": 68.0, "conc_B_hi95": 3219.1, "conc_B_status": "research_estimate", "conc_B_status_ru": "исследовательская оценка", "conc_B_reasons": "ближайшее полевое измерение в 181 км (> 60 км); месяц 9 вне месяцев обучения [6]", "conc_B_model": "conc-B-c6bce5631d2b"}}, {"type": "Feature", "geometry": {"type": "Polygon", "coordinates": [[[39.839019119446995, 43.50006070685989], [39.839017872648256, 43.49997067352647], [39.838894191475845, 43.499971581060876], [39.83889169826314, 43.499791514384], [39.83913781290207, 43.49969966585784], [39.83913905986724, 43.499789699192775], [39.83926274066064, 43.499788791396526], [39.83926523497577, 43.49996885805637], [39.839019119446995, 43.50006070685989]]]}, "properties": {"zone_id": "sochi-2025-09-23-006", "aoi": "sochi", "date": "2025-09-23", "scene_id": "S2C_MSIL2A_20250923T080701_R078_T37TEJ_20250923T134018", "scene_datetime_utc": "2025-09-23T08:07:01.025000+00:00", "detection_status": "detected", "detection_status_ru": "обнаружено", "lon": 39.83908, "lat": 43.49988, "n_pixels": 2, "zone_area_km2": 0.0008, "cover_m2": 8.2, "p_mean": 0.982, "p_max": 0.988, "cover_m2_km2": 10250.0, "h3": "882d568c27fffff", "valid_frac_scene": 1.0, "wind_ms": 2.8, "sea": "спокойное", "scene_reliable": true, "field_event_id": "S4:DOORS3:T17", "field_profile": "B", "field_date": "2024-06-04", "field_distance_km": 183.8, "field_date_gap_days": 476, "field_conc_items_km2": 89.61, "conc_A_items_km2": null, "conc_A_lo80": null, "conc_A_hi80": null, "conc_A_lo95": null, "conc_A_hi95": null, "conc_A_status": "unavailable", "conc_A_status_ru": "концентрация недоступна", "conc_A_reasons": "вне бассейна профиля: nw_atlantic_subtropical", "conc_A_model": "conc-A-c6bce5631d2b", "conc_B_items_km2": 591.0, "conc_B_lo80": 126.1, "conc_B_hi80": 1985.7, "conc_B_lo95": 78.7, "conc_B_hi95": 3718.1, "conc_B_status": "research_estimate", "conc_B_status_ru": "исследовательская оценка", "conc_B_reasons": "ближайшее полевое измерение в 184 км (> 60 км); месяц 9 вне месяцев обучения [6]; log_dist_coast_km = 1.2 вне диапазона обучения [1.7; 5.0]", "conc_B_model": "conc-B-c6bce5631d2b"}}, {"type": "Feature", "geometry": {"type": "Polygon", "coordinates": [[[39.84515420074401, 43.49650386391855], [39.84515294498495, 43.49641383067087], [39.845029271267215, 43.49641474478212], [39.845028015697665, 43.49632471153013], [39.8451516892317, 43.496323797421724], [39.84515043348425, 43.496233764171144], [39.84539778016747, 43.4962319355588], [39.84539903628232, 43.49632196880366], [39.845522709798914, 43.496321054294015], [39.84552396610328, 43.49641108753458], [39.845400292402985, 43.49641200204709], [39.84540154852946, 43.49650203528906], [39.84515420074401, 43.49650386391855]]]}, "properties": {"zone_id": "sochi-2025-09-23-007", "aoi": "sochi", "date": "2025-09-23", "scene_id": "S2C_MSIL2A_20250923T080701_R078_T37TEJ_20250923T134018", "scene_datetime_utc": "2025-09-23T08:07:01.025000+00:00", "detection_status": "detected", "detection_status_ru": "обнаружено", "lon": 39.84528, "lat": 43.49637, "n_pixels": 2, "zone_area_km2": 0.0008, "cover_m2": 10.6, "p_mean": 0.833, "p_max": 0.925, "cover_m2_km2": 13250.0, "h3": "882d568dcdfffff", "valid_frac_scene": 1.0, "wind_ms": 2.8, "sea": "спокойное", "scene_reliable": true, "field_event_id": "S4:DOORS3:T17", "field_profile": "B", "field_date": "2024-06-04", "field_distance_km": 183.8, "field_date_gap_days": 476, "field_conc_items_km2": 89.61, "conc_A_items_km2": null, "conc_A_lo80": null, "conc_A_hi80": null, "conc_A_lo95": null, "conc_A_hi95": null, "conc_A_status": "unavailable", "conc_A_status_ru": "концентрация недоступна", "conc_A_reasons": "вне бассейна профиля: nw_atlantic_subtropical", "conc_A_model": "conc-A-c6bce5631d2b", "conc_B_items_km2": 621.6, "conc_B_lo80": 132.7, "conc_B_hi80": 2088.3, "conc_B_lo95": 82.8, "conc_B_hi95": 3910.2, "conc_B_status": "research_estimate", "conc_B_status_ru": "исследовательская оценка", "conc_B_reasons": "ближайшее полевое измерение в 184 км (> 60 км); месяц 9 вне месяцев обучения [6]; log_dist_coast_km = 1.0 вне диапазона обучения [1.7; 5.0]", "conc_B_model": "conc-B-c6bce5631d2b"}}, {"type": "Feature", "geometry": {"type": "Polygon", "coordinates": [[[39.74978773470842, 43.48618381162121], [39.749786621040705, 43.48609377612056], [39.74966296550929, 43.4860945869305], [39.74966185203035, 43.486004551425886], [39.74978550737814, 43.48600374061847], [39.74978439372073, 43.485913705114946], [39.749908048879746, 43.48591289417637], [39.749906935043875, 43.485822858673934], [39.750155359182315, 43.485911271898075], [39.75015758760403, 43.48609134288848], [39.75003393208807, 43.48609215409955], [39.750035046123045, 43.48618218959512], [39.74978773470842, 43.48618381162121]]]}, "properties": {"zone_id": "sochi-2025-09-23-008", "aoi": "sochi", "date": "2025-09-23", "scene_id": "S2C_MSIL2A_20250923T080701_R078_T37TEJ_20250923T134018", "scene_datetime_utc": "2025-09-23T08:07:01.025000+00:00", "detection_status": "detected", "detection_status_ru": "обнаружено", "lon": 39.74993, "lat": 43.48602, "n_pixels": 3, "zone_area_km2": 0.001, "cover_m2": 15.7, "p_mean": 0.821, "p_max": 0.867, "cover_m2_km2": 15700.0, "h3": "882d568f2bfffff", "valid_frac_scene": 1.0, "wind_ms": 2.8, "sea": "спокойное", "scene_reliable": true, "field_event_id": "S4:DOORS3:T17", "field_profile": "B", "field_date": "2024-06-04", "field_distance_km": 178.1, "field_date_gap_days": 476, "field_conc_items_km2": 89.61, "conc_A_items_km2": null, "conc_A_lo80": null, "conc_A_hi80": null, "conc_A_lo95": null, "conc_A_hi95": null, "conc_A_status": "unavailable", "conc_A_status_ru": "концентрация недоступна", "conc_A_reasons": "вне бассейна профиля: nw_atlantic_subtropical", "conc_A_model": "conc-A-c6bce5631d2b", "conc_B_items_km2": 418.0, "conc_B_lo80": 89.0, "conc_B_hi80": 1405.2, "conc_B_lo95": 55.4, "conc_B_hi95": 2631.4, "conc_B_status": "research_estimate", "conc_B_status_ru": "исследовательская оценка", "conc_B_reasons": "ближайшее полевое измерение в 178 км (> 60 км); месяц 9 вне месяцев обучения [6]", "conc_B_model": "conc-B-c6bce5631d2b"}}, {"type": "Feature", "geometry": {"type": "Polygon", "coordinates": [[[39.86236796182833, 43.48061786563418], [39.862366681204506, 43.480527832539245], [39.86224304044913, 43.48052876499876], [39.862241760014776, 43.48043873189945], [39.86236540058661, 43.48043779944285], [39.862364119974636, 43.480347766345005], [39.8626126817125, 43.48043593412863], [39.8626139626975, 43.48052596721917], [39.86249032195397, 43.48052689994605], [39.862491602761345, 43.480616933038064], [39.86236796182833, 43.48061786563418]]]}, "properties": {"zone_id": "sochi-2025-09-23-009", "aoi": "sochi", "date": "2025-09-23", "scene_id": "S2C_MSIL2A_20250923T080701_R078_T37TEJ_20250923T134018", "scene_datetime_utc": "2025-09-23T08:07:01.025000+00:00", "detection_status": "detected", "detection_status_ru": "обнаружено", "lon": 39.86243, "lat": 43.48048, "n_pixels": 1, "zone_area_km2": 0.0005, "cover_m2": 9.0, "p_mean": 0.671, "p_max": 0.671, "cover_m2_km2": 18000.0, "h3": "882d568de1fffff", "valid_frac_scene": 1.0, "wind_ms": 2.8, "sea": "спокойное", "scene_reliable": true, "field_event_id": "S4:DOORS3:T17", "field_profile": "B", "field_date": "2024-06-04", "field_distance_km": 183.3, "field_date_gap_days": 476, "field_conc_items_km2": 89.61, "conc_A_items_km2": null, "conc_A_lo80": null, "conc_A_hi80": null, "conc_A_lo95": null, "conc_A_hi95": null, "conc_A_status": "unavailable", "conc_A_status_ru": "концентрация недоступна", "conc_A_reasons": "вне бассейна профиля: nw_atlantic_subtropical", "conc_A_model": "conc-A-c6bce5631d2b", "conc_B_items_km2": 591.0, "conc_B_lo80": 126.1, "conc_B_hi80": 1985.7, "conc_B_lo95": 78.7, "conc_B_hi95": 3718.1, "conc_B_status": "research_estimate", "conc_B_status_ru": "исследовательская оценка", "conc_B_reasons": "ближайшее полевое измерение в 183 км (> 60 км); месяц 9 вне месяцев обучения [6]; log_dist_coast_km = 1.2 вне диапазона обучения [1.7; 5.0]", "conc_B_model": "conc-B-c6bce5631d2b"}}, {"type": "Feature", "geometry": {"type": "Polygon", "coordinates": [[[39.602916357695044, 43.4781383334428], [39.60291546241936, 43.47804829508529], [39.60279181954789, 43.47804894696842], [39.602790924459924, 43.47795890860743], [39.60291456714782, 43.477958256726325], [39.60291367188043, 43.477868218365934], [39.6031618525112, 43.47795695256308], [39.60316274814988, 43.47804699091796], [39.60303910528669, 43.478047643068464], [39.603040000745935, 43.478137681423945], [39.602916357695044, 43.4781383334428]]]}, "properties": {"zone_id": "sochi-2025-09-23-010", "aoi": "sochi", "date": "2025-09-23", "scene_id": "S2C_MSIL2A_20250923T080701_R078_T37TEJ_20250923T134018", "scene_datetime_utc": "2025-09-23T08:07:01.025000+00:00", "detection_status": "detected", "detection_status_ru": "обнаружено", "lon": 39.60298, "lat": 43.478, "n_pixels": 1, "zone_area_km2": 0.0005, "cover_m2": 3.9, "p_mean": 0.812, "p_max": 0.812, "cover_m2_km2": 7800.0, "h3": "882d56812dfffff", "valid_frac_scene": 1.0, "wind_ms": 2.8, "sea": "спокойное", "scene_reliable": true, "field_event_id": "S4:DOORS3:T17", "field_profile": "B", "field_date": "2024-06-04", "field_distance_km": 170.3, "field_date_gap_days": 476, "field_conc_items_km2": 89.61, "conc_A_items_km2": null, "conc_A_lo80": null, "conc_A_hi80": null, "conc_A_lo95": null, "conc_A_hi95": null, "conc_A_status": "unavailable", "conc_A_status_ru": "концентрация недоступна", "conc_A_reasons": "вне бассейна профиля: nw_atlantic_subtropical", "conc_A_model": "conc-A-c6bce5631d2b", "conc_B_items_km2": 340.6, "conc_B_lo80": 72.3, "conc_B_hi80": 1145.2, "conc_B_lo95": 45.0, "conc_B_hi95": 2144.7, "conc_B_status": "research_estimate", "conc_B_status_ru": "исследовательская оценка", "conc_B_reasons": "ближайшее полевое измерение в 170 км (> 60 км); месяц 9 вне месяцев обучения [6]", "conc_B_model": "conc-B-c6bce5631d2b"}}, {"type": "Feature", "geometry": {"type": "Polygon", "coordinates": [[[39.60364656335937, 43.476963920723556], [39.603645667036176, 43.47687388235957], [39.603522026575924, 43.4768745350183], [39.60352113044044, 43.47678449665084], [39.60364477071713, 43.476783843994156], [39.60364387440224, 43.476693805627306], [39.60389115457606, 43.47669249991699], [39.60389205125807, 43.47678253827976], [39.60401569152233, 43.47678188522204], [39.60401658839205, 43.47687192358132], [39.60389294794424, 43.476872576641085], [39.603893844634555, 43.47696261500098], [39.60364656335937, 43.476963920723556]]]}, "properties": {"zone_id": "sochi-2025-09-23-011", "aoi": "sochi", "date": "2025-09-23", "scene_id": "S2C_MSIL2A_20250923T080701_R078_T37TEJ_20250923T134018", "scene_datetime_utc": "2025-09-23T08:07:01.025000+00:00", "detection_status": "detected", "detection_status_ru": "обнаружено", "lon": 39.60377, "lat": 43.47683, "n_pixels": 2, "zone_area_km2": 0.0008, "cover_m2": 9.4, "p_mean": 0.788, "p_max": 0.976, "cover_m2_km2": 11750.0, "h3": "882d56812dfffff", "valid_frac_scene": 1.0, "wind_ms": 2.8, "sea": "спокойное", "scene_reliable": true, "field_event_id": "S4:DOORS3:T17", "field_profile": "B", "field_date": "2024-06-04", "field_distance_km": 170.2, "field_date_gap_days": 476, "field_conc_items_km2": 89.61, "conc_A_items_km2": null, "conc_A_lo80": null, "conc_A_hi80": null, "conc_A_lo95": null, "conc_A_hi95": null, "conc_A_status": "unavailable", "conc_A_status_ru": "концентрация недоступна", "conc_A_reasons": "вне бассейна профиля: nw_atlantic_subtropical", "conc_A_model": "conc-A-c6bce5631d2b", "conc_B_items_km2": 340.6, "conc_B_lo80": 72.3, "conc_B_hi80": 1145.2, "conc_B_lo95": 45.0, "conc_B_hi95": 2144.7, "conc_B_status": "research_estimate", "conc_B_status_ru": "исследовательская оценка", "conc_B_reasons": "ближайшее полевое измерение в 170 км (> 60 км); месяц 9 вне месяцев обучения [6]", "conc_B_model": "conc-B-c6bce5631d2b"}}, {"type": "Feature", "geometry": {"type": "Polygon", "coordinates": [[[39.605110484151595, 43.47497523456699], [39.60510958571714, 43.47488519619589], [39.604985949344815, 43.47488585041378], [39.604984152855444, 43.474705773663175], [39.60523052625626, 43.47461442672854], [39.60523142486178, 43.47470446510191], [39.605355060858706, 43.47470381062076], [39.60535685844931, 43.4748838873591], [39.605110484151595, 43.47497523456699]]]}, "properties": {"zone_id": "sochi-2025-09-23-012", "aoi": "sochi", "date": "2025-09-23", "scene_id": "S2C_MSIL2A_20250923T080701_R078_T37TEJ_20250923T134018", "scene_datetime_utc": "2025-09-23T08:07:01.025000+00:00", "detection_status": "detected", "detection_status_ru": "обнаружено", "lon": 39.60517, "lat": 43.47479, "n_pixels": 2, "zone_area_km2": 0.0008, "cover_m2": 8.6, "p_mean": 0.676, "p_max": 0.761, "cover_m2_km2": 10750.0, "h3": "882d568a53fffff", "valid_frac_scene": 1.0, "wind_ms": 2.8, "sea": "спокойное", "scene_reliable": true, "field_event_id": "S4:DOORS3:T17", "field_profile": "B", "field_date": "2024-06-04", "field_distance_km": 170.1, "field_date_gap_days": 476, "field_conc_items_km2": 89.61, "conc_A_items_km2": null, "conc_A_lo80": null, "conc_A_hi80": null, "conc_A_lo95": null, "conc_A_hi95": null, "conc_A_status": "unavailable", "conc_A_status_ru": "концентрация недоступна", "conc_A_reasons": "вне бассейна профиля: nw_atlantic_subtropical", "conc_A_model": "conc-A-c6bce5631d2b", "conc_B_items_km2": 340.6, "conc_B_lo80": 72.3, "conc_B_hi80": 1145.2, "conc_B_lo95": 45.0, "conc_B_hi95": 2144.7, "conc_B_status": "research_estimate", "conc_B_status_ru": "исследовательская оценка", "conc_B_reasons": "ближайшее полевое измерение в 170 км (> 60 км); месяц 9 вне месяцев обучения [6]", "conc_B_model": "conc-B-c6bce5631d2b"}}, {"type": "Feature", "geometry": {"type": "Polygon", "coordinates": [[[39.605721472167744, 43.474251654535045], [39.60572057284887, 43.474161616162675], [39.605596937965636, 43.47416227103255], [39.605596038834456, 43.47407223265668], [39.60571967353415, 43.47407157778887], [39.6057187742236, 43.473981539413614], [39.605966942921064, 43.47407026765223], [39.605967842602844, 43.474160306021936], [39.60584420772794, 43.47416096115913], [39.605845107230344, 43.474250999529445], [39.605721472167744, 43.474251654535045]]]}, "properties": {"zone_id": "sochi-2025-09-23-013", "aoi": "sochi", "date": "2025-09-23", "scene_id": "S2C_MSIL2A_20250923T080701_R078_T37TEJ_20250923T134018", "scene_datetime_utc": "2025-09-23T08:07:01.025000+00:00", "detection_status": "detected", "detection_status_ru": "обнаружено", "lon": 39.60578, "lat": 43.47412, "n_pixels": 1, "zone_area_km2": 0.0005, "cover_m2": 3.9, "p_mean": 0.729, "p_max": 0.729, "cover_m2_km2": 7800.0, "h3": "882d568a53fffff", "valid_frac_scene": 1.0, "wind_ms": 2.8, "sea": "спокойное", "scene_reliable": true, "field_event_id": "S4:DOORS3:T17", "field_profile": "B", "field_date": "2024-06-04", "field_distance_km": 170.0, "field_date_gap_days": 476, "field_conc_items_km2": 89.61, "conc_A_items_km2": null, "conc_A_lo80": null, "conc_A_hi80": null, "conc_A_lo95": null, "conc_A_hi95": null, "conc_A_status": "unavailable", "conc_A_status_ru": "концентрация недоступна", "conc_A_reasons": "вне бассейна профиля: nw_atlantic_subtropical", "conc_A_model": "conc-A-c6bce5631d2b", "conc_B_items_km2": 340.6, "conc_B_lo80": 72.3, "conc_B_hi80": 1145.2, "conc_B_lo95": 45.0, "conc_B_hi95": 2144.7, "conc_B_status": "research_estimate", "conc_B_status_ru": "исследовательская оценка", "conc_B_reasons": "ближайшее полевое измерение в 170 км (> 60 км); месяц 9 вне месяцев обучения [6]", "conc_B_model": "conc-B-c6bce5631d2b"}}, {"type": "Feature", "geometry": {"type": "Polygon", "coordinates": [[[39.886868353565625, 43.47331707301318], [39.88686703689686, 43.47322704039168], [39.88674341183475, 43.47322799921514], [39.88674077888245, 43.47304793396179], [39.886986711432705, 43.472955983570365], [39.88698802826667, 43.47304601619322], [39.88711165294964, 43.473045057108486], [39.88711428700281, 43.473225122343855], [39.886868353565625, 43.47331707301318]]]}, "properties": {"zone_id": "sochi-2025-09-23-014", "aoi": "sochi", "date": "2025-09-23", "scene_id": "S2C_MSIL2A_20250923T080701_R078_T37TEJ_20250923T134018", "scene_datetime_utc": "2025-09-23T08:07:01.025000+00:00", "detection_status": "detected", "detection_status_ru": "обнаружено", "lon": 39.88693, "lat": 43.47314, "n_pixels": 2, "zone_area_km2": 0.0008, "cover_m2": 5.5, "p_mean": 0.945, "p_max": 0.973, "cover_m2_km2": 6875.0, "h3": "882d568da1fffff", "valid_frac_scene": 1.0, "wind_ms": 2.8, "sea": "спокойное", "scene_reliable": true, "field_event_id": "S4:DOORS3:T17", "field_profile": "B", "field_date": "2024-06-04", "field_distance_km": 184.0, "field_date_gap_days": 476, "field_conc_items_km2": 89.61, "conc_A_items_km2": null, "conc_A_lo80": null, "conc_A_hi80": null, "conc_A_lo95": null, "conc_A_hi95": null, "conc_A_status": "unavailable", "conc_A_status_ru": "концентрация недоступна", "conc_A_reasons": "вне бассейна профиля: nw_atlantic_subtropical", "conc_A_model": "conc-A-c6bce5631d2b", "conc_B_items_km2": 666.4, "conc_B_lo80": 142.3, "conc_B_hi80": 2238.6, "conc_B_lo95": 88.8, "conc_B_hi95": 4191.6, "conc_B_status": "research_estimate", "conc_B_status_ru": "исследовательская оценка", "conc_B_reasons": "ближайшее полевое измерение в 184 км (> 60 км); месяц 9 вне месяцев обучения [6]; log_dist_coast_km = 0.9 вне диапазона обучения [1.7; 5.0]", "conc_B_model": "conc-B-c6bce5631d2b"}}, {"type": "Feature", "geometry": {"type": "Polygon", "coordinates": [[[39.60681977255053, 43.47280514083734], [39.606818871646546, 43.472715102460405], [39.60669523973723, 43.472715758500456], [39.60669343830879, 43.47253568173818], [39.60681706985106, 43.472535025702214], [39.60681616895958, 43.47244498732096], [39.60693980031417, 43.47244433115339], [39.60693889924334, 43.472354292772756], [39.607187063010855, 43.472443018417295], [39.607188865899104, 43.47262309516604], [39.60694250355169, 43.472714446286695], [39.6069434046392, 43.472804484661566], [39.60681977255053, 43.47280514083734]]]}, "properties": {"zone_id": "sochi-2025-09-23-015", "aoi": "sochi", "date": "2025-09-23", "scene_id": "S2C_MSIL2A_20250923T080701_R078_T37TEJ_20250923T134018", "scene_datetime_utc": "2025-09-23T08:07:01.025000+00:00", "detection_status": "detected", "detection_status_ru": "обнаружено", "lon": 39.60694, "lat": 43.47258, "n_pixels": 4, "zone_area_km2": 0.0012, "cover_m2": 21.6, "p_mean": 0.747, "p_max": 0.882, "cover_m2_km2": 18000.0, "h3": "882d568a53fffff", "valid_frac_scene": 1.0, "wind_ms": 2.8, "sea": "спокойное", "scene_reliable": true, "field_event_id": "S4:DOORS3:T17", "field_profile": "B", "field_date": "2024-06-04", "field_distance_km": 170.0, "field_date_gap_days": 476, "field_conc_items_km2": 89.61, "conc_A_items_km2": null, "conc_A_lo80": null, "conc_A_hi80": null, "conc_A_lo95": null, "conc_A_hi95": null, "conc_A_status": "unavailable", "conc_A_status_ru": "концентрация недоступна", "conc_A_reasons": "вне бассейна профиля: nw_atlantic_subtropical", "conc_A_model": "conc-A-c6bce5631d2b", "conc_B_items_km2": 340.6, "conc_B_lo80": 72.3, "conc_B_hi80": 1145.2, "conc_B_lo95": 45.0, "conc_B_hi95": 2144.7, "conc_B_status": "research_estimate", "conc_B_status_ru": "исследовательская оценка", "conc_B_reasons": "ближайшее полевое измерение в 170 км (> 60 км); месяц 9 вне месяцев обучения [6]", "conc_B_model": "conc-B-c6bce5631d2b"}}, {"type": "Feature", "geometry": {"type": "Polygon", "coordinates": [[[39.88128427762774, 43.47191956363204], [39.8812829693124, 43.471829530852816], [39.881159346912625, 43.471830483614916], [39.88115673066704, 43.4716504180461], [39.88128035269989, 43.471649465289964], [39.8812790444027, 43.47155943250636], [39.881527596747425, 43.47164755937678], [39.88152890541759, 43.47173759215297], [39.88165252761574, 43.47173663899295], [39.88165383647543, 43.47182667176471], [39.8815302140938, 43.47182762492771], [39.88153152277608, 43.47191765770099], [39.88128427762774, 43.47191956363204]]]}, "properties": {"zone_id": "sochi-2025-09-23-016", "aoi": "sochi", "date": "2025-09-23", "scene_id": "S2C_MSIL2A_20250923T080701_R078_T37TEJ_20250923T134018", "scene_datetime_utc": "2025-09-23T08:07:01.025000+00:00", "detection_status": "detected", "detection_status_ru": "обнаружено", "lon": 39.88138, "lat": 43.47175, "n_pixels": 3, "zone_area_km2": 0.001, "cover_m2": 11.8, "p_mean": 0.884, "p_max": 0.996, "cover_m2_km2": 11800.0, "h3": "882d568dadfffff", "valid_frac_scene": 1.0, "wind_ms": 2.8, "sea": "спокойное", "scene_reliable": true, "field_event_id": "S4:DOORS3:T17", "field_profile": "B", "field_date": "2024-06-04", "field_distance_km": 183.6, "field_date_gap_days": 476, "field_conc_items_km2": 89.61, "conc_A_items_km2": null, "conc_A_lo80": null, "conc_A_hi80": null, "conc_A_lo95": null, "conc_A_hi95": null, "conc_A_status": "unavailable", "conc_A_status_ru": "концентрация недоступна", "conc_A_reasons": "вне бассейна профиля: nw_atlantic_subtropical", "conc_A_model": "conc-A-c6bce5631d2b", "conc_B_items_km2": 666.4, "conc_B_lo80": 142.3, "conc_B_hi80": 2238.6, "conc_B_lo95": 88.8, "conc_B_hi95": 4191.6, "conc_B_status": "research_estimate", "conc_B_status_ru": "исследовательская оценка", "conc_B_reasons": "ближайшее полевое измерение в 184 км (> 60 км); месяц 9 вне месяцев обучения [6]; log_dist_coast_km = 0.9 вне диапазона обучения [1.7; 5.0]", "conc_B_model": "conc-B-c6bce5631d2b"}}, {"type": "Feature", "geometry": {"type": "Polygon", "coordinates": [[[39.60779348938426, 43.47126923536429], [39.607792587083075, 43.47117919697933], [39.60766895832685, 43.47117985405375], [39.60766715410401, 43.47099977727538], [39.60791350840611, 43.47090842461387], [39.60791441087828, 43.4709984630011], [39.60803803925914, 43.47099780566348], [39.608039844583004, 43.471177882429515], [39.60779348938426, 43.47126923536429]]]}, "properties": {"zone_id": "sochi-2025-09-23-017", "aoi": "sochi", "date": "2025-09-23", "scene_id": "S2C_MSIL2A_20250923T080701_R078_T37TEJ_20250923T134018", "scene_datetime_utc": "2025-09-23T08:07:01.025000+00:00", "detection_status": "detected", "detection_status_ru": "обнаружено", "lon": 39.60785, "lat": 43.47109, "n_pixels": 2, "zone_area_km2": 0.0008, "cover_m2": 7.8, "p_mean": 0.702, "p_max": 0.737, "cover_m2_km2": 9750.0, "h3": "882d568a53fffff", "valid_frac_scene": 1.0, "wind_ms": 2.8, "sea": "спокойное", "scene_reliable": true, "field_event_id": "S4:DOORS3:T17", "field_profile": "B", "field_date": "2024-06-04", "field_distance_km": 169.9, "field_date_gap_days": 476, "field_conc_items_km2": 89.61, "conc_A_items_km2": null, "conc_A_lo80": null, "conc_A_hi80": null, "conc_A_lo95": null, "conc_A_hi95": null, "conc_A_status": "unavailable", "conc_A_status_ru": "концентрация недоступна", "conc_A_reasons": "вне бассейна профиля: nw_atlantic_subtropical", "conc_A_model": "conc-A-c6bce5631d2b", "conc_B_items_km2": 329.9, "conc_B_lo80": 70.0, "conc_B_hi80": 1109.4, "conc_B_lo95": 43.5, "conc_B_hi95": 2077.7, "conc_B_status": "research_estimate", "conc_B_status_ru": "исследовательская оценка", "conc_B_reasons": "ближайшее полевое измерение в 170 км (> 60 км); месяц 9 вне месяцев обучения [6]", "conc_B_model": "conc-B-c6bce5631d2b"}}, {"type": "Feature", "geometry": {"type": "Polygon", "coordinates": [[[39.90385431852014, 43.435005782997656], [39.90385297842854, 43.43491575018858], [39.90372943195647, 43.434916726693125], [39.9037267521581, 43.43473666106449], [39.903972504107465, 43.43464467512375], [39.90397384436358, 43.43473470793414], [39.904097390457025, 43.43473373116879], [39.90410007135408, 43.434913796779114], [39.90385431852014, 43.435005782997656]]]}, "properties": {"zone_id": "sochi-2025-09-23-018", "aoi": "sochi", "date": "2025-09-23", "scene_id": "S2C_MSIL2A_20250923T080701_R078_T37TEJ_20250923T134018", "scene_datetime_utc": "2025-09-23T08:07:01.025000+00:00", "detection_status": "detected", "detection_status_ru": "обнаружено", "lon": 39.90391, "lat": 43.43483, "n_pixels": 2, "zone_area_km2": 0.0008, "cover_m2": 18.8, "p_mean": 0.845, "p_max": 0.914, "cover_m2_km2": 23500.0, "h3": "882d5612b9fffff", "valid_frac_scene": 1.0, "wind_ms": 2.8, "sea": "спокойное", "scene_reliable": true, "field_event_id": "S4:DOORS3:T23", "field_profile": "B", "field_date": "2024-06-10", "field_distance_km": 181.0, "field_date_gap_days": 470, "field_conc_items_km2": 102.37, "conc_A_items_km2": null, "conc_A_lo80": null, "conc_A_hi80": null, "conc_A_lo95": null, "conc_A_hi95": null, "conc_A_status": "unavailable", "conc_A_status_ru": "концентрация недоступна", "conc_A_reasons": "вне бассейна профиля: nw_atlantic_subtropical", "conc_A_model": "conc-A-c6bce5631d2b", "conc_B_items_km2": 666.4, "conc_B_lo80": 142.3, "conc_B_hi80": 2238.6, "conc_B_lo95": 88.8, "conc_B_hi95": 4191.6, "conc_B_status": "research_estimate", "conc_B_status_ru": "исследовательская оценка", "conc_B_reasons": "ближайшее полевое измерение в 181 км (> 60 км); месяц 9 вне месяцев обучения [6]; log_dist_coast_km = 0.9 вне диапазона обучения [1.7; 5.0]", "conc_B_model": "conc-B-c6bce5631d2b"}}, {"type": "Feature", "geometry": {"type": "Polygon", "coordinates": [[[39.861710501629595, 43.43434066323075], [39.86170922404702, 43.43425062938882], [39.8615856775253, 43.43425156035119], [39.861583122744086, 43.43407149265716], [39.861828937301176, 43.433979596767244], [39.861830215049146, 43.43406963061061], [39.86195376119281, 43.434068699387154], [39.86195631707272, 43.43424876706372], [39.861710501629595, 43.43434066323075]]]}, "properties": {"zone_id": "sochi-2025-09-23-019", "aoi": "sochi", "date": "2025-09-23", "scene_id": "S2C_MSIL2A_20250923T080701_R078_T37TEJ_20250923T134018", "scene_datetime_utc": "2025-09-23T08:07:01.025000+00:00", "detection_status": "detected", "detection_status_ru": "обнаружено", "lon": 39.86177, "lat": 43.43416, "n_pixels": 2, "zone_area_km2": 0.0008, "cover_m2": 11.8, "p_mean": 1.0, "p_max": 1.0, "cover_m2_km2": 14750.0, "h3": "882d5612c7fffff", "valid_frac_scene": 1.0, "wind_ms": 2.8, "sea": "спокойное", "scene_reliable": true, "field_event_id": "S4:DOORS3:T17", "field_profile": "B", "field_date": "2024-06-04", "field_distance_km": 179.4, "field_date_gap_days": 476, "field_conc_items_km2": 89.61, "conc_A_items_km2": null, "conc_A_lo80": null, "conc_A_hi80": null, "conc_A_lo95": null, "conc_A_hi95": null, "conc_A_status": "unavailable", "conc_A_status_ru": "концентрация недоступна", "conc_A_reasons": "вне бассейна профиля: nw_atlantic_subtropical", "conc_A_model": "conc-A-c6bce5631d2b", "conc_B_items_km2": 539.0, "conc_B_lo80": 114.9, "conc_B_hi80": 1811.1, "conc_B_lo95": 71.7, "conc_B_hi95": 3391.3, "conc_B_status": "research_estimate", "conc_B_status_ru": "исследовательская оценка", "conc_B_reasons": "ближайшее полевое измерение в 179 км (> 60 км); месяц 9 вне месяцев обучения [6]", "conc_B_model": "conc-B-c6bce5631d2b"}}, {"type": "Feature", "geometry": {"type": "Polygon", "coordinates": [[[39.933717948900856, 43.40036916011429], [39.933716566208545, 43.40027912751182], [39.9335930911712, 43.4002801356417], [39.93359032617132, 43.40010007042607], [39.9337138008431, 43.4000990623025], [39.93371241816997, 43.40000902969565], [39.93395936712879, 43.40000701305493], [39.933960750167486, 43.400097045655464], [39.93408422482009, 43.40009603713202], [39.93408560804796, 43.40018606972796], [39.933962133212574, 43.40018707825456], [39.93396351626406, 43.40027711085218], [39.933717948900856, 43.40036916011429]]]}, "properties": {"zone_id": "sochi-2025-09-23-020", "aoi": "sochi", "date": "2025-09-23", "scene_id": "S2C_MSIL2A_20250923T080701_R078_T37TEJ_20250923T134018", "scene_datetime_utc": "2025-09-23T08:07:01.025000+00:00", "detection_status": "detected", "detection_status_ru": "обнаружено", "lon": 39.93382, "lat": 43.40017, "n_pixels": 3, "zone_area_km2": 0.001, "cover_m2": 14.5, "p_mean": 0.82, "p_max": 0.957, "cover_m2_km2": 14500.0, "h3": "882d5610ebfffff", "valid_frac_scene": 1.0, "wind_ms": 2.8, "sea": "спокойное", "scene_reliable": true, "field_event_id": "S4:DOORS3:T23", "field_profile": "B", "field_date": "2024-06-10", "field_distance_km": 176.6, "field_date_gap_days": 470, "field_conc_items_km2": 102.37, "conc_A_items_km2": null, "conc_A_lo80": null, "conc_A_hi80": null, "conc_A_lo95": null, "conc_A_hi95": null, "conc_A_status": "unavailable", "conc_A_status_ru": "концентрация недоступна", "conc_A_reasons": "вне бассейна профиля: nw_atlantic_subtropical", "conc_A_model": "conc-A-c6bce5631d2b", "conc_B_items_km2": 621.6, "conc_B_lo80": 132.7, "conc_B_hi80": 2088.3, "conc_B_lo95": 82.8, "conc_B_hi95": 3910.2, "conc_B_status": "research_estimate", "conc_B_status_ru": "исследовательская оценка", "conc_B_reasons": "ближайшее полевое измерение в 177 км (> 60 км); месяц 9 вне месяцев обучения [6]; log_dist_coast_km = 1.0 вне диапазона обучения [1.7; 5.0]", "conc_B_model": "conc-B-c6bce5631d2b"}}, {"type": "Feature", "geometry": {"type": "Polygon", "coordinates": [[[39.95168184643402, 43.39616909467312], [39.95168043734894, 43.39607906246962], [39.951556971477935, 43.39608008991565], [39.9515555625821, 43.39599005770748], [39.95167902827037, 43.395989030264666], [39.95167761919831, 43.395898998058264], [39.951925959627346, 43.39598697497922], [39.95192736907139, 43.39607700717775], [39.951803903213424, 43.39607803489033], [39.95180531248125, 43.396168067090606], [39.95168184643402, 43.39616909467312]]]}, "properties": {"zone_id": "sochi-2025-09-23-021", "aoi": "sochi", "date": "2025-09-23", "scene_id": "S2C_MSIL2A_20250923T080701_R078_T37TEJ_20250923T134018", "scene_datetime_utc": "2025-09-23T08:07:01.025000+00:00", "detection_status": "detected", "detection_status_ru": "обнаружено", "lon": 39.95174, "lat": 43.39603, "n_pixels": 1, "zone_area_km2": 0.0005, "cover_m2": 5.5, "p_mean": 0.635, "p_max": 0.635, "cover_m2_km2": 11000.0, "h3": "882d561085fffff", "valid_frac_scene": 1.0, "wind_ms": 2.8, "sea": "спокойное", "scene_reliable": true, "field_event_id": "S4:DOORS3:T23", "field_profile": "B", "field_date": "2024-06-10", "field_distance_km": 175.2, "field_date_gap_days": 470, "field_conc_items_km2": 102.37, "conc_A_items_km2": null, "conc_A_lo80": null, "conc_A_hi80": null, "conc_A_lo95": null, "conc_A_hi95": null, "conc_A_status": "unavailable", "conc_A_status_ru": "концентрация недоступна", "conc_A_reasons": "вне бассейна профиля: nw_atlantic_subtropical", "conc_A_model": "conc-A-c6bce5631d2b", "conc_B_items_km2": 666.4, "conc_B_lo80": 142.3, "conc_B_hi80": 2238.6, "conc_B_lo95": 88.8, "conc_B_hi95": 4191.6, "conc_B_status": "research_estimate", "conc_B_status_ru": "исследовательская оценка", "conc_B_reasons": "ближайшее полевое измерение в 175 км (> 60 км); месяц 9 вне месяцев обучения [6]; log_dist_coast_km = 0.9 вне диапазона обучения [1.7; 5.0]", "conc_B_model": "conc-B-c6bce5631d2b"}}, {"type": "Feature", "geometry": {"type": "Polygon", "coordinates": [[[39.96363519437789, 43.394628288239836], [39.963633767672746, 43.39453825632657], [39.9635103053612, 43.394539296647885], [39.96350887884537, 43.39444926472989], [39.963632340974186, 43.39444822441182], [39.963630914282234, 43.39435819249562], [39.96387926521205, 43.39444614337589], [39.96388069227605, 43.39453617528413], [39.963757229977695, 43.39453721587198], [39.963758656865565, 43.394627247782005], [39.96363519437789, 43.394628288239836]]]}, "properties": {"zone_id": "sochi-2025-09-23-022", "aoi": "sochi", "date": "2025-09-23", "scene_id": "S2C_MSIL2A_20250923T080701_R078_T37TEJ_20250923T134018", "scene_datetime_utc": "2025-09-23T08:07:01.025000+00:00", "detection_status": "detected", "detection_status_ru": "обнаружено", "lon": 39.96369, "lat": 43.39449, "n_pixels": 1, "zone_area_km2": 0.0005, "cover_m2": 4.3, "p_mean": 0.745, "p_max": 0.745, "cover_m2_km2": 8600.0, "h3": "882d5610abfffff", "valid_frac_scene": 1.0, "wind_ms": 2.8, "sea": "спокойное", "scene_reliable": true, "field_event_id": "S4:DOORS3:T23", "field_profile": "B", "field_date": "2024-06-10", "field_distance_km": 174.4, "field_date_gap_days": 470, "field_conc_items_km2": 102.37, "conc_A_items_km2": null, "conc_A_lo80": null, "conc_A_hi80": null, "conc_A_lo95": null, "conc_A_hi95": null, "conc_A_status": "unavailable", "conc_A_status_ru": "концентрация недоступна", "conc_A_reasons": "вне бассейна профиля: nw_atlantic_subtropical", "conc_A_model": "conc-A-c6bce5631d2b", "conc_B_items_km2": 901.4, "conc_B_lo80": 192.7, "conc_B_hi80": 3027.3, "conc_B_lo95": 120.4, "conc_B_hi95": 5668.0, "conc_B_status": "research_estimate", "conc_B_status_ru": "исследовательская оценка", "conc_B_reasons": "ближайшее полевое измерение в 174 км (> 60 км); месяц 9 вне месяцев обучения [6]; log_dist_coast_km = 0.0 вне диапазона обучения [1.7; 5.0]", "conc_B_model": "conc-B-c6bce5631d2b"}}, {"type": "Feature", "geometry": {"type": "Polygon", "coordinates": [[[39.930378092588064, 43.39193224955635], [39.93037671524678, 43.391842216735014], [39.93025325722145, 43.39184322110401], [39.930251880069235, 43.391753188278074], [39.93037533791186, 43.39175218391222], [39.93037396058331, 43.39166215108796], [39.930622253578015, 43.391750174780725], [39.93062363127833, 43.39184020759724], [39.930500173265735, 43.39184121223275], [39.93050155078973, 43.39193124505095], [39.930378092588064, 43.39193224955635]]]}, "properties": {"zone_id": "sochi-2025-09-23-023", "aoi": "sochi", "date": "2025-09-23", "scene_id": "S2C_MSIL2A_20250923T080701_R078_T37TEJ_20250923T134018", "scene_datetime_utc": "2025-09-23T08:07:01.025000+00:00", "detection_status": "detected", "detection_status_ru": "обнаружено", "lon": 39.93044, "lat": 43.3918, "n_pixels": 1, "zone_area_km2": 0.0005, "cover_m2": 6.3, "p_mean": 0.827, "p_max": 0.827, "cover_m2_km2": 12600.0, "h3": "882d5610e1fffff", "valid_frac_scene": 1.0, "wind_ms": 2.8, "sea": "спокойное", "scene_reliable": true, "field_event_id": "S4:DOORS3:T23", "field_profile": "B", "field_date": "2024-06-10", "field_distance_km": 176.2, "field_date_gap_days": 470, "field_conc_items_km2": 102.37, "conc_A_items_km2": null, "conc_A_lo80": null, "conc_A_hi80": null, "conc_A_lo95": null, "conc_A_hi95": null, "conc_A_status": "unavailable", "conc_A_status_ru": "концентрация недоступна", "conc_A_reasons": "вне бассейна профиля: nw_atlantic_subtropical", "conc_A_model": "conc-A-c6bce5631d2b", "conc_B_items_km2": 621.6, "conc_B_lo80": 132.7, "conc_B_hi80": 2088.3, "conc_B_lo95": 82.8, "conc_B_hi95": 3910.2, "conc_B_status": "research_estimate", "conc_B_status_ru": "исследовательская оценка", "conc_B_reasons": "ближайшее полевое измерение в 176 км (> 60 км); месяц 9 вне месяцев обучения [6]; log_dist_coast_km = 1.0 вне диапазона обучения [1.7; 5.0]", "conc_B_model": "conc-B-c6bce5631d2b"}}, {"type": "Feature", "geometry": {"type": "Polygon", "coordinates": [[[40.01380472579242, 43.382038579305245], [40.013803225475954, 43.381948548556096], [40.0136797905832, 43.381949642785486], [40.01367829045627, 43.38185961203145], [40.01380172516644, 43.38185851780549], [40.01380022486385, 43.38176848705342], [40.01404709389819, 43.38176629820874], [40.01404859456596, 43.381856328953965], [40.01417202925533, 43.381855234328405], [40.01417353011263, 43.38194526506876], [40.01405009524068, 43.38194635969774], [40.01405159592232, 43.38203639044005], [40.01380472579242, 43.382038579305245]]]}, "properties": {"zone_id": "sochi-2025-09-23-024", "aoi": "sochi", "date": "2025-09-23", "scene_id": "S2C_MSIL2A_20250923T080701_R078_T37TEJ_20250923T134018", "scene_datetime_utc": "2025-09-23T08:07:01.025000+00:00", "detection_status": "detected", "detection_status_ru": "обнаружено", "lon": 40.01393, "lat": 43.3819, "n_pixels": 2, "zone_area_km2": 0.0008, "cover_m2": 16.5, "p_mean": 0.702, "p_max": 0.855, "cover_m2_km2": 20625.0, "h3": "882d560255fffff", "valid_frac_scene": 1.0, "wind_ms": 2.8, "sea": "спокойное", "scene_reliable": true, "field_event_id": "S4:DOORS3:T23", "field_profile": "B", "field_date": "2024-06-10", "field_distance_km": 170.4, "field_date_gap_days": 470, "field_conc_items_km2": 102.37, "conc_A_items_km2": null, "conc_A_lo80": null, "conc_A_hi80": null, "conc_A_lo95": null, "conc_A_hi95": null, "conc_A_status": "unavailable", "conc_A_status_ru": "концентрация недоступна", "conc_A_reasons": "вне бассейна профиля: nw_atlantic_subtropical", "conc_A_model": "conc-A-c6bce5631d2b", "conc_B_items_km2": 901.4, "conc_B_lo80": 192.7, "conc_B_hi80": 3027.3, "conc_B_lo95": 120.4, "conc_B_hi95": 5668.0, "conc_B_status": "research_estimate", "conc_B_status_ru": "исследовательская оценка", "conc_B_reasons": "ближайшее полевое измерение в 170 км (> 60 км); месяц 9 вне месяцев обучения [6]; log_dist_coast_km = 0.0 вне диапазона обучения [1.7; 5.0]", "conc_B_model": "conc-B-c6bce5631d2b"}}]}