{"type": "FeatureCollection", "features": [{"type": "Feature", "geometry": {"type": "Polygon", "coordinates": [[[41.54287994605461, 42.21852548699008], [41.54275167885866, 42.21834822321707], [41.542872721653204, 42.21834553824675], [41.54286910947726, 42.21825556387258], [41.5429901520838, 42.2182528787831], [41.542986539752874, 42.21816290441568], [41.543232237247366, 42.21824750822137], [41.54323584993778, 42.21833748257028], [41.543114807192765, 42.218340167923344], [41.543118419728195, 42.218430142279026], [41.54287994605461, 42.21852548699008]]]}, "properties": {"zone_id": "s4_poti-2024-06-12-001", "aoi": "s4_poti", "date": "2024-06-12", "scene_id": "S2B_MSIL2A_20240612T075609_R035_T37TGG_20240612T123952", "scene_datetime_utc": "2024-06-12T07:56:09.024000+00:00", "detection_status": "detected", "detection_status_ru": "обнаружено", "lon": 41.54299, "lat": 42.21834, "n_pixels": 2, "zone_area_km2": 0.0008, "cover_m2": 8.6, "p_mean": 0.776, "p_max": 0.859, "cover_m2_km2": 10750.0, "h3": "882c218111fffff", "valid_frac_scene": 1.0, "wind_ms": 3.5, "sea": "спокойное", "scene_reliable": true, "field_event_id": "S4:DOORS3:T24", "field_profile": "B", "field_date": "2024-06-10", "field_distance_km": 3.5, "field_date_gap_days": 2, "field_conc_items_km2": 600.49, "conc_A_items_km2": null, "conc_A_lo80": null, "conc_A_hi80": null, "conc_A_lo95": null, "conc_A_hi95": null, "conc_A_status": "unavailable", "conc_A_status_ru": "концентрация недоступна", "conc_A_reasons": "вне бассейна профиля: nw_atlantic_subtropical", "conc_A_model": "conc-A-c6bce5631d2b", "conc_B_items_km2": 409.9, "conc_B_lo80": 87.2, "conc_B_hi80": 1377.8, "conc_B_lo95": 54.3, "conc_B_hi95": 2580.1, "conc_B_status": "model_estimate", "conc_B_status_ru": "модельная оценка", "conc_B_reasons": "", "conc_B_model": "conc-B-c6bce5631d2b"}}, {"type": "Feature", "geometry": {"type": "Polygon", "coordinates": [[[41.547961341143406, 42.20931714892604], [41.54783307991388, 42.20913989046393], [41.5479541046486, 42.209137200603905], [41.547950486426004, 42.20904722644034], [41.54819615406845, 42.2091318205012], [41.5481997726504, 42.20922179464624], [41.54807874777734, 42.2092244847698], [41.54808236620441, 42.20931445892159], [41.547961341143406, 42.20931714892604]]]}, "properties": {"zone_id": "s4_poti-2024-06-12-002", "aoi": "s4_poti", "date": "2024-06-12", "scene_id": "S2B_MSIL2A_20240612T075609_R035_T37TGG_20240612T123952", "scene_datetime_utc": "2024-06-12T07:56:09.024000+00:00", "detection_status": "detected", "detection_status_ru": "обнаружено", "lon": 41.54802, "lat": 42.20918, "n_pixels": 1, "zone_area_km2": 0.0005, "cover_m2": 4.3, "p_mean": 0.851, "p_max": 0.851, "cover_m2_km2": 8600.0, "h3": "882c218117fffff", "valid_frac_scene": 1.0, "wind_ms": 3.5, "sea": "спокойное", "scene_reliable": true, "field_event_id": "S4:DOORS3:T24", "field_profile": "B", "field_date": "2024-06-10", "field_distance_km": 2.6, "field_date_gap_days": 2, "field_conc_items_km2": 600.49, "conc_A_items_km2": null, "conc_A_lo80": null, "conc_A_hi80": null, "conc_A_lo95": null, "conc_A_hi95": null, "conc_A_status": "unavailable", "conc_A_status_ru": "концентрация недоступна", "conc_A_reasons": "вне бассейна профиля: nw_atlantic_subtropical", "conc_A_model": "conc-A-c6bce5631d2b", "conc_B_items_km2": 433.9, "conc_B_lo80": 92.4, "conc_B_hi80": 1458.6, "conc_B_lo95": 57.5, "conc_B_hi95": 2731.3, "conc_B_status": "model_estimate", "conc_B_status_ru": "модельная оценка", "conc_B_reasons": "", "conc_B_model": "conc-B-c6bce5631d2b"}}, {"type": "Feature", "geometry": {"type": "Polygon", "coordinates": [[[41.549458638957084, 42.2073927135069], [41.5494550188205, 42.20730273942127], [41.549333997728766, 42.20730543077066], [41.549326757848014, 42.20712548257753], [41.54956517907105, 42.207030125702744], [41.54956879932939, 42.207120099784945], [41.54968982004527, 42.20711740819734], [41.549697060954365, 42.20729735633986], [41.549458638957084, 42.2073927135069]]]}, "properties": {"zone_id": "s4_poti-2024-06-12-003", "aoi": "s4_poti", "date": "2024-06-12", "scene_id": "S2B_MSIL2A_20240612T075609_R035_T37TGG_20240612T123952", "scene_datetime_utc": "2024-06-12T07:56:09.024000+00:00", "detection_status": "detected", "detection_status_ru": "обнаружено", "lon": 41.54951, "lat": 42.20721, "n_pixels": 2, "zone_area_km2": 0.0008, "cover_m2": 8.6, "p_mean": 0.802, "p_max": 0.835, "cover_m2_km2": 10750.0, "h3": "882c218117fffff", "valid_frac_scene": 1.0, "wind_ms": 3.5, "sea": "спокойное", "scene_reliable": true, "field_event_id": "S4:DOORS3:T24", "field_profile": "B", "field_date": "2024-06-10", "field_distance_km": 2.4, "field_date_gap_days": 2, "field_conc_items_km2": 600.49, "conc_A_items_km2": null, "conc_A_lo80": null, "conc_A_hi80": null, "conc_A_lo95": null, "conc_A_hi95": null, "conc_A_status": "unavailable", "conc_A_status_ru": "концентрация недоступна", "conc_A_reasons": "вне бассейна профиля: nw_atlantic_subtropical", "conc_A_model": "conc-A-c6bce5631d2b", "conc_B_items_km2": 433.9, "conc_B_lo80": 92.4, "conc_B_hi80": 1458.6, "conc_B_lo95": 57.5, "conc_B_hi95": 2731.3, "conc_B_status": "model_estimate", "conc_B_status_ru": "модельная оценка", "conc_B_reasons": "", "conc_B_model": "conc-B-c6bce5631d2b"}}]}