{"type": "FeatureCollection", "features": [{"type": "Feature", "geometry": {"type": "Polygon", "coordinates": [[[131.90871570306146, 43.07319511546546], [131.9087114462565, 43.073105181952286], [131.90846184182072, 43.073021489552666], [131.90845758541275, 43.07293155601646], [131.90858025906886, 43.072928435534216], [131.90857600250158, 43.07283850200601], [131.90894402281555, 43.07282913980061], [131.90894827991954, 43.07291907329955], [131.90919362705537, 43.072912831153175], [131.90919788453678, 43.07300276463087], [131.9093205582542, 43.07299964335094], [131.90932481593413, 43.07308957681711], [131.90920214203777, 43.073092698106784], [131.90920639955837, 43.07318263158095], [131.90871570306146, 43.07319511546546]]]}, "properties": {"zone_id": "vladivostok-2025-05-18-001", "aoi": "vladivostok", "date": "2025-05-18", "scene_id": "S2C_MSIL2A_20250518T020711_R103_T52TGN_20250518T054914", "scene_datetime_utc": "2025-05-18T02:07:11.025000+00:00", "detection_status": "detected", "detection_status_ru": "обнаружено", "lon": 131.90887, "lat": 43.07302, "n_pixels": 7, "zone_area_km2": 0.0019, "cover_m2": 20.4, "p_mean": 0.85, "p_max": 0.996, "cover_m2_km2": 10736.8, "h3": "88316c0917fffff", "valid_frac_scene": 0.832, "wind_ms": 5.4, "sea": "спокойное", "scene_reliable": false, "field_event_id": "S4:DOORS3:T23", "field_profile": "B", "field_date": "2024-06-10", "field_distance_km": 6986.8, "field_date_gap_days": 342, "field_conc_items_km2": 102.37, "conc_A_items_km2": null, "conc_A_lo80": null, "conc_A_hi80": null, "conc_A_lo95": null, "conc_A_hi95": null, "conc_A_status": "unavailable", "conc_A_status_ru": "концентрация недоступна", "conc_A_reasons": "вне бассейна профиля: nw_atlantic_subtropical", "conc_A_model": "conc-A-c6bce5631d2b", "conc_B_items_km2": null, "conc_B_lo80": null, "conc_B_hi80": null, "conc_B_lo95": null, "conc_B_hi95": null, "conc_B_status": "unavailable", "conc_B_status_ru": "концентрация недоступна", "conc_B_reasons": "вне бассейна профиля: black_sea", "conc_B_model": "conc-B-c6bce5631d2b"}}, {"type": "Feature", "geometry": {"type": "Polygon", "coordinates": [[[131.9024672850768, 43.07092276811014], [131.90246303774552, 43.070832834062394], [131.90221345048684, 43.07074912747037], [131.90220920355242, 43.07065919339964], [131.9023318733568, 43.0706560797463], [131.90232762626303, 43.07056614568354], [131.90245029586893, 43.07056303190862], [131.90244604861584, 43.070473097853835], [131.90281405677953, 43.070463755770355], [131.90281830456928, 43.07055368979595], [131.902940974097, 43.070550575495766], [131.9029452220852, 43.07064050950985], [131.90270413030245, 43.07073667203016], [131.902708377972, 43.070826606060194], [131.9024672850768, 43.07092276811014]]]}, "properties": {"zone_id": "vladivostok-2025-05-18-002", "aoi": "vladivostok", "date": "2025-05-18", "scene_id": "S2C_MSIL2A_20250518T020711_R103_T52TGN_20250518T054914", "scene_datetime_utc": "2025-05-18T02:07:11.025000+00:00", "detection_status": "detected", "detection_status_ru": "обнаружено", "lon": 131.90257, "lat": 43.07067, "n_pixels": 7, "zone_area_km2": 0.0017, "cover_m2": 71.0, "p_mean": 0.852, "p_max": 0.984, "cover_m2_km2": 41764.7, "h3": "88316c09edfffff", "valid_frac_scene": 0.832, "wind_ms": 5.4, "sea": "спокойное", "scene_reliable": false, "field_event_id": "S4:DOORS3:T23", "field_profile": "B", "field_date": "2024-06-10", "field_distance_km": 6986.5, "field_date_gap_days": 342, "field_conc_items_km2": 102.37, "conc_A_items_km2": null, "conc_A_lo80": null, "conc_A_hi80": null, "conc_A_lo95": null, "conc_A_hi95": null, "conc_A_status": "unavailable", "conc_A_status_ru": "концентрация недоступна", "conc_A_reasons": "вне бассейна профиля: nw_atlantic_subtropical", "conc_A_model": "conc-A-c6bce5631d2b", "conc_B_items_km2": null, "conc_B_lo80": null, "conc_B_hi80": null, "conc_B_lo95": null, "conc_B_hi95": null, "conc_B_status": "unavailable", "conc_B_status_ru": "концентрация недоступна", "conc_B_reasons": "вне бассейна профиля: black_sea", "conc_B_model": "conc-B-c6bce5631d2b"}}, {"type": "Feature", "geometry": {"type": "Polygon", "coordinates": [[[131.93526356073934, 43.060721210470085], [131.9352592669873, 43.06063127889135], [131.93501397453457, 43.06063757548918], [131.9350096811598, 43.06054764388899], [131.9348870350826, 43.06055079198119], [131.93488274190636, 43.0604608603694], [131.93500538780484, 43.06045771228705], [131.93500109446958, 43.06036778068332], [131.93536903151002, 43.060358335678245], [131.9353733253816, 43.060448267252454], [131.935495971201, 43.06044511864508], [131.93550455936094, 43.0606249817685], [131.93526356073934, 43.060721210470085]]]}, "properties": {"zone_id": "vladivostok-2025-05-18-003", "aoi": "vladivostok", "date": "2025-05-18", "scene_id": "S2C_MSIL2A_20250518T020711_R103_T52TGN_20250518T054914", "scene_datetime_utc": "2025-05-18T02:07:11.025000+00:00", "detection_status": "detected", "detection_status_ru": "обнаружено", "lon": 131.93522, "lat": 43.06052, "n_pixels": 4, "zone_area_km2": 0.0013, "cover_m2": 19.6, "p_mean": 0.772, "p_max": 0.992, "cover_m2_km2": 15076.9, "h3": "88316c09c3fffff", "valid_frac_scene": 0.832, "wind_ms": 5.4, "sea": "спокойное", "scene_reliable": false, "field_event_id": "S4:DOORS3:T23", "field_profile": "B", "field_date": "2024-06-10", "field_distance_km": 6989.3, "field_date_gap_days": 342, "field_conc_items_km2": 102.37, "conc_A_items_km2": null, "conc_A_lo80": null, "conc_A_hi80": null, "conc_A_lo95": null, "conc_A_hi95": null, "conc_A_status": "unavailable", "conc_A_status_ru": "концентрация недоступна", "conc_A_reasons": "вне бассейна профиля: nw_atlantic_subtropical", "conc_A_model": "conc-A-c6bce5631d2b", "conc_B_items_km2": null, "conc_B_lo80": null, "conc_B_hi80": null, "conc_B_lo95": null, "conc_B_hi95": null, "conc_B_status": "unavailable", "conc_B_status_ru": "концентрация недоступна", "conc_B_reasons": "вне бассейна профиля: black_sea", "conc_B_model": "conc-B-c6bce5631d2b"}}, {"type": "Feature", "geometry": {"type": "Polygon", "coordinates": [[[131.93286463253705, 43.059342098676936], [131.93286034249778, 43.0592521668831], [131.93273769876637, 43.05925531259647], [131.93273340892563, 43.05916538079104], [131.93285605247826, 43.0591622350875], [131.93285176247846, 43.05907230329014], [131.93309704916697, 43.05906601150898], [131.9330927588294, 43.05897607972951], [131.93321540196524, 43.05897293365189], [131.93321111146867, 43.05888300188048], [131.93346068817772, 43.05896664110289], [131.9334649790516, 43.05905657285287], [131.93322398301768, 43.05915279718938], [131.93322827357352, 43.05924272895549], [131.93310562990135, 43.0592458750626], [131.93310992029814, 43.05933580683678], [131.93286463253705, 43.059342098676936]]]}, "properties": {"zone_id": "vladivostok-2025-05-18-004", "aoi": "vladivostok", "date": "2025-05-18", "scene_id": "S2C_MSIL2A_20250518T020711_R103_T52TGN_20250518T054914", "scene_datetime_utc": "2025-05-18T02:07:11.025000+00:00", "detection_status": "detected", "detection_status_ru": "обнаружено", "lon": 131.9331, "lat": 43.05913, "n_pixels": 4, "zone_area_km2": 0.0014, "cover_m2": 23.1, "p_mean": 0.921, "p_max": 0.969, "cover_m2_km2": 16500.0, "h3": "88316c0989fffff", "valid_frac_scene": 0.832, "wind_ms": 5.4, "sea": "спокойное", "scene_reliable": false, "field_event_id": "S4:DOORS3:T23", "field_profile": "B", "field_date": "2024-06-10", "field_distance_km": 6989.3, "field_date_gap_days": 342, "field_conc_items_km2": 102.37, "conc_A_items_km2": null, "conc_A_lo80": null, "conc_A_hi80": null, "conc_A_lo95": null, "conc_A_hi95": null, "conc_A_status": "unavailable", "conc_A_status_ru": "концентрация недоступна", "conc_A_reasons": "вне бассейна профиля: nw_atlantic_subtropical", "conc_A_model": "conc-A-c6bce5631d2b", "conc_B_items_km2": null, "conc_B_lo80": null, "conc_B_hi80": null, "conc_B_lo95": null, "conc_B_hi95": null, "conc_B_status": "unavailable", "conc_B_status_ru": "концентрация недоступна", "conc_B_reasons": "вне бассейна профиля: black_sea", "conc_B_model": "conc-B-c6bce5631d2b"}}, {"type": "Feature", "geometry": {"type": "Polygon", "coordinates": [[[131.64104060306664, 43.01783086130358], [131.64103674517284, 43.017740906511904], [131.64078770456885, 43.0176566130899], [131.64077613211862, 43.017386748646494], [131.64089872295574, 43.01738391805294], [131.64089486532927, 43.01729396324393], [131.64114004659316, 43.01728830168104], [131.6411439045768, 43.01737825647235], [131.64126649536067, 43.01737542548532], [131.6412703535406, 43.01746538026608], [131.64114776257816, 43.01746821126197], [131.64115162059727, 43.01755816604989], [131.64127421173828, 43.017555335045145], [131.6412819281869, 43.017735244598185], [131.64104060306664, 43.01783086130358]]]}, "properties": {"zone_id": "vladivostok-2025-05-18-005", "aoi": "vladivostok", "date": "2025-05-18", "scene_id": "S2C_MSIL2A_20250518T020711_R103_T52TGN_20250518T054914", "scene_datetime_utc": "2025-05-18T02:07:11.025000+00:00", "detection_status": "detected", "detection_status_ru": "обнаружено", "lon": 131.64103, "lat": 43.01755, "n_pixels": 6, "zone_area_km2": 0.0017, "cover_m2": 37.6, "p_mean": 0.799, "p_max": 0.949, "cover_m2_km2": 22117.6, "h3": "88316c4e27fffff", "valid_frac_scene": 0.832, "wind_ms": 5.4, "sea": "спокойное", "scene_reliable": false, "field_event_id": "S4:DOORS3:T23", "field_profile": "B", "field_date": "2024-06-10", "field_distance_km": 6972.1, "field_date_gap_days": 342, "field_conc_items_km2": 102.37, "conc_A_items_km2": null, "conc_A_lo80": null, "conc_A_hi80": null, "conc_A_lo95": null, "conc_A_hi95": null, "conc_A_status": "unavailable", "conc_A_status_ru": "концентрация недоступна", "conc_A_reasons": "вне бассейна профиля: nw_atlantic_subtropical", "conc_A_model": "conc-A-c6bce5631d2b", "conc_B_items_km2": null, "conc_B_lo80": null, "conc_B_hi80": null, "conc_B_lo95": null, "conc_B_hi95": null, "conc_B_status": "unavailable", "conc_B_status_ru": "концентрация недоступна", "conc_B_reasons": "вне бассейна профиля: black_sea", "conc_B_model": "conc-B-c6bce5631d2b"}}, {"type": "Feature", "geometry": {"type": "Polygon", "coordinates": [[[131.63733587659578, 43.01728604188284], [131.63733202418314, 43.01719608681394], [131.63708299049583, 43.01711178512137], [131.63707528647348, 43.01693187493976], [131.6371978767714, 43.016929048334], [131.63719402460825, 43.01683909324948], [131.63744305731416, 43.01692339472903], [131.63744690985214, 43.01701334979417], [131.63756950027548, 43.01701052278611], [131.6375733530098, 43.01710047784071], [131.63769594359397, 43.01709765069265], [131.63769979652454, 43.01718760573673], [131.6375772057618, 43.01719043289362], [131.63758105853154, 43.017280387944844], [131.63733587659578, 43.01728604188284]]]}, "properties": {"zone_id": "vladivostok-2025-05-18-006", "aoi": "vladivostok", "date": "2025-05-18", "scene_id": "S2C_MSIL2A_20250518T020711_R103_T52TGN_20250518T054914", "scene_datetime_utc": "2025-05-18T02:07:11.025000+00:00", "detection_status": "detected", "detection_status_ru": "обнаружено", "lon": 131.63736, "lat": 43.01708, "n_pixels": 5, "zone_area_km2": 0.0014, "cover_m2": 58.4, "p_mean": 0.767, "p_max": 0.922, "cover_m2_km2": 41714.3, "h3": "88316c4e27fffff", "valid_frac_scene": 0.832, "wind_ms": 5.4, "sea": "спокойное", "scene_reliable": false, "field_event_id": "S4:DOORS3:T23", "field_profile": "B", "field_date": "2024-06-10", "field_distance_km": 6971.9, "field_date_gap_days": 342, "field_conc_items_km2": 102.37, "conc_A_items_km2": null, "conc_A_lo80": null, "conc_A_hi80": null, "conc_A_lo95": null, "conc_A_hi95": null, "conc_A_status": "unavailable", "conc_A_status_ru": "концентрация недоступна", "conc_A_reasons": "вне бассейна профиля: nw_atlantic_subtropical", "conc_A_model": "conc-A-c6bce5631d2b", "conc_B_items_km2": null, "conc_B_lo80": null, "conc_B_hi80": null, "conc_B_lo95": null, "conc_B_hi95": null, "conc_B_status": "unavailable", "conc_B_status_ru": "концентрация недоступна", "conc_B_reasons": "вне бассейна профиля: black_sea", "conc_B_model": "conc-B-c6bce5631d2b"}}]}