{"type": "FeatureCollection", "features": [{"type": "Feature", "geometry": {"type": "Polygon", "coordinates": [[[37.09809658929132, 45.03798849115278], [37.09809957079168, 45.03789852215556], [37.09797267820802, 45.037896408155774], [37.09797864156395, 45.037716470169755], [37.09810553375035, 45.037718584156366], [37.09810851520866, 45.0376286151544], [37.09823540721045, 45.0376307289935], [37.09823838845611, 45.03754075998337], [37.09848919125611, 45.037634956248965], [37.09848322951724, 45.03781489429087], [37.09822646338937, 45.037900636014434], [37.09822348208764, 45.037990605018244], [37.09809658929132, 45.03798849115278]]]}, "properties": {"zone_id": "kerch-2025-06-13-001", "aoi": "kerch", "date": "2025-06-13", "scene_id": "S2A_MSIL2A_20250613T083531_R021_T37TCK_20250613T104218", "scene_datetime_utc": "2025-06-13T08:35:31.024000+00:00", "detection_status": "detected", "detection_status_ru": "обнаружено", "lon": 37.09823, "lat": 45.03777, "n_pixels": 4, "zone_area_km2": 0.0012, "cover_m2": 58.8, "p_mean": 0.93, "p_max": 0.957, "cover_m2_km2": 49000.0, "h3": "882d76202bfffff", "valid_frac_scene": 0.993, "wind_ms": 4.8, "sea": "спокойное", "scene_reliable": false, "field_event_id": "S4:DOORS3:T11", "field_profile": "B", "field_date": "2024-06-04", "field_distance_km": 285.0, "field_date_gap_days": 374, "field_conc_items_km2": 62.52, "conc_A_items_km2": null, "conc_A_lo80": null, "conc_A_hi80": null, "conc_A_lo95": null, "conc_A_hi95": null, "conc_A_status": "unavailable", "conc_A_status_ru": "концентрация недоступна", "conc_A_reasons": "вне бассейна профиля: nw_atlantic_subtropical", "conc_A_model": "conc-A-c6bce5631d2b", "conc_B_items_km2": 901.4, "conc_B_lo80": 192.7, "conc_B_hi80": 3027.3, "conc_B_lo95": 120.4, "conc_B_hi95": 5668.0, "conc_B_status": "research_estimate", "conc_B_status_ru": "исследовательская оценка", "conc_B_reasons": "ближайшее полевое измерение в 285 км (> 60 км); log_dist_coast_km = 0.0 вне диапазона обучения [1.7; 5.0]", "conc_B_model": "conc-B-c6bce5631d2b"}}, {"type": "Feature", "geometry": {"type": "Polygon", "coordinates": [[[37.12746397856468, 44.94332351547619], [37.12746690437615, 44.94323354345975], [37.127340218359, 44.94323146549226], [37.127343144354384, 44.94314149348073], [37.12746983017388, 44.943143571441745], [37.12747275595787, 44.94305359942216], [37.12759944159343, 44.94305567723623], [37.12760236716601, 44.94296570520859], [37.127982423562194, 44.94297193778862], [37.12798534852806, 44.94288196573997], [37.128112033823264, 44.94288404297926], [37.12810910905507, 44.94297401503439], [37.128235794561675, 44.9429760921397], [37.128232869977396, 44.94306606419975], [37.12797657358925, 44.9431518818812], [37.12797364858218, 44.94324185392514], [37.127593590407045, 44.943235621286775], [37.12759066479323, 44.94332559330971], [37.12746397856468, 44.94332351547619]]]}, "properties": {"zone_id": "kerch-2025-06-13-002", "aoi": "kerch", "date": "2025-06-13", "scene_id": "S2A_MSIL2A_20250613T083531_R021_T37TCK_20250613T104218", "scene_datetime_utc": "2025-06-13T08:35:31.024000+00:00", "detection_status": "detected", "detection_status_ru": "обнаружено", "lon": 37.12779, "lat": 44.9431, "n_pixels": 5, "zone_area_km2": 0.0017, "cover_m2": 48.6, "p_mean": 0.762, "p_max": 0.988, "cover_m2_km2": 28588.2, "h3": "882d762a17fffff", "valid_frac_scene": 0.993, "wind_ms": 4.8, "sea": "спокойное", "scene_reliable": false, "field_event_id": "S4:DOORS3:T11", "field_profile": "B", "field_date": "2024-06-04", "field_distance_km": 274.8, "field_date_gap_days": 374, "field_conc_items_km2": 62.52, "conc_A_items_km2": null, "conc_A_lo80": null, "conc_A_hi80": null, "conc_A_lo95": null, "conc_A_hi95": null, "conc_A_status": "unavailable", "conc_A_status_ru": "концентрация недоступна", "conc_A_reasons": "вне бассейна профиля: nw_atlantic_subtropical", "conc_A_model": "conc-A-c6bce5631d2b", "conc_B_items_km2": 397.3, "conc_B_lo80": 84.5, "conc_B_hi80": 1335.7, "conc_B_lo95": 52.6, "conc_B_hi95": 2501.3, "conc_B_status": "research_estimate", "conc_B_status_ru": "исследовательская оценка", "conc_B_reasons": "ближайшее полевое измерение в 275 км (> 60 км)", "conc_B_model": "conc-B-c6bce5631d2b"}}]}