{"type": "FeatureCollection", "features": [{"type": "Feature", "geometry": {"type": "Polygon", "coordinates": [[[29.92101787436372, 60.06551638533678], [29.921009941341946, 60.06542671032126], [29.920830536815547, 60.06543067549376], [29.920814671893687, 60.06525132542863], [29.920994075449006, 60.0652473602847], [29.92098614257784, 60.065157685263614], [29.921344948566794, 60.06514975427477], [29.92133701477476, 60.065060079280414], [29.921687884878942, 60.064962472379776], [29.921679950216266, 60.06487279741027], [29.922038752890376, 60.064864864561734], [29.922046688524105, 60.06495453950269], [29.922226090271362, 60.06495057269939], [29.92224196266053, 60.06512992254716], [29.921891092472535, 60.06522753091741], [29.921899027821595, 60.06531720586521], [29.92171962403177, 60.06532117223929], [29.921727558945513, 60.06541084719952], [29.921189345818153, 60.0654227449056], [29.92119727932547, 60.065512419906824], [29.92101787436372, 60.06551638533678]]]}, "properties": {"zone_id": "neva-2025-11-15-001", "aoi": "neva", "date": "2025-11-15", "scene_id": "S2A_MSIL2A_20251115T092301_R093_T36VUM_20251115T110312", "scene_datetime_utc": "2025-11-15T09:23:01.024000+00:00", "detection_status": "detected", "detection_status_ru": "обнаружено", "lon": 29.92158, "lat": 60.06518, "n_pixels": 13, "zone_area_km2": 0.0029, "cover_m2": 207.8, "p_mean": 0.935, "p_max": 1.0, "cover_m2_km2": 71655.2, "h3": "881106ba5dfffff", "valid_frac_scene": 0.736, "wind_ms": 8.8, "sea": "шторм", "scene_reliable": false, "field_event_id": "S3:HE419_MarLitter_transect28", "field_profile": "B", "field_date": "2014-04-11", "field_distance_km": 1411.2, "field_date_gap_days": 4236, "field_conc_items_km2": 43.1, "conc_A_items_km2": null, "conc_A_lo80": null, "conc_A_hi80": null, "conc_A_lo95": null, "conc_A_hi95": null, "conc_A_status": "unavailable", "conc_A_status_ru": "концентрация недоступна", "conc_A_reasons": "вне бассейна профиля: nw_atlantic_subtropical", "conc_A_model": "conc-A-c6bce5631d2b", "conc_B_items_km2": null, "conc_B_lo80": null, "conc_B_hi80": null, "conc_B_lo95": null, "conc_B_hi95": null, "conc_B_status": "unavailable", "conc_B_status_ru": "концентрация недоступна", "conc_B_reasons": "вне бассейна профиля: black_sea", "conc_B_model": "conc-B-c6bce5631d2b"}}, {"type": "Feature", "geometry": {"type": "Polygon", "coordinates": [[[29.824939981508464, 60.064460295674586], [29.824932309530826, 60.064370613094695], [29.824752895634205, 60.06437444790829], [29.82473755279593, 60.064195082715464], [29.824916965721208, 60.06419124792949], [29.824909293889224, 60.06410156534413], [29.8252681186228, 60.06409389507015], [29.82527579142611, 60.06418357762786], [29.825455204205728, 60.06417974211222], [29.825470550929357, 60.064359107194576], [29.8252911371784, 60.06436294273783], [29.82529881012739, 60.064452625290095], [29.824939981508464, 60.064460295674586]]]}, "properties": {"zone_id": "neva-2025-11-15-002", "aoi": "neva", "date": "2025-11-15", "scene_id": "S2A_MSIL2A_20251115T092301_R093_T36VUM_20251115T110312", "scene_datetime_utc": "2025-11-15T09:23:01.024000+00:00", "detection_status": "detected", "detection_status_ru": "обнаружено", "lon": 29.8251, "lat": 60.06428, "n_pixels": 4, "zone_area_km2": 0.0012, "cover_m2": 37.3, "p_mean": 0.843, "p_max": 0.992, "cover_m2_km2": 31083.3, "h3": "88110684c5fffff", "valid_frac_scene": 0.736, "wind_ms": 8.8, "sea": "шторм", "scene_reliable": false, "field_event_id": "S3:HE419_MarLitter_transect28", "field_profile": "B", "field_date": "2014-04-11", "field_distance_km": 1406.0, "field_date_gap_days": 4236, "field_conc_items_km2": 43.1, "conc_A_items_km2": null, "conc_A_lo80": null, "conc_A_hi80": null, "conc_A_lo95": null, "conc_A_hi95": null, "conc_A_status": "unavailable", "conc_A_status_ru": "концентрация недоступна", "conc_A_reasons": "вне бассейна профиля: nw_atlantic_subtropical", "conc_A_model": "conc-A-c6bce5631d2b", "conc_B_items_km2": null, "conc_B_lo80": null, "conc_B_hi80": null, "conc_B_lo95": null, "conc_B_hi95": null, "conc_B_status": "unavailable", "conc_B_status_ru": "концентрация недоступна", "conc_B_reasons": "вне бассейна профиля: black_sea", "conc_B_model": "conc-B-c6bce5631d2b"}}, {"type": "Feature", "geometry": {"type": "Polygon", "coordinates": [[[29.9491117552119, 60.06408378003743], [29.94910374642107, 60.0639941072577], [29.94892435418293, 60.06399811047752], [29.94891634592823, 60.06390843768151], [29.949095737680924, 60.06390443447609], [29.949071711764535, 60.06363541612007], [29.94925110201024, 60.06363141271478], [29.94924309298737, 60.06354173994013], [29.94960988234961, 60.063623405174745], [29.949617892394027, 60.063713077918706], [29.949797282973122, 60.06370907376956], [29.949805293553663, 60.06379874649721], [29.949625902489135, 60.06380275066078], [29.949641922831415, 60.06398209613936], [29.949462530745315, 60.06398610008862], [29.949470540507036, 60.06407577283951], [29.9491117552119, 60.06408378003743]]]}, "properties": {"zone_id": "neva-2025-11-15-003", "aoi": "neva", "date": "2025-11-15", "scene_id": "S2A_MSIL2A_20251115T092301_R093_T36VUM_20251115T110312", "scene_datetime_utc": "2025-11-15T09:23:01.024000+00:00", "detection_status": "detected", "detection_status_ru": "обнаружено", "lon": 29.94936, "lat": 60.06382, "n_pixels": 6, "zone_area_km2": 0.0017, "cover_m2": 94.9, "p_mean": 0.827, "p_max": 0.996, "cover_m2_km2": 55823.5, "h3": "881106ba0bfffff", "valid_frac_scene": 0.736, "wind_ms": 8.8, "sea": "шторм", "scene_reliable": false, "field_event_id": "S3:HE419_MarLitter_transect28", "field_profile": "B", "field_date": "2014-04-11", "field_distance_km": 1412.7, "field_date_gap_days": 4236, "field_conc_items_km2": 43.1, "conc_A_items_km2": null, "conc_A_lo80": null, "conc_A_hi80": null, "conc_A_lo95": null, "conc_A_hi95": null, "conc_A_status": "unavailable", "conc_A_status_ru": "концентрация недоступна", "conc_A_reasons": "вне бассейна профиля: nw_atlantic_subtropical", "conc_A_model": "conc-A-c6bce5631d2b", "conc_B_items_km2": null, "conc_B_lo80": null, "conc_B_hi80": null, "conc_B_lo95": null, "conc_B_hi95": null, "conc_B_status": "unavailable", "conc_B_status_ru": "концентрация недоступна", "conc_B_reasons": "вне бассейна профиля: black_sea", "conc_B_model": "conc-B-c6bce5631d2b"}}, {"type": "Feature", "geometry": {"type": "Polygon", "coordinates": [[[29.757736995322652, 60.05608661520899], [29.757729508239837, 60.05599692738375], [29.757550129526283, 60.056000670728324], [29.757542642976336, 60.05591098288782], [29.757176400846518, 60.05582878095128], [29.757168915362293, 60.055739093080234], [29.757348292714102, 60.05573535026241], [29.75734080679175, 60.05564566240305], [29.757699560382303, 60.05563817606488], [29.75770704727563, 60.05572786389728], [29.75788642448533, 60.055724120349964], [29.757893911911523, 60.055813808167116], [29.75807328955934, 60.05581006436313], [29.75808826552482, 60.05598943996506], [29.757736995322652, 60.05608661520899]]]}, "properties": {"zone_id": "neva-2025-11-15-004", "aoi": "neva", "date": "2025-11-15", "scene_id": "S2A_MSIL2A_20251115T092301_R093_T36VUM_20251115T110312", "scene_datetime_utc": "2025-11-15T09:23:01.024000+00:00", "detection_status": "detected", "detection_status_ru": "обнаружено", "lon": 29.75766, "lat": 60.05585, "n_pixels": 5, "zone_area_km2": 0.0014, "cover_m2": 95.3, "p_mean": 0.856, "p_max": 0.973, "cover_m2_km2": 68071.4, "h3": "8811068459fffff", "valid_frac_scene": 0.736, "wind_ms": 8.8, "sea": "шторм", "scene_reliable": false, "field_event_id": "S3:HE419_MarLitter_transect28", "field_profile": "B", "field_date": "2014-04-11", "field_distance_km": 1402.1, "field_date_gap_days": 4236, "field_conc_items_km2": 43.1, "conc_A_items_km2": null, "conc_A_lo80": null, "conc_A_hi80": null, "conc_A_lo95": null, "conc_A_hi95": null, "conc_A_status": "unavailable", "conc_A_status_ru": "концентрация недоступна", "conc_A_reasons": "вне бассейна профиля: nw_atlantic_subtropical", "conc_A_model": "conc-A-c6bce5631d2b", "conc_B_items_km2": null, "conc_B_lo80": null, "conc_B_hi80": null, "conc_B_lo95": null, "conc_B_hi95": null, "conc_B_status": "unavailable", "conc_B_status_ru": "концентрация недоступна", "conc_B_reasons": "вне бассейна профиля: black_sea", "conc_B_model": "conc-B-c6bce5631d2b"}}, {"type": "Feature", "geometry": {"type": "Polygon", "coordinates": [[[29.55778834078942, 59.96604811845562], [29.557781421311564, 59.96595841486282], [29.55760250058431, 59.96596188387656], [29.557581743861007, 59.96569277305049], [29.55776066314006, 59.965689304074154], [29.557753743836905, 59.96559960047451], [29.55811158129851, 59.96559266181961], [29.55811850156712, 59.96568236539433], [29.55829742071514, 59.96567889569083], [29.558311262348862, 59.96585830281016], [29.55796034199514, 59.96595494560668], [29.55796726195573, 59.96604464918701], [29.55778834078942, 59.96604811845562]]]}, "properties": {"zone_id": "neva-2025-11-15-005", "aoi": "neva", "date": "2025-11-15", "scene_id": "S2A_MSIL2A_20251115T092301_R093_T36VUM_20251115T110312", "scene_datetime_utc": "2025-11-15T09:23:01.024000+00:00", "detection_status": "detected", "detection_status_ru": "обнаружено", "lon": 29.55793, "lat": 59.9658, "n_pixels": 5, "zone_area_km2": 0.0014, "cover_m2": 83.9, "p_mean": 0.819, "p_max": 0.976, "cover_m2_km2": 59928.6, "h3": "881106952bfffff", "valid_frac_scene": 0.736, "wind_ms": 8.8, "sea": "шторм", "scene_reliable": false, "field_event_id": "S3:HE419_MarLitter_transect28", "field_profile": "B", "field_date": "2014-04-11", "field_distance_km": 1388.9, "field_date_gap_days": 4236, "field_conc_items_km2": 43.1, "conc_A_items_km2": null, "conc_A_lo80": null, "conc_A_hi80": null, "conc_A_lo95": null, "conc_A_hi95": null, "conc_A_status": "unavailable", "conc_A_status_ru": "концентрация недоступна", "conc_A_reasons": "вне бассейна профиля: nw_atlantic_subtropical", "conc_A_model": "conc-A-c6bce5631d2b", "conc_B_items_km2": null, "conc_B_lo80": null, "conc_B_hi80": null, "conc_B_lo95": null, "conc_B_hi95": null, "conc_B_status": "unavailable", "conc_B_status_ru": "концентрация недоступна", "conc_B_reasons": "вне бассейна профиля: black_sea", "conc_B_model": "conc-B-c6bce5631d2b"}}]}