{"type": "FeatureCollection", "features": [{"type": "Feature", "geometry": {"type": "Polygon", "coordinates": [[[29.939502291891213, 60.044979865545365], [29.939494315316978, 60.044890191730836], [29.93931502515667, 60.044894181162846], [29.939299073129167, 60.0447148334995], [29.939478362319857, 60.04471084409623], [29.939470385896964, 60.044621170276095], [29.939828963157407, 60.04461319076937], [29.9398369405499, 60.04470286456075], [29.940016229589244, 60.04469887442858], [29.940024207516995, 60.044788548203734], [29.94020349699069, 60.044784557814246], [29.940211475453697, 60.04487423157315], [29.9400321854952, 60.04487822197702], [29.94004016352386, 60.044967895748485], [29.939502291891213, 60.044979865545365]]]}, "properties": {"zone_id": "neva-2026-04-02-001", "aoi": "neva", "date": "2026-04-02", "scene_id": "S2C_MSIL2A_20260402T092031_R093_T36VUM_20260402T124202", "scene_datetime_utc": "2026-04-02T09:20:31.025000+00:00", "detection_status": "detected", "detection_status_ru": "обнаружено", "lon": 29.93972, "lat": 60.0448, "n_pixels": 5, "zone_area_km2": 0.0014, "cover_m2": 55.3, "p_mean": 0.944, "p_max": 1.0, "cover_m2_km2": 39500.0, "h3": "881106ba6bfffff", "valid_frac_scene": 1.0, "wind_ms": 2.6, "sea": "спокойное", "scene_reliable": true, "field_event_id": "S3:HE419_MarLitter_transect28", "field_profile": "B", "field_date": "2014-04-11", "field_distance_km": 1411.6, "field_date_gap_days": 4374, "field_conc_items_km2": 43.1, "conc_A_items_km2": null, "conc_A_lo80": null, "conc_A_hi80": null, "conc_A_lo95": null, "conc_A_hi95": null, "conc_A_status": "unavailable", "conc_A_status_ru": "концентрация недоступна", "conc_A_reasons": "вне бассейна профиля: nw_atlantic_subtropical", "conc_A_model": "conc-A-c6bce5631d2b", "conc_B_items_km2": null, "conc_B_lo80": null, "conc_B_hi80": null, "conc_B_lo95": null, "conc_B_hi95": null, "conc_B_status": "unavailable", "conc_B_status_ru": "концентрация недоступна", "conc_B_reasons": "вне бассейна профиля: black_sea", "conc_B_model": "conc-B-c6bce5631d2b"}}, {"type": "Feature", "geometry": {"type": "Polygon", "coordinates": [[[29.939641697695166, 60.04452750683661], [29.939633720888366, 60.044437833027125], [29.93945443320252, 60.044441822630276], [29.939430504539175, 60.04417280114754], [29.939609790770657, 60.04416881158744], [29.93960181416565, 60.04407913777051], [29.939960385507707, 60.044071157950185], [29.939968363082283, 60.0441608317384], [29.940147649162416, 60.04415684144944], [29.940171583643224, 60.04442586275985], [29.939992296108727, 60.0444298530919], [29.940000273885108, 60.044519526872676], [29.939641697695166, 60.04452750683661]]]}, "properties": {"zone_id": "neva-2026-04-02-002", "aoi": "neva", "date": "2026-04-02", "scene_id": "S2C_MSIL2A_20260402T092031_R093_T36VUM_20260402T124202", "scene_datetime_utc": "2026-04-02T09:20:31.025000+00:00", "detection_status": "detected", "detection_status_ru": "обнаружено", "lon": 29.9398, "lat": 60.0443, "n_pixels": 6, "zone_area_km2": 0.0016, "cover_m2": 44.3, "p_mean": 0.971, "p_max": 1.0, "cover_m2_km2": 27687.5, "h3": "881106ba6bfffff", "valid_frac_scene": 1.0, "wind_ms": 2.6, "sea": "спокойное", "scene_reliable": true, "field_event_id": "S3:HE419_MarLitter_transect28", "field_profile": "B", "field_date": "2014-04-11", "field_distance_km": 1411.6, "field_date_gap_days": 4374, "field_conc_items_km2": 43.1, "conc_A_items_km2": null, "conc_A_lo80": null, "conc_A_hi80": null, "conc_A_lo95": null, "conc_A_hi95": null, "conc_A_status": "unavailable", "conc_A_status_ru": "концентрация недоступна", "conc_A_reasons": "вне бассейна профиля: nw_atlantic_subtropical", "conc_A_model": "conc-A-c6bce5631d2b", "conc_B_items_km2": null, "conc_B_lo80": null, "conc_B_hi80": null, "conc_B_lo95": null, "conc_B_hi95": null, "conc_B_status": "unavailable", "conc_B_status_ru": "концентрация недоступна", "conc_B_reasons": "вне бассейна профиля: black_sea", "conc_B_model": "conc-B-c6bce5631d2b"}}, {"type": "Feature", "geometry": {"type": "Polygon", "coordinates": [[[29.82573294462221, 60.044317682571474], [29.825725276719712, 60.044227999777725], [29.825545972215593, 60.04423183490201], [29.825538304846578, 60.04414215209263], [29.82571760886572, 60.04413831698218], [29.825709941060218, 60.044048634184776], [29.826076216758498, 60.04413064603218], [29.826083885582452, 60.04422032880012], [29.825904581175337, 60.04422416441043], [29.825912249562816, 60.044313847190395], [29.82573294462221, 60.044317682571474]]]}, "properties": {"zone_id": "neva-2026-04-02-003", "aoi": "neva", "date": "2026-04-02", "scene_id": "S2C_MSIL2A_20260402T092031_R093_T36VUM_20260402T124202", "scene_datetime_utc": "2026-04-02T09:20:31.025000+00:00", "detection_status": "detected", "detection_status_ru": "обнаружено", "lon": 29.82581, "lat": 60.04418, "n_pixels": 1, "zone_area_km2": 0.0005, "cover_m2": 8.6, "p_mean": 0.875, "p_max": 0.875, "cover_m2_km2": 17200.0, "h3": "881106843bfffff", "valid_frac_scene": 1.0, "wind_ms": 2.6, "sea": "спокойное", "scene_reliable": true, "field_event_id": "S3:HE419_MarLitter_transect28", "field_profile": "B", "field_date": "2014-04-11", "field_distance_km": 1405.5, "field_date_gap_days": 4374, "field_conc_items_km2": 43.1, "conc_A_items_km2": null, "conc_A_lo80": null, "conc_A_hi80": null, "conc_A_lo95": null, "conc_A_hi95": null, "conc_A_status": "unavailable", "conc_A_status_ru": "концентрация недоступна", "conc_A_reasons": "вне бассейна профиля: nw_atlantic_subtropical", "conc_A_model": "conc-A-c6bce5631d2b", "conc_B_items_km2": null, "conc_B_lo80": null, "conc_B_hi80": null, "conc_B_lo95": null, "conc_B_hi95": null, "conc_B_status": "unavailable", "conc_B_status_ru": "концентрация недоступна", "conc_B_reasons": "вне бассейна профиля: black_sea", "conc_B_model": "conc-B-c6bce5631d2b"}}, {"type": "Feature", "geometry": {"type": "Polygon", "coordinates": [[[29.826678376325688, 60.042770060306985], [29.82667070633803, 60.04268037756516], [29.826304445382455, 60.04259836724616], [29.826296776461657, 60.04250868447309], [29.82664769666611, 60.04241132932884], [29.82665536650824, 60.0425010120761], [29.82683466145877, 60.042497175513105], [29.82684233183433, 60.04258685824473], [29.827021627221278, 60.04258302142493], [29.82702929813027, 60.04267270414094], [29.826850002258407, 60.042676540974554], [29.826857672730995, 60.04276622370256], [29.826678376325688, 60.042770060306985]]]}, "properties": {"zone_id": "neva-2026-04-02-004", "aoi": "neva", "date": "2026-04-02", "scene_id": "S2C_MSIL2A_20260402T092031_R093_T36VUM_20260402T124202", "scene_datetime_utc": "2026-04-02T09:20:31.025000+00:00", "detection_status": "detected", "detection_status_ru": "обнаружено", "lon": 29.82666, "lat": 60.04259, "n_pixels": 2, "zone_area_km2": 0.0008, "cover_m2": 15.3, "p_mean": 0.522, "p_max": 0.541, "cover_m2_km2": 19125.0, "h3": "881106843bfffff", "valid_frac_scene": 1.0, "wind_ms": 2.6, "sea": "спокойное", "scene_reliable": true, "field_event_id": "S3:HE419_MarLitter_transect28", "field_profile": "B", "field_date": "2014-04-11", "field_distance_km": 1405.5, "field_date_gap_days": 4374, "field_conc_items_km2": 43.1, "conc_A_items_km2": null, "conc_A_lo80": null, "conc_A_hi80": null, "conc_A_lo95": null, "conc_A_hi95": null, "conc_A_status": "unavailable", "conc_A_status_ru": "концентрация недоступна", "conc_A_reasons": "вне бассейна профиля: nw_atlantic_subtropical", "conc_A_model": "conc-A-c6bce5631d2b", "conc_B_items_km2": null, "conc_B_lo80": null, "conc_B_hi80": null, "conc_B_lo95": null, "conc_B_hi95": null, "conc_B_status": "unavailable", "conc_B_status_ru": "концентрация недоступна", "conc_B_reasons": "вне бассейна профиля: black_sea", "conc_B_model": "conc-B-c6bce5631d2b"}}, {"type": "Feature", "geometry": {"type": "Polygon", "coordinates": [[[29.95901248160017, 60.00806425146673], [29.95900446406016, 60.007974578721566], [29.95882537688922, 60.007978593140535], [29.958817359883387, 60.00788892037906], [29.958996446570804, 60.00788490597453], [29.958988429132106, 60.007795233225615], [29.9593546197937, 60.00787687643766], [29.959362638250084, 60.00796654915584], [29.959183551180445, 60.00797056406001], [29.95919156920397, 60.00806023679071], [29.95901248160017, 60.00806425146673]]]}, "properties": {"zone_id": "neva-2026-04-02-005", "aoi": "neva", "date": "2026-04-02", "scene_id": "S2C_MSIL2A_20260402T092031_R093_T36VUM_20260402T124202", "scene_datetime_utc": "2026-04-02T09:20:31.025000+00:00", "detection_status": "detected", "detection_status_ru": "обнаружено", "lon": 29.95909, "lat": 60.00793, "n_pixels": 1, "zone_area_km2": 0.0005, "cover_m2": 8.6, "p_mean": 0.925, "p_max": 0.925, "cover_m2_km2": 17200.0, "h3": "881106bb55fffff", "valid_frac_scene": 1.0, "wind_ms": 2.6, "sea": "спокойное", "scene_reliable": true, "field_event_id": "S3:HE419_MarLitter_transect28", "field_profile": "B", "field_date": "2014-04-11", "field_distance_km": 1411.7, "field_date_gap_days": 4374, "field_conc_items_km2": 43.1, "conc_A_items_km2": null, "conc_A_lo80": null, "conc_A_hi80": null, "conc_A_lo95": null, "conc_A_hi95": null, "conc_A_status": "unavailable", "conc_A_status_ru": "концентрация недоступна", "conc_A_reasons": "вне бассейна профиля: nw_atlantic_subtropical", "conc_A_model": "conc-A-c6bce5631d2b", "conc_B_items_km2": null, "conc_B_lo80": null, "conc_B_hi80": null, "conc_B_lo95": null, "conc_B_hi95": null, "conc_B_status": "unavailable", "conc_B_status_ru": "концентрация недоступна", "conc_B_reasons": "вне бассейна профиля: black_sea", "conc_B_model": "conc-B-c6bce5631d2b"}}, {"type": "Feature", "geometry": {"type": "Polygon", "coordinates": [[[29.87378456951238, 59.99368449081884], [29.873776787210147, 59.993594811078474], [29.873597764172402, 59.99359870940939], [29.87358998240249, 59.99350902965314], [29.873769004957065, 59.99350513133626], [29.873761222753135, 59.99341545159224], [29.873940244775394, 59.99341155304688], [29.873932462137446, 59.99332187331503], [29.874298288672463, 59.993403755228705], [29.874306072325904, 59.99349343493069], [29.874127049918776, 59.99349733397506], [29.874134833138204, 59.99358701368923], [29.87378456951238, 59.99368449081884]]]}, "properties": {"zone_id": "neva-2026-04-02-006", "aoi": "neva", "date": "2026-04-02", "scene_id": "S2C_MSIL2A_20260402T092031_R093_T36VUM_20260402T124202", "scene_datetime_utc": "2026-04-02T09:20:31.025000+00:00", "detection_status": "detected", "detection_status_ru": "обнаружено", "lon": 29.87395, "lat": 59.9935, "n_pixels": 2, "zone_area_km2": 0.0008, "cover_m2": 7.8, "p_mean": 0.78, "p_max": 0.816, "cover_m2_km2": 9750.0, "h3": "88110685e7fffff", "valid_frac_scene": 1.0, "wind_ms": 2.6, "sea": "спокойное", "scene_reliable": true, "field_event_id": "S3:HE419_MarLitter_transect28", "field_profile": "B", "field_date": "2014-04-11", "field_distance_km": 1406.7, "field_date_gap_days": 4374, "field_conc_items_km2": 43.1, "conc_A_items_km2": null, "conc_A_lo80": null, "conc_A_hi80": null, "conc_A_lo95": null, "conc_A_hi95": null, "conc_A_status": "unavailable", "conc_A_status_ru": "концентрация недоступна", "conc_A_reasons": "вне бассейна профиля: nw_atlantic_subtropical", "conc_A_model": "conc-A-c6bce5631d2b", "conc_B_items_km2": null, "conc_B_lo80": null, "conc_B_hi80": null, "conc_B_lo95": null, "conc_B_hi95": null, "conc_B_status": "unavailable", "conc_B_status_ru": "концентрация недоступна", "conc_B_reasons": "вне бассейна профиля: black_sea", "conc_B_model": "conc-B-c6bce5631d2b"}}, {"type": "Feature", "geometry": {"type": "MultiPolygon", "coordinates": [[[[29.87968418403537, 59.99139949997912], [29.879691981632593, 59.99148917928468], [29.879870992319614, 59.9914852727754], [29.879863194239295, 59.99139559348389], [29.880042204393984, 59.991391686746155], [29.880034405879833, 59.991302007466864], [29.87966858898865, 59.99122014136249], [29.87967638648739, 59.991309820671724], [29.879497376717303, 59.99131372691044], [29.8795051737822, 59.99140340623189], [29.87968418403537, 59.99139949997912]]], [[[29.879326163479792, 59.991407312242174], [29.879333960110838, 59.99149699157583], [29.8791549492761, 59.99150089735769], [29.879162745473284, 59.99159057670353], [29.879341756791113, 59.99158667090764], [29.879349553520626, 59.99167635023761], [29.879699779279054, 59.99157885858838], [29.879691981632593, 59.99148917928468], [29.879326163479792, 59.991407312242174]]]]}, "properties": {"zone_id": "neva-2026-04-02-007", "aoi": "neva", "date": "2026-04-02", "scene_id": "S2C_MSIL2A_20260402T092031_R093_T36VUM_20260402T124202", "scene_datetime_utc": "2026-04-02T09:20:31.025000+00:00", "detection_status": "detected", "detection_status_ru": "обнаружено", "lon": 29.8796, "lat": 59.99145, "n_pixels": 2, "zone_area_km2": 0.001, "cover_m2": 9.0, "p_mean": 0.627, "p_max": 0.659, "cover_m2_km2": 9000.0, "h3": "8811068edbfffff", "valid_frac_scene": 1.0, "wind_ms": 2.6, "sea": "спокойное", "scene_reliable": true, "field_event_id": "S3:HE419_MarLitter_transect28", "field_profile": "B", "field_date": "2014-04-11", "field_distance_km": 1407.0, "field_date_gap_days": 4374, "field_conc_items_km2": 43.1, "conc_A_items_km2": null, "conc_A_lo80": null, "conc_A_hi80": null, "conc_A_lo95": null, "conc_A_hi95": null, "conc_A_status": "unavailable", "conc_A_status_ru": "концентрация недоступна", "conc_A_reasons": "вне бассейна профиля: nw_atlantic_subtropical", "conc_A_model": "conc-A-c6bce5631d2b", "conc_B_items_km2": null, "conc_B_lo80": null, "conc_B_hi80": null, "conc_B_lo95": null, "conc_B_hi95": null, "conc_B_status": "unavailable", "conc_B_status_ru": "концентрация недоступна", "conc_B_reasons": "вне бассейна профиля: black_sea", "conc_B_model": "conc-B-c6bce5631d2b"}}, {"type": "Feature", "geometry": {"type": "Polygon", "coordinates": [[[30.083577536106887, 59.9871515391987], [30.08356918840294, 59.987061876461134], [30.083390234755438, 59.98706605885179], [30.083373540470795, 59.98688673334081], [30.08355249315314, 59.98688255098023], [30.083544145607288, 59.986792888236884], [30.083910398359738, 59.98687418553211], [30.08392709553985, 59.987053510952876], [30.083577536106887, 59.9871515391987]]]}, "properties": {"zone_id": "neva-2026-04-02-008", "aoi": "neva", "date": "2026-04-02", "scene_id": "S2C_MSIL2A_20260402T092031_R093_T36VUM_20260402T124202", "scene_datetime_utc": "2026-04-02T09:20:31.025000+00:00", "detection_status": "detected", "detection_status_ru": "обнаружено", "lon": 30.08365, "lat": 59.98697, "n_pixels": 2, "zone_area_km2": 0.0008, "cover_m2": 8.6, "p_mean": 0.994, "p_max": 1.0, "cover_m2_km2": 10750.0, "h3": "881106b939fffff", "valid_frac_scene": 1.0, "wind_ms": 2.6, "sea": "спокойное", "scene_reliable": true, "field_event_id": "S3:HE419_MarLitter_transect28", "field_profile": "B", "field_date": "2014-04-11", "field_distance_km": 1417.9, "field_date_gap_days": 4374, "field_conc_items_km2": 43.1, "conc_A_items_km2": null, "conc_A_lo80": null, "conc_A_hi80": null, "conc_A_lo95": null, "conc_A_hi95": null, "conc_A_status": "unavailable", "conc_A_status_ru": "концентрация недоступна", "conc_A_reasons": "вне бассейна профиля: nw_atlantic_subtropical", "conc_A_model": "conc-A-c6bce5631d2b", "conc_B_items_km2": null, "conc_B_lo80": null, "conc_B_hi80": null, "conc_B_lo95": null, "conc_B_hi95": null, "conc_B_status": "unavailable", "conc_B_status_ru": "концентрация недоступна", "conc_B_reasons": "вне бассейна профиля: black_sea", "conc_B_model": "conc-B-c6bce5631d2b"}}, {"type": "Feature", "geometry": {"type": "Polygon", "coordinates": [[[30.108375914971013, 59.98576088124305], [30.108367500670617, 59.98567122058632], [30.108188558719895, 59.98567543652203], [30.108180144955103, 59.98558577584821], [30.108359086423338, 59.985581559927645], [30.108350672229175, 59.98549189926703], [30.108171731243424, 59.98549611517244], [30.108163317584857, 59.98540645449472], [30.108342258088125, 59.985402238604486], [30.108333844000192, 59.985312577939986], [30.108700138935323, 59.985393806097115], [30.108708554041332, 59.98548346672936], [30.10852961316181, 59.98548768311936], [30.10853802783846, 59.98557734376481], [30.10871696920046, 59.985573127359665], [30.10872538441271, 59.985662787988], [30.108375914971013, 59.98576088124305]]]}, "properties": {"zone_id": "neva-2026-04-02-009", "aoi": "neva", "date": "2026-04-02", "scene_id": "S2C_MSIL2A_20260402T092031_R093_T36VUM_20260402T124202", "scene_datetime_utc": "2026-04-02T09:20:31.025000+00:00", "detection_status": "detected", "detection_status_ru": "обнаружено", "lon": 30.10844, "lat": 59.98553, "n_pixels": 2, "zone_area_km2": 0.0009, "cover_m2": 9.8, "p_mean": 0.875, "p_max": 0.961, "cover_m2_km2": 10888.9, "h3": "881106b931fffff", "valid_frac_scene": 1.0, "wind_ms": 2.6, "sea": "спокойное", "scene_reliable": true, "field_event_id": "S3:HE419_MarLitter_transect28", "field_profile": "B", "field_date": "2014-04-11", "field_distance_km": 1419.2, "field_date_gap_days": 4374, "field_conc_items_km2": 43.1, "conc_A_items_km2": null, "conc_A_lo80": null, "conc_A_hi80": null, "conc_A_lo95": null, "conc_A_hi95": null, "conc_A_status": "unavailable", "conc_A_status_ru": "концентрация недоступна", "conc_A_reasons": "вне бассейна профиля: nw_atlantic_subtropical", "conc_A_model": "conc-A-c6bce5631d2b", "conc_B_items_km2": null, "conc_B_lo80": null, "conc_B_hi80": null, "conc_B_lo95": null, "conc_B_hi95": null, "conc_B_status": "unavailable", "conc_B_status_ru": "концентрация недоступна", "conc_B_reasons": "вне бассейна профиля: black_sea", "conc_B_model": "conc-B-c6bce5631d2b"}}, {"type": "Feature", "geometry": {"type": "Polygon", "coordinates": [[[30.121669694179456, 59.984099101426395], [30.121661244493705, 59.98400944187952], [30.12148231377157, 59.984013675758675], [30.121473864621557, 59.98392401619465], [30.121652794861284, 59.98391978233072], [30.121644345282203, 59.98383012277997], [30.12201065518072, 59.98391131387609], [30.122019105777948, 59.98400097339446], [30.121840175162493, 59.98400520775812], [30.121848625330657, 59.984094867289784], [30.121669694179456, 59.984099101426395]]]}, "properties": {"zone_id": "neva-2026-04-02-010", "aoi": "neva", "date": "2026-04-02", "scene_id": "S2C_MSIL2A_20260402T092031_R093_T36VUM_20260402T124202", "scene_datetime_utc": "2026-04-02T09:20:31.025000+00:00", "detection_status": "detected", "detection_status_ru": "обнаружено", "lon": 30.12175, "lat": 59.98396, "n_pixels": 1, "zone_area_km2": 0.0005, "cover_m2": 4.3, "p_mean": 0.996, "p_max": 0.996, "cover_m2_km2": 8600.0, "h3": "881106b937fffff", "valid_frac_scene": 1.0, "wind_ms": 2.6, "sea": "спокойное", "scene_reliable": true, "field_event_id": "S3:HE419_MarLitter_transect28", "field_profile": "B", "field_date": "2014-04-11", "field_distance_km": 1419.9, "field_date_gap_days": 4374, "field_conc_items_km2": 43.1, "conc_A_items_km2": null, "conc_A_lo80": null, "conc_A_hi80": null, "conc_A_lo95": null, "conc_A_hi95": null, "conc_A_status": "unavailable", "conc_A_status_ru": "концентрация недоступна", "conc_A_reasons": "вне бассейна профиля: nw_atlantic_subtropical", "conc_A_model": "conc-A-c6bce5631d2b", "conc_B_items_km2": null, "conc_B_lo80": null, "conc_B_hi80": null, "conc_B_lo95": null, "conc_B_hi95": null, "conc_B_status": "unavailable", "conc_B_status_ru": "концентрация недоступна", "conc_B_reasons": "вне бассейна профиля: black_sea", "conc_B_model": "conc-B-c6bce5631d2b"}}, {"type": "Feature", "geometry": {"type": "Polygon", "coordinates": [[[29.880372578957655, 59.96631643150917], [29.88036478741523, 59.96622675191287], [29.879999248194917, 59.96614488444149], [29.87999145771528, 59.96605520481343], [29.880170331121164, 59.966051298885205], [29.880162540208463, 59.96596161926932], [29.880520285908286, 59.96595380671423], [29.88052807778543, 59.96604348630203], [29.880706951043816, 59.96603957964708], [29.880722535910078, 59.96621893878909], [29.880372578957655, 59.96631643150917]]]}, "properties": {"zone_id": "neva-2026-04-02-011", "aoi": "neva", "date": "2026-04-02", "scene_id": "S2C_MSIL2A_20260402T092031_R093_T36VUM_20260402T124202", "scene_datetime_utc": "2026-04-02T09:20:31.025000+00:00", "detection_status": "detected", "detection_status_ru": "обнаружено", "lon": 29.88039, "lat": 59.96612, "n_pixels": 3, "zone_area_km2": 0.001, "cover_m2": 44.7, "p_mean": 0.931, "p_max": 0.965, "cover_m2_km2": 44700.0, "h3": "8811068e89fffff", "valid_frac_scene": 1.0, "wind_ms": 2.6, "sea": "спокойное", "scene_reliable": true, "field_event_id": "S3:HE419_MarLitter_transect28", "field_profile": "B", "field_date": "2014-04-11", "field_distance_km": 1406.3, "field_date_gap_days": 4374, "field_conc_items_km2": 43.1, "conc_A_items_km2": null, "conc_A_lo80": null, "conc_A_hi80": null, "conc_A_lo95": null, "conc_A_hi95": null, "conc_A_status": "unavailable", "conc_A_status_ru": "концентрация недоступна", "conc_A_reasons": "вне бассейна профиля: nw_atlantic_subtropical", "conc_A_model": "conc-A-c6bce5631d2b", "conc_B_items_km2": null, "conc_B_lo80": null, "conc_B_hi80": null, "conc_B_lo95": null, "conc_B_hi95": null, "conc_B_status": "unavailable", "conc_B_status_ru": "концентрация недоступна", "conc_B_reasons": "вне бассейна профиля: black_sea", "conc_B_model": "conc-B-c6bce5631d2b"}}, {"type": "Feature", "geometry": {"type": "Polygon", "coordinates": [[[29.880022312186394, 59.96434738586885], [29.880014522207727, 59.96425770621801], [29.87983565844576, 59.96426161186552], [29.87982007960021, 59.96408225253022], [29.879998942397854, 59.9640783469108], [29.87999115256665, 59.96398866725443], [29.88035666784567, 59.964070534945314], [29.880372249584187, 59.96424989419638], [29.880022312186394, 59.96434738586885]]]}, "properties": {"zone_id": "neva-2026-04-02-012", "aoi": "neva", "date": "2026-04-02", "scene_id": "S2C_MSIL2A_20260402T092031_R093_T36VUM_20260402T124202", "scene_datetime_utc": "2026-04-02T09:20:31.025000+00:00", "detection_status": "detected", "detection_status_ru": "обнаружено", "lon": 29.8801, "lat": 59.96417, "n_pixels": 2, "zone_area_km2": 0.0008, "cover_m2": 22.4, "p_mean": 0.89, "p_max": 0.949, "cover_m2_km2": 28000.0, "h3": "8811068e89fffff", "valid_frac_scene": 1.0, "wind_ms": 2.6, "sea": "спокойное", "scene_reliable": true, "field_event_id": "S3:HE419_MarLitter_transect28", "field_profile": "B", "field_date": "2014-04-11", "field_distance_km": 1406.3, "field_date_gap_days": 4374, "field_conc_items_km2": 43.1, "conc_A_items_km2": null, "conc_A_lo80": null, "conc_A_hi80": null, "conc_A_lo95": null, "conc_A_hi95": null, "conc_A_status": "unavailable", "conc_A_status_ru": "концентрация недоступна", "conc_A_reasons": "вне бассейна профиля: nw_atlantic_subtropical", "conc_A_model": "conc-A-c6bce5631d2b", "conc_B_items_km2": null, "conc_B_lo80": null, "conc_B_hi80": null, "conc_B_lo95": null, "conc_B_hi95": null, "conc_B_status": "unavailable", "conc_B_status_ru": "концентрация недоступна", "conc_B_reasons": "вне бассейна профиля: black_sea", "conc_B_model": "conc-B-c6bce5631d2b"}}, {"type": "Feature", "geometry": {"type": "Polygon", "coordinates": [[[29.89717974741911, 59.9556155120679], [29.89717191382367, 59.955525833653155], [29.896993099816452, 59.955529762208165], [29.896977433737487, 59.95535040534494], [29.897156246781037, 59.955346476818164], [29.89714841333384, 59.955256798397876], [29.897513872719873, 59.955338619038265], [29.89752170718015, 59.95542829742846], [29.897700520557276, 59.955424368161225], [29.897708355548808, 59.95551404653544], [29.897529541689853, 59.955517975816804], [29.89753737624898, 59.95560765420333], [29.89717974741911, 59.9556155120679]]]}, "properties": {"zone_id": "neva-2026-04-02-013", "aoi": "neva", "date": "2026-04-02", "scene_id": "S2C_MSIL2A_20260402T092031_R093_T36VUM_20260402T124202", "scene_datetime_utc": "2026-04-02T09:20:31.025000+00:00", "detection_status": "detected", "detection_status_ru": "обнаружено", "lon": 29.89731, "lat": 59.95545, "n_pixels": 3, "zone_area_km2": 0.001, "cover_m2": 11.0, "p_mean": 0.817, "p_max": 0.996, "cover_m2_km2": 11000.0, "h3": "8811068e85fffff", "valid_frac_scene": 1.0, "wind_ms": 2.6, "sea": "спокойное", "scene_reliable": true, "field_event_id": "S3:HE419_MarLitter_transect28", "field_profile": "B", "field_date": "2014-04-11", "field_distance_km": 1407.0, "field_date_gap_days": 4374, "field_conc_items_km2": 43.1, "conc_A_items_km2": null, "conc_A_lo80": null, "conc_A_hi80": null, "conc_A_lo95": null, "conc_A_hi95": null, "conc_A_status": "unavailable", "conc_A_status_ru": "концентрация недоступна", "conc_A_reasons": "вне бассейна профиля: nw_atlantic_subtropical", "conc_A_model": "conc-A-c6bce5631d2b", "conc_B_items_km2": null, "conc_B_lo80": null, "conc_B_hi80": null, "conc_B_lo95": null, "conc_B_hi95": null, "conc_B_status": "unavailable", "conc_B_status_ru": "концентрация недоступна", "conc_B_reasons": "вне бассейна профиля: black_sea", "conc_B_model": "conc-B-c6bce5631d2b"}}, {"type": "Feature", "geometry": {"type": "Polygon", "coordinates": [[[30.132781828303383, 59.89487389344144], [30.132773378935426, 59.89478423362379], [30.13259493009779, 59.89478847879007], [30.1325780324802, 59.8946091591185], [30.1327564803591, 59.89460491398269], [30.13274803115073, 59.894515254159174], [30.133104925790207, 59.894506763193824], [30.133113375957304, 59.89459642298687], [30.133291823676597, 59.89459217712685], [30.13330027437626, 59.894681836902684], [30.133121826177597, 59.89468608277795], [30.133130276451098, 59.89477574256703], [30.132781828303383, 59.89487389344144]]]}, "properties": {"zone_id": "neva-2026-04-02-014", "aoi": "neva", "date": "2026-04-02", "scene_id": "S2C_MSIL2A_20260402T092031_R093_T36VUM_20260402T124202", "scene_datetime_utc": "2026-04-02T09:20:31.025000+00:00", "detection_status": "detected", "detection_status_ru": "обнаружено", "lon": 30.13291, "lat": 59.89468, "n_pixels": 3, "zone_area_km2": 0.001, "cover_m2": 33.7, "p_mean": 0.817, "p_max": 0.953, "cover_m2_km2": 33700.0, "h3": "8811061717fffff", "valid_frac_scene": 1.0, "wind_ms": 2.6, "sea": "спокойное", "scene_reliable": true, "field_event_id": "S3:HE419_MarLitter_transect28", "field_profile": "B", "field_date": "2014-04-11", "field_distance_km": 1418.2, "field_date_gap_days": 4374, "field_conc_items_km2": 43.1, "conc_A_items_km2": null, "conc_A_lo80": null, "conc_A_hi80": null, "conc_A_lo95": null, "conc_A_hi95": null, "conc_A_status": "unavailable", "conc_A_status_ru": "концентрация недоступна", "conc_A_reasons": "вне бассейна профиля: nw_atlantic_subtropical", "conc_A_model": "conc-A-c6bce5631d2b", "conc_B_items_km2": null, "conc_B_lo80": null, "conc_B_hi80": null, "conc_B_lo95": null, "conc_B_hi95": null, "conc_B_status": "unavailable", "conc_B_status_ru": "концентрация недоступна", "conc_B_reasons": "вне бассейна профиля: black_sea", "conc_B_model": "conc-B-c6bce5631d2b"}}]}