{"type": "FeatureCollection", "features": [{"type": "Feature", "geometry": {"type": "Polygon", "coordinates": [[[36.58681174044308, 45.20691989506329], [36.58681554536617, 45.2068299590286], [36.58668832060301, 45.20682726923877], [36.58669593079568, 45.20664739718119], [36.58695418420862, 45.206562840537636], [36.58695037953942, 45.20665277658572], [36.58707760393817, 45.206655466075595], [36.58706999494625, 45.20683533818351], [36.58681174044308, 45.20691989506329]]]}, "properties": {"zone_id": "kerch-2025-03-08-001", "aoi": "kerch", "date": "2025-03-08", "scene_id": "S2B_MSIL2A_20250308T082709_R021_T37TCK_20250308T093350", "scene_datetime_utc": "2025-03-08T08:27:09.024000+00:00", "detection_status": "detected", "detection_status_ru": "обнаружено", "lon": 36.58688, "lat": 45.20674, "n_pixels": 2, "zone_area_km2": 0.0008, "cover_m2": 19.6, "p_mean": 0.992, "p_max": 0.992, "cover_m2_km2": 24500.0, "h3": "882d76a103fffff", "valid_frac_scene": 0.995, "wind_ms": 4.7, "sea": "спокойное", "scene_reliable": true, "field_event_id": "S4:DOORS3:T11", "field_profile": "B", "field_date": "2024-06-04", "field_distance_km": 301.9, "field_date_gap_days": 277, "field_conc_items_km2": 62.52, "conc_A_items_km2": null, "conc_A_lo80": null, "conc_A_hi80": null, "conc_A_lo95": null, "conc_A_hi95": null, "conc_A_status": "unavailable", "conc_A_status_ru": "концентрация недоступна", "conc_A_reasons": "вне бассейна профиля: nw_atlantic_subtropical", "conc_A_model": "conc-A-c6bce5631d2b", "conc_B_items_km2": 592.4, "conc_B_lo80": 126.4, "conc_B_hi80": 1990.3, "conc_B_lo95": 78.8, "conc_B_hi95": 3726.7, "conc_B_status": "research_estimate", "conc_B_status_ru": "исследовательская оценка", "conc_B_reasons": "ближайшее полевое измерение в 302 км (> 60 км); месяц 3 вне месяцев обучения [6]; log_dist_coast_km = 1.2 вне диапазона обучения [1.7; 5.0]", "conc_B_model": "conc-B-c6bce5631d2b"}}, {"type": "Feature", "geometry": {"type": "Polygon", "coordinates": [[[36.57767886544654, 45.17008964124333], [36.57768267986222, 45.16999970523283], [36.57755553797649, 45.16999700697578], [36.577563167153436, 45.16981713496659], [36.5776903086397, 45.16981983320681], [36.57769412300151, 45.169729897191274], [36.57794840562846, 45.169735293230666], [36.57794459166612, 45.16982522926303], [36.57807173320625, 45.169827927079005], [36.578064105627156, 45.17000779915551], [36.577936963687556, 45.1700051013227], [36.57793314967134, 45.17009503735002], [36.57767886544654, 45.17008964124333]]]}, "properties": {"zone_id": "kerch-2025-03-08-002", "aoi": "kerch", "date": "2025-03-08", "scene_id": "S2B_MSIL2A_20250308T082709_R021_T37TCK_20250308T093350", "scene_datetime_utc": "2025-03-08T08:27:09.024000+00:00", "detection_status": "detected", "detection_status_ru": "обнаружено", "lon": 36.57781, "lat": 45.16991, "n_pixels": 4, "zone_area_km2": 0.0012, "cover_m2": 35.7, "p_mean": 0.783, "p_max": 0.984, "cover_m2_km2": 29750.0, "h3": "882d76aa5bfffff", "valid_frac_scene": 0.995, "wind_ms": 4.7, "sea": "спокойное", "scene_reliable": true, "field_event_id": "S4:DOORS3:T11", "field_profile": "B", "field_date": "2024-06-04", "field_distance_km": 297.8, "field_date_gap_days": 277, "field_conc_items_km2": 62.52, "conc_A_items_km2": null, "conc_A_lo80": null, "conc_A_hi80": null, "conc_A_lo95": null, "conc_A_hi95": null, "conc_A_status": "unavailable", "conc_A_status_ru": "концентрация недоступна", "conc_A_reasons": "вне бассейна профиля: nw_atlantic_subtropical", "conc_A_model": "conc-A-c6bce5631d2b", "conc_B_items_km2": 541.7, "conc_B_lo80": 115.5, "conc_B_hi80": 1820.3, "conc_B_lo95": 72.0, "conc_B_hi95": 3408.5, "conc_B_status": "research_estimate", "conc_B_status_ru": "исследовательская оценка", "conc_B_reasons": "ближайшее полевое измерение в 298 км (> 60 км); месяц 3 вне месяцев обучения [6]", "conc_B_model": "conc-B-c6bce5631d2b"}}, {"type": "Feature", "geometry": {"type": "Polygon", "coordinates": [[[36.57909045317631, 45.034552721691796], [36.57909424740718, 45.03446278344514], [36.57884435894648, 45.03436746427154], [36.578848153538324, 45.03427752603834], [36.57897499466794, 45.03428021656297], [36.578978789043624, 45.034190278319706], [36.57923247095974, 45.03419565892997], [36.5792286769807, 45.03428559718999], [36.57935551816382, 45.03428828729239], [36.579347930548884, 45.034468163824236], [36.57909045317631, 45.034552721691796]]]}, "properties": {"zone_id": "kerch-2025-03-08-003", "aoi": "kerch", "date": "2025-03-08", "scene_id": "S2B_MSIL2A_20250308T082709_R021_T37TCK_20250308T093350", "scene_datetime_utc": "2025-03-08T08:27:09.024000+00:00", "detection_status": "detected", "detection_status_ru": "обнаружено", "lon": 36.57912, "lat": 45.03436, "n_pixels": 3, "zone_area_km2": 0.001, "cover_m2": 31.0, "p_mean": 0.603, "p_max": 0.753, "cover_m2_km2": 31000.0, "h3": "882d761489fffff", "valid_frac_scene": 0.995, "wind_ms": 4.7, "sea": "спокойное", "scene_reliable": true, "field_event_id": "S4:DOORS3:T11", "field_profile": "B", "field_date": "2024-06-04", "field_distance_km": 282.7, "field_date_gap_days": 277, "field_conc_items_km2": 62.52, "conc_A_items_km2": null, "conc_A_lo80": null, "conc_A_hi80": null, "conc_A_lo95": null, "conc_A_hi95": null, "conc_A_status": "unavailable", "conc_A_status_ru": "концентрация недоступна", "conc_A_reasons": "вне бассейна профиля: nw_atlantic_subtropical", "conc_A_model": "conc-A-c6bce5631d2b", "conc_B_items_km2": 355.2, "conc_B_lo80": 75.5, "conc_B_hi80": 1194.5, "conc_B_lo95": 46.9, "conc_B_hi95": 2236.9, "conc_B_status": "research_estimate", "conc_B_status_ru": "исследовательская оценка", "conc_B_reasons": "ближайшее полевое измерение в 283 км (> 60 км); месяц 3 вне месяцев обучения [6]", "conc_B_model": "conc-B-c6bce5631d2b"}}, {"type": "Feature", "geometry": {"type": "Polygon", "coordinates": [[[36.57069869965935, 45.031853897316516], [36.570702506676504, 45.031763959586044], [36.57057567188191, 45.03176125999101], [36.57057947907947, 45.03167132226728], [36.57070631367578, 45.031674021853895], [36.57071012065715, 45.03158408412007], [36.57096378950687, 45.03158948285428], [36.57095998292207, 45.03167942060494], [36.57108681757206, 45.031682119769364], [36.57108301116766, 45.031772057526766], [36.570956176319385, 45.03176935835393], [36.5709523696988, 45.03185929610124], [36.57069869965935, 45.031853897316516]]]}, "properties": {"zone_id": "kerch-2025-03-08-004", "aoi": "kerch", "date": "2025-03-08", "scene_id": "S2B_MSIL2A_20250308T082709_R021_T37TCK_20250308T093350", "scene_datetime_utc": "2025-03-08T08:27:09.024000+00:00", "detection_status": "detected", "detection_status_ru": "обнаружено", "lon": 36.57083, "lat": 45.03172, "n_pixels": 2, "zone_area_km2": 0.0008, "cover_m2": 25.1, "p_mean": 0.68, "p_max": 0.718, "cover_m2_km2": 31375.0, "h3": "882d7614c3fffff", "valid_frac_scene": 0.995, "wind_ms": 4.7, "sea": "спокойное", "scene_reliable": true, "field_event_id": "S4:DOORS3:T11", "field_profile": "B", "field_date": "2024-06-04", "field_distance_km": 282.4, "field_date_gap_days": 277, "field_conc_items_km2": 62.52, "conc_A_items_km2": null, "conc_A_lo80": null, "conc_A_hi80": null, "conc_A_lo95": null, "conc_A_hi95": null, "conc_A_status": "unavailable", "conc_A_status_ru": "концентрация недоступна", "conc_A_reasons": "вне бассейна профиля: nw_atlantic_subtropical", "conc_A_model": "conc-A-c6bce5631d2b", "conc_B_items_km2": 355.2, "conc_B_lo80": 75.5, "conc_B_hi80": 1194.5, "conc_B_lo95": 46.9, "conc_B_hi95": 2236.9, "conc_B_status": "research_estimate", "conc_B_status_ru": "исследовательская оценка", "conc_B_reasons": "ближайшее полевое измерение в 282 км (> 60 км); месяц 3 вне месяцев обучения [6]", "conc_B_model": "conc-B-c6bce5631d2b"}}, {"type": "Feature", "geometry": {"type": "Polygon", "coordinates": [[[36.581421126615325, 45.030461269476284], [36.581424916655116, 45.030371331010116], [36.58117504164097, 45.03027601717356], [36.58118262242461, 45.0300961402664], [36.58130945453722, 45.030098828004355], [36.58131324470404, 45.03000888953988], [36.58156311881588, 45.03010420305807], [36.58155932902779, 45.030194141537635], [36.58168616139212, 45.030196828861776], [36.58167858215908, 45.03037670583265], [36.581421126615325, 45.030461269476284]]]}, "properties": {"zone_id": "kerch-2025-03-08-005", "aoi": "kerch", "date": "2025-03-08", "scene_id": "S2B_MSIL2A_20250308T082709_R021_T37TCK_20250308T093350", "scene_datetime_utc": "2025-03-08T08:27:09.024000+00:00", "detection_status": "detected", "detection_status_ru": "обнаружено", "lon": 36.58143, "lat": 45.03024, "n_pixels": 4, "zone_area_km2": 0.0012, "cover_m2": 43.5, "p_mean": 0.904, "p_max": 0.988, "cover_m2_km2": 36250.0, "h3": "882d761489fffff", "valid_frac_scene": 0.995, "wind_ms": 4.7, "sea": "спокойное", "scene_reliable": true, "field_event_id": "S4:DOORS3:T11", "field_profile": "B", "field_date": "2024-06-04", "field_distance_km": 282.3, "field_date_gap_days": 277, "field_conc_items_km2": 62.52, "conc_A_items_km2": null, "conc_A_lo80": null, "conc_A_hi80": null, "conc_A_lo95": null, "conc_A_hi95": null, "conc_A_status": "unavailable", "conc_A_status_ru": "концентрация недоступна", "conc_A_reasons": "вне бассейна профиля: nw_atlantic_subtropical", "conc_A_model": "conc-A-c6bce5631d2b", "conc_B_items_km2": 355.2, "conc_B_lo80": 75.5, "conc_B_hi80": 1194.5, "conc_B_lo95": 46.9, "conc_B_hi95": 2236.9, "conc_B_status": "research_estimate", "conc_B_status_ru": "исследовательская оценка", "conc_B_reasons": "ближайшее полевое измерение в 282 км (> 60 км); месяц 3 вне месяцев обучения [6]", "conc_B_model": "conc-B-c6bce5631d2b"}}, {"type": "Feature", "geometry": {"type": "Polygon", "coordinates": [[[36.57524813065758, 45.02934009137454], [36.575251930216595, 45.02925015330114], [36.57500207083165, 45.02915482625084], [36.57500967065344, 45.02897495012927], [36.575136499711036, 45.02897764467045], [36.57514029939688, 45.02888770659875], [36.57539395716912, 45.02889309524213], [36.5753901578798, 45.02898303333063], [36.57551698699096, 45.02898572744963], [36.57550558961066, 45.029255541730286], [36.57524813065758, 45.02934009137454]]]}, "properties": {"zone_id": "kerch-2025-03-08-006", "aoi": "kerch", "date": "2025-03-08", "scene_id": "S2B_MSIL2A_20250308T082709_R021_T37TCK_20250308T093350", "scene_datetime_utc": "2025-03-08T08:27:09.024000+00:00", "detection_status": "detected", "detection_status_ru": "обнаружено", "lon": 36.57527, "lat": 45.0291, "n_pixels": 5, "zone_area_km2": 0.0014, "cover_m2": 49.4, "p_mean": 0.858, "p_max": 0.988, "cover_m2_km2": 35285.7, "h3": "882d7614c7fffff", "valid_frac_scene": 0.995, "wind_ms": 4.7, "sea": "спокойное", "scene_reliable": true, "field_event_id": "S4:DOORS3:T11", "field_profile": "B", "field_date": "2024-06-04", "field_distance_km": 282.1, "field_date_gap_days": 277, "field_conc_items_km2": 62.52, "conc_A_items_km2": null, "conc_A_lo80": null, "conc_A_hi80": null, "conc_A_lo95": null, "conc_A_hi95": null, "conc_A_status": "unavailable", "conc_A_status_ru": "концентрация недоступна", "conc_A_reasons": "вне бассейна профиля: nw_atlantic_subtropical", "conc_A_model": "conc-A-c6bce5631d2b", "conc_B_items_km2": 355.2, "conc_B_lo80": 75.5, "conc_B_hi80": 1194.5, "conc_B_lo95": 46.9, "conc_B_hi95": 2236.9, "conc_B_status": "research_estimate", "conc_B_status_ru": "исследовательская оценка", "conc_B_reasons": "ближайшее полевое измерение в 282 км (> 60 км); месяц 3 вне месяцев обучения [6]", "conc_B_model": "conc-B-c6bce5631d2b"}}, {"type": "Feature", "geometry": {"type": "Polygon", "coordinates": [[[36.5674217858124, 45.025302751326905], [36.567425597091635, 45.025212813711626], [36.567175768729335, 45.02511747011355], [36.56717958036918, 45.02502753251177], [36.567306399973816, 45.02503023556425], [36.567310211397526, 45.02494029795237], [36.56756003923683, 45.025035641247094], [36.567556228191634, 45.02512557887417], [36.567683048048224, 45.02512828151298], [36.56767923718334, 45.02521821914679], [36.56755241712853, 45.02521551649956], [36.567548606047524, 45.02530545412326], [36.5674217858124, 45.025302751326905]]]}, "properties": {"zone_id": "kerch-2025-03-08-007", "aoi": "kerch", "date": "2025-03-08", "scene_id": "S2B_MSIL2A_20250308T082709_R021_T37TCK_20250308T093350", "scene_datetime_utc": "2025-03-08T08:27:09.024000+00:00", "detection_status": "detected", "detection_status_ru": "обнаружено", "lon": 36.56743, "lat": 45.02512, "n_pixels": 2, "zone_area_km2": 0.0008, "cover_m2": 19.6, "p_mean": 0.753, "p_max": 0.773, "cover_m2_km2": 24500.0, "h3": "882d7614c7fffff", "valid_frac_scene": 0.995, "wind_ms": 4.7, "sea": "спокойное", "scene_reliable": true, "field_event_id": "S4:DOORS3:T11", "field_profile": "B", "field_date": "2024-06-04", "field_distance_km": 281.7, "field_date_gap_days": 277, "field_conc_items_km2": 62.52, "conc_A_items_km2": null, "conc_A_lo80": null, "conc_A_hi80": null, "conc_A_lo95": null, "conc_A_hi95": null, "conc_A_status": "unavailable", "conc_A_status_ru": "концентрация недоступна", "conc_A_reasons": "вне бассейна профиля: nw_atlantic_subtropical", "conc_A_model": "conc-A-c6bce5631d2b", "conc_B_items_km2": 355.2, "conc_B_lo80": 75.5, "conc_B_hi80": 1194.5, "conc_B_lo95": 46.9, "conc_B_hi95": 2236.9, "conc_B_status": "research_estimate", "conc_B_status_ru": "исследовательская оценка", "conc_B_reasons": "ближайшее полевое измерение в 282 км (> 60 км); месяц 3 вне месяцев обучения [6]", "conc_B_model": "conc-B-c6bce5631d2b"}}]}