{"type": "FeatureCollection", "features": [{"type": "Feature", "geometry": {"type": "MultiPolygon", "coordinates": [[[[131.79525016422164, 43.31616432547131], [131.7952542899806, 43.31625426404168], [131.79537746414178, 43.316251251446836], [131.79537333820164, 43.31616131288589], [131.79561555982085, 43.31606534877372], [131.7956114335563, 43.31597541022813], [131.79548825997688, 43.31597842305968], [131.79548413391262, 43.31588848450295], [131.79523778705908, 43.315894509749825], [131.7952419127609, 43.31598444832539], [131.79511873912435, 43.31598746075953], [131.79512699022266, 43.31616733792428], [131.79525016422164, 43.31616432547131]]], [[[131.7950038162046, 43.31617035024476], [131.79499969082718, 43.31608041165384], [131.79487651697133, 43.31608342383244], [131.79488064216756, 43.31617336243276], [131.79475746811144, 43.316176374488286], [131.79476159314547, 43.31626631309628], [131.79501206701661, 43.31635022742137], [131.79500794160109, 43.31626028883394], [131.79513111580036, 43.31625727650405], [131.79512699022266, 43.31616733792428], [131.7950038162046, 43.31617035024476]]]]}, "properties": {"zone_id": "vladivostok-2025-04-23-001", "aoi": "vladivostok", "date": "2025-04-23", "scene_id": "S2B_MSIL2A_20250423T020649_R103_T52TGN_20250423T034329", "scene_datetime_utc": "2025-04-23T02:06:49.024000+00:00", "detection_status": "detected", "detection_status_ru": "обнаружено", "lon": 131.79525, "lat": 43.3161, "n_pixels": 4, "zone_area_km2": 0.0015, "cover_m2": 137.6, "p_mean": 0.677, "p_max": 0.824, "cover_m2_km2": 91733.3, "h3": "88316ccd15fffff", "valid_frac_scene": 0.996, "wind_ms": 2.1, "sea": "спокойное", "scene_reliable": true, "field_event_id": "S4:DOORS3:T23", "field_profile": "B", "field_date": "2024-06-10", "field_distance_km": 6964.1, "field_date_gap_days": 317, "field_conc_items_km2": 102.37, "conc_A_items_km2": null, "conc_A_lo80": null, "conc_A_hi80": null, "conc_A_lo95": null, "conc_A_hi95": null, "conc_A_status": "unavailable", "conc_A_status_ru": "концентрация недоступна", "conc_A_reasons": "вне бассейна профиля: nw_atlantic_subtropical", "conc_A_model": "conc-A-c6bce5631d2b", "conc_B_items_km2": null, "conc_B_lo80": null, "conc_B_hi80": null, "conc_B_lo95": null, "conc_B_hi95": null, "conc_B_status": "unavailable", "conc_B_status_ru": "концентрация недоступна", "conc_B_reasons": "вне бассейна профиля: black_sea", "conc_B_model": "conc-B-c6bce5631d2b"}}, {"type": "Feature", "geometry": {"type": "Polygon", "coordinates": [[[131.93873311621556, 43.258811517108406], [131.93872878755306, 43.2587215889321], [131.93860574486715, 43.25872475254744], [131.9385970879633, 43.25854489616976], [131.9388388438096, 43.25844864067472], [131.93884317259278, 43.25853856884643], [131.93896621487758, 43.258535404986546], [131.93897487286503, 43.25871526130492], [131.93873311621556, 43.258811517108406]]]}, "properties": {"zone_id": "vladivostok-2025-04-23-002", "aoi": "vladivostok", "date": "2025-04-23", "scene_id": "S2B_MSIL2A_20250423T020649_R103_T52TGN_20250423T034329", "scene_datetime_utc": "2025-04-23T02:06:49.024000+00:00", "detection_status": "detected", "detection_status_ru": "обнаружено", "lon": 131.93879, "lat": 43.25863, "n_pixels": 2, "zone_area_km2": 0.0008, "cover_m2": 6.3, "p_mean": 0.982, "p_max": 0.984, "cover_m2_km2": 7875.0, "h3": "88316c1b37fffff", "valid_frac_scene": 0.996, "wind_ms": 2.1, "sea": "спокойное", "scene_reliable": true, "field_event_id": "S4:DOORS3:T23", "field_profile": "B", "field_date": "2024-06-10", "field_distance_km": 6977.3, "field_date_gap_days": 317, "field_conc_items_km2": 102.37, "conc_A_items_km2": null, "conc_A_lo80": null, "conc_A_hi80": null, "conc_A_lo95": null, "conc_A_hi95": null, "conc_A_status": "unavailable", "conc_A_status_ru": "концентрация недоступна", "conc_A_reasons": "вне бассейна профиля: nw_atlantic_subtropical", "conc_A_model": "conc-A-c6bce5631d2b", "conc_B_items_km2": null, "conc_B_lo80": null, "conc_B_hi80": null, "conc_B_lo95": null, "conc_B_hi95": null, "conc_B_status": "unavailable", "conc_B_status_ru": "концентрация недоступна", "conc_B_reasons": "вне бассейна профиля: black_sea", "conc_B_model": "conc-B-c6bce5631d2b"}}, {"type": "Feature", "geometry": {"type": "Polygon", "coordinates": [[[131.9148265526851, 43.240605404636995], [131.91482226193415, 43.2405154742516], [131.91469925326203, 43.24051861110288], [131.9146949627113, 43.24042868070592], [131.91481797120295, 43.24042554386445], [131.91481368049153, 43.24033561347553], [131.9150596970546, 43.24032933941592], [131.9150639881269, 43.240419269785235], [131.91518699655919, 43.24041613254751], [131.91519128783173, 43.24050606290526], [131.91506827921899, 43.2405092001528], [131.91507257033086, 43.24059913051859], [131.9148265526851, 43.240605404636995]]]}, "properties": {"zone_id": "vladivostok-2025-04-23-003", "aoi": "vladivostok", "date": "2025-04-23", "scene_id": "S2B_MSIL2A_20250423T020649_R103_T52TGN_20250423T034329", "scene_datetime_utc": "2025-04-23T02:06:49.024000+00:00", "detection_status": "detected", "detection_status_ru": "обнаружено", "lon": 131.91494, "lat": 43.24047, "n_pixels": 2, "zone_area_km2": 0.0008, "cover_m2": 9.4, "p_mean": 0.975, "p_max": 0.996, "cover_m2_km2": 11750.0, "h3": "88316c1901fffff", "valid_frac_scene": 0.996, "wind_ms": 2.1, "sea": "спокойное", "scene_reliable": true, "field_event_id": "S4:DOORS3:T23", "field_profile": "B", "field_date": "2024-06-10", "field_distance_km": 6976.8, "field_date_gap_days": 317, "field_conc_items_km2": 102.37, "conc_A_items_km2": null, "conc_A_lo80": null, "conc_A_hi80": null, "conc_A_lo95": null, "conc_A_hi95": null, "conc_A_status": "unavailable", "conc_A_status_ru": "концентрация недоступна", "conc_A_reasons": "вне бассейна профиля: nw_atlantic_subtropical", "conc_A_model": "conc-A-c6bce5631d2b", "conc_B_items_km2": null, "conc_B_lo80": null, "conc_B_hi80": null, "conc_B_lo95": null, "conc_B_hi95": null, "conc_B_status": "unavailable", "conc_B_status_ru": "концентрация недоступна", "conc_B_reasons": "вне бассейна профиля: black_sea", "conc_B_model": "conc-B-c6bce5631d2b"}}, {"type": "Feature", "geometry": {"type": "Polygon", "coordinates": [[[131.97990878692278, 43.236676154196694], [131.97990440105465, 43.236586229018634], [131.97978140749322, 43.236589435617226], [131.97977702182564, 43.23649951042738], [131.9799000152067, 43.236496303838805], [131.979895629379, 43.23640637865719], [131.98014600190817, 43.2364898902655], [131.98015038811687, 43.2365798154253], [131.98002739459585, 43.236583022287995], [131.98003178064437, 43.236672947456036], [131.97990878692278, 43.236676154196694]]]}, "properties": {"zone_id": "vladivostok-2025-04-23-004", "aoi": "vladivostok", "date": "2025-04-23", "scene_id": "S2B_MSIL2A_20250423T020649_R103_T52TGN_20250423T034329", "scene_datetime_utc": "2025-04-23T02:06:49.024000+00:00", "detection_status": "detected", "detection_status_ru": "обнаружено", "lon": 131.97996, "lat": 43.23654, "n_pixels": 1, "zone_area_km2": 0.0005, "cover_m2": 7.8, "p_mean": 0.965, "p_max": 0.965, "cover_m2_km2": 15600.0, "h3": "88316c1807fffff", "valid_frac_scene": 0.996, "wind_ms": 2.1, "sea": "спокойное", "scene_reliable": true, "field_event_id": "S4:DOORS3:T23", "field_profile": "B", "field_date": "2024-06-10", "field_distance_km": 6981.4, "field_date_gap_days": 317, "field_conc_items_km2": 102.37, "conc_A_items_km2": null, "conc_A_lo80": null, "conc_A_hi80": null, "conc_A_lo95": null, "conc_A_hi95": null, "conc_A_status": "unavailable", "conc_A_status_ru": "концентрация недоступна", "conc_A_reasons": "вне бассейна профиля: nw_atlantic_subtropical", "conc_A_model": "conc-A-c6bce5631d2b", "conc_B_items_km2": null, "conc_B_lo80": null, "conc_B_hi80": null, "conc_B_lo95": null, "conc_B_hi95": null, "conc_B_status": "unavailable", "conc_B_status_ru": "концентрация недоступна", "conc_B_reasons": "вне бассейна профиля: black_sea", "conc_B_model": "conc-B-c6bce5631d2b"}}, {"type": "Feature", "geometry": {"type": "Polygon", "coordinates": [[[131.88507814027818, 43.22353223085626], [131.88507389581204, 43.22344229783185], [131.88495091823157, 43.22344540172048], [131.88494667396532, 43.2233554686846], [131.88506965136548, 43.223352364805685], [131.8850654069385, 43.223262431777776], [131.8853113613195, 43.223256223643276], [131.88531560610713, 43.22334615665179], [131.8854385834486, 43.22334305237681], [131.88544282843608, 43.22343298537388], [131.8853198509143, 43.223436089658556], [131.88532409574105, 43.22352602266357], [131.88507814027818, 43.22353223085626]]]}, "properties": {"zone_id": "vladivostok-2025-04-23-005", "aoi": "vladivostok", "date": "2025-04-23", "scene_id": "S2B_MSIL2A_20250423T020649_R103_T52TGN_20250423T034329", "scene_datetime_utc": "2025-04-23T02:06:49.024000+00:00", "detection_status": "detected", "detection_status_ru": "обнаружено", "lon": 131.88519, "lat": 43.22339, "n_pixels": 2, "zone_area_km2": 0.0008, "cover_m2": 14.9, "p_mean": 0.955, "p_max": 0.969, "cover_m2_km2": 18625.0, "h3": "88316c561bfffff", "valid_frac_scene": 0.996, "wind_ms": 2.1, "sea": "спокойное", "scene_reliable": true, "field_event_id": "S4:DOORS3:T23", "field_profile": "B", "field_date": "2024-06-10", "field_distance_km": 6975.9, "field_date_gap_days": 317, "field_conc_items_km2": 102.37, "conc_A_items_km2": null, "conc_A_lo80": null, "conc_A_hi80": null, "conc_A_lo95": null, "conc_A_hi95": null, "conc_A_status": "unavailable", "conc_A_status_ru": "концентрация недоступна", "conc_A_reasons": "вне бассейна профиля: nw_atlantic_subtropical", "conc_A_model": "conc-A-c6bce5631d2b", "conc_B_items_km2": null, "conc_B_lo80": null, "conc_B_hi80": null, "conc_B_lo95": null, "conc_B_hi95": null, "conc_B_status": "unavailable", "conc_B_status_ru": "концентрация недоступна", "conc_B_reasons": "вне бассейна профиля: black_sea", "conc_B_model": "conc-B-c6bce5631d2b"}}, {"type": "Feature", "geometry": {"type": "Polygon", "coordinates": [[[131.75003208971935, 43.22127837685122], [131.75002804409309, 43.22118843333857], [131.74990505675032, 43.22119139192685], [131.74990101132306, 43.22110144840326], [131.75014293985978, 43.221005587606285], [131.75013889410906, 43.22091564409773], [131.75026188087338, 43.22091268527306], [131.75025783496096, 43.220822741772025], [131.75050785434604, 43.22090676722759], [131.75051190063786, 43.22099671070841], [131.75063488752656, 43.220993751478346], [131.75063893401742, 43.2210836949482], [131.75039700600934, 43.221179556781394], [131.75040105217676, 43.221269500266295], [131.75003208971935, 43.22127837685122]]]}, "properties": {"zone_id": "vladivostok-2025-04-23-006", "aoi": "vladivostok", "date": "2025-04-23", "scene_id": "S2B_MSIL2A_20250423T020649_R103_T52TGN_20250423T034329", "scene_datetime_utc": "2025-04-23T02:06:49.024000+00:00", "detection_status": "detected", "detection_status_ru": "обнаружено", "lon": 131.75028, "lat": 43.22107, "n_pixels": 7, "zone_area_km2": 0.0017, "cover_m2": 159.6, "p_mean": 0.911, "p_max": 1.0, "cover_m2_km2": 93882.4, "h3": "88316c5099fffff", "valid_frac_scene": 0.996, "wind_ms": 2.1, "sea": "спокойное", "scene_reliable": true, "field_event_id": "S4:DOORS3:T23", "field_profile": "B", "field_date": "2024-06-10", "field_distance_km": 6966.9, "field_date_gap_days": 317, "field_conc_items_km2": 102.37, "conc_A_items_km2": null, "conc_A_lo80": null, "conc_A_hi80": null, "conc_A_lo95": null, "conc_A_hi95": null, "conc_A_status": "unavailable", "conc_A_status_ru": "концентрация недоступна", "conc_A_reasons": "вне бассейна профиля: nw_atlantic_subtropical", "conc_A_model": "conc-A-c6bce5631d2b", "conc_B_items_km2": null, "conc_B_lo80": null, "conc_B_hi80": null, "conc_B_lo95": null, "conc_B_hi95": null, "conc_B_status": "unavailable", "conc_B_status_ru": "концентрация недоступна", "conc_B_reasons": "вне бассейна профиля: black_sea", "conc_B_model": "conc-B-c6bce5631d2b"}}, {"type": "Feature", "geometry": {"type": "Polygon", "coordinates": [[[131.73121165789905, 43.21614704221911], [131.73120764065877, 43.21605709720856], [131.7310846616916, 43.21606003528658], [131.73108064465015, 43.21597009026515], [131.73120362343698, 43.21596715219632], [131.7311996062337, 43.21587720718235], [131.7314495809551, 43.21596127566253], [131.73145359853754, 43.21605122065642], [131.7313306196074, 43.21605415899852], [131.73133463702806, 43.216144103999866], [131.73121165789905, 43.21614704221911]]]}, "properties": {"zone_id": "vladivostok-2025-04-23-007", "aoi": "vladivostok", "date": "2025-04-23", "scene_id": "S2B_MSIL2A_20250423T020649_R103_T52TGN_20250423T034329", "scene_datetime_utc": "2025-04-23T02:06:49.024000+00:00", "detection_status": "detected", "detection_status_ru": "обнаружено", "lon": 131.73127, "lat": 43.21601, "n_pixels": 1, "zone_area_km2": 0.0005, "cover_m2": 17.3, "p_mean": 0.51, "p_max": 0.51, "cover_m2_km2": 34600.0, "h3": "88316c5095fffff", "valid_frac_scene": 0.996, "wind_ms": 2.1, "sea": "спокойное", "scene_reliable": true, "field_event_id": "S4:DOORS3:T23", "field_profile": "B", "field_date": "2024-06-10", "field_distance_km": 6965.9, "field_date_gap_days": 317, "field_conc_items_km2": 102.37, "conc_A_items_km2": null, "conc_A_lo80": null, "conc_A_hi80": null, "conc_A_lo95": null, "conc_A_hi95": null, "conc_A_status": "unavailable", "conc_A_status_ru": "концентрация недоступна", "conc_A_reasons": "вне бассейна профиля: nw_atlantic_subtropical", "conc_A_model": "conc-A-c6bce5631d2b", "conc_B_items_km2": null, "conc_B_lo80": null, "conc_B_hi80": null, "conc_B_lo95": null, "conc_B_hi95": null, "conc_B_status": "unavailable", "conc_B_status_ru": "концентрация недоступна", "conc_B_reasons": "вне бассейна профиля: black_sea", "conc_B_model": "conc-B-c6bce5631d2b"}}, {"type": "Feature", "geometry": {"type": "Polygon", "coordinates": [[[131.73056864799483, 43.215532115903585], [131.73056463178582, 43.21544217083512], [131.73044165398838, 43.21544510818869], [131.7304336219866, 43.215265218028236], [131.73055659942338, 43.21526228069302], [131.7305525832699, 43.21517233561939], [131.73080255424134, 43.215256405626484], [131.73080657077398, 43.21534635068003], [131.73092954833552, 43.21534341293953], [131.730933565067, 43.21543335798218], [131.73081058732515, 43.215436295731855], [131.7308146038948, 43.21552624078196], [131.73056864799483, 43.215532115903585]]]}, "properties": {"zone_id": "vladivostok-2025-04-23-008", "aoi": "vladivostok", "date": "2025-04-23", "scene_id": "S2B_MSIL2A_20250423T020649_R103_T52TGN_20250423T034329", "scene_datetime_utc": "2025-04-23T02:06:49.024000+00:00", "detection_status": "detected", "detection_status_ru": "обнаружено", "lon": 131.73066, "lat": 43.21536, "n_pixels": 3, "zone_area_km2": 0.001, "cover_m2": 58.4, "p_mean": 0.533, "p_max": 0.545, "cover_m2_km2": 58400.0, "h3": "88316c5095fffff", "valid_frac_scene": 0.996, "wind_ms": 2.1, "sea": "спокойное", "scene_reliable": true, "field_event_id": "S4:DOORS3:T23", "field_profile": "B", "field_date": "2024-06-10", "field_distance_km": 6965.9, "field_date_gap_days": 317, "field_conc_items_km2": 102.37, "conc_A_items_km2": null, "conc_A_lo80": null, "conc_A_hi80": null, "conc_A_lo95": null, "conc_A_hi95": null, "conc_A_status": "unavailable", "conc_A_status_ru": "концентрация недоступна", "conc_A_reasons": "вне бассейна профиля: nw_atlantic_subtropical", "conc_A_model": "conc-A-c6bce5631d2b", "conc_B_items_km2": null, "conc_B_lo80": null, "conc_B_hi80": null, "conc_B_lo95": null, "conc_B_hi95": null, "conc_B_status": "unavailable", "conc_B_status_ru": "концентрация недоступна", "conc_B_reasons": "вне бассейна профиля: black_sea", "conc_B_model": "conc-B-c6bce5631d2b"}}, {"type": "Feature", "geometry": {"type": "Polygon", "coordinates": [[[131.7003426545805, 43.202923987332376], [131.70033868454405, 43.20283403981026], [131.70021572899213, 43.20283694399822], [131.70021175915423, 43.202746996465315], [131.7003347145259, 43.20274409228643], [131.70033074452607, 43.20265414476089], [131.7005806252144, 43.20273828353271], [131.700584595593, 43.20282823103838], [131.7004616400777, 43.20283113549032], [131.70046561029434, 43.20292108300335], [131.7003426545805, 43.202923987332376]]]}, "properties": {"zone_id": "vladivostok-2025-04-23-009", "aoi": "vladivostok", "date": "2025-04-23", "scene_id": "S2B_MSIL2A_20250423T020649_R103_T52TGN_20250423T034329", "scene_datetime_utc": "2025-04-23T02:06:49.024000+00:00", "detection_status": "detected", "detection_status_ru": "обнаружено", "lon": 131.7004, "lat": 43.20279, "n_pixels": 1, "zone_area_km2": 0.0005, "cover_m2": 9.4, "p_mean": 0.984, "p_max": 0.984, "cover_m2_km2": 18800.0, "h3": "88316c4241fffff", "valid_frac_scene": 0.996, "wind_ms": 2.1, "sea": "спокойное", "scene_reliable": true, "field_event_id": "S4:DOORS3:T23", "field_profile": "B", "field_date": "2024-06-10", "field_distance_km": 6964.7, "field_date_gap_days": 317, "field_conc_items_km2": 102.37, "conc_A_items_km2": null, "conc_A_lo80": null, "conc_A_hi80": null, "conc_A_lo95": null, "conc_A_hi95": null, "conc_A_status": "unavailable", "conc_A_status_ru": "концентрация недоступна", "conc_A_reasons": "вне бассейна профиля: nw_atlantic_subtropical", "conc_A_model": "conc-A-c6bce5631d2b", "conc_B_items_km2": null, "conc_B_lo80": null, "conc_B_hi80": null, "conc_B_lo95": null, "conc_B_hi95": null, "conc_B_status": "unavailable", "conc_B_status_ru": "концентрация недоступна", "conc_B_reasons": "вне бассейна профиля: black_sea", "conc_B_model": "conc-B-c6bce5631d2b"}}, {"type": "Feature", "geometry": {"type": "Polygon", "coordinates": [[[131.80304245047037, 43.15291027208361], [131.80303833675308, 43.15282033153637], [131.80291549211478, 43.15282334331676], [131.80290726509648, 43.15264346219824], [131.80314883979514, 43.15254749800036], [131.80315295363528, 43.15263743854338], [131.80327579787624, 43.15263442651837], [131.8032840259728, 43.1528143075804], [131.80304245047037, 43.15291027208361]]]}, "properties": {"zone_id": "vladivostok-2025-04-23-010", "aoi": "vladivostok", "date": "2025-04-23", "scene_id": "S2B_MSIL2A_20250423T020649_R103_T52TGN_20250423T034329", "scene_datetime_utc": "2025-04-23T02:06:49.024000+00:00", "detection_status": "detected", "detection_status_ru": "обнаружено", "lon": 131.8031, "lat": 43.15273, "n_pixels": 2, "zone_area_km2": 0.0008, "cover_m2": 9.0, "p_mean": 0.763, "p_max": 0.91, "cover_m2_km2": 11250.0, "h3": "88316c55c3fffff", "valid_frac_scene": 0.996, "wind_ms": 2.1, "sea": "спокойное", "scene_reliable": true, "field_event_id": "S4:DOORS3:T23", "field_profile": "B", "field_date": "2024-06-10", "field_distance_km": 6974.7, "field_date_gap_days": 317, "field_conc_items_km2": 102.37, "conc_A_items_km2": null, "conc_A_lo80": null, "conc_A_hi80": null, "conc_A_lo95": null, "conc_A_hi95": null, "conc_A_status": "unavailable", "conc_A_status_ru": "концентрация недоступна", "conc_A_reasons": "вне бассейна профиля: nw_atlantic_subtropical", "conc_A_model": "conc-A-c6bce5631d2b", "conc_B_items_km2": null, "conc_B_lo80": null, "conc_B_hi80": null, "conc_B_lo95": null, "conc_B_hi95": null, "conc_B_status": "unavailable", "conc_B_status_ru": "концентрация недоступна", "conc_B_reasons": "вне бассейна профиля: black_sea", "conc_B_model": "conc-B-c6bce5631d2b"}}, {"type": "Feature", "geometry": {"type": "Polygon", "coordinates": [[[131.71400229315148, 43.15289759417965], [131.71399831001162, 43.15280764688456], [131.7137526023357, 43.152813479111], [131.71374861957372, 43.152723531795964], [131.71349892979978, 43.15263941614219], [131.71349494743404, 43.1525494688055], [131.7137366713979, 43.15245368984057], [131.7137406541048, 43.15254363716075], [131.71410921397333, 43.15253488870549], [131.7141131972379, 43.15262483599661], [131.71423605067048, 43.15262191957224], [131.7142440176142, 43.1528018141311], [131.71400229315148, 43.15289759417965]]]}, "properties": {"zone_id": "vladivostok-2025-04-23-011", "aoi": "vladivostok", "date": "2025-04-23", "scene_id": "S2B_MSIL2A_20250423T020649_R103_T52TGN_20250423T034329", "scene_datetime_utc": "2025-04-23T02:06:49.024000+00:00", "detection_status": "detected", "detection_status_ru": "обнаружено", "lon": 131.71391, "lat": 43.15267, "n_pixels": 5, "zone_area_km2": 0.0016, "cover_m2": 55.3, "p_mean": 0.817, "p_max": 0.988, "cover_m2_km2": 34562.5, "h3": "88316c42e9fffff", "valid_frac_scene": 0.996, "wind_ms": 2.1, "sea": "спокойное", "scene_reliable": true, "field_event_id": "S4:DOORS3:T23", "field_profile": "B", "field_date": "2024-06-10", "field_distance_km": 6968.7, "field_date_gap_days": 317, "field_conc_items_km2": 102.37, "conc_A_items_km2": null, "conc_A_lo80": null, "conc_A_hi80": null, "conc_A_lo95": null, "conc_A_hi95": null, "conc_A_status": "unavailable", "conc_A_status_ru": "концентрация недоступна", "conc_A_reasons": "вне бассейна профиля: nw_atlantic_subtropical", "conc_A_model": "conc-A-c6bce5631d2b", "conc_B_items_km2": null, "conc_B_lo80": null, "conc_B_hi80": null, "conc_B_lo95": null, "conc_B_hi95": null, "conc_B_status": "unavailable", "conc_B_status_ru": "концентрация недоступна", "conc_B_reasons": "вне бассейна профиля: black_sea", "conc_B_model": "conc-B-c6bce5631d2b"}}, {"type": "Feature", "geometry": {"type": "Polygon", "coordinates": [[[131.80289903815395, 43.15246358107281], [131.80289492471115, 43.152373640507484], [131.80277208095245, 43.1523766521091], [131.80276385448306, 43.15219677095442], [131.80264101106482, 43.15219978240548], [131.80263278503065, 43.15201990122504], [131.8027556280895, 43.15201688979279], [131.8027515149211, 43.15192694920938], [131.80300131415032, 43.15201086653313], [131.8030095412627, 43.152190747657116], [131.80313238462412, 43.15218773581087], [131.80314061217172, 43.15236761690908], [131.80289903815395, 43.15246358107281]]]}, "properties": {"zone_id": "vladivostok-2025-04-23-012", "aoi": "vladivostok", "date": "2025-04-23", "scene_id": "S2B_MSIL2A_20250423T020649_R103_T52TGN_20250423T034329", "scene_datetime_utc": "2025-04-23T02:06:49.024000+00:00", "detection_status": "detected", "detection_status_ru": "обнаружено", "lon": 131.80289, "lat": 43.15219, "n_pixels": 4, "zone_area_km2": 0.0014, "cover_m2": 23.1, "p_mean": 0.707, "p_max": 0.847, "cover_m2_km2": 16500.0, "h3": "88316c55c3fffff", "valid_frac_scene": 0.996, "wind_ms": 2.1, "sea": "спокойное", "scene_reliable": true, "field_event_id": "S4:DOORS3:T23", "field_profile": "B", "field_date": "2024-06-10", "field_distance_km": 6974.7, "field_date_gap_days": 317, "field_conc_items_km2": 102.37, "conc_A_items_km2": null, "conc_A_lo80": null, "conc_A_hi80": null, "conc_A_lo95": null, "conc_A_hi95": null, "conc_A_status": "unavailable", "conc_A_status_ru": "концентрация недоступна", "conc_A_reasons": "вне бассейна профиля: nw_atlantic_subtropical", "conc_A_model": "conc-A-c6bce5631d2b", "conc_B_items_km2": null, "conc_B_lo80": null, "conc_B_hi80": null, "conc_B_lo95": null, "conc_B_hi95": null, "conc_B_status": "unavailable", "conc_B_status_ru": "концентрация недоступна", "conc_B_reasons": "вне бассейна профиля: black_sea", "conc_B_model": "conc-B-c6bce5631d2b"}}, {"type": "Feature", "geometry": {"type": "MultiPolygon", "coordinates": [[[[131.7122266083068, 43.151679144751824], [131.71197692478404, 43.151595025587476], [131.71198090479092, 43.15168497305235], [131.71185805300547, 43.15168788700498], [131.71186203285095, 43.15177783447725], [131.7121117169863, 43.15186195387434], [131.71210773676302, 43.15177200642202], [131.71223058869154, 43.15176909219677], [131.7122266083068, 43.151679144751824]]], [[[131.71235742118452, 43.15185612527389], [131.71235344060173, 43.151766177839775], [131.71223058869154, 43.15176909219677], [131.7122345690946, 43.15185903963999], [131.7121117169863, 43.15186195387434], [131.71211569722797, 43.15195190132496], [131.7123653824052, 43.15203602013699], [131.7123614017857, 43.151946072706295], [131.71248425403707, 43.15194315819933], [131.71248027325615, 43.15185321077605], [131.71235742118452, 43.15185612527389]]], [[[131.7124922156539, 43.15212305304078], [131.71249619648987, 43.15221300045893], [131.71261904926214, 43.152210085792895], [131.71261506824644, 43.15212013838385], [131.71273792082064, 43.15211722359518], [131.7127339396435, 43.15202727619353], [131.71248425403707, 43.15194315819933], [131.71248823483631, 43.152033105620916], [131.7123653824052, 43.15203602013699], [131.71236936304305, 43.152125967565965], [131.7124922156539, 43.15212305304078]]]]}, "properties": {"zone_id": "vladivostok-2025-04-23-013", "aoi": "vladivostok", "date": "2025-04-23", "scene_id": "S2B_MSIL2A_20250423T020649_R103_T52TGN_20250423T034329", "scene_datetime_utc": "2025-04-23T02:06:49.024000+00:00", "detection_status": "detected", "detection_status_ru": "обнаружено", "lon": 131.7123, "lat": 43.1519, "n_pixels": 3, "zone_area_km2": 0.0015, "cover_m2": 39.2, "p_mean": 0.752, "p_max": 0.973, "cover_m2_km2": 26133.3, "h3": "88316c42e9fffff", "valid_frac_scene": 0.996, "wind_ms": 2.1, "sea": "спокойное", "scene_reliable": true, "field_event_id": "S4:DOORS3:T23", "field_profile": "B", "field_date": "2024-06-10", "field_distance_km": 6968.6, "field_date_gap_days": 317, "field_conc_items_km2": 102.37, "conc_A_items_km2": null, "conc_A_lo80": null, "conc_A_hi80": null, "conc_A_lo95": null, "conc_A_hi95": null, "conc_A_status": "unavailable", "conc_A_status_ru": "концентрация недоступна", "conc_A_reasons": "вне бассейна профиля: nw_atlantic_subtropical", "conc_A_model": "conc-A-c6bce5631d2b", "conc_B_items_km2": null, "conc_B_lo80": null, "conc_B_hi80": null, "conc_B_lo95": null, "conc_B_hi95": null, "conc_B_status": "unavailable", "conc_B_status_ru": "концентрация недоступна", "conc_B_reasons": "вне бассейна профиля: black_sea", "conc_B_model": "conc-B-c6bce5631d2b"}}, {"type": "Feature", "geometry": {"type": "Polygon", "coordinates": [[[131.80273917552972, 43.15165712744873], [131.8027350624372, 43.15156718685839], [131.80261222027684, 43.15157019824359], [131.80260810738292, 43.151480257642085], [131.80273094936356, 43.1514772462663], [131.8027268363089, 43.15138730567248], [131.80297663326797, 43.15147122311959], [131.802980746701, 43.15156116369285], [131.80285790457856, 43.151564175341484], [131.80286201785083, 43.15165411592241], [131.80273917552972, 43.15165712744873]]]}, "properties": {"zone_id": "vladivostok-2025-04-23-014", "aoi": "vladivostok", "date": "2025-04-23", "scene_id": "S2B_MSIL2A_20250423T020649_R103_T52TGN_20250423T034329", "scene_datetime_utc": "2025-04-23T02:06:49.024000+00:00", "detection_status": "detected", "detection_status_ru": "обнаружено", "lon": 131.80279, "lat": 43.15152, "n_pixels": 1, "zone_area_km2": 0.0005, "cover_m2": 4.3, "p_mean": 0.784, "p_max": 0.784, "cover_m2_km2": 8600.0, "h3": "88316c55c3fffff", "valid_frac_scene": 0.996, "wind_ms": 2.1, "sea": "спокойное", "scene_reliable": true, "field_event_id": "S4:DOORS3:T23", "field_profile": "B", "field_date": "2024-06-10", "field_distance_km": 6974.8, "field_date_gap_days": 317, "field_conc_items_km2": 102.37, "conc_A_items_km2": null, "conc_A_lo80": null, "conc_A_hi80": null, "conc_A_lo95": null, "conc_A_hi95": null, "conc_A_status": "unavailable", "conc_A_status_ru": "концентрация недоступна", "conc_A_reasons": "вне бассейна профиля: nw_atlantic_subtropical", "conc_A_model": "conc-A-c6bce5631d2b", "conc_B_items_km2": null, "conc_B_lo80": null, "conc_B_hi80": null, "conc_B_lo95": null, "conc_B_hi95": null, "conc_B_status": "unavailable", "conc_B_status_ru": "концентрация недоступна", "conc_B_reasons": "вне бассейна профиля: black_sea", "conc_B_model": "conc-B-c6bce5631d2b"}}, {"type": "Feature", "geometry": {"type": "Polygon", "coordinates": [[[131.71173122155432, 43.151600853342785], [131.7117272419253, 43.151510905858], [131.71160439046267, 43.15151381952892], [131.71160041103172, 43.1514238720333], [131.7117232623146, 43.151420958371475], [131.71171928272224, 43.15133101088325], [131.7115964316191, 43.151333924535955], [131.71159245222483, 43.15124397703692], [131.71183417431777, 43.151148202135396], [131.7118381540532, 43.15123814961795], [131.7119610049399, 43.15123523571085], [131.71196498487345, 43.15132518318258], [131.71184213380698, 43.15132809709879], [131.7118461135791, 43.151418044577916], [131.7119689648253, 43.15141513065259], [131.71197294479552, 43.15150507812089], [131.71173122155432, 43.151600853342785]]]}, "properties": {"zone_id": "vladivostok-2025-04-23-015", "aoi": "vladivostok", "date": "2025-04-23", "scene_id": "S2B_MSIL2A_20250423T020649_R103_T52TGN_20250423T034329", "scene_datetime_utc": "2025-04-23T02:06:49.024000+00:00", "detection_status": "detected", "detection_status_ru": "обнаружено", "lon": 131.71178, "lat": 43.15137, "n_pixels": 2, "zone_area_km2": 0.0009, "cover_m2": 24.7, "p_mean": 0.798, "p_max": 0.922, "cover_m2_km2": 27444.4, "h3": "88316c42e9fffff", "valid_frac_scene": 0.996, "wind_ms": 2.1, "sea": "спокойное", "scene_reliable": true, "field_event_id": "S4:DOORS3:T23", "field_profile": "B", "field_date": "2024-06-10", "field_distance_km": 6968.6, "field_date_gap_days": 317, "field_conc_items_km2": 102.37, "conc_A_items_km2": null, "conc_A_lo80": null, "conc_A_hi80": null, "conc_A_lo95": null, "conc_A_hi95": null, "conc_A_status": "unavailable", "conc_A_status_ru": "концентрация недоступна", "conc_A_reasons": "вне бассейна профиля: nw_atlantic_subtropical", "conc_A_model": "conc-A-c6bce5631d2b", "conc_B_items_km2": null, "conc_B_lo80": null, "conc_B_hi80": null, "conc_B_lo95": null, "conc_B_hi95": null, "conc_B_status": "unavailable", "conc_B_status_ru": "концентрация недоступна", "conc_B_reasons": "вне бассейна профиля: black_sea", "conc_B_model": "conc-B-c6bce5631d2b"}}, {"type": "Feature", "geometry": {"type": "Polygon", "coordinates": [[[131.77123804961028, 43.1512544860654], [131.77123398276754, 43.15116454305685], [131.7711111381196, 43.1511675205994], [131.77110300484983, 43.15098763455853], [131.7713446264419, 43.15089173637451], [131.7713486934081, 43.15098167937893], [131.77147153765912, 43.15097870159153], [131.77147967200722, 43.15115858757657], [131.77123804961028, 43.1512544860654]]]}, "properties": {"zone_id": "vladivostok-2025-04-23-016", "aoi": "vladivostok", "date": "2025-04-23", "scene_id": "S2B_MSIL2A_20250423T020649_R103_T52TGN_20250423T034329", "scene_datetime_utc": "2025-04-23T02:06:49.024000+00:00", "detection_status": "detected", "detection_status_ru": "обнаружено", "lon": 131.77129, "lat": 43.15107, "n_pixels": 2, "zone_area_km2": 0.0008, "cover_m2": 14.1, "p_mean": 0.851, "p_max": 0.953, "cover_m2_km2": 17625.0, "h3": "88316c55e1fffff", "valid_frac_scene": 0.996, "wind_ms": 2.1, "sea": "спокойное", "scene_reliable": true, "field_event_id": "S4:DOORS3:T23", "field_profile": "B", "field_date": "2024-06-10", "field_distance_km": 6972.7, "field_date_gap_days": 317, "field_conc_items_km2": 102.37, "conc_A_items_km2": null, "conc_A_lo80": null, "conc_A_hi80": null, "conc_A_lo95": null, "conc_A_hi95": null, "conc_A_status": "unavailable", "conc_A_status_ru": "концентрация недоступна", "conc_A_reasons": "вне бассейна профиля: nw_atlantic_subtropical", "conc_A_model": "conc-A-c6bce5631d2b", "conc_B_items_km2": null, "conc_B_lo80": null, "conc_B_hi80": null, "conc_B_lo95": null, "conc_B_hi95": null, "conc_B_status": "unavailable", "conc_B_status_ru": "концентрация недоступна", "conc_B_reasons": "вне бассейна профиля: black_sea", "conc_B_model": "conc-B-c6bce5631d2b"}}, {"type": "Feature", "geometry": {"type": "Polygon", "coordinates": [[[131.8028373385015, 43.151114472410754], [131.80283322534294, 43.15102453181941], [131.80258343041734, 43.15094061399668], [131.80257520491372, 43.15076073276767], [131.80269804545682, 43.150757721467166], [131.80268570680443, 43.150487899638875], [131.80292727355, 43.150391936105116], [131.80293138675563, 43.1504818766992], [131.80305422670278, 43.150478865031786], [131.80306245353023, 43.15065874619593], [131.80293961322369, 43.15066175788215], [131.8029519530679, 43.150931579643576], [131.8030747939135, 43.15092856792911], [131.8030789074125, 43.15101850850337], [131.8028373385015, 43.151114472410754]]]}, "properties": {"zone_id": "vladivostok-2025-04-23-017", "aoi": "vladivostok", "date": "2025-04-23", "scene_id": "S2B_MSIL2A_20250423T020649_R103_T52TGN_20250423T034329", "scene_datetime_utc": "2025-04-23T02:06:49.024000+00:00", "detection_status": "detected", "detection_status_ru": "обнаружено", "lon": 131.80283, "lat": 43.15076, "n_pixels": 5, "zone_area_km2": 0.0019, "cover_m2": 24.7, "p_mean": 0.917, "p_max": 0.992, "cover_m2_km2": 13000.0, "h3": "88316c55c3fffff", "valid_frac_scene": 0.996, "wind_ms": 2.1, "sea": "спокойное", "scene_reliable": true, "field_event_id": "S4:DOORS3:T23", "field_profile": "B", "field_date": "2024-06-10", "field_distance_km": 6974.8, "field_date_gap_days": 317, "field_conc_items_km2": 102.37, "conc_A_items_km2": null, "conc_A_lo80": null, "conc_A_hi80": null, "conc_A_lo95": null, "conc_A_hi95": null, "conc_A_status": "unavailable", "conc_A_status_ru": "концентрация недоступна", "conc_A_reasons": "вне бассейна профиля: nw_atlantic_subtropical", "conc_A_model": "conc-A-c6bce5631d2b", "conc_B_items_km2": null, "conc_B_lo80": null, "conc_B_hi80": null, "conc_B_lo95": null, "conc_B_hi95": null, "conc_B_status": "unavailable", "conc_B_status_ru": "концентрация недоступна", "conc_B_reasons": "вне бассейна профиля: black_sea", "conc_B_model": "conc-B-c6bce5631d2b"}}, {"type": "Feature", "geometry": {"type": "Polygon", "coordinates": [[[131.8027879818494, 43.150035185200096], [131.80278386891825, 43.14994524458794], [131.80266103001128, 43.14994825593545], [131.80265691727874, 43.149858315312144], [131.80277975600603, 43.149855303974036], [131.80277564311274, 43.14976536335839], [131.8030254334037, 43.149849280902686], [131.8030295466753, 43.14993922149777], [131.80290670780624, 43.149942233108696], [131.8029108209171, 43.15003217371146], [131.8027879818494, 43.150035185200096]]]}, "properties": {"zone_id": "vladivostok-2025-04-23-018", "aoi": "vladivostok", "date": "2025-04-23", "scene_id": "S2B_MSIL2A_20250423T020649_R103_T52TGN_20250423T034329", "scene_datetime_utc": "2025-04-23T02:06:49.024000+00:00", "detection_status": "detected", "detection_status_ru": "обнаружено", "lon": 131.80284, "lat": 43.1499, "n_pixels": 1, "zone_area_km2": 0.0005, "cover_m2": 4.3, "p_mean": 0.965, "p_max": 0.965, "cover_m2_km2": 8600.0, "h3": "88316c55c3fffff", "valid_frac_scene": 0.996, "wind_ms": 2.1, "sea": "спокойное", "scene_reliable": true, "field_event_id": "S4:DOORS3:T23", "field_profile": "B", "field_date": "2024-06-10", "field_distance_km": 6974.9, "field_date_gap_days": 317, "field_conc_items_km2": 102.37, "conc_A_items_km2": null, "conc_A_lo80": null, "conc_A_hi80": null, "conc_A_lo95": null, "conc_A_hi95": null, "conc_A_status": "unavailable", "conc_A_status_ru": "концентрация недоступна", "conc_A_reasons": "вне бассейна профиля: nw_atlantic_subtropical", "conc_A_model": "conc-A-c6bce5631d2b", "conc_B_items_km2": null, "conc_B_lo80": null, "conc_B_hi80": null, "conc_B_lo95": null, "conc_B_hi95": null, "conc_B_status": "unavailable", "conc_B_status_ru": "концентрация недоступна", "conc_B_reasons": "вне бассейна профиля: black_sea", "conc_B_model": "conc-B-c6bce5631d2b"}}, {"type": "Feature", "geometry": {"type": "Polygon", "coordinates": [[[131.8028902555523, 43.14958247068035], [131.8028861425362, 43.14949253006891], [131.8027633045466, 43.1494955415011], [131.8027550789306, 43.14931566025422], [131.80287791656085, 43.149312648840855], [131.80286969066125, 43.149132767605856], [131.8029925279132, 43.149129756079624], [131.80298841481218, 43.14903981546894], [131.80311125186546, 43.14903680382041], [131.8031071386037, 43.14894686321739], [131.80335281229412, 43.148940839544025], [131.80335692591524, 43.14903078012822], [131.8034797629117, 43.14902776808456], [131.80348387673146, 43.149117708657606], [131.8033610395553, 43.14912072071066], [131.80336515321434, 43.14921066129138], [131.80312359176446, 43.14930662561903], [131.80313181845855, 43.14948650680944], [131.8028902555523, 43.14958247068035]]]}, "properties": {"zone_id": "vladivostok-2025-04-23-019", "aoi": "vladivostok", "date": "2025-04-23", "scene_id": "S2B_MSIL2A_20250423T020649_R103_T52TGN_20250423T034329", "scene_datetime_utc": "2025-04-23T02:06:49.024000+00:00", "detection_status": "detected", "detection_status_ru": "обнаружено", "lon": 131.80309, "lat": 43.14922, "n_pixels": 7, "zone_area_km2": 0.002, "cover_m2": 33.3, "p_mean": 0.872, "p_max": 0.984, "cover_m2_km2": 16650.0, "h3": "88316c55c3fffff", "valid_frac_scene": 0.996, "wind_ms": 2.1, "sea": "спокойное", "scene_reliable": true, "field_event_id": "S4:DOORS3:T23", "field_profile": "B", "field_date": "2024-06-10", "field_distance_km": 6974.9, "field_date_gap_days": 317, "field_conc_items_km2": 102.37, "conc_A_items_km2": null, "conc_A_lo80": null, "conc_A_hi80": null, "conc_A_lo95": null, "conc_A_hi95": null, "conc_A_status": "unavailable", "conc_A_status_ru": "концентрация недоступна", "conc_A_reasons": "вне бассейна профиля: nw_atlantic_subtropical", "conc_A_model": "conc-A-c6bce5631d2b", "conc_B_items_km2": null, "conc_B_lo80": null, "conc_B_hi80": null, "conc_B_lo95": null, "conc_B_hi95": null, "conc_B_status": "unavailable", "conc_B_status_ru": "концентрация недоступна", "conc_B_reasons": "вне бассейна профиля: black_sea", "conc_B_model": "conc-B-c6bce5631d2b"}}, {"type": "Feature", "geometry": {"type": "Polygon", "coordinates": [[[131.80359848590874, 43.14893481534384], [131.8035943719472, 43.14884487477674], [131.80347153532907, 43.14884788693327], [131.80346742156618, 43.148757946355026], [131.80359025800468, 43.148754934207915], [131.80358614408107, 43.14866499363734], [131.80383181654184, 43.14865896896682], [131.8038235880328, 43.148479087858135], [131.80406514511367, 43.148383122160325], [131.8040610305472, 43.14829318162049], [131.80393819508288, 43.14829619424735], [131.80392996636616, 43.14811631314362], [131.80405280147113, 43.14811330053558], [131.80404868696155, 43.148023359990525], [131.80429847162424, 43.1481072749244], [131.80431081634475, 43.14837709649266], [131.8044336519319, 43.14837408346127], [131.80443776705633, 43.148464023971144], [131.80431493128953, 43.14846703701195], [131.80431904625326, 43.14855697752949], [131.80407337430347, 43.14856300323483], [131.80408160356907, 43.148742884302386], [131.8039587672064, 43.14874589697632], [131.803962881688, 43.1488358375169], [131.80371720854643, 43.1488418624885], [131.80372132268764, 43.14893180304619], [131.80359848590874, 43.14893481534384]]]}, "properties": {"zone_id": "vladivostok-2025-04-23-020", "aoi": "vladivostok", "date": "2025-04-23", "scene_id": "S2B_MSIL2A_20250423T020649_R103_T52TGN_20250423T034329", "scene_datetime_utc": "2025-04-23T02:06:49.024000+00:00", "detection_status": "detected", "detection_status_ru": "обнаружено", "lon": 131.80403, "lat": 43.14847, "n_pixels": 7, "zone_area_km2": 0.0028, "cover_m2": 62.0, "p_mean": 0.936, "p_max": 0.996, "cover_m2_km2": 22142.9, "h3": "88316c55c3fffff", "valid_frac_scene": 0.996, "wind_ms": 2.1, "sea": "спокойное", "scene_reliable": true, "field_event_id": "S4:DOORS3:T23", "field_profile": "B", "field_date": "2024-06-10", "field_distance_km": 6975.0, "field_date_gap_days": 317, "field_conc_items_km2": 102.37, "conc_A_items_km2": null, "conc_A_lo80": null, "conc_A_hi80": null, "conc_A_lo95": null, "conc_A_hi95": null, "conc_A_status": "unavailable", "conc_A_status_ru": "концентрация недоступна", "conc_A_reasons": "вне бассейна профиля: nw_atlantic_subtropical", "conc_A_model": "conc-A-c6bce5631d2b", "conc_B_items_km2": null, "conc_B_lo80": null, "conc_B_hi80": null, "conc_B_lo95": null, "conc_B_hi95": null, "conc_B_status": "unavailable", "conc_B_status_ru": "концентрация недоступна", "conc_B_reasons": "вне бассейна профиля: black_sea", "conc_B_model": "conc-B-c6bce5631d2b"}}, {"type": "Feature", "geometry": {"type": "Polygon", "coordinates": [[[131.80428612707433, 43.14783745334052], [131.80428201226226, 43.14774751280908], [131.80415917791385, 43.14775052564287], [131.8041509487059, 43.147570644555984], [131.80427378269502, 43.147567631741026], [131.80426966793985, 43.14747769120438], [131.8041468341304, 43.147480704009915], [131.80413449051753, 43.14721088236137], [131.804257323788, 43.14720786958407], [131.80425320910865, 43.147117929040505], [131.80449476021366, 43.14702196258319], [131.80449887523338, 43.14711190310967], [131.80462170826732, 43.14710888994669], [131.80462582348565, 43.147198830462024], [131.80450299027208, 43.14720184363442], [131.80451533550183, 43.14747166519822], [131.80439250173032, 43.14747467826715], [131.80439661666517, 43.14756461879438], [131.80451945061637, 43.14756160571602], [131.80452768090223, 43.14774148674644], [131.80428612707433, 43.14783745334052]]]}, "properties": {"zone_id": "vladivostok-2025-04-23-021", "aoi": "vladivostok", "date": "2025-04-23", "scene_id": "S2B_MSIL2A_20250423T020649_R103_T52TGN_20250423T034329", "scene_datetime_utc": "2025-04-23T02:06:49.024000+00:00", "detection_status": "detected", "detection_status_ru": "обнаружено", "lon": 131.80435, "lat": 43.14742, "n_pixels": 6, "zone_area_km2": 0.0021, "cover_m2": 46.7, "p_mean": 0.944, "p_max": 1.0, "cover_m2_km2": 22238.1, "h3": "88316c55d5fffff", "valid_frac_scene": 0.996, "wind_ms": 2.1, "sea": "спокойное", "scene_reliable": true, "field_event_id": "S4:DOORS3:T23", "field_profile": "B", "field_date": "2024-06-10", "field_distance_km": 6975.1, "field_date_gap_days": 317, "field_conc_items_km2": 102.37, "conc_A_items_km2": null, "conc_A_lo80": null, "conc_A_hi80": null, "conc_A_lo95": null, "conc_A_hi95": null, "conc_A_status": "unavailable", "conc_A_status_ru": "концентрация недоступна", "conc_A_reasons": "вне бассейна профиля: nw_atlantic_subtropical", "conc_A_model": "conc-A-c6bce5631d2b", "conc_B_items_km2": null, "conc_B_lo80": null, "conc_B_hi80": null, "conc_B_lo95": null, "conc_B_hi95": null, "conc_B_status": "unavailable", "conc_B_status_ru": "концентрация недоступна", "conc_B_reasons": "вне бассейна профиля: black_sea", "conc_B_model": "conc-B-c6bce5631d2b"}}, {"type": "Feature", "geometry": {"type": "Polygon", "coordinates": [[[131.80435546816975, 43.146665213444116], [131.8043513534245, 43.14657527289955], [131.80422852143056, 43.14657828574263], [131.8042244068839, 43.1464883451869], [131.80434723869814, 43.146485332353244], [131.80434312399078, 43.146395391805214], [131.80459290226983, 43.14647930629085], [131.80459701735546, 43.1465692468183], [131.80447418539944, 43.146572259924774], [131.80447830032438, 43.14666220045993], [131.80435546816975, 43.146665213444116]]]}, "properties": {"zone_id": "vladivostok-2025-04-23-022", "aoi": "vladivostok", "date": "2025-04-23", "scene_id": "S2B_MSIL2A_20250423T020649_R103_T52TGN_20250423T034329", "scene_datetime_utc": "2025-04-23T02:06:49.024000+00:00", "detection_status": "detected", "detection_status_ru": "обнаружено", "lon": 131.80441, "lat": 43.14653, "n_pixels": 1, "zone_area_km2": 0.0005, "cover_m2": 5.5, "p_mean": 0.639, "p_max": 0.639, "cover_m2_km2": 11000.0, "h3": "88316c55d5fffff", "valid_frac_scene": 0.996, "wind_ms": 2.1, "sea": "спокойное", "scene_reliable": true, "field_event_id": "S4:DOORS3:T23", "field_profile": "B", "field_date": "2024-06-10", "field_distance_km": 6975.2, "field_date_gap_days": 317, "field_conc_items_km2": 102.37, "conc_A_items_km2": null, "conc_A_lo80": null, "conc_A_hi80": null, "conc_A_lo95": null, "conc_A_hi95": null, "conc_A_status": "unavailable", "conc_A_status_ru": "концентрация недоступна", "conc_A_reasons": "вне бассейна профиля: nw_atlantic_subtropical", "conc_A_model": "conc-A-c6bce5631d2b", "conc_B_items_km2": null, "conc_B_lo80": null, "conc_B_hi80": null, "conc_B_lo95": null, "conc_B_hi95": null, "conc_B_status": "unavailable", "conc_B_status_ru": "концентрация недоступна", "conc_B_reasons": "вне бассейна профиля: black_sea", "conc_B_model": "conc-B-c6bce5631d2b"}}, {"type": "Feature", "geometry": {"type": "Polygon", "coordinates": [[[131.80212804021338, 43.14635966177327], [131.8021239287776, 43.14626972105234], [131.80200109716122, 43.14627273148728], [131.80199698592403, 43.14618279075521], [131.8021198173608, 43.14617978032968], [131.8021157059629, 43.146089839605295], [131.80236548017746, 43.146173759083545], [131.80236959195355, 43.1462636997874], [131.80224676037506, 43.146266710485705], [131.80225087199048, 43.14635665119722], [131.80212804021338, 43.14635966177327]]]}, "properties": {"zone_id": "vladivostok-2025-04-23-023", "aoi": "vladivostok", "date": "2025-04-23", "scene_id": "S2B_MSIL2A_20250423T020649_R103_T52TGN_20250423T034329", "scene_datetime_utc": "2025-04-23T02:06:49.024000+00:00", "detection_status": "detected", "detection_status_ru": "обнаружено", "lon": 131.80218, "lat": 43.14622, "n_pixels": 1, "zone_area_km2": 0.0005, "cover_m2": 4.3, "p_mean": 0.682, "p_max": 0.682, "cover_m2_km2": 8600.0, "h3": "88316c5589fffff", "valid_frac_scene": 0.996, "wind_ms": 2.1, "sea": "спокойное", "scene_reliable": true, "field_event_id": "S4:DOORS3:T23", "field_profile": "B", "field_date": "2024-06-10", "field_distance_km": 6975.0, "field_date_gap_days": 317, "field_conc_items_km2": 102.37, "conc_A_items_km2": null, "conc_A_lo80": null, "conc_A_hi80": null, "conc_A_lo95": null, "conc_A_hi95": null, "conc_A_status": "unavailable", "conc_A_status_ru": "концентрация недоступна", "conc_A_reasons": "вне бассейна профиля: nw_atlantic_subtropical", "conc_A_model": "conc-A-c6bce5631d2b", "conc_B_items_km2": null, "conc_B_lo80": null, "conc_B_hi80": null, "conc_B_lo95": null, "conc_B_hi95": null, "conc_B_status": "unavailable", "conc_B_status_ru": "концентрация недоступна", "conc_B_reasons": "вне бассейна профиля: black_sea", "conc_B_model": "conc-B-c6bce5631d2b"}}, {"type": "Feature", "geometry": {"type": "Polygon", "coordinates": [[[131.8044577258893, 43.146212497766825], [131.80445361105916, 43.146122557222995], [131.80433077998242, 43.14612557015067], [131.80432666535086, 43.146035629595694], [131.80444949624797, 43.14603261667742], [131.8044453814557, 43.14594267613013], [131.80456821215418, 43.145939663089564], [131.80456409720125, 43.14584972254996], [131.80481387349428, 43.145933636613385], [131.80481798882542, 43.14602357713243], [131.80469515798524, 43.14602659044579], [131.80469927315573, 43.14611653097252], [131.8044577258893, 43.146212497766825]]]}, "properties": {"zone_id": "vladivostok-2025-04-23-024", "aoi": "vladivostok", "date": "2025-04-23", "scene_id": "S2B_MSIL2A_20250423T020649_R103_T52TGN_20250423T034329", "scene_datetime_utc": "2025-04-23T02:06:49.024000+00:00", "detection_status": "detected", "detection_status_ru": "обнаружено", "lon": 131.80457, "lat": 43.14603, "n_pixels": 2, "zone_area_km2": 0.0008, "cover_m2": 14.5, "p_mean": 0.978, "p_max": 0.988, "cover_m2_km2": 18125.0, "h3": "88316c55d5fffff", "valid_frac_scene": 0.996, "wind_ms": 2.1, "sea": "спокойное", "scene_reliable": true, "field_event_id": "S4:DOORS3:T23", "field_profile": "B", "field_date": "2024-06-10", "field_distance_km": 6975.2, "field_date_gap_days": 317, "field_conc_items_km2": 102.37, "conc_A_items_km2": null, "conc_A_lo80": null, "conc_A_hi80": null, "conc_A_lo95": null, "conc_A_hi95": null, "conc_A_status": "unavailable", "conc_A_status_ru": "концентрация недоступна", "conc_A_reasons": "вне бассейна профиля: nw_atlantic_subtropical", "conc_A_model": "conc-A-c6bce5631d2b", "conc_B_items_km2": null, "conc_B_lo80": null, "conc_B_hi80": null, "conc_B_lo95": null, "conc_B_hi95": null, "conc_B_status": "unavailable", "conc_B_status_ru": "концентрация недоступна", "conc_B_reasons": "вне бассейна профиля: black_sea", "conc_B_model": "conc-B-c6bce5631d2b"}}, {"type": "Feature", "geometry": {"type": "Polygon", "coordinates": [[[131.8044206931004, 43.14540303280991], [131.80441657844088, 43.14531309225046], [131.80429374898094, 43.14531610509342], [131.804285520078, 43.1451362239505], [131.8041626909584, 43.145139236642926], [131.80415446249054, 43.14495935547425], [131.80427729125088, 43.14495634280064], [131.80426906249957, 43.14477646164383], [131.8043918908817, 43.144773448857364], [131.80438777635484, 43.14468350828579], [131.80462931783575, 43.14458754178213], [131.8046334327029, 43.14467748233663], [131.8047562608485, 43.14467446916452], [131.80476037591427, 43.144764409707854], [131.8045188339703, 43.144860376499665], [131.80453117826033, 43.14513019817056], [131.80465400732308, 43.145127185083055], [131.80466223730386, 43.14530706616949], [131.8044206931004, 43.14540303280991]]]}, "properties": {"zone_id": "vladivostok-2025-04-23-025", "aoi": "vladivostok", "date": "2025-04-23", "scene_id": "S2B_MSIL2A_20250423T020649_R103_T52TGN_20250423T034329", "scene_datetime_utc": "2025-04-23T02:06:49.024000+00:00", "detection_status": "detected", "detection_status_ru": "обнаружено", "lon": 131.80444, "lat": 43.14501, "n_pixels": 6, "zone_area_km2": 0.0022, "cover_m2": 48.2, "p_mean": 0.912, "p_max": 0.996, "cover_m2_km2": 21909.1, "h3": "88316c55d5fffff", "valid_frac_scene": 0.996, "wind_ms": 2.1, "sea": "спокойное", "scene_reliable": true, "field_event_id": "S4:DOORS3:T23", "field_profile": "B", "field_date": "2024-06-10", "field_distance_km": 6975.3, "field_date_gap_days": 317, "field_conc_items_km2": 102.37, "conc_A_items_km2": null, "conc_A_lo80": null, "conc_A_hi80": null, "conc_A_lo95": null, "conc_A_hi95": null, "conc_A_status": "unavailable", "conc_A_status_ru": "концентрация недоступна", "conc_A_reasons": "вне бассейна профиля: nw_atlantic_subtropical", "conc_A_model": "conc-A-c6bce5631d2b", "conc_B_items_km2": null, "conc_B_lo80": null, "conc_B_hi80": null, "conc_B_lo95": null, "conc_B_hi95": null, "conc_B_status": "unavailable", "conc_B_status_ru": "концентрация недоступна", "conc_B_reasons": "вне бассейна профиля: black_sea", "conc_B_model": "conc-B-c6bce5631d2b"}}, {"type": "Feature", "geometry": {"type": "Polygon", "coordinates": [[[131.80487085854125, 43.144491574787686], [131.80486674335276, 43.14440163424855], [131.804743915765, 43.14440464752409], [131.80473980077505, 43.14431470697381], [131.80486262818317, 43.14431169370769], [131.80485851303257, 43.144221753165084], [131.8047356858041, 43.1442247664218], [131.80472745591905, 43.14404488531256], [131.80496899436517, 43.14394891816675], [131.80497310963852, 43.14403885870512], [131.80522287893376, 43.144122772088785], [131.8052269946043, 43.14421271260486], [131.8051041674327, 43.14421572625662], [131.80511239847138, 43.14439560730243], [131.80487085854125, 43.144491574787686]]]}, "properties": {"zone_id": "vladivostok-2025-04-23-026", "aoi": "vladivostok", "date": "2025-04-23", "scene_id": "S2B_MSIL2A_20250423T020649_R103_T52TGN_20250423T034329", "scene_datetime_utc": "2025-04-23T02:06:49.024000+00:00", "detection_status": "detected", "detection_status_ru": "обнаружено", "lon": 131.80495, "lat": 43.1442, "n_pixels": 4, "zone_area_km2": 0.0014, "cover_m2": 28.6, "p_mean": 0.822, "p_max": 0.996, "cover_m2_km2": 20428.6, "h3": "88316c55d5fffff", "valid_frac_scene": 0.996, "wind_ms": 2.1, "sea": "спокойное", "scene_reliable": true, "field_event_id": "S4:DOORS3:T23", "field_profile": "B", "field_date": "2024-06-10", "field_distance_km": 6975.3, "field_date_gap_days": 317, "field_conc_items_km2": 102.37, "conc_A_items_km2": null, "conc_A_lo80": null, "conc_A_hi80": null, "conc_A_lo95": null, "conc_A_hi95": null, "conc_A_status": "unavailable", "conc_A_status_ru": "концентрация недоступна", "conc_A_reasons": "вне бассейна профиля: nw_atlantic_subtropical", "conc_A_model": "conc-A-c6bce5631d2b", "conc_B_items_km2": null, "conc_B_lo80": null, "conc_B_hi80": null, "conc_B_lo95": null, "conc_B_hi95": null, "conc_B_status": "unavailable", "conc_B_status_ru": "концентрация недоступна", "conc_B_reasons": "вне бассейна профиля: black_sea", "conc_B_model": "conc-B-c6bce5631d2b"}}, {"type": "Feature", "geometry": {"type": "Polygon", "coordinates": [[[131.805562546861, 43.143484146908314], [131.8055584308033, 43.14339420640659], [131.80543560530518, 43.14339722036863], [131.80543148944605, 43.143307279855755], [131.80555431476452, 43.14330426590314], [131.80555019874475, 43.14321432539798], [131.80567302386464, 43.1432113113231], [131.80566890768418, 43.143121370825604], [131.80591867404755, 43.143205282778304], [131.80592279060622, 43.14329522325521], [131.8057999653446, 43.14329823760287], [131.80580408174262, 43.14338817808748], [131.805562546861, 43.143484146908314]]]}, "properties": {"zone_id": "vladivostok-2025-04-23-027", "aoi": "vladivostok", "date": "2025-04-23", "scene_id": "S2B_MSIL2A_20250423T020649_R103_T52TGN_20250423T034329", "scene_datetime_utc": "2025-04-23T02:06:49.024000+00:00", "detection_status": "detected", "detection_status_ru": "обнаружено", "lon": 131.80568, "lat": 43.1433, "n_pixels": 2, "zone_area_km2": 0.0008, "cover_m2": 13.7, "p_mean": 0.759, "p_max": 0.82, "cover_m2_km2": 17125.0, "h3": "88316c55d5fffff", "valid_frac_scene": 0.996, "wind_ms": 2.1, "sea": "спокойное", "scene_reliable": true, "field_event_id": "S4:DOORS3:T23", "field_profile": "B", "field_date": "2024-06-10", "field_distance_km": 6975.5, "field_date_gap_days": 317, "field_conc_items_km2": 102.37, "conc_A_items_km2": null, "conc_A_lo80": null, "conc_A_hi80": null, "conc_A_lo95": null, "conc_A_hi95": null, "conc_A_status": "unavailable", "conc_A_status_ru": "концентрация недоступна", "conc_A_reasons": "вне бассейна профиля: nw_atlantic_subtropical", "conc_A_model": "conc-A-c6bce5631d2b", "conc_B_items_km2": null, "conc_B_lo80": null, "conc_B_hi80": null, "conc_B_lo95": null, "conc_B_hi95": null, "conc_B_status": "unavailable", "conc_B_status_ru": "концентрация недоступна", "conc_B_reasons": "вне бассейна профиля: black_sea", "conc_B_model": "conc-B-c6bce5631d2b"}}, {"type": "Feature", "geometry": {"type": "Polygon", "coordinates": [[[131.8061602072557, 43.143109313246974], [131.80615609037574, 43.143019372785425], [131.80603326569093, 43.143022387368184], [131.80602914900953, 43.142932446895486], [131.80615197351472, 43.142929432322155], [131.80614373984963, 43.142749551390374], [131.80626656397664, 43.14274653670421], [131.80626244699292, 43.14265659624514], [131.80651221217371, 43.14274050693684], [131.8065204469165, 43.14292038781209], [131.80627891504156, 43.143016358070994], [131.80628303210113, 43.143106298523115], [131.8061602072557, 43.143109313246974]]]}, "properties": {"zone_id": "vladivostok-2025-04-23-028", "aoi": "vladivostok", "date": "2025-04-23", "scene_id": "S2B_MSIL2A_20250423T020649_R103_T52TGN_20250423T034329", "scene_datetime_utc": "2025-04-23T02:06:49.024000+00:00", "detection_status": "detected", "detection_status_ru": "обнаружено", "lon": 131.80629, "lat": 43.14288, "n_pixels": 3, "zone_area_km2": 0.0011, "cover_m2": 20.8, "p_mean": 0.855, "p_max": 0.91, "cover_m2_km2": 18909.1, "h3": "88316c55d5fffff", "valid_frac_scene": 0.996, "wind_ms": 2.1, "sea": "спокойное", "scene_reliable": true, "field_event_id": "S4:DOORS3:T23", "field_profile": "B", "field_date": "2024-06-10", "field_distance_km": 6975.5, "field_date_gap_days": 317, "field_conc_items_km2": 102.37, "conc_A_items_km2": null, "conc_A_lo80": null, "conc_A_hi80": null, "conc_A_lo95": null, "conc_A_hi95": null, "conc_A_status": "unavailable", "conc_A_status_ru": "концентрация недоступна", "conc_A_reasons": "вне бассейна профиля: nw_atlantic_subtropical", "conc_A_model": "conc-A-c6bce5631d2b", "conc_B_items_km2": null, "conc_B_lo80": null, "conc_B_hi80": null, "conc_B_lo95": null, "conc_B_hi95": null, "conc_B_status": "unavailable", "conc_B_status_ru": "концентрация недоступна", "conc_B_reasons": "вне бассейна профиля: black_sea", "conc_B_model": "conc-B-c6bce5631d2b"}}, {"type": "Feature", "geometry": {"type": "Polygon", "coordinates": [[[131.80780972623845, 43.141538109290885], [131.80780560716644, 43.14144816893177], [131.80768278580058, 43.14145118519775], [131.80767866692716, 43.14136124482747], [131.8078014881134, 43.14135822857091], [131.80779736907934, 43.141268288208316], [131.808047130429, 43.14135219566277], [131.8080512498412, 43.14144213600478], [131.80792842851332, 43.14144515253411], [131.80793254776492, 43.14153509288379], [131.80780972623845, 43.141538109290885]]]}, "properties": {"zone_id": "vladivostok-2025-04-23-029", "aoi": "vladivostok", "date": "2025-04-23", "scene_id": "S2B_MSIL2A_20250423T020649_R103_T52TGN_20250423T034329", "scene_datetime_utc": "2025-04-23T02:06:49.024000+00:00", "detection_status": "detected", "detection_status_ru": "обнаружено", "lon": 131.80786, "lat": 43.1414, "n_pixels": 1, "zone_area_km2": 0.0005, "cover_m2": 6.7, "p_mean": 0.976, "p_max": 0.976, "cover_m2_km2": 13400.0, "h3": "88316c55d5fffff", "valid_frac_scene": 0.996, "wind_ms": 2.1, "sea": "спокойное", "scene_reliable": true, "field_event_id": "S4:DOORS3:T23", "field_profile": "B", "field_date": "2024-06-10", "field_distance_km": 6975.7, "field_date_gap_days": 317, "field_conc_items_km2": 102.37, "conc_A_items_km2": null, "conc_A_lo80": null, "conc_A_hi80": null, "conc_A_lo95": null, "conc_A_hi95": null, "conc_A_status": "unavailable", "conc_A_status_ru": "концентрация недоступна", "conc_A_reasons": "вне бассейна профиля: nw_atlantic_subtropical", "conc_A_model": "conc-A-c6bce5631d2b", "conc_B_items_km2": null, "conc_B_lo80": null, "conc_B_hi80": null, "conc_B_lo95": null, "conc_B_hi95": null, "conc_B_status": "unavailable", "conc_B_status_ru": "концентрация недоступна", "conc_B_reasons": "вне бассейна профиля: black_sea", "conc_B_model": "conc-B-c6bce5631d2b"}}, {"type": "Feature", "geometry": {"type": "Polygon", "coordinates": [[[131.80852605455442, 43.141070307343185], [131.80852193449968, 43.14098036703195], [131.8083991141457, 43.14098338404081], [131.80839499428953, 43.140893443718426], [131.80851781446393, 43.14089042671898], [131.80851369444719, 43.140800486404274], [131.8087634547558, 43.140884392325106], [131.80876757515074, 43.140974332619216], [131.80864475483472, 43.14097734989142], [131.80864887506903, 43.14106729019321], [131.80852605455442, 43.141070307343185]]]}, "properties": {"zone_id": "vladivostok-2025-04-23-030", "aoi": "vladivostok", "date": "2025-04-23", "scene_id": "S2B_MSIL2A_20250423T020649_R103_T52TGN_20250423T034329", "scene_datetime_utc": "2025-04-23T02:06:49.024000+00:00", "detection_status": "detected", "detection_status_ru": "обнаружено", "lon": 131.80858, "lat": 43.14093, "n_pixels": 1, "zone_area_km2": 0.0005, "cover_m2": 7.1, "p_mean": 0.996, "p_max": 0.996, "cover_m2_km2": 14200.0, "h3": "88316c55d5fffff", "valid_frac_scene": 0.996, "wind_ms": 2.1, "sea": "спокойное", "scene_reliable": true, "field_event_id": "S4:DOORS3:T23", "field_profile": "B", "field_date": "2024-06-10", "field_distance_km": 6975.8, "field_date_gap_days": 317, "field_conc_items_km2": 102.37, "conc_A_items_km2": null, "conc_A_lo80": null, "conc_A_hi80": null, "conc_A_lo95": null, "conc_A_hi95": null, "conc_A_status": "unavailable", "conc_A_status_ru": "концентрация недоступна", "conc_A_reasons": "вне бассейна профиля: nw_atlantic_subtropical", "conc_A_model": "conc-A-c6bce5631d2b", "conc_B_items_km2": null, "conc_B_lo80": null, "conc_B_hi80": null, "conc_B_lo95": null, "conc_B_hi95": null, "conc_B_status": "unavailable", "conc_B_status_ru": "концентрация недоступна", "conc_B_reasons": "вне бассейна профиля: black_sea", "conc_B_model": "conc-B-c6bce5631d2b"}}, {"type": "Feature", "geometry": {"type": "Polygon", "coordinates": [[[131.8099421902665, 43.13977492992273], [131.80993806832245, 43.13968498970038], [131.80981525071053, 43.13968800815718], [131.8098070072386, 43.13950812768837], [131.80992982449135, 43.13950510925043], [131.80992570260426, 43.139415169022854], [131.81017545893988, 43.13949907197956], [131.81017958120512, 43.13958901218653], [131.8103023985805, 43.13958599334418], [131.8103065210443, 43.13967593353998], [131.81018370348934, 43.13967895239177], [131.81018782579255, 43.139768892595264], [131.8099421902665, 43.13977492992273]]]}, "properties": {"zone_id": "vladivostok-2025-04-23-031", "aoi": "vladivostok", "date": "2025-04-23", "scene_id": "S2B_MSIL2A_20250423T020649_R103_T52TGN_20250423T034329", "scene_datetime_utc": "2025-04-23T02:06:49.024000+00:00", "detection_status": "detected", "detection_status_ru": "обнаружено", "lon": 131.81004, "lat": 43.13961, "n_pixels": 3, "zone_area_km2": 0.001, "cover_m2": 16.9, "p_mean": 0.895, "p_max": 0.996, "cover_m2_km2": 16900.0, "h3": "88316c55d7fffff", "valid_frac_scene": 0.996, "wind_ms": 2.1, "sea": "спокойное", "scene_reliable": true, "field_event_id": "S4:DOORS3:T23", "field_profile": "B", "field_date": "2024-06-10", "field_distance_km": 6976.0, "field_date_gap_days": 317, "field_conc_items_km2": 102.37, "conc_A_items_km2": null, "conc_A_lo80": null, "conc_A_hi80": null, "conc_A_lo95": null, "conc_A_hi95": null, "conc_A_status": "unavailable", "conc_A_status_ru": "концентрация недоступна", "conc_A_reasons": "вне бассейна профиля: nw_atlantic_subtropical", "conc_A_model": "conc-A-c6bce5631d2b", "conc_B_items_km2": null, "conc_B_lo80": null, "conc_B_hi80": null, "conc_B_lo95": null, "conc_B_hi95": null, "conc_B_status": "unavailable", "conc_B_status_ru": "концентрация недоступна", "conc_B_reasons": "вне бассейна профиля: black_sea", "conc_B_model": "conc-B-c6bce5631d2b"}}, {"type": "Feature", "geometry": {"type": "MultiPolygon", "coordinates": [[[[131.8138104362003, 43.13832917049917], [131.81381456362482, 43.13841911044378], [131.81393737827523, 43.13841608776497], [131.8139332506711, 43.13832614782982], [131.81405606512294, 43.13832312502881], [131.81404780961265, 43.138143245172174], [131.81379805404083, 43.13805935065491], [131.8138021814083, 43.13814929060474], [131.8136793672776, 43.13815231312354], [131.81368762171044, 43.13833219303686], [131.8138104362003, 43.13832917049917]]], [[[131.8135648072016, 43.13833521544291], [131.81356068015523, 43.13824527547767], [131.81343786580695, 43.138248297742614], [131.81344199267375, 43.1383382377173], [131.81320049008764, 43.138434221862944], [131.81320461663333, 43.13852416185304], [131.8134543733882, 43.13860805763093], [131.81345024646436, 43.138518117661455], [131.8136917489554, 43.13842213299092], [131.81368762171044, 43.13833219303686], [131.8135648072016, 43.13833521544291]]]]}, "properties": {"zone_id": "vladivostok-2025-04-23-032", "aoi": "vladivostok", "date": "2025-04-23", "scene_id": "S2B_MSIL2A_20250423T020649_R103_T52TGN_20250423T034329", "scene_datetime_utc": "2025-04-23T02:06:49.024000+00:00", "detection_status": "detected", "detection_status_ru": "обнаружено", "lon": 131.81366, "lat": 43.13833, "n_pixels": 4, "zone_area_km2": 0.0016, "cover_m2": 16.5, "p_mean": 0.934, "p_max": 0.976, "cover_m2_km2": 10312.5, "h3": "88316c55d7fffff", "valid_frac_scene": 0.996, "wind_ms": 2.1, "sea": "спокойное", "scene_reliable": true, "field_event_id": "S4:DOORS3:T23", "field_profile": "B", "field_date": "2024-06-10", "field_distance_km": 6976.3, "field_date_gap_days": 317, "field_conc_items_km2": 102.37, "conc_A_items_km2": null, "conc_A_lo80": null, "conc_A_hi80": null, "conc_A_lo95": null, "conc_A_hi95": null, "conc_A_status": "unavailable", "conc_A_status_ru": "концентрация недоступна", "conc_A_reasons": "вне бассейна профиля: nw_atlantic_subtropical", "conc_A_model": "conc-A-c6bce5631d2b", "conc_B_items_km2": null, "conc_B_lo80": null, "conc_B_hi80": null, "conc_B_lo95": null, "conc_B_hi95": null, "conc_B_status": "unavailable", "conc_B_status_ru": "концентрация недоступна", "conc_B_reasons": "вне бассейна профиля: black_sea", "conc_B_model": "conc-B-c6bce5631d2b"}}, {"type": "Feature", "geometry": {"type": "Polygon", "coordinates": [[[131.852593753787, 43.13682783320753], [131.8525895697584, 43.136737896256115], [131.8524667625745, 43.13674096032653], [131.85245839493422, 43.1365610863993], [131.8526998244144, 43.13646502121807], [131.8527040085647, 43.13655495816514], [131.85282681535102, 43.13655189385062], [131.85283518406845, 43.136731767720406], [131.852593753787, 43.13682783320753]]]}, "properties": {"zone_id": "vladivostok-2025-04-23-033", "aoi": "vladivostok", "date": "2025-04-23", "scene_id": "S2B_MSIL2A_20250423T020649_R103_T52TGN_20250423T034329", "scene_datetime_utc": "2025-04-23T02:06:49.024000+00:00", "detection_status": "detected", "detection_status_ru": "обнаружено", "lon": 131.85265, "lat": 43.13665, "n_pixels": 2, "zone_area_km2": 0.0008, "cover_m2": 6.3, "p_mean": 0.882, "p_max": 0.886, "cover_m2_km2": 7875.0, "h3": "88316c5487fffff", "valid_frac_scene": 0.996, "wind_ms": 2.1, "sea": "спокойное", "scene_reliable": true, "field_event_id": "S4:DOORS3:T23", "field_profile": "B", "field_date": "2024-06-10", "field_distance_km": 6979.0, "field_date_gap_days": 317, "field_conc_items_km2": 102.37, "conc_A_items_km2": null, "conc_A_lo80": null, "conc_A_hi80": null, "conc_A_lo95": null, "conc_A_hi95": null, "conc_A_status": "unavailable", "conc_A_status_ru": "концентрация недоступна", "conc_A_reasons": "вне бассейна профиля: nw_atlantic_subtropical", "conc_A_model": "conc-A-c6bce5631d2b", "conc_B_items_km2": null, "conc_B_lo80": null, "conc_B_hi80": null, "conc_B_lo95": null, "conc_B_hi95": null, "conc_B_status": "unavailable", "conc_B_status_ru": "концентрация недоступна", "conc_B_reasons": "вне бассейна профиля: black_sea", "conc_B_model": "conc-B-c6bce5631d2b"}}, {"type": "Feature", "geometry": {"type": "Polygon", "coordinates": [[[131.6701812132336, 43.123765243712775], [131.67017729834487, 43.12367529271736], [131.6700544984017, 43.123678160302354], [131.67005058371052, 43.12358820929628], [131.67017338347415, 43.12358534172026], [131.67016946862148, 43.12349539072144], [131.67041898294738, 43.123579606173294], [131.6704228981771, 43.12366955715246], [131.67030009827, 43.12367242500073], [131.67030401333827, 43.123762375987184], [131.6701812132336, 43.123765243712775]]]}, "properties": {"zone_id": "vladivostok-2025-04-23-034", "aoi": "vladivostok", "date": "2025-04-23", "scene_id": "S2B_MSIL2A_20250423T020649_R103_T52TGN_20250423T034329", "scene_datetime_utc": "2025-04-23T02:06:49.024000+00:00", "detection_status": "detected", "detection_status_ru": "обнаружено", "lon": 131.67024, "lat": 43.12363, "n_pixels": 1, "zone_area_km2": 0.0005, "cover_m2": 8.6, "p_mean": 0.608, "p_max": 0.608, "cover_m2_km2": 17200.0, "h3": "88316c4003fffff", "valid_frac_scene": 0.996, "wind_ms": 2.1, "sea": "спокойное", "scene_reliable": true, "field_event_id": "S4:DOORS3:T23", "field_profile": "B", "field_date": "2024-06-10", "field_distance_km": 6967.5, "field_date_gap_days": 317, "field_conc_items_km2": 102.37, "conc_A_items_km2": null, "conc_A_lo80": null, "conc_A_hi80": null, "conc_A_lo95": null, "conc_A_hi95": null, "conc_A_status": "unavailable", "conc_A_status_ru": "концентрация недоступна", "conc_A_reasons": "вне бассейна профиля: nw_atlantic_subtropical", "conc_A_model": "conc-A-c6bce5631d2b", "conc_B_items_km2": null, "conc_B_lo80": null, "conc_B_hi80": null, "conc_B_lo95": null, "conc_B_hi95": null, "conc_B_status": "unavailable", "conc_B_status_ru": "концентрация недоступна", "conc_B_reasons": "вне бассейна профиля: black_sea", "conc_B_model": "conc-B-c6bce5631d2b"}}, {"type": "Feature", "geometry": {"type": "Polygon", "coordinates": [[[131.6652608089973, 43.11802727937659], [131.66525690210042, 43.11793732793011], [131.66513411313997, 43.11794018993141], [131.66512629975912, 43.11776028701541], [131.6653679699218, 43.11766461147429], [131.66537187694416, 43.11775456291696], [131.66549466550967, 43.117751700670325], [131.66550247996733, 43.11793160353265], [131.6652608089973, 43.11802727937659]]]}, "properties": {"zone_id": "vladivostok-2025-04-23-035", "aoi": "vladivostok", "date": "2025-04-23", "scene_id": "S2B_MSIL2A_20250423T020649_R103_T52TGN_20250423T034329", "scene_datetime_utc": "2025-04-23T02:06:49.024000+00:00", "detection_status": "detected", "detection_status_ru": "обнаружено", "lon": 131.66531, "lat": 43.11785, "n_pixels": 2, "zone_area_km2": 0.0008, "cover_m2": 16.1, "p_mean": 0.973, "p_max": 0.98, "cover_m2_km2": 20125.0, "h3": "88316c4039fffff", "valid_frac_scene": 0.996, "wind_ms": 2.1, "sea": "спокойное", "scene_reliable": true, "field_event_id": "S4:DOORS3:T23", "field_profile": "B", "field_date": "2024-06-10", "field_distance_km": 6967.5, "field_date_gap_days": 317, "field_conc_items_km2": 102.37, "conc_A_items_km2": null, "conc_A_lo80": null, "conc_A_hi80": null, "conc_A_lo95": null, "conc_A_hi95": null, "conc_A_status": "unavailable", "conc_A_status_ru": "концентрация недоступна", "conc_A_reasons": "вне бассейна профиля: nw_atlantic_subtropical", "conc_A_model": "conc-A-c6bce5631d2b", "conc_B_items_km2": null, "conc_B_lo80": null, "conc_B_hi80": null, "conc_B_lo95": null, "conc_B_hi95": null, "conc_B_status": "unavailable", "conc_B_status_ru": "концентрация недоступна", "conc_B_reasons": "вне бассейна профиля: black_sea", "conc_B_model": "conc-B-c6bce5631d2b"}}, {"type": "Feature", "geometry": {"type": "Polygon", "coordinates": [[[131.62932729909605, 43.088334664273816], [131.6293234488304, 43.088244709745695], [131.62920071563084, 43.08824753163896], [131.62919686556214, 43.088157577100326], [131.62931959858253, 43.08815475521587], [131.62931574835235, 43.08806480068436], [131.62956121398145, 43.08805915653865], [131.62956506457007, 43.08814911105252], [131.62968779753723, 43.0881462887736], [131.62969164832276, 43.088236243276974], [131.6295689151764, 43.0882390655647], [131.62957276580048, 43.08832902007518], [131.62932729909605, 43.088334664273816]]]}, "properties": {"zone_id": "vladivostok-2025-04-23-036", "aoi": "vladivostok", "date": "2025-04-23", "scene_id": "S2B_MSIL2A_20250423T020649_R103_T52TGN_20250423T034329", "scene_datetime_utc": "2025-04-23T02:06:49.024000+00:00", "detection_status": "detected", "detection_status_ru": "обнаружено", "lon": 131.62944, "lat": 43.0882, "n_pixels": 2, "zone_area_km2": 0.0008, "cover_m2": 1.6, "p_mean": 0.969, "p_max": 0.988, "cover_m2_km2": 2000.0, "h3": "88316c418dfffff", "valid_frac_scene": 0.996, "wind_ms": 2.1, "sea": "спокойное", "scene_reliable": true, "field_event_id": "S4:DOORS3:T23", "field_profile": "B", "field_date": "2024-06-10", "field_distance_km": 6967.0, "field_date_gap_days": 317, "field_conc_items_km2": 102.37, "conc_A_items_km2": null, "conc_A_lo80": null, "conc_A_hi80": null, "conc_A_lo95": null, "conc_A_hi95": null, "conc_A_status": "unavailable", "conc_A_status_ru": "концентрация недоступна", "conc_A_reasons": "вне бассейна профиля: nw_atlantic_subtropical", "conc_A_model": "conc-A-c6bce5631d2b", "conc_B_items_km2": null, "conc_B_lo80": null, "conc_B_hi80": null, "conc_B_lo95": null, "conc_B_hi95": null, "conc_B_status": "unavailable", "conc_B_status_ru": "концентрация недоступна", "conc_B_reasons": "вне бассейна профиля: black_sea", "conc_B_model": "conc-B-c6bce5631d2b"}}, {"type": "Feature", "geometry": {"type": "Polygon", "coordinates": [[[131.746157293359, 43.08549862924486], [131.7461532725387, 43.085408683298795], [131.74603055677036, 43.08541163033343], [131.7460265361477, 43.08532168437647], [131.7461492517369, 43.08531873735104], [131.74614523095363, 43.085228791401555], [131.7463946828598, 43.085312842905886], [131.74639870401987, 43.085402788835225], [131.74627598828855, 43.085405736132735], [131.74628000928797, 43.08549568206956], [131.746157293359, 43.08549862924486]]]}, "properties": {"zone_id": "vladivostok-2025-04-23-037", "aoi": "vladivostok", "date": "2025-04-23", "scene_id": "S2B_MSIL2A_20250423T020649_R103_T52TGN_20250423T034329", "scene_datetime_utc": "2025-04-23T02:06:49.024000+00:00", "detection_status": "detected", "detection_status_ru": "обнаружено", "lon": 131.74621, "lat": 43.08536, "n_pixels": 1, "zone_area_km2": 0.0005, "cover_m2": 9.0, "p_mean": 0.635, "p_max": 0.635, "cover_m2_km2": 18000.0, "h3": "88316c4729fffff", "valid_frac_scene": 0.996, "wind_ms": 2.1, "sea": "спокойное", "scene_reliable": true, "field_event_id": "S4:DOORS3:T23", "field_profile": "B", "field_date": "2024-06-10", "field_distance_km": 6975.0, "field_date_gap_days": 317, "field_conc_items_km2": 102.37, "conc_A_items_km2": null, "conc_A_lo80": null, "conc_A_hi80": null, "conc_A_lo95": null, "conc_A_hi95": null, "conc_A_status": "unavailable", "conc_A_status_ru": "концентрация недоступна", "conc_A_reasons": "вне бассейна профиля: nw_atlantic_subtropical", "conc_A_model": "conc-A-c6bce5631d2b", "conc_B_items_km2": null, "conc_B_lo80": null, "conc_B_hi80": null, "conc_B_lo95": null, "conc_B_hi95": null, "conc_B_status": "unavailable", "conc_B_status_ru": "концентрация недоступна", "conc_B_reasons": "вне бассейна профиля: black_sea", "conc_B_model": "conc-B-c6bce5631d2b"}}, {"type": "Feature", "geometry": {"type": "Polygon", "coordinates": [[[131.74001253884762, 43.077182031122284], [131.74000852818253, 43.077092084582056], [131.73988582837953, 43.077095024575264], [131.73987780746288, 43.07691513147128], [131.74011919554547, 43.076819304854055], [131.7401232063342, 43.07690925139024], [131.74024590574217, 43.07690631115263], [131.74025392773316, 43.07708620420146], [131.74001253884762, 43.077182031122284]]]}, "properties": {"zone_id": "vladivostok-2025-04-23-038", "aoi": "vladivostok", "date": "2025-04-23", "scene_id": "S2B_MSIL2A_20250423T020649_R103_T52TGN_20250423T034329", "scene_datetime_utc": "2025-04-23T02:06:49.024000+00:00", "detection_status": "detected", "detection_status_ru": "обнаружено", "lon": 131.74007, "lat": 43.077, "n_pixels": 2, "zone_area_km2": 0.0008, "cover_m2": 14.9, "p_mean": 0.914, "p_max": 0.918, "cover_m2_km2": 18625.0, "h3": "88316c4721fffff", "valid_frac_scene": 0.996, "wind_ms": 2.1, "sea": "спокойное", "scene_reliable": true, "field_event_id": "S4:DOORS3:T23", "field_profile": "B", "field_date": "2024-06-10", "field_distance_km": 6975.1, "field_date_gap_days": 317, "field_conc_items_km2": 102.37, "conc_A_items_km2": null, "conc_A_lo80": null, "conc_A_hi80": null, "conc_A_lo95": null, "conc_A_hi95": null, "conc_A_status": "unavailable", "conc_A_status_ru": "концентрация недоступна", "conc_A_reasons": "вне бассейна профиля: nw_atlantic_subtropical", "conc_A_model": "conc-A-c6bce5631d2b", "conc_B_items_km2": null, "conc_B_lo80": null, "conc_B_hi80": null, "conc_B_lo95": null, "conc_B_hi95": null, "conc_B_status": "unavailable", "conc_B_status_ru": "концентрация недоступна", "conc_B_reasons": "вне бассейна профиля: black_sea", "conc_B_model": "conc-B-c6bce5631d2b"}}, {"type": "Feature", "geometry": {"type": "Polygon", "coordinates": [[[131.91505610839545, 43.03854757090628], [131.91505184747908, 43.038457637354256], [131.91492924322054, 43.038460762779586], [131.91492498250238, 43.03837082921602], [131.91504758658235, 43.03836770380047], [131.9150433257052, 43.03827777024492], [131.91528853344911, 43.03827151903987], [131.9152927946834, 43.03836145257587], [131.91541539870454, 43.038358326766826], [131.91541966013708, 43.03844826029131], [131.91529705593734, 43.038451386110125], [131.91530131721086, 43.038541319642604], [131.91505610839545, 43.03854757090628]]]}, "properties": {"zone_id": "vladivostok-2025-04-23-039", "aoi": "vladivostok", "date": "2025-04-23", "scene_id": "S2B_MSIL2A_20250423T020649_R103_T52TGN_20250423T034329", "scene_datetime_utc": "2025-04-23T02:06:49.024000+00:00", "detection_status": "detected", "detection_status_ru": "обнаружено", "lon": 131.91517, "lat": 43.03841, "n_pixels": 2, "zone_area_km2": 0.0008, "cover_m2": 3.9, "p_mean": 0.745, "p_max": 0.776, "cover_m2_km2": 4875.0, "h3": "88316c09abfffff", "valid_frac_scene": 0.996, "wind_ms": 2.1, "sea": "спокойное", "scene_reliable": true, "field_event_id": "S4:DOORS3:T23", "field_profile": "B", "field_date": "2024-06-10", "field_distance_km": 6989.3, "field_date_gap_days": 317, "field_conc_items_km2": 102.37, "conc_A_items_km2": null, "conc_A_lo80": null, "conc_A_hi80": null, "conc_A_lo95": null, "conc_A_hi95": null, "conc_A_status": "unavailable", "conc_A_status_ru": "концентрация недоступна", "conc_A_reasons": "вне бассейна профиля: nw_atlantic_subtropical", "conc_A_model": "conc-A-c6bce5631d2b", "conc_B_items_km2": null, "conc_B_lo80": null, "conc_B_hi80": null, "conc_B_lo95": null, "conc_B_hi95": null, "conc_B_status": "unavailable", "conc_B_status_ru": "концентрация недоступна", "conc_B_reasons": "вне бассейна профиля: black_sea", "conc_B_model": "conc-B-c6bce5631d2b"}}, {"type": "Feature", "geometry": {"type": "Polygon", "coordinates": [[[131.72864125755385, 43.01469391114016], [131.72863727222898, 43.014603962760674], [131.72851469574047, 43.014606887176996], [131.72851071061243, 43.01451693878665], [131.72863328692245, 43.01451401437947], [131.72862930163424, 43.01442406599655], [131.7288784394875, 43.014508165171755], [131.728882425151, 43.014598113534674], [131.72875984869916, 43.01460103821323], [131.7287638342025, 43.01469098658357], [131.72864125755385, 43.01469391114016]]]}, "properties": {"zone_id": "vladivostok-2025-04-23-040", "aoi": "vladivostok", "date": "2025-04-23", "scene_id": "S2B_MSIL2A_20250423T020649_R103_T52TGN_20250423T034329", "scene_datetime_utc": "2025-04-23T02:06:49.024000+00:00", "detection_status": "detected", "detection_status_ru": "обнаружено", "lon": 131.7287, "lat": 43.01456, "n_pixels": 1, "zone_area_km2": 0.0005, "cover_m2": 4.3, "p_mean": 0.62, "p_max": 0.62, "cover_m2_km2": 8600.0, "h3": "88316c4531fffff", "valid_frac_scene": 0.996, "wind_ms": 2.1, "sea": "спокойное", "scene_reliable": true, "field_event_id": "S4:DOORS3:T23", "field_profile": "B", "field_date": "2024-06-10", "field_distance_km": 6978.2, "field_date_gap_days": 317, "field_conc_items_km2": 102.37, "conc_A_items_km2": null, "conc_A_lo80": null, "conc_A_hi80": null, "conc_A_lo95": null, "conc_A_hi95": null, "conc_A_status": "unavailable", "conc_A_status_ru": "концентрация недоступна", "conc_A_reasons": "вне бассейна профиля: nw_atlantic_subtropical", "conc_A_model": "conc-A-c6bce5631d2b", "conc_B_items_km2": null, "conc_B_lo80": null, "conc_B_hi80": null, "conc_B_lo95": null, "conc_B_hi95": null, "conc_B_status": "unavailable", "conc_B_status_ru": "концентрация недоступна", "conc_B_reasons": "вне бассейна профиля: black_sea", "conc_B_model": "conc-B-c6bce5631d2b"}}, {"type": "Feature", "geometry": {"type": "Polygon", "coordinates": [[[131.97777289020814, 43.01298036636366], [131.9777685415858, 43.0128904374852], [131.97751910037874, 43.012806890650694], [131.977514752153, 43.012716961748744], [131.97763729828702, 43.012713770801355], [131.97763294990298, 43.0126238419076], [131.9778780417544, 43.01261745963971], [131.97788239049504, 43.01270738851352], [131.97800493656905, 43.01270419717307], [131.97801363446706, 43.012884054895416], [131.97777289020814, 43.01298036636366]]]}, "properties": {"zone_id": "vladivostok-2025-04-23-041", "aoi": "vladivostok", "date": "2025-04-23", "scene_id": "S2B_MSIL2A_20250423T020649_R103_T52TGN_20250423T034329", "scene_datetime_utc": "2025-04-23T02:06:49.024000+00:00", "detection_status": "detected", "detection_status_ru": "обнаружено", "lon": 131.97778, "lat": 43.01278, "n_pixels": 3, "zone_area_km2": 0.001, "cover_m2": 16.1, "p_mean": 0.797, "p_max": 0.988, "cover_m2_km2": 16100.0, "h3": "88316c7255fffff", "valid_frac_scene": 0.996, "wind_ms": 2.1, "sea": "спокойное", "scene_reliable": true, "field_event_id": "S4:DOORS3:T23", "field_profile": "B", "field_date": "2024-06-10", "field_distance_km": 6995.1, "field_date_gap_days": 317, "field_conc_items_km2": 102.37, "conc_A_items_km2": null, "conc_A_lo80": null, "conc_A_hi80": null, "conc_A_lo95": null, "conc_A_hi95": null, "conc_A_status": "unavailable", "conc_A_status_ru": "концентрация недоступна", "conc_A_reasons": "вне бассейна профиля: nw_atlantic_subtropical", "conc_A_model": "conc-A-c6bce5631d2b", "conc_B_items_km2": null, "conc_B_lo80": null, "conc_B_hi80": null, "conc_B_lo95": null, "conc_B_hi95": null, "conc_B_status": "unavailable", "conc_B_status_ru": "концентрация недоступна", "conc_B_reasons": "вне бассейна профиля: black_sea", "conc_B_model": "conc-B-c6bce5631d2b"}}]}