{"type": "FeatureCollection", "features": [{"type": "Feature", "geometry": {"type": "Polygon", "coordinates": [[[39.748553380242285, 43.556424860854705], [39.74855226567938, 43.556334826439], [39.74842846657399, 43.556335636949655], [39.74842735220053, 43.55624560252997], [39.74855115112164, 43.55624479202184], [39.74855003656905, 43.55615475760325], [39.7487976340272, 43.55615313618998], [39.74879874894836, 43.5562431706035], [39.74892254785397, 43.55624235969327], [39.748923662964586, 43.556332394102824], [39.74879986387468, 43.55633320501559], [39.748800978806166, 43.55642323942622], [39.748553380242285, 43.556424860854705]]]}, "properties": {"zone_id": "sochi-2026-09-11-001", "aoi": "sochi", "date": "2026-09-11", "scene_id": "S2C_MSIL2A_20260911T081601_R121_T37TEJ_20260911T120815", "scene_datetime_utc": "2026-09-11T08:16:01.025000+00:00", "detection_status": "detected", "detection_status_ru": "обнаружено", "lon": 39.74868, "lat": 43.55629, "n_pixels": 2, "zone_area_km2": 0.0008, "cover_m2": 12.5, "p_mean": 0.875, "p_max": 0.875, "cover_m2_km2": 15625.0, "h3": "882d568e01fffff", "valid_frac_scene": 1.0, "wind_ms": 3.8, "sea": "спокойное", "scene_reliable": true, "field_event_id": "S4:DOORS3:T17", "field_profile": "B", "field_date": "2024-06-04", "field_distance_km": 184.2, "field_date_gap_days": 829, "field_conc_items_km2": 89.61, "conc_A_items_km2": null, "conc_A_lo80": null, "conc_A_hi80": null, "conc_A_lo95": null, "conc_A_hi95": null, "conc_A_status": "unavailable", "conc_A_status_ru": "концентрация недоступна", "conc_A_reasons": "вне бассейна профиля: nw_atlantic_subtropical", "conc_A_model": "conc-A-c6bce5631d2b", "conc_B_items_km2": 901.4, "conc_B_lo80": 192.7, "conc_B_hi80": 3027.3, "conc_B_lo95": 120.4, "conc_B_hi95": 5668.0, "conc_B_status": "research_estimate", "conc_B_status_ru": "исследовательская оценка", "conc_B_reasons": "ближайшее полевое измерение в 184 км (> 60 км); месяц 9 вне месяцев обучения [6]; log_dist_coast_km = 0.0 вне диапазона обучения [1.7; 5.0]", "conc_B_model": "conc-B-c6bce5631d2b"}}, {"type": "Feature", "geometry": {"type": "Polygon", "coordinates": [[[39.72296020192998, 43.54902605728434], [39.72295912575001, 43.548936022234244], [39.72283534107745, 43.54893680492729], [39.72283426508668, 43.5488467698733], [39.72295804957502, 43.5488459871827], [39.72295697340501, 43.54875595212971], [39.72320454199829, 43.5487543863514], [39.723205618536745, 43.548844421399494], [39.72332940301013, 43.54884363830687], [39.72333047973778, 43.54893367335108], [39.72320669508018, 43.54893445644614], [39.723207771628594, 43.54902449149134], [39.72296020192998, 43.54902605728434]]]}, "properties": {"zone_id": "sochi-2026-09-11-002", "aoi": "sochi", "date": "2026-09-11", "scene_id": "S2C_MSIL2A_20260911T081601_R121_T37TEJ_20260911T120815", "scene_datetime_utc": "2026-09-11T08:16:01.025000+00:00", "detection_status": "detected", "detection_status_ru": "обнаружено", "lon": 39.72308, "lat": 43.54889, "n_pixels": 2, "zone_area_km2": 0.0008, "cover_m2": 14.5, "p_mean": 0.524, "p_max": 0.537, "cover_m2_km2": 18125.0, "h3": "882d568e6bfffff", "valid_frac_scene": 1.0, "wind_ms": 3.8, "sea": "спокойное", "scene_reliable": true, "field_event_id": "S4:DOORS3:T17", "field_profile": "B", "field_date": "2024-06-04", "field_distance_km": 182.3, "field_date_gap_days": 829, "field_conc_items_km2": 89.61, "conc_A_items_km2": null, "conc_A_lo80": null, "conc_A_hi80": null, "conc_A_lo95": null, "conc_A_hi95": null, "conc_A_status": "unavailable", "conc_A_status_ru": "концентрация недоступна", "conc_A_reasons": "вне бассейна профиля: nw_atlantic_subtropical", "conc_A_model": "conc-A-c6bce5631d2b", "conc_B_items_km2": 539.0, "conc_B_lo80": 114.9, "conc_B_hi80": 1811.1, "conc_B_lo95": 71.7, "conc_B_hi95": 3391.2, "conc_B_status": "research_estimate", "conc_B_status_ru": "исследовательская оценка", "conc_B_reasons": "ближайшее полевое измерение в 182 км (> 60 км); месяц 9 вне месяцев обучения [6]", "conc_B_model": "conc-B-c6bce5631d2b"}}, {"type": "Feature", "geometry": {"type": "Polygon", "coordinates": [[[39.85893046557166, 43.49982281604907], [39.85892918919705, 43.499732783176384], [39.858805509148254, 43.4997337122441], [39.85880423296327, 43.499643679367054], [39.858927912828335, 43.49964275030226], [39.858925360108636, 43.499462684549634], [39.85904903960032, 43.49946175535688], [39.8590477630656, 43.49937172248129], [39.859296398565974, 43.49945989657009], [39.85929767547407, 43.499549929438416], [39.859173995810465, 43.49955085890159], [39.85917527254073, 43.499640891771364], [39.859298952388066, 43.499639962305274], [39.85930022930798, 43.499729995170675], [39.85917654927691, 43.499730924639685], [39.859177826019, 43.49982095750655], [39.85893046557166, 43.49982281604907]]]}, "properties": {"zone_id": "sochi-2026-09-11-003", "aoi": "sochi", "date": "2026-09-11", "scene_id": "S2C_MSIL2A_20260911T081601_R121_T37TEJ_20260911T120815", "scene_datetime_utc": "2026-09-11T08:16:01.025000+00:00", "detection_status": "detected", "detection_status_ru": "обнаружено", "lon": 39.85907, "lat": 43.49963, "n_pixels": 3, "zone_area_km2": 0.0012, "cover_m2": 18.4, "p_mean": 0.905, "p_max": 0.961, "cover_m2_km2": 15333.3, "h3": "882d568dc3fffff", "valid_frac_scene": 1.0, "wind_ms": 3.8, "sea": "спокойное", "scene_reliable": true, "field_event_id": "S4:DOORS3:T17", "field_profile": "B", "field_date": "2024-06-04", "field_distance_km": 184.8, "field_date_gap_days": 829, "field_conc_items_km2": 89.61, "conc_A_items_km2": null, "conc_A_lo80": null, "conc_A_hi80": null, "conc_A_lo95": null, "conc_A_hi95": null, "conc_A_status": "unavailable", "conc_A_status_ru": "концентрация недоступна", "conc_A_reasons": "вне бассейна профиля: nw_atlantic_subtropical", "conc_A_model": "conc-A-c6bce5631d2b", "conc_B_items_km2": 621.6, "conc_B_lo80": 132.7, "conc_B_hi80": 2088.3, "conc_B_lo95": 82.8, "conc_B_hi95": 3910.2, "conc_B_status": "research_estimate", "conc_B_status_ru": "исследовательская оценка", "conc_B_reasons": "ближайшее полевое измерение в 185 км (> 60 км); месяц 9 вне месяцев обучения [6]; log_dist_coast_km = 1.0 вне диапазона обучения [1.7; 5.0]", "conc_B_model": "conc-B-c6bce5631d2b"}}, {"type": "Feature", "geometry": {"type": "Polygon", "coordinates": [[[39.861648868363744, 43.4996222770346], [39.861647587958835, 43.499532244223026], [39.86152390840765, 43.499533176227686], [39.8615226281924, 43.49944314341173], [39.861646307559845, 43.49944221140997], [39.86164502716678, 43.49935217859549], [39.86152134798306, 43.49935311059433], [39.86152006777965, 43.499263077775474], [39.86176614520877, 43.49917118083537], [39.861767425773714, 43.499261213649845], [39.86189110476186, 43.49926028138639], [39.861892385516455, 43.49935031419651], [39.861768706344584, 43.49935124646287], [39.86176998692138, 43.49944127927445], [39.86189366627698, 43.49944034700518], [39.86189494704343, 43.49953037981239], [39.861648868363744, 43.4996222770346]]]}, "properties": {"zone_id": "sochi-2026-09-11-004", "aoi": "sochi", "date": "2026-09-11", "scene_id": "S2C_MSIL2A_20260911T081601_R121_T37TEJ_20260911T120815", "scene_datetime_utc": "2026-09-11T08:16:01.025000+00:00", "detection_status": "detected", "detection_status_ru": "обнаружено", "lon": 39.86171, "lat": 43.4994, "n_pixels": 2, "zone_area_km2": 0.0009, "cover_m2": 12.2, "p_mean": 0.802, "p_max": 0.988, "cover_m2_km2": 13555.6, "h3": "882d568dc3fffff", "valid_frac_scene": 1.0, "wind_ms": 3.8, "sea": "спокойное", "scene_reliable": true, "field_event_id": "S4:DOORS3:T17", "field_profile": "B", "field_date": "2024-06-04", "field_distance_km": 184.9, "field_date_gap_days": 829, "field_conc_items_km2": 89.61, "conc_A_items_km2": null, "conc_A_lo80": null, "conc_A_hi80": null, "conc_A_lo95": null, "conc_A_hi95": null, "conc_A_status": "unavailable", "conc_A_status_ru": "концентрация недоступна", "conc_A_reasons": "вне бассейна профиля: nw_atlantic_subtropical", "conc_A_model": "conc-A-c6bce5631d2b", "conc_B_items_km2": 621.6, "conc_B_lo80": 132.7, "conc_B_hi80": 2088.3, "conc_B_lo95": 82.8, "conc_B_hi95": 3910.2, "conc_B_status": "research_estimate", "conc_B_status_ru": "исследовательская оценка", "conc_B_reasons": "ближайшее полевое измерение в 185 км (> 60 км); месяц 9 вне месяцев обучения [6]; log_dist_coast_km = 1.0 вне диапазона обучения [1.7; 5.0]", "conc_B_model": "conc-B-c6bce5631d2b"}}, {"type": "Feature", "geometry": {"type": "Polygon", "coordinates": [[[39.85614334561222, 43.49516151007965], [39.85614207358589, 43.49507147706762], [39.85601840296042, 43.49507240304199], [39.85601713112367, 43.49498237002562], [39.85614080156546, 43.49498144405413], [39.85613952955091, 43.494891411039184], [39.85638687004943, 43.49488955870079], [39.856388142431356, 43.494979591709956], [39.85651181285548, 43.49497866533725], [39.85651308542699, 43.49506869834205], [39.856389414819176, 43.49506962471764], [39.85639068721289, 43.495159657723875], [39.85614334561222, 43.49516151007965]]]}, "properties": {"zone_id": "sochi-2026-09-11-005", "aoi": "sochi", "date": "2026-09-11", "scene_id": "S2C_MSIL2A_20260911T081601_R121_T37TEJ_20260911T120815", "scene_datetime_utc": "2026-09-11T08:16:01.025000+00:00", "detection_status": "detected", "detection_status_ru": "обнаружено", "lon": 39.85627, "lat": 43.49503, "n_pixels": 2, "zone_area_km2": 0.0008, "cover_m2": 16.5, "p_mean": 0.9, "p_max": 0.969, "cover_m2_km2": 20625.0, "h3": "882d568dc7fffff", "valid_frac_scene": 1.0, "wind_ms": 3.8, "sea": "спокойное", "scene_reliable": true, "field_event_id": "S4:DOORS3:T17", "field_profile": "B", "field_date": "2024-06-04", "field_distance_km": 184.2, "field_date_gap_days": 829, "field_conc_items_km2": 89.61, "conc_A_items_km2": null, "conc_A_lo80": null, "conc_A_hi80": null, "conc_A_lo95": null, "conc_A_hi95": null, "conc_A_status": "unavailable", "conc_A_status_ru": "концентрация недоступна", "conc_A_reasons": "вне бассейна профиля: nw_atlantic_subtropical", "conc_A_model": "conc-A-c6bce5631d2b", "conc_B_items_km2": 621.6, "conc_B_lo80": 132.7, "conc_B_hi80": 2088.3, "conc_B_lo95": 82.8, "conc_B_hi95": 3910.2, "conc_B_status": "research_estimate", "conc_B_status_ru": "исследовательская оценка", "conc_B_reasons": "ближайшее полевое измерение в 184 км (> 60 км); месяц 9 вне месяцев обучения [6]; log_dist_coast_km = 1.0 вне диапазона обучения [1.7; 5.0]", "conc_B_model": "conc-B-c6bce5631d2b"}}, {"type": "Feature", "geometry": {"type": "Polygon", "coordinates": [[[39.869207218981444, 43.49191145257455], [39.86920592769323, 43.49182141982082], [39.86908226412495, 43.49182235986891], [39.869080973026364, 43.491732327110796], [39.869204636410984, 43.49173138706565], [39.869203345134714, 43.491641354309024], [39.8694519631623, 43.491729506574195], [39.86945325481186, 43.49181953932348], [39.86932959125553, 43.49182047963901], [39.869330882727404, 43.4919105123898], [39.869207218981444, 43.49191145257455]]]}, "properties": {"zone_id": "sochi-2026-09-11-006", "aoi": "sochi", "date": "2026-09-11", "scene_id": "S2C_MSIL2A_20260911T081601_R121_T37TEJ_20260911T120815", "scene_datetime_utc": "2026-09-11T08:16:01.025000+00:00", "detection_status": "detected", "detection_status_ru": "обнаружено", "lon": 39.86927, "lat": 43.49178, "n_pixels": 1, "zone_area_km2": 0.0005, "cover_m2": 6.7, "p_mean": 0.969, "p_max": 0.969, "cover_m2_km2": 13400.0, "h3": "882d568d8dfffff", "valid_frac_scene": 1.0, "wind_ms": 3.8, "sea": "спокойное", "scene_reliable": true, "field_event_id": "S4:DOORS3:T17", "field_profile": "B", "field_date": "2024-06-04", "field_distance_km": 184.6, "field_date_gap_days": 829, "field_conc_items_km2": 89.61, "conc_A_items_km2": null, "conc_A_lo80": null, "conc_A_hi80": null, "conc_A_lo95": null, "conc_A_hi95": null, "conc_A_status": "unavailable", "conc_A_status_ru": "концентрация недоступна", "conc_A_reasons": "вне бассейна профиля: nw_atlantic_subtropical", "conc_A_model": "conc-A-c6bce5631d2b", "conc_B_items_km2": 666.4, "conc_B_lo80": 142.3, "conc_B_hi80": 2238.6, "conc_B_lo95": 88.8, "conc_B_hi95": 4191.5, "conc_B_status": "research_estimate", "conc_B_status_ru": "исследовательская оценка", "conc_B_reasons": "ближайшее полевое измерение в 185 км (> 60 км); месяц 9 вне месяцев обучения [6]; log_dist_coast_km = 0.9 вне диапазона обучения [1.7; 5.0]", "conc_B_model": "conc-B-c6bce5631d2b"}}, {"type": "Feature", "geometry": {"type": "Polygon", "coordinates": [[[39.86691687871467, 43.48742671092453], [39.86691559103024, 43.487336678045295], [39.86679193653639, 43.487337615539786], [39.86678936155265, 43.48715754977108], [39.86703538194978, 43.48706564177948], [39.867036669799944, 43.487155674660144], [39.86716032391465, 43.48715473690413], [39.86716290000008, 43.48733480265522], [39.86691687871467, 43.48742671092453]]]}, "properties": {"zone_id": "sochi-2026-09-11-007", "aoi": "sochi", "date": "2026-09-11", "scene_id": "S2C_MSIL2A_20260911T081601_R121_T37TEJ_20260911T120815", "scene_datetime_utc": "2026-09-11T08:16:01.025000+00:00", "detection_status": "detected", "detection_status_ru": "обнаружено", "lon": 39.86698, "lat": 43.48725, "n_pixels": 2, "zone_area_km2": 0.0008, "cover_m2": 11.8, "p_mean": 0.661, "p_max": 0.694, "cover_m2_km2": 14750.0, "h3": "882d568debfffff", "valid_frac_scene": 1.0, "wind_ms": 3.8, "sea": "спокойное", "scene_reliable": true, "field_event_id": "S4:DOORS3:T17", "field_profile": "B", "field_date": "2024-06-04", "field_distance_km": 184.1, "field_date_gap_days": 829, "field_conc_items_km2": 89.61, "conc_A_items_km2": null, "conc_A_lo80": null, "conc_A_hi80": null, "conc_A_lo95": null, "conc_A_hi95": null, "conc_A_status": "unavailable", "conc_A_status_ru": "концентрация недоступна", "conc_A_reasons": "вне бассейна профиля: nw_atlantic_subtropical", "conc_A_model": "conc-A-c6bce5631d2b", "conc_B_items_km2": 666.4, "conc_B_lo80": 142.3, "conc_B_hi80": 2238.6, "conc_B_lo95": 88.8, "conc_B_hi95": 4191.5, "conc_B_status": "research_estimate", "conc_B_status_ru": "исследовательская оценка", "conc_B_reasons": "ближайшее полевое измерение в 184 км (> 60 км); месяц 9 вне месяцев обучения [6]; log_dist_coast_km = 0.9 вне диапазона обучения [1.7; 5.0]", "conc_B_model": "conc-B-c6bce5631d2b"}}, {"type": "Feature", "geometry": {"type": "Polygon", "coordinates": [[[39.75637985983656, 43.46939240906428], [39.75637873703617, 43.46930237343466], [39.756255115928674, 43.469303191123075], [39.75625399331695, 43.469213155489435], [39.75637761424099, 43.46921233780358], [39.756376491451, 43.469122302171044], [39.75662485607348, 43.469210702030956], [39.75662597923559, 43.46930073765691], [39.75650235813848, 43.4693015556126], [39.75650348112232, 43.46939159123968], [39.75637985983656, 43.46939240906428]]]}, "properties": {"zone_id": "sochi-2026-09-11-008", "aoi": "sochi", "date": "2026-09-11", "scene_id": "S2C_MSIL2A_20260911T081601_R121_T37TEJ_20260911T120815", "scene_datetime_utc": "2026-09-11T08:16:01.025000+00:00", "detection_status": "detected", "detection_status_ru": "обнаружено", "lon": 39.75644, "lat": 43.46926, "n_pixels": 1, "zone_area_km2": 0.0005, "cover_m2": 4.7, "p_mean": 0.98, "p_max": 0.98, "cover_m2_km2": 9400.0, "h3": "882d568f25fffff", "valid_frac_scene": 1.0, "wind_ms": 3.8, "sea": "спокойное", "scene_reliable": true, "field_event_id": "S4:DOORS3:T17", "field_profile": "B", "field_date": "2024-06-04", "field_distance_km": 176.9, "field_date_gap_days": 829, "field_conc_items_km2": 89.61, "conc_A_items_km2": null, "conc_A_lo80": null, "conc_A_hi80": null, "conc_A_lo95": null, "conc_A_hi95": null, "conc_A_status": "unavailable", "conc_A_status_ru": "концентрация недоступна", "conc_A_reasons": "вне бассейна профиля: nw_atlantic_subtropical", "conc_A_model": "conc-A-c6bce5631d2b", "conc_B_items_km2": 396.2, "conc_B_lo80": 84.3, "conc_B_hi80": 1332.1, "conc_B_lo95": 52.4, "conc_B_hi95": 2494.5, "conc_B_status": "research_estimate", "conc_B_status_ru": "исследовательская оценка", "conc_B_reasons": "ближайшее полевое измерение в 177 км (> 60 км); месяц 9 вне месяцев обучения [6]", "conc_B_model": "conc-B-c6bce5631d2b"}}, {"type": "Feature", "geometry": {"type": "Polygon", "coordinates": [[[39.854116348206, 43.45663833621768], [39.854115080895966, 43.456548302549116], [39.85399148874182, 43.45654922568262], [39.85398895450598, 43.45636915833541], [39.85423487059932, 43.456277278276374], [39.8542361380751, 43.45636731194639], [39.85435972985086, 43.45636638855154], [39.854362265186666, 43.45654645588143], [39.854116348206, 43.45663833621768]]]}, "properties": {"zone_id": "sochi-2026-09-11-009", "aoi": "sochi", "date": "2026-09-11", "scene_id": "S2C_MSIL2A_20260911T081601_R121_T37TEJ_20260911T120815", "scene_datetime_utc": "2026-09-11T08:16:01.025000+00:00", "detection_status": "detected", "detection_status_ru": "обнаружено", "lon": 39.85418, "lat": 43.45646, "n_pixels": 2, "zone_area_km2": 0.0008, "cover_m2": 18.4, "p_mean": 0.884, "p_max": 0.984, "cover_m2_km2": 23000.0, "h3": "882d568d37fffff", "valid_frac_scene": 1.0, "wind_ms": 3.8, "sea": "спокойное", "scene_reliable": true, "field_event_id": "S4:DOORS3:T17", "field_profile": "B", "field_date": "2024-06-04", "field_distance_km": 180.9, "field_date_gap_days": 829, "field_conc_items_km2": 89.61, "conc_A_items_km2": null, "conc_A_lo80": null, "conc_A_hi80": null, "conc_A_lo95": null, "conc_A_hi95": null, "conc_A_status": "unavailable", "conc_A_status_ru": "концентрация недоступна", "conc_A_reasons": "вне бассейна профиля: nw_atlantic_subtropical", "conc_A_model": "conc-A-c6bce5631d2b", "conc_B_items_km2": 508.2, "conc_B_lo80": 108.3, "conc_B_hi80": 1708.0, "conc_B_lo95": 67.5, "conc_B_hi95": 3198.2, "conc_B_status": "research_estimate", "conc_B_status_ru": "исследовательская оценка", "conc_B_reasons": "ближайшее полевое измерение в 181 км (> 60 км); месяц 9 вне месяцев обучения [6]", "conc_B_model": "conc-B-c6bce5631d2b"}}, {"type": "Feature", "geometry": {"type": "Polygon", "coordinates": [[[39.89181737583729, 43.43149855758477], [39.89181605375256, 43.43140852442328], [39.89169251400738, 43.43140948786184], [39.891691192111836, 43.431319454695895], [39.89181473167394, 43.43131849126035], [39.89181340960143, 43.43122845809596], [39.89206048834111, 43.43122653083055], [39.892061810779786, 43.431316563988915], [39.89218535032353, 43.43131560015304], [39.89218667295141, 43.43140563330694], [39.89206313322457, 43.43140659714583], [39.89206445567548, 43.431496630301275], [39.89181737583729, 43.43149855758477]]]}, "properties": {"zone_id": "sochi-2026-09-11-010", "aoi": "sochi", "date": "2026-09-11", "scene_id": "S2C_MSIL2A_20260911T081601_R121_T37TEJ_20260911T120815", "scene_datetime_utc": "2026-09-11T08:16:01.025000+00:00", "detection_status": "detected", "detection_status_ru": "обнаружено", "lon": 39.89194, "lat": 43.43136, "n_pixels": 2, "zone_area_km2": 0.0008, "cover_m2": 10.2, "p_mean": 0.965, "p_max": 0.996, "cover_m2_km2": 12750.0, "h3": "882d561287fffff", "valid_frac_scene": 1.0, "wind_ms": 3.8, "sea": "спокойное", "scene_reliable": true, "field_event_id": "S4:DOORS3:T17", "field_profile": "B", "field_date": "2024-06-04", "field_distance_km": 180.8, "field_date_gap_days": 829, "field_conc_items_km2": 89.61, "conc_A_items_km2": null, "conc_A_lo80": null, "conc_A_hi80": null, "conc_A_lo95": null, "conc_A_hi95": null, "conc_A_status": "unavailable", "conc_A_status_ru": "концентрация недоступна", "conc_A_reasons": "вне бассейна профиля: nw_atlantic_subtropical", "conc_A_model": "conc-A-c6bce5631d2b", "conc_B_items_km2": 591.0, "conc_B_lo80": 126.1, "conc_B_hi80": 1985.7, "conc_B_lo95": 78.7, "conc_B_hi95": 3718.0, "conc_B_status": "research_estimate", "conc_B_status_ru": "исследовательская оценка", "conc_B_reasons": "ближайшее полевое измерение в 181 км (> 60 км); месяц 9 вне месяцев обучения [6]; log_dist_coast_km = 1.2 вне диапазона обучения [1.7; 5.0]", "conc_B_model": "conc-B-c6bce5631d2b"}}, {"type": "Feature", "geometry": {"type": "Polygon", "coordinates": [[[39.89497236303294, 43.42760203738113], [39.89497103645185, 43.42751200423552], [39.89484750473768, 43.427512971013606], [39.894844851959995, 43.42733290471198], [39.89496838330807, 43.42733193793994], [39.89496705674539, 43.427241904789966], [39.89521544598581, 43.42733000399557], [39.895216772920726, 43.42742003713804], [39.89534030443344, 43.4274190699627], [39.895341631557535, 43.42750910310069], [39.89521809986177, 43.427510070279055], [39.89521942680896, 43.42760010341861], [39.89497236303294, 43.42760203738113]]]}, "properties": {"zone_id": "sochi-2026-09-11-011", "aoi": "sochi", "date": "2026-09-11", "scene_id": "S2C_MSIL2A_20260911T081601_R121_T37TEJ_20260911T120815", "scene_datetime_utc": "2026-09-11T08:16:01.025000+00:00", "detection_status": "detected", "detection_status_ru": "обнаружено", "lon": 39.89507, "lat": 43.42744, "n_pixels": 3, "zone_area_km2": 0.001, "cover_m2": 28.6, "p_mean": 0.855, "p_max": 0.992, "cover_m2_km2": 28600.0, "h3": "882d5612abfffff", "valid_frac_scene": 1.0, "wind_ms": 3.8, "sea": "спокойное", "scene_reliable": true, "field_event_id": "S4:DOORS3:T17", "field_profile": "B", "field_date": "2024-06-04", "field_distance_km": 180.7, "field_date_gap_days": 829, "field_conc_items_km2": 89.61, "conc_A_items_km2": null, "conc_A_lo80": null, "conc_A_hi80": null, "conc_A_lo95": null, "conc_A_hi95": null, "conc_A_status": "unavailable", "conc_A_status_ru": "концентрация недоступна", "conc_A_reasons": "вне бассейна профиля: nw_atlantic_subtropical", "conc_A_model": "conc-A-c6bce5631d2b", "conc_B_items_km2": 591.0, "conc_B_lo80": 126.1, "conc_B_hi80": 1985.7, "conc_B_lo95": 78.7, "conc_B_hi95": 3718.0, "conc_B_status": "research_estimate", "conc_B_status_ru": "исследовательская оценка", "conc_B_reasons": "ближайшее полевое измерение в 181 км (> 60 км); месяц 9 вне месяцев обучения [6]; log_dist_coast_km = 1.2 вне диапазона обучения [1.7; 5.0]", "conc_B_model": "conc-B-c6bce5631d2b"}}, {"type": "Feature", "geometry": {"type": "Polygon", "coordinates": [[[39.93229069486176, 43.39587860860416], [39.93228931449917, 43.39578857589413], [39.932165848529664, 43.39578958240041], [39.93216308818911, 43.395609516969685], [39.93228655379314, 43.39560851046971], [39.93228517344969, 43.395518477755296], [39.932532104273136, 43.39551646436179], [39.93253348498206, 43.395606497069906], [39.932656950566944, 43.3956054901701], [39.932658331464985, 43.3956955228736], [39.93253486569736, 43.39569652977655], [39.932536246419055, 43.39578656248174], [39.93229069486176, 43.39587860860416]]]}, "properties": {"zone_id": "sochi-2026-09-11-012", "aoi": "sochi", "date": "2026-09-11", "scene_id": "S2C_MSIL2A_20260911T081601_R121_T37TEJ_20260911T120815", "scene_datetime_utc": "2026-09-11T08:16:01.025000+00:00", "detection_status": "detected", "detection_status_ru": "обнаружено", "lon": 39.93239, "lat": 43.39568, "n_pixels": 3, "zone_area_km2": 0.001, "cover_m2": 18.4, "p_mean": 0.77, "p_max": 0.902, "cover_m2_km2": 18400.0, "h3": "882d5610ebfffff", "valid_frac_scene": 1.0, "wind_ms": 3.8, "sea": "спокойное", "scene_reliable": true, "field_event_id": "S4:DOORS3:T23", "field_profile": "B", "field_date": "2024-06-10", "field_distance_km": 176.3, "field_date_gap_days": 823, "field_conc_items_km2": 102.37, "conc_A_items_km2": null, "conc_A_lo80": null, "conc_A_hi80": null, "conc_A_lo95": null, "conc_A_hi95": null, "conc_A_status": "unavailable", "conc_A_status_ru": "концентрация недоступна", "conc_A_reasons": "вне бассейна профиля: nw_atlantic_subtropical", "conc_A_model": "conc-A-c6bce5631d2b", "conc_B_items_km2": 621.6, "conc_B_lo80": 132.7, "conc_B_hi80": 2088.3, "conc_B_lo95": 82.8, "conc_B_hi95": 3910.2, "conc_B_status": "research_estimate", "conc_B_status_ru": "исследовательская оценка", "conc_B_reasons": "ближайшее полевое измерение в 176 км (> 60 км); месяц 9 вне месяцев обучения [6]; log_dist_coast_km = 1.0 вне диапазона обучения [1.7; 5.0]", "conc_B_model": "conc-B-c6bce5631d2b"}}, {"type": "Feature", "geometry": {"type": "Polygon", "coordinates": [[[39.95528964933428, 43.39001602262742], [39.95528823521161, 43.38992599042123], [39.955164781960654, 43.389927021646145], [39.9551633680272, 43.389836989435274], [39.955286821095484, 43.38983595821357], [39.95528540698589, 43.389745926004444], [39.955533727212426, 43.389833895370444], [39.95553514169392, 43.389923927571644], [39.95541168845604, 43.38992495906306], [39.95541310276139, 43.39001499126603], [39.95528964933428, 43.39001602262742]]]}, "properties": {"zone_id": "sochi-2026-09-11-013", "aoi": "sochi", "date": "2026-09-11", "scene_id": "S2C_MSIL2A_20260911T081601_R121_T37TEJ_20260911T120815", "scene_datetime_utc": "2026-09-11T08:16:01.025000+00:00", "detection_status": "detected", "detection_status_ru": "обнаружено", "lon": 39.95535, "lat": 43.38988, "n_pixels": 1, "zone_area_km2": 0.0005, "cover_m2": 6.7, "p_mean": 0.792, "p_max": 0.792, "cover_m2_km2": 13400.0, "h3": "882d5610a9fffff", "valid_frac_scene": 1.0, "wind_ms": 3.8, "sea": "спокойное", "scene_reliable": true, "field_event_id": "S4:DOORS3:T23", "field_profile": "B", "field_date": "2024-06-10", "field_distance_km": 174.5, "field_date_gap_days": 823, "field_conc_items_km2": 102.37, "conc_A_items_km2": null, "conc_A_lo80": null, "conc_A_hi80": null, "conc_A_lo95": null, "conc_A_hi95": null, "conc_A_status": "unavailable", "conc_A_status_ru": "концентрация недоступна", "conc_A_reasons": "вне бассейна профиля: nw_atlantic_subtropical", "conc_A_model": "conc-A-c6bce5631d2b", "conc_B_items_km2": 666.4, "conc_B_lo80": 142.3, "conc_B_hi80": 2238.6, "conc_B_lo95": 88.8, "conc_B_hi95": 4191.5, "conc_B_status": "research_estimate", "conc_B_status_ru": "исследовательская оценка", "conc_B_reasons": "ближайшее полевое измерение в 175 км (> 60 км); месяц 9 вне месяцев обучения [6]; log_dist_coast_km = 0.9 вне диапазона обучения [1.7; 5.0]", "conc_B_model": "conc-B-c6bce5631d2b"}}]}