{"type": "FeatureCollection", "features": [{"type": "Feature", "geometry": {"type": "Polygon", "coordinates": [[[36.57025665697897, 45.17704322285642], [36.57026048400266, 45.176953287450225], [36.57013332734276, 45.17695058060741], [36.57014098173567, 45.17677070980694], [36.570268137995974, 45.176773416632855], [36.5702719649656, 45.17668348122166], [36.57052245057063, 45.176778829860396], [36.57051862398257, 45.17686876528679], [36.570645780496726, 45.17687147169684], [36.570641954090455, 45.17696140713], [36.57051479737651, 45.17695870071152], [36.57051097075243, 45.177048636134586], [36.57025665697897, 45.17704322285642]]]}, "properties": {"zone_id": "kerch-2025-04-14-001", "aoi": "kerch", "date": "2025-04-14", "scene_id": "S2A_MSIL2A_20250414T083521_R021_T37TCK_20250414T120819", "scene_datetime_utc": "2025-04-14T08:35:21.024000+00:00", "detection_status": "detected", "detection_status_ru": "обнаружено", "lon": 36.57037, "lat": 45.17688, "n_pixels": 3, "zone_area_km2": 0.001, "cover_m2": 39.6, "p_mean": 0.856, "p_max": 0.969, "cover_m2_km2": 39600.0, "h3": "882d76a167fffff", "valid_frac_scene": 0.825, "wind_ms": 7.7, "sea": "волнение", "scene_reliable": true, "field_event_id": "S4:DOORS3:T11", "field_profile": "B", "field_date": "2024-06-04", "field_distance_km": 298.6, "field_date_gap_days": 314, "field_conc_items_km2": 62.52, "conc_A_items_km2": null, "conc_A_lo80": null, "conc_A_hi80": null, "conc_A_lo95": null, "conc_A_hi95": null, "conc_A_status": "unavailable", "conc_A_status_ru": "концентрация недоступна", "conc_A_reasons": "вне бассейна профиля: nw_atlantic_subtropical", "conc_A_model": "conc-A-c6bce5631d2b", "conc_B_items_km2": 541.8, "conc_B_lo80": 115.5, "conc_B_hi80": 1820.4, "conc_B_lo95": 72.0, "conc_B_hi95": 3408.6, "conc_B_status": "research_estimate", "conc_B_status_ru": "исследовательская оценка", "conc_B_reasons": "ближайшее полевое измерение в 299 км (> 60 км); месяц 4 вне месяцев обучения [6]", "conc_B_model": "conc-B-c6bce5631d2b"}}, {"type": "Feature", "geometry": {"type": "Polygon", "coordinates": [[[36.54765374084815, 45.134341787760626], [36.547657597707975, 45.134251853194534], [36.54753053811892, 45.13424912319082], [36.54753439515994, 45.13415918863156], [36.54779237058171, 45.13407471390277], [36.54778851395752, 45.134164648480734], [36.547915573383534, 45.134167378193474], [36.54791171694053, 45.13425731277828], [36.54778465731518, 45.13425458305702], [36.547780800654685, 45.134344517631625], [36.54765374084815, 45.134341787760626]]]}, "properties": {"zone_id": "kerch-2025-04-14-002", "aoi": "kerch", "date": "2025-04-14", "scene_id": "S2A_MSIL2A_20250414T083521_R021_T37TCK_20250414T120819", "scene_datetime_utc": "2025-04-14T08:35:21.024000+00:00", "detection_status": "detected", "detection_status_ru": "обнаружено", "lon": 36.54772, "lat": 45.13421, "n_pixels": 1, "zone_area_km2": 0.0005, "cover_m2": 3.1, "p_mean": 0.847, "p_max": 0.847, "cover_m2_km2": 6200.0, "h3": "882d76b993fffff", "valid_frac_scene": 0.825, "wind_ms": 7.7, "sea": "волнение", "scene_reliable": true, "field_event_id": "S4:DOORS3:T11", "field_profile": "B", "field_date": "2024-06-04", "field_distance_km": 293.9, "field_date_gap_days": 314, "field_conc_items_km2": 62.52, "conc_A_items_km2": null, "conc_A_lo80": null, "conc_A_hi80": null, "conc_A_lo95": null, "conc_A_hi95": null, "conc_A_status": "unavailable", "conc_A_status_ru": "концентрация недоступна", "conc_A_reasons": "вне бассейна профиля: nw_atlantic_subtropical", "conc_A_model": "conc-A-c6bce5631d2b", "conc_B_items_km2": 421.8, "conc_B_lo80": 89.8, "conc_B_hi80": 1418.0, "conc_B_lo95": 55.9, "conc_B_hi95": 2655.4, "conc_B_status": "research_estimate", "conc_B_status_ru": "исследовательская оценка", "conc_B_reasons": "ближайшее полевое измерение в 294 км (> 60 км); месяц 4 вне месяцев обучения [6]", "conc_B_model": "conc-B-c6bce5631d2b"}}, {"type": "Feature", "geometry": {"type": "Polygon", "coordinates": [[[36.86776596449991, 45.103412907596095], [36.86776931454804, 45.10332295239175], [36.86764229513099, 45.103320579821386], [36.86764564536256, 45.10323062462282], [36.86790303363144, 45.10314541439261], [36.86789968381403, 45.10323536960758], [36.868026703063414, 45.103237741888215], [36.868023353429436, 45.103327697108966], [36.86789633398086, 45.103325324820936], [36.86789298413193, 45.103415280032685], [36.86776596449991, 45.103412907596095]]]}, "properties": {"zone_id": "kerch-2025-04-14-003", "aoi": "kerch", "date": "2025-04-14", "scene_id": "S2A_MSIL2A_20250414T083521_R021_T37TCK_20250414T120819", "scene_datetime_utc": "2025-04-14T08:35:21.024000+00:00", "detection_status": "detected", "detection_status_ru": "обнаружено", "lon": 36.86783, "lat": 45.10328, "n_pixels": 1, "zone_area_km2": 0.0005, "cover_m2": 5.9, "p_mean": 0.686, "p_max": 0.686, "cover_m2_km2": 11800.0, "h3": "882d763051fffff", "valid_frac_scene": 0.825, "wind_ms": 7.7, "sea": "волнение", "scene_reliable": true, "field_event_id": "S4:DOORS3:T11", "field_profile": "B", "field_date": "2024-06-04", "field_distance_km": 290.7, "field_date_gap_days": 314, "field_conc_items_km2": 62.52, "conc_A_items_km2": null, "conc_A_lo80": null, "conc_A_hi80": null, "conc_A_lo95": null, "conc_A_hi95": null, "conc_A_status": "unavailable", "conc_A_status_ru": "концентрация недоступна", "conc_A_reasons": "вне бассейна профиля: nw_atlantic_subtropical", "conc_A_model": "conc-A-c6bce5631d2b", "conc_B_items_km2": 621.6, "conc_B_lo80": 132.7, "conc_B_hi80": 2088.3, "conc_B_lo95": 82.8, "conc_B_hi95": 3910.2, "conc_B_status": "research_estimate", "conc_B_status_ru": "исследовательская оценка", "conc_B_reasons": "ближайшее полевое измерение в 291 км (> 60 км); месяц 4 вне месяцев обучения [6]; log_dist_coast_km = 1.0 вне диапазона обучения [1.7; 5.0]", "conc_B_model": "conc-B-c6bce5631d2b"}}, {"type": "Feature", "geometry": {"type": "Polygon", "coordinates": [[[36.868193914316684, 45.102160651163565], [36.86819726354659, 45.102070695914364], [36.86807024687093, 45.102068323871094], [36.86807694568184, 45.101888413382646], [36.86820396195914, 45.101890785411136], [36.868207311141774, 45.101800830157075], [36.86846134334529, 45.101805573775756], [36.86845799456101, 45.1018955290446], [36.86858501088559, 45.10189790064958], [36.868578313668145, 45.10207781119721], [36.8684512969452, 45.102075439577426], [36.86844794811366, 45.10216539484142], [36.868193914316684, 45.102160651163565]]]}, "properties": {"zone_id": "kerch-2025-04-14-004", "aoi": "kerch", "date": "2025-04-14", "scene_id": "S2A_MSIL2A_20250414T083521_R021_T37TCK_20250414T120819", "scene_datetime_utc": "2025-04-14T08:35:21.024000+00:00", "detection_status": "detected", "detection_status_ru": "обнаружено", "lon": 36.86833, "lat": 45.10198, "n_pixels": 4, "zone_area_km2": 0.0012, "cover_m2": 51.8, "p_mean": 0.796, "p_max": 0.961, "cover_m2_km2": 43166.7, "h3": "882d763051fffff", "valid_frac_scene": 0.825, "wind_ms": 7.7, "sea": "волнение", "scene_reliable": true, "field_event_id": "S4:DOORS3:T11", "field_profile": "B", "field_date": "2024-06-04", "field_distance_km": 290.5, "field_date_gap_days": 314, "field_conc_items_km2": 62.52, "conc_A_items_km2": null, "conc_A_lo80": null, "conc_A_hi80": null, "conc_A_lo95": null, "conc_A_hi95": null, "conc_A_status": "unavailable", "conc_A_status_ru": "концентрация недоступна", "conc_A_reasons": "вне бассейна профиля: nw_atlantic_subtropical", "conc_A_model": "conc-A-c6bce5631d2b", "conc_B_items_km2": 621.6, "conc_B_lo80": 132.7, "conc_B_hi80": 2088.3, "conc_B_lo95": 82.8, "conc_B_hi95": 3910.2, "conc_B_status": "research_estimate", "conc_B_status_ru": "исследовательская оценка", "conc_B_reasons": "ближайшее полевое измерение в 291 км (> 60 км); месяц 4 вне месяцев обучения [6]; log_dist_coast_km = 1.0 вне диапазона обучения [1.7; 5.0]", "conc_B_model": "conc-B-c6bce5631d2b"}}, {"type": "Feature", "geometry": {"type": "Polygon", "coordinates": [[[36.8607947337686, 45.09608105768994], [36.86079809390587, 45.095991102778534], [36.86067109132119, 45.09598872275544], [36.86067445164175, 45.095898767849825], [36.86093181633522, 45.09581357281796], [36.860928456428695, 45.095903527740035], [36.861055458845875, 45.095905907473444], [36.86105209912266, 45.095995862401324], [36.86092509650636, 45.0959934826605], [36.860921736568216, 45.09608343757933], [36.8607947337686, 45.09608105768994]]]}, "properties": {"zone_id": "kerch-2025-04-14-005", "aoi": "kerch", "date": "2025-04-14", "scene_id": "S2A_MSIL2A_20250414T083521_R021_T37TCK_20250414T120819", "scene_datetime_utc": "2025-04-14T08:35:21.024000+00:00", "detection_status": "detected", "detection_status_ru": "обнаружено", "lon": 36.86086, "lat": 45.09595, "n_pixels": 1, "zone_area_km2": 0.0005, "cover_m2": 3.1, "p_mean": 0.804, "p_max": 0.804, "cover_m2_km2": 6200.0, "h3": "882d763055fffff", "valid_frac_scene": 0.825, "wind_ms": 7.7, "sea": "волнение", "scene_reliable": true, "field_event_id": "S4:DOORS3:T11", "field_profile": "B", "field_date": "2024-06-04", "field_distance_km": 289.8, "field_date_gap_days": 314, "field_conc_items_km2": 62.52, "conc_A_items_km2": null, "conc_A_lo80": null, "conc_A_hi80": null, "conc_A_lo95": null, "conc_A_hi95": null, "conc_A_status": "unavailable", "conc_A_status_ru": "концентрация недоступна", "conc_A_reasons": "вне бассейна профиля: nw_atlantic_subtropical", "conc_A_model": "conc-A-c6bce5631d2b", "conc_B_items_km2": 520.5, "conc_B_lo80": 111.0, "conc_B_hi80": 1749.2, "conc_B_lo95": 69.2, "conc_B_hi95": 3275.4, "conc_B_status": "research_estimate", "conc_B_status_ru": "исследовательская оценка", "conc_B_reasons": "ближайшее полевое измерение в 290 км (> 60 км); месяц 4 вне месяцев обучения [6]", "conc_B_model": "conc-B-c6bce5631d2b"}}, {"type": "Feature", "geometry": {"type": "Polygon", "coordinates": [[[36.83992814036865, 45.08659630795066], [36.839931532145286, 45.08650635412102], [36.839804552318284, 45.086503951286424], [36.839814728149506, 45.08623408981029], [36.83968774893547, 45.0862316868571], [36.83969453314117, 45.08605177921321], [36.8398215119572, 45.086054182151415], [36.83982490383712, 45.08596422831953], [36.84007546963713, 45.086058987604595], [36.84006529509567, 45.08632884913543], [36.84019227455657, 45.086331251672874], [36.84018549184718, 45.08651115936697], [36.83992814036865, 45.08659630795066]]]}, "properties": {"zone_id": "kerch-2025-04-14-006", "aoi": "kerch", "date": "2025-04-14", "scene_id": "S2A_MSIL2A_20250414T083521_R021_T37TCK_20250414T120819", "scene_datetime_utc": "2025-04-14T08:35:21.024000+00:00", "detection_status": "detected", "detection_status_ru": "обнаружено", "lon": 36.83994, "lat": 45.08628, "n_pixels": 4, "zone_area_km2": 0.0016, "cover_m2": 18.0, "p_mean": 0.889, "p_max": 0.973, "cover_m2_km2": 11250.0, "h3": "882d763041fffff", "valid_frac_scene": 0.825, "wind_ms": 7.7, "sea": "волнение", "scene_reliable": true, "field_event_id": "S4:DOORS3:T11", "field_profile": "B", "field_date": "2024-06-04", "field_distance_km": 288.7, "field_date_gap_days": 314, "field_conc_items_km2": 62.52, "conc_A_items_km2": null, "conc_A_lo80": null, "conc_A_hi80": null, "conc_A_lo95": null, "conc_A_hi95": null, "conc_A_status": "unavailable", "conc_A_status_ru": "концентрация недоступна", "conc_A_reasons": "вне бассейна профиля: nw_atlantic_subtropical", "conc_A_model": "conc-A-c6bce5631d2b", "conc_B_items_km2": 520.5, "conc_B_lo80": 111.0, "conc_B_hi80": 1749.2, "conc_B_lo95": 69.2, "conc_B_hi95": 3275.4, "conc_B_status": "research_estimate", "conc_B_status_ru": "исследовательская оценка", "conc_B_reasons": "ближайшее полевое измерение в 289 км (> 60 км); месяц 4 вне месяцев обучения [6]", "conc_B_model": "conc-B-c6bce5631d2b"}}, {"type": "Feature", "geometry": {"type": "Polygon", "coordinates": [[[37.00785934684803, 44.98945959214307], [37.00786246447573, 44.98936962720333], [37.00773568581373, 44.989367414800824], [37.00773880362485, 44.989277449866385], [37.00799547796764, 44.989191909567126], [37.00799236056733, 44.98928187451695], [37.00811913906054, 44.98928408663126], [37.00811602184367, 44.9893740515864], [37.00798924315237, 44.98937183946519], [37.007986125722766, 44.98946180441183], [37.00785934684803, 44.98945959214307]]]}, "properties": {"zone_id": "kerch-2025-04-14-007", "aoi": "kerch", "date": "2025-04-14", "scene_id": "S2A_MSIL2A_20250414T083521_R021_T37TCK_20250414T120819", "scene_datetime_utc": "2025-04-14T08:35:21.024000+00:00", "detection_status": "detected", "detection_status_ru": "обнаружено", "lon": 37.00793, "lat": 44.98933, "n_pixels": 1, "zone_area_km2": 0.0005, "cover_m2": 3.5, "p_mean": 0.969, "p_max": 0.969, "cover_m2_km2": 7000.0, "h3": "882d7638dbfffff", "valid_frac_scene": 0.825, "wind_ms": 7.7, "sea": "волнение", "scene_reliable": true, "field_event_id": "S4:DOORS3:T11", "field_profile": "B", "field_date": "2024-06-04", "field_distance_km": 278.9, "field_date_gap_days": 314, "field_conc_items_km2": 62.52, "conc_A_items_km2": null, "conc_A_lo80": null, "conc_A_hi80": null, "conc_A_lo95": null, "conc_A_hi95": null, "conc_A_status": "unavailable", "conc_A_status_ru": "концентрация недоступна", "conc_A_reasons": "вне бассейна профиля: nw_atlantic_subtropical", "conc_A_model": "conc-A-c6bce5631d2b", "conc_B_items_km2": 421.6, "conc_B_lo80": 89.7, "conc_B_hi80": 1417.2, "conc_B_lo95": 55.9, "conc_B_hi95": 2653.9, "conc_B_status": "research_estimate", "conc_B_status_ru": "исследовательская оценка", "conc_B_reasons": "ближайшее полевое измерение в 279 км (> 60 км); месяц 4 вне месяцев обучения [6]", "conc_B_model": "conc-B-c6bce5631d2b"}}, {"type": "Feature", "geometry": {"type": "Polygon", "coordinates": [[[36.969046634055815, 44.989315808395915], [36.96904981238299, 44.98922584559798], [36.96892303705949, 44.989223590116175], [36.9689262155698, 44.989133627323646], [36.969182943934854, 44.989048175324335], [36.96917976583561, 44.98913813813253], [36.969306540990914, 44.98914039332601], [36.96930336307479, 44.98923035613964], [36.96917658772143, 44.98922810093912], [36.969173409592315, 44.98931806374412], [36.969046634055815, 44.989315808395915]]]}, "properties": {"zone_id": "kerch-2025-04-14-008", "aoi": "kerch", "date": "2025-04-14", "scene_id": "S2A_MSIL2A_20250414T083521_R021_T37TCK_20250414T120819", "scene_datetime_utc": "2025-04-14T08:35:21.024000+00:00", "detection_status": "detected", "detection_status_ru": "обнаружено", "lon": 36.96911, "lat": 44.98918, "n_pixels": 1, "zone_area_km2": 0.0005, "cover_m2": 5.1, "p_mean": 0.886, "p_max": 0.886, "cover_m2_km2": 10200.0, "h3": "882d763ab9fffff", "valid_frac_scene": 0.825, "wind_ms": 7.7, "sea": "волнение", "scene_reliable": true, "field_event_id": "S4:DOORS3:T11", "field_profile": "B", "field_date": "2024-06-04", "field_distance_km": 278.6, "field_date_gap_days": 314, "field_conc_items_km2": 62.52, "conc_A_items_km2": null, "conc_A_lo80": null, "conc_A_hi80": null, "conc_A_lo95": null, "conc_A_hi95": null, "conc_A_status": "unavailable", "conc_A_status_ru": "концентрация недоступна", "conc_A_reasons": "вне бассейна профиля: nw_atlantic_subtropical", "conc_A_model": "conc-A-c6bce5631d2b", "conc_B_items_km2": 407.4, "conc_B_lo80": 86.7, "conc_B_hi80": 1369.5, "conc_B_lo95": 53.9, "conc_B_hi95": 2564.6, "conc_B_status": "research_estimate", "conc_B_status_ru": "исследовательская оценка", "conc_B_reasons": "ближайшее полевое измерение в 279 км (> 60 км); месяц 4 вне месяцев обучения [6]", "conc_B_model": "conc-B-c6bce5631d2b"}}, {"type": "Feature", "geometry": {"type": "Polygon", "coordinates": [[[37.02267418020439, 44.982875681024076], [37.022677273946705, 44.982785715172724], [37.02255050865835, 44.982783519465926], [37.022553602584146, 44.98269355361983], [37.02281022629455, 44.98260797901776], [37.02280713277934, 44.98269794487913], [37.02293389789874, 44.98270014029784], [37.022930804567004, 44.98279010616448], [37.022804039249586, 44.982787910738914], [37.0228009457053, 44.9828778765971], [37.02267418020439, 44.982875681024076]]]}, "properties": {"zone_id": "kerch-2025-04-14-009", "aoi": "kerch", "date": "2025-04-14", "scene_id": "S2A_MSIL2A_20250414T083521_R021_T37TCK_20250414T120819", "scene_datetime_utc": "2025-04-14T08:35:21.024000+00:00", "detection_status": "detected", "detection_status_ru": "обнаружено", "lon": 37.02274, "lat": 44.98274, "n_pixels": 1, "zone_area_km2": 0.0005, "cover_m2": 2.7, "p_mean": 0.643, "p_max": 0.643, "cover_m2_km2": 5400.0, "h3": "882d7638d7fffff", "valid_frac_scene": 0.825, "wind_ms": 7.7, "sea": "волнение", "scene_reliable": true, "field_event_id": "S4:DOORS3:T11", "field_profile": "B", "field_date": "2024-06-04", "field_distance_km": 278.3, "field_date_gap_days": 314, "field_conc_items_km2": 62.52, "conc_A_items_km2": null, "conc_A_lo80": null, "conc_A_hi80": null, "conc_A_lo95": null, "conc_A_hi95": null, "conc_A_status": "unavailable", "conc_A_status_ru": "концентрация недоступна", "conc_A_reasons": "вне бассейна профиля: nw_atlantic_subtropical", "conc_A_model": "conc-A-c6bce5631d2b", "conc_B_items_km2": 397.3, "conc_B_lo80": 84.5, "conc_B_hi80": 1335.6, "conc_B_lo95": 52.6, "conc_B_hi95": 2501.1, "conc_B_status": "research_estimate", "conc_B_status_ru": "исследовательская оценка", "conc_B_reasons": "ближайшее полевое измерение в 278 км (> 60 км); месяц 4 вне месяцев обучения [6]", "conc_B_model": "conc-B-c6bce5631d2b"}}, {"type": "Feature", "geometry": {"type": "Polygon", "coordinates": [[[36.992995754085925, 44.98280787176211], [36.992998894237196, 44.98271790753338], [36.992872131386214, 44.98271567888736], [36.992875271720735, 44.98262571466399], [36.993131936965206, 44.98254020756262], [36.99312879704145, 44.98263017180149], [36.99325555972394, 44.982632400159325], [36.993252419983435, 44.98272236440355], [36.99312565710294, 44.982720136038765], [36.99312251714967, 44.982810100274456], [36.992995754085925, 44.98280787176211]]]}, "properties": {"zone_id": "kerch-2025-04-14-010", "aoi": "kerch", "date": "2025-04-14", "scene_id": "S2A_MSIL2A_20250414T083521_R021_T37TCK_20250414T120819", "scene_datetime_utc": "2025-04-14T08:35:21.024000+00:00", "detection_status": "detected", "detection_status_ru": "обнаружено", "lon": 36.99306, "lat": 44.98267, "n_pixels": 1, "zone_area_km2": 0.0005, "cover_m2": 2.7, "p_mean": 0.659, "p_max": 0.659, "cover_m2_km2": 5400.0, "h3": "882d763ab7fffff", "valid_frac_scene": 0.825, "wind_ms": 7.7, "sea": "волнение", "scene_reliable": true, "field_event_id": "S4:DOORS3:T11", "field_profile": "B", "field_date": "2024-06-04", "field_distance_km": 278.0, "field_date_gap_days": 314, "field_conc_items_km2": 62.52, "conc_A_items_km2": null, "conc_A_lo80": null, "conc_A_hi80": null, "conc_A_lo95": null, "conc_A_hi95": null, "conc_A_status": "unavailable", "conc_A_status_ru": "концентрация недоступна", "conc_A_reasons": "вне бассейна профиля: nw_atlantic_subtropical", "conc_A_model": "conc-A-c6bce5631d2b", "conc_B_items_km2": 389.9, "conc_B_lo80": 82.9, "conc_B_hi80": 1310.8, "conc_B_lo95": 51.6, "conc_B_hi95": 2454.8, "conc_B_status": "research_estimate", "conc_B_status_ru": "исследовательская оценка", "conc_B_reasons": "ближайшее полевое измерение в 278 км (> 60 км); месяц 4 вне месяцев обучения [6]", "conc_B_model": "conc-B-c6bce5631d2b"}}, {"type": "Feature", "geometry": {"type": "Polygon", "coordinates": [[[37.05818510901148, 44.97925430651945], [37.058188146831036, 44.97916433869984], [37.058061386829806, 44.979162182544464], [37.05806442483309, 44.979072214729996], [37.05832098204682, 44.978986559057184], [37.05831794445382, 44.979076526886686], [37.0584447042856, 44.979078682754114], [37.05844166687633, 44.97916865058876], [37.05831490684654, 44.979166494714605], [37.05831186922499, 44.97925646254095], [37.05818510901148, 44.97925430651945]]]}, "properties": {"zone_id": "kerch-2025-04-14-011", "aoi": "kerch", "date": "2025-04-14", "scene_id": "S2A_MSIL2A_20250414T083521_R021_T37TCK_20250414T120819", "scene_datetime_utc": "2025-04-14T08:35:21.024000+00:00", "detection_status": "detected", "detection_status_ru": "обнаружено", "lon": 37.05825, "lat": 44.97912, "n_pixels": 1, "zone_area_km2": 0.0005, "cover_m2": 4.3, "p_mean": 0.91, "p_max": 0.91, "cover_m2_km2": 8600.0, "h3": "882d762169fffff", "valid_frac_scene": 0.825, "wind_ms": 7.7, "sea": "волнение", "scene_reliable": true, "field_event_id": "S4:DOORS3:T11", "field_profile": "B", "field_date": "2024-06-04", "field_distance_km": 278.1, "field_date_gap_days": 314, "field_conc_items_km2": 62.52, "conc_A_items_km2": null, "conc_A_lo80": null, "conc_A_hi80": null, "conc_A_lo95": null, "conc_A_hi95": null, "conc_A_status": "unavailable", "conc_A_status_ru": "концентрация недоступна", "conc_A_reasons": "вне бассейна профиля: nw_atlantic_subtropical", "conc_A_model": "conc-A-c6bce5631d2b", "conc_B_items_km2": 415.9, "conc_B_lo80": 88.5, "conc_B_hi80": 1398.0, "conc_B_lo95": 55.1, "conc_B_hi95": 2617.9, "conc_B_status": "research_estimate", "conc_B_status_ru": "исследовательская оценка", "conc_B_reasons": "ближайшее полевое измерение в 278 км (> 60 км); месяц 4 вне месяцев обучения [6]", "conc_B_model": "conc-B-c6bce5631d2b"}}, {"type": "Feature", "geometry": {"type": "Polygon", "coordinates": [[[37.01254614871466, 44.97864893274584], [37.0125492578391, 44.97855896737903], [37.012422502641186, 44.978556760591744], [37.01242561194897, 44.97846679523023], [37.012682230860705, 44.978381243273574], [37.012679121963465, 44.97847120865045], [37.01280587699262, 44.97847341514965], [37.01280276827875, 44.97856338053182], [37.01267601305162, 44.97856117402573], [37.01267290412517, 44.97865113939941], [37.01254614871466, 44.97864893274584]]]}, "properties": {"zone_id": "kerch-2025-04-14-012", "aoi": "kerch", "date": "2025-04-14", "scene_id": "S2A_MSIL2A_20250414T083521_R021_T37TCK_20250414T120819", "scene_datetime_utc": "2025-04-14T08:35:21.024000+00:00", "detection_status": "detected", "detection_status_ru": "обнаружено", "lon": 37.01261, "lat": 44.97852, "n_pixels": 1, "zone_area_km2": 0.0005, "cover_m2": 2.4, "p_mean": 0.965, "p_max": 0.965, "cover_m2_km2": 4800.0, "h3": "882d7638d5fffff", "valid_frac_scene": 0.825, "wind_ms": 7.7, "sea": "волнение", "scene_reliable": true, "field_event_id": "S4:DOORS3:T11", "field_profile": "B", "field_date": "2024-06-04", "field_distance_km": 277.7, "field_date_gap_days": 314, "field_conc_items_km2": 62.52, "conc_A_items_km2": null, "conc_A_lo80": null, "conc_A_hi80": null, "conc_A_lo95": null, "conc_A_hi95": null, "conc_A_status": "unavailable", "conc_A_status_ru": "концентрация недоступна", "conc_A_reasons": "вне бассейна профиля: nw_atlantic_subtropical", "conc_A_model": "conc-A-c6bce5631d2b", "conc_B_items_km2": 393.5, "conc_B_lo80": 83.7, "conc_B_hi80": 1322.9, "conc_B_lo95": 52.1, "conc_B_hi95": 2477.4, "conc_B_status": "research_estimate", "conc_B_status_ru": "исследовательская оценка", "conc_B_reasons": "ближайшее полевое измерение в 278 км (> 60 км); месяц 4 вне месяцев обучения [6]", "conc_B_model": "conc-B-c6bce5631d2b"}}, {"type": "Feature", "geometry": {"type": "Polygon", "coordinates": [[[37.07346195610337, 44.96240940529594], [37.07346496826379, 44.96231943639845], [37.073338244218355, 44.96231729782242], [37.0733442688924, 44.96213736003607], [37.07360072812623, 44.96205166811203], [37.073597716206095, 44.96214163702092], [37.073724439884174, 44.96214377530255], [37.07371841639713, 44.96232371312893], [37.07346195610337, 44.96240940529594]]]}, "properties": {"zone_id": "kerch-2025-04-14-013", "aoi": "kerch", "date": "2025-04-14", "scene_id": "S2A_MSIL2A_20250414T083521_R021_T37TCK_20250414T120819", "scene_datetime_utc": "2025-04-14T08:35:21.024000+00:00", "detection_status": "detected", "detection_status_ru": "обнаружено", "lon": 37.07353, "lat": 44.96223, "n_pixels": 2, "zone_area_km2": 0.0008, "cover_m2": 8.6, "p_mean": 0.969, "p_max": 1.0, "cover_m2_km2": 10750.0, "h3": "882d762165fffff", "valid_frac_scene": 0.825, "wind_ms": 7.7, "sea": "волнение", "scene_reliable": true, "field_event_id": "S4:DOORS3:T11", "field_profile": "B", "field_date": "2024-06-04", "field_distance_km": 276.4, "field_date_gap_days": 314, "field_conc_items_km2": 62.52, "conc_A_items_km2": null, "conc_A_lo80": null, "conc_A_hi80": null, "conc_A_lo95": null, "conc_A_hi95": null, "conc_A_status": "unavailable", "conc_A_status_ru": "концентрация недоступна", "conc_A_reasons": "вне бассейна профиля: nw_atlantic_subtropical", "conc_A_model": "conc-A-c6bce5631d2b", "conc_B_items_km2": 397.3, "conc_B_lo80": 84.5, "conc_B_hi80": 1335.6, "conc_B_lo95": 52.6, "conc_B_hi95": 2501.1, "conc_B_status": "research_estimate", "conc_B_status_ru": "исследовательская оценка", "conc_B_reasons": "ближайшее полевое измерение в 276 км (> 60 км); месяц 4 вне месяцев обучения [6]", "conc_B_model": "conc-B-c6bce5631d2b"}}, {"type": "Feature", "geometry": {"type": "Polygon", "coordinates": [[[37.05745942664184, 44.94440432381176], [37.057462461907825, 44.94431435547972], [37.05733577867771, 44.94431219981904], [37.05733881412707, 44.944222231492134], [37.057595215246096, 44.94413657431771], [37.05759218020627, 44.944226542659635], [37.05771886326726, 44.94422869803272], [37.057715828410814, 44.94431866637978], [37.057589145152185, 44.94431651099997], [37.057586110083854, 44.944406479338745], [37.05745942664184, 44.94440432381176]]]}, "properties": {"zone_id": "kerch-2025-04-14-014", "aoi": "kerch", "date": "2025-04-14", "scene_id": "S2A_MSIL2A_20250414T083521_R021_T37TCK_20250414T120819", "scene_datetime_utc": "2025-04-14T08:35:21.024000+00:00", "detection_status": "detected", "detection_status_ru": "обнаружено", "lon": 37.05753, "lat": 44.94427, "n_pixels": 1, "zone_area_km2": 0.0005, "cover_m2": 2.7, "p_mean": 0.882, "p_max": 0.882, "cover_m2_km2": 5400.0, "h3": "882d762a49fffff", "valid_frac_scene": 0.825, "wind_ms": 7.7, "sea": "волнение", "scene_reliable": true, "field_event_id": "S4:DOORS3:T11", "field_profile": "B", "field_date": "2024-06-04", "field_distance_km": 274.3, "field_date_gap_days": 314, "field_conc_items_km2": 62.52, "conc_A_items_km2": null, "conc_A_lo80": null, "conc_A_hi80": null, "conc_A_lo95": null, "conc_A_hi95": null, "conc_A_status": "unavailable", "conc_A_status_ru": "концентрация недоступна", "conc_A_reasons": "вне бассейна профиля: nw_atlantic_subtropical", "conc_A_model": "conc-A-c6bce5631d2b", "conc_B_items_km2": 369.7, "conc_B_lo80": 78.6, "conc_B_hi80": 1242.9, "conc_B_lo95": 48.9, "conc_B_hi95": 2327.6, "conc_B_status": "research_estimate", "conc_B_status_ru": "исследовательская оценка", "conc_B_reasons": "ближайшее полевое измерение в 274 км (> 60 км); месяц 4 вне месяцев обучения [6]", "conc_B_model": "conc-B-c6bce5631d2b"}}, {"type": "Feature", "geometry": {"type": "Polygon", "coordinates": [[[37.06551607739339, 44.94229062837728], [37.0655190998528, 44.94220065958288], [37.06539242066719, 44.94219851293763], [37.06539544331002, 44.94210854414837], [37.06565182353358, 44.94202286848081], [37.06564880130019, 44.94211283728505], [37.06577548031656, 44.94211498364274], [37.06577245826661, 44.94220495245208], [37.0656457790526, 44.9422028060877], [37.06564275679082, 44.942292774888784], [37.06551607739339, 44.94229062837728]]]}, "properties": {"zone_id": "kerch-2025-04-14-015", "aoi": "kerch", "date": "2025-04-14", "scene_id": "S2A_MSIL2A_20250414T083521_R021_T37TCK_20250414T120819", "scene_datetime_utc": "2025-04-14T08:35:21.024000+00:00", "detection_status": "detected", "detection_status_ru": "обнаружено", "lon": 37.06558, "lat": 44.94216, "n_pixels": 1, "zone_area_km2": 0.0005, "cover_m2": 2.4, "p_mean": 0.949, "p_max": 0.949, "cover_m2_km2": 4800.0, "h3": "882d762a4bfffff", "valid_frac_scene": 0.825, "wind_ms": 7.7, "sea": "волнение", "scene_reliable": true, "field_event_id": "S4:DOORS3:T11", "field_profile": "B", "field_date": "2024-06-04", "field_distance_km": 274.1, "field_date_gap_days": 314, "field_conc_items_km2": 62.52, "conc_A_items_km2": null, "conc_A_lo80": null, "conc_A_hi80": null, "conc_A_lo95": null, "conc_A_hi95": null, "conc_A_status": "unavailable", "conc_A_status_ru": "концентрация недоступна", "conc_A_reasons": "вне бассейна профиля: nw_atlantic_subtropical", "conc_A_model": "conc-A-c6bce5631d2b", "conc_B_items_km2": 369.7, "conc_B_lo80": 78.6, "conc_B_hi80": 1242.9, "conc_B_lo95": 48.9, "conc_B_hi95": 2327.6, "conc_B_status": "research_estimate", "conc_B_status_ru": "исследовательская оценка", "conc_B_reasons": "ближайшее полевое измерение в 274 км (> 60 км); месяц 4 вне месяцев обучения [6]", "conc_B_model": "conc-B-c6bce5631d2b"}}, {"type": "Feature", "geometry": {"type": "Polygon", "coordinates": [[[36.948175522472106, 44.888030121296346], [36.94817872213409, 44.887940158066826], [36.94805217113871, 44.88793788340987], [36.948055370982686, 44.88784792018585], [36.948311672029384, 44.887762506105624], [36.94830847259445, 44.88785246934545], [36.94843502342285, 44.887854743715025], [36.9484318241699, 44.88794470696034], [36.948305273144484, 44.88794243258365], [36.94830207367951, 44.88803239582026], [36.948175522472106, 44.888030121296346]]]}, "properties": {"zone_id": "kerch-2025-04-14-016", "aoi": "kerch", "date": "2025-04-14", "scene_id": "S2A_MSIL2A_20250414T083521_R021_T37TCK_20250414T120819", "scene_datetime_utc": "2025-04-14T08:35:21.024000+00:00", "detection_status": "detected", "detection_status_ru": "обнаружено", "lon": 36.94824, "lat": 44.8879, "n_pixels": 1, "zone_area_km2": 0.0005, "cover_m2": 2.4, "p_mean": 0.694, "p_max": 0.694, "cover_m2_km2": 4800.0, "h3": "882d763955fffff", "valid_frac_scene": 0.825, "wind_ms": 7.7, "sea": "волнение", "scene_reliable": true, "field_event_id": "S4:DOORS3:T11", "field_profile": "B", "field_date": "2024-06-04", "field_distance_km": 267.2, "field_date_gap_days": 314, "field_conc_items_km2": 62.52, "conc_A_items_km2": null, "conc_A_lo80": null, "conc_A_hi80": null, "conc_A_lo95": null, "conc_A_hi95": null, "conc_A_status": "unavailable", "conc_A_status_ru": "концентрация недоступна", "conc_A_reasons": "вне бассейна профиля: nw_atlantic_subtropical", "conc_A_model": "conc-A-c6bce5631d2b", "conc_B_items_km2": 308.0, "conc_B_lo80": 65.3, "conc_B_hi80": 1036.0, "conc_B_lo95": 40.6, "conc_B_hi95": 1940.3, "conc_B_status": "research_estimate", "conc_B_status_ru": "исследовательская оценка", "conc_B_reasons": "ближайшее полевое измерение в 267 км (> 60 км); месяц 4 вне месяцев обучения [6]", "conc_B_model": "conc-B-c6bce5631d2b"}}, {"type": "Feature", "geometry": {"type": "Polygon", "coordinates": [[[36.96897459324037, 44.883540939553946], [36.96897775998595, 44.883450975087385], [36.96885121719261, 44.88344872365329], [36.968857551033125, 44.88326879472943], [36.9691138023508, 44.883183332951035], [36.969110635846775, 44.88327329742942], [36.96923717827589, 44.883275548569216], [36.96923084561721, 44.88345547753522], [36.96897459324037, 44.883540939553946]]]}, "properties": {"zone_id": "kerch-2025-04-14-017", "aoi": "kerch", "date": "2025-04-14", "scene_id": "S2A_MSIL2A_20250414T083521_R021_T37TCK_20250414T120819", "scene_datetime_utc": "2025-04-14T08:35:21.024000+00:00", "detection_status": "detected", "detection_status_ru": "обнаружено", "lon": 36.96904, "lat": 44.88336, "n_pixels": 2, "zone_area_km2": 0.0008, "cover_m2": 4.7, "p_mean": 0.708, "p_max": 0.871, "cover_m2_km2": 5875.0, "h3": "882d763903fffff", "valid_frac_scene": 0.825, "wind_ms": 7.7, "sea": "волнение", "scene_reliable": true, "field_event_id": "S4:DOORS3:T11", "field_profile": "B", "field_date": "2024-06-04", "field_distance_km": 266.8, "field_date_gap_days": 314, "field_conc_items_km2": 62.52, "conc_A_items_km2": null, "conc_A_lo80": null, "conc_A_hi80": null, "conc_A_lo95": null, "conc_A_hi95": null, "conc_A_status": "unavailable", "conc_A_status_ru": "концентрация недоступна", "conc_A_reasons": "вне бассейна профиля: nw_atlantic_subtropical", "conc_A_model": "conc-A-c6bce5631d2b", "conc_B_items_km2": 302.8, "conc_B_lo80": 64.2, "conc_B_hi80": 1018.4, "conc_B_lo95": 39.9, "conc_B_hi95": 1907.4, "conc_B_status": "research_estimate", "conc_B_status_ru": "исследовательская оценка", "conc_B_reasons": "ближайшее полевое измерение в 267 км (> 60 км); месяц 4 вне месяцев обучения [6]", "conc_B_model": "conc-B-c6bce5631d2b"}}, {"type": "Feature", "geometry": {"type": "Polygon", "coordinates": [[[36.97543118230758, 44.879964774136134], [36.97543433859695, 44.879874809253465], [36.97530780313685, 44.87987256511269], [36.97531095960834, 44.87978260023542], [36.97556718621228, 44.87969712347002], [36.97556403014948, 44.87978708836288], [36.97569056544226, 44.87978933221644], [36.97568740956159, 44.879879297114705], [36.97556087407186, 44.87987705325415], [36.975557717979434, 44.87996701814381], [36.97543118230758, 44.879964774136134]]]}, "properties": {"zone_id": "kerch-2025-04-14-018", "aoi": "kerch", "date": "2025-04-14", "scene_id": "S2A_MSIL2A_20250414T083521_R021_T37TCK_20250414T120819", "scene_datetime_utc": "2025-04-14T08:35:21.024000+00:00", "detection_status": "detected", "detection_status_ru": "обнаружено", "lon": 36.9755, "lat": 44.87983, "n_pixels": 1, "zone_area_km2": 0.0005, "cover_m2": 2.7, "p_mean": 0.875, "p_max": 0.875, "cover_m2_km2": 5400.0, "h3": "882d763939fffff", "valid_frac_scene": 0.825, "wind_ms": 7.7, "sea": "волнение", "scene_reliable": true, "field_event_id": "S4:DOORS3:T11", "field_profile": "B", "field_date": "2024-06-04", "field_distance_km": 266.5, "field_date_gap_days": 314, "field_conc_items_km2": 62.52, "conc_A_items_km2": null, "conc_A_lo80": null, "conc_A_hi80": null, "conc_A_lo95": null, "conc_A_hi95": null, "conc_A_status": "unavailable", "conc_A_status_ru": "концентрация недоступна", "conc_A_reasons": "вне бассейна профиля: nw_atlantic_subtropical", "conc_A_model": "conc-A-c6bce5631d2b", "conc_B_items_km2": 302.8, "conc_B_lo80": 64.2, "conc_B_hi80": 1018.4, "conc_B_lo95": 39.9, "conc_B_hi95": 1907.4, "conc_B_status": "research_estimate", "conc_B_status_ru": "исследовательская оценка", "conc_B_reasons": "ближайшее полевое измерение в 267 км (> 60 км); месяц 4 вне месяцев обучения [6]", "conc_B_model": "conc-B-c6bce5631d2b"}}, {"type": "Feature", "geometry": {"type": "Polygon", "coordinates": [[[36.620235924020974, 44.84106485525859], [36.620239628738716, 44.840974911241574], [36.61999049366479, 44.840879695386356], [36.619997903798804, 44.84069980737688], [36.620124323284564, 44.84070244334863], [36.620128028129166, 44.840612499333176], [36.62037716230822, 44.84070771487267], [36.62037345783896, 44.840797658902886], [36.62049987757319, 44.840800294463406], [36.620492468975236, 44.8409801825353], [36.620235924020974, 44.84106485525859]]]}, "properties": {"zone_id": "kerch-2025-04-14-019", "aoi": "kerch", "date": "2025-04-14", "scene_id": "S2A_MSIL2A_20250414T083521_R021_T37TCK_20250414T120819", "scene_datetime_utc": "2025-04-14T08:35:21.024000+00:00", "detection_status": "detected", "detection_status_ru": "обнаружено", "lon": 36.62025, "lat": 44.84084, "n_pixels": 4, "zone_area_km2": 0.0012, "cover_m2": 28.6, "p_mean": 0.951, "p_max": 0.988, "cover_m2_km2": 23833.3, "h3": "882d760023fffff", "valid_frac_scene": 0.825, "wind_ms": 7.7, "sea": "волнение", "scene_reliable": true, "field_event_id": "S4:DOORS3:T11", "field_profile": "B", "field_date": "2024-06-04", "field_distance_km": 261.1, "field_date_gap_days": 314, "field_conc_items_km2": 62.52, "conc_A_items_km2": null, "conc_A_lo80": null, "conc_A_hi80": null, "conc_A_lo95": null, "conc_A_hi95": null, "conc_A_status": "unavailable", "conc_A_status_ru": "концентрация недоступна", "conc_A_reasons": "вне бассейна профиля: nw_atlantic_subtropical", "conc_A_model": "conc-A-c6bce5631d2b", "conc_B_items_km2": 265.6, "conc_B_lo80": 56.2, "conc_B_hi80": 893.8, "conc_B_lo95": 34.9, "conc_B_hi95": 1674.0, "conc_B_status": "research_estimate", "conc_B_status_ru": "исследовательская оценка", "conc_B_reasons": "ближайшее полевое измерение в 261 км (> 60 км); месяц 4 вне месяцев обучения [6]", "conc_B_model": "conc-B-c6bce5631d2b"}}]}