{"type": "FeatureCollection", "features": [{"type": "Feature", "geometry": {"type": "Polygon", "coordinates": [[[49.242833211033314, 53.72276047431136], [49.242836957342924, 53.722670633260975], [49.242685477818036, 53.722668411271194], [49.2426892244299, 53.72257857022654], [49.242840703632254, 53.72258079220907], [49.24284444990129, 53.72249095115562], [49.24314740772172, 53.722495394531904], [49.24314366209777, 53.72258523559988], [49.24329514136095, 53.72258745700814], [49.24329139603928, 53.72267729808182], [49.24313991645355, 53.7226750766663], [49.24313617078905, 53.72276491773119], [49.242833211033314, 53.72276047431136]]]}, "properties": {"zone_id": "kuibyshev-2025-05-05-001", "aoi": "kuibyshev", "date": "2025-05-05", "scene_id": "S2B_MSIL2A_20250505T074609_R135_T39UUV_20250505T094909", "scene_datetime_utc": "2025-05-05T07:46:09.024000+00:00", "detection_status": "detected", "detection_status_ru": "обнаружено", "lon": 49.24299, "lat": 53.72263, "n_pixels": 2, "zone_area_km2": 0.0008, "cover_m2": 31.0, "p_mean": 0.998, "p_max": 1.0, "cover_m2_km2": 38750.0, "h3": "8810856431fffff", "valid_frac_scene": 0.999, "wind_ms": 7.7, "sea": "волнение", "scene_reliable": true, "field_event_id": "S4:DOORS3:T23", "field_profile": "B", "field_date": "2024-06-10", "field_distance_km": 1387.0, "field_date_gap_days": 329, "field_conc_items_km2": 102.37, "conc_A_items_km2": null, "conc_A_lo80": null, "conc_A_hi80": null, "conc_A_lo95": null, "conc_A_hi95": null, "conc_A_status": "unavailable", "conc_A_status_ru": "концентрация недоступна", "conc_A_reasons": "вне бассейна профиля: nw_atlantic_subtropical", "conc_A_model": "conc-A-c6bce5631d2b", "conc_B_items_km2": null, "conc_B_lo80": null, "conc_B_hi80": null, "conc_B_lo95": null, "conc_B_hi95": null, "conc_B_status": "unavailable", "conc_B_status_ru": "концентрация недоступна", "conc_B_reasons": "вне бассейна профиля: black_sea", "conc_B_model": "conc-B-c6bce5631d2b"}}]}