{"type": "FeatureCollection", "features": [{"type": "Feature", "geometry": {"type": "Polygon", "coordinates": [[[36.882115954884775, 45.103770055625425], [36.88211928243866, 45.10368009958935], [36.881992261047145, 45.103677742964216], [36.88199891650637, 45.10349783090188], [36.88212593749947, 45.10350018751232], [36.882129265006384, 45.10341023147138], [36.88238330664114, 45.10341494425402], [36.88237997953263, 45.10350490030966], [36.882507000572694, 45.10350725649656], [36.88250034670713, 45.10368716861769], [36.88237332526866, 45.10368481241609], [36.882369998113184, 45.10377476846686], [36.882115954884775, 45.103770055625425]]]}, "properties": {"zone_id": "kerch-2025-02-21-001", "aoi": "kerch", "date": "2025-02-21", "scene_id": "S2C_MSIL2A_20250221T083011_R021_T37TCK_20250221T143912", "scene_datetime_utc": "2025-02-21T08:30:11.024000+00:00", "detection_status": "detected", "detection_status_ru": "обнаружено", "lon": 36.88225, "lat": 45.10359, "n_pixels": 4, "zone_area_km2": 0.0012, "cover_m2": 51.4, "p_mean": 0.846, "p_max": 0.957, "cover_m2_km2": 42833.3, "h3": "882d763019fffff", "valid_frac_scene": 0.611, "wind_ms": 11.0, "sea": "шторм", "scene_reliable": false, "field_event_id": "S4:DOORS3:T11", "field_profile": "B", "field_date": "2024-06-04", "field_distance_km": 290.8, "field_date_gap_days": 262, "field_conc_items_km2": 62.52, "conc_A_items_km2": null, "conc_A_lo80": null, "conc_A_hi80": null, "conc_A_lo95": null, "conc_A_hi95": null, "conc_A_status": "unavailable", "conc_A_status_ru": "концентрация недоступна", "conc_A_reasons": "вне бассейна профиля: nw_atlantic_subtropical", "conc_A_model": "conc-A-c6bce5631d2b", "conc_B_items_km2": 670.0, "conc_B_lo80": 143.1, "conc_B_hi80": 2250.9, "conc_B_lo95": 89.3, "conc_B_hi95": 4214.5, "conc_B_status": "research_estimate", "conc_B_status_ru": "исследовательская оценка", "conc_B_reasons": "ближайшее полевое измерение в 291 км (> 60 км); месяц 2 вне месяцев обучения [6]; log_dist_coast_km = 0.8 вне диапазона обучения [1.7; 5.0]", "conc_B_model": "conc-B-c6bce5631d2b"}}, {"type": "Feature", "geometry": {"type": "Polygon", "coordinates": [[[36.885644471190666, 45.03227094867495], [36.88564778493635, 45.032180991303306], [36.88552092151105, 45.03217864150022], [36.8855275493526, 45.03199872676675], [36.885400686339814, 45.0319963768375], [36.885404000435685, 45.03190641947568], [36.88553086325001, 45.0319087693976], [36.88553417713184, 45.03181881202685], [36.88578790241031, 45.03182351143356], [36.885784588925404, 45.03191346881898], [36.88591145178647, 45.031915818318424], [36.885901511833694, 45.032185690487], [36.885644471190666, 45.03227094867495]]]}, "properties": {"zone_id": "kerch-2025-02-21-002", "aoi": "kerch", "date": "2025-02-21", "scene_id": "S2C_MSIL2A_20250221T083011_R021_T37TCK_20250221T143912", "scene_datetime_utc": "2025-02-21T08:30:11.024000+00:00", "detection_status": "detected", "detection_status_ru": "обнаружено", "lon": 36.88569, "lat": 45.03202, "n_pixels": 4, "zone_area_km2": 0.0013, "cover_m2": 21.2, "p_mean": 0.925, "p_max": 0.988, "cover_m2_km2": 16307.7, "h3": "882d76311dfffff", "valid_frac_scene": 0.611, "wind_ms": 11.0, "sea": "шторм", "scene_reliable": false, "field_event_id": "S4:DOORS3:T11", "field_profile": "B", "field_date": "2024-06-04", "field_distance_km": 282.8, "field_date_gap_days": 262, "field_conc_items_km2": 62.52, "conc_A_items_km2": null, "conc_A_lo80": null, "conc_A_hi80": null, "conc_A_lo95": null, "conc_A_hi95": null, "conc_A_status": "unavailable", "conc_A_status_ru": "концентрация недоступна", "conc_A_reasons": "вне бассейна профиля: nw_atlantic_subtropical", "conc_A_model": "conc-A-c6bce5631d2b", "conc_B_items_km2": 421.6, "conc_B_lo80": 89.7, "conc_B_hi80": 1417.3, "conc_B_lo95": 55.9, "conc_B_hi95": 2654.0, "conc_B_status": "research_estimate", "conc_B_status_ru": "исследовательская оценка", "conc_B_reasons": "ближайшее полевое измерение в 283 км (> 60 км); месяц 2 вне месяцев обучения [6]", "conc_B_model": "conc-B-c6bce5631d2b"}}, {"type": "Feature", "geometry": {"type": "Polygon", "coordinates": [[[37.031388884066246, 44.93207508989587], [37.03139195873092, 44.93198512276898], [37.03114172548729, 44.93189078728783], [37.031144800518085, 44.9318008201714], [37.03127145426029, 44.9318030044111], [37.03127452907914, 44.93171303728627], [37.03152783621189, 44.93171740533092], [37.031524761788035, 44.931807372469386], [37.03165141557357, 44.93180955628797], [37.031648341332776, 44.93189952343165], [37.03177499533025, 44.931901707116666], [37.03177192127253, 44.93199167426558], [37.03164526707755, 44.931989490573756], [37.03164219280789, 44.93207945771427], [37.031388884066246, 44.93207508989587]]]}, "properties": {"zone_id": "kerch-2025-02-21-003", "aoi": "kerch", "date": "2025-02-21", "scene_id": "S2C_MSIL2A_20250221T083011_R021_T37TCK_20250221T143912", "scene_datetime_utc": "2025-02-21T08:30:11.024000+00:00", "detection_status": "detected", "detection_status_ru": "обнаружено", "lon": 37.03146, "lat": 44.9319, "n_pixels": 4, "zone_area_km2": 0.0012, "cover_m2": 40.4, "p_mean": 0.913, "p_max": 0.984, "cover_m2_km2": 33666.7, "h3": "882d7638a5fffff", "valid_frac_scene": 0.611, "wind_ms": 11.0, "sea": "шторм", "scene_reliable": false, "field_event_id": "S4:DOORS3:T11", "field_profile": "B", "field_date": "2024-06-04", "field_distance_km": 272.7, "field_date_gap_days": 262, "field_conc_items_km2": 62.52, "conc_A_items_km2": null, "conc_A_lo80": null, "conc_A_hi80": null, "conc_A_lo95": null, "conc_A_hi95": null, "conc_A_status": "unavailable", "conc_A_status_ru": "концентрация недоступна", "conc_A_reasons": "вне бассейна профиля: nw_atlantic_subtropical", "conc_A_model": "conc-A-c6bce5631d2b", "conc_B_items_km2": 351.5, "conc_B_lo80": 74.7, "conc_B_hi80": 1182.1, "conc_B_lo95": 46.4, "conc_B_hi95": 2213.7, "conc_B_status": "research_estimate", "conc_B_status_ru": "исследовательская оценка", "conc_B_reasons": "ближайшее полевое измерение в 273 км (> 60 км); месяц 2 вне месяцев обучения [6]", "conc_B_model": "conc-B-c6bce5631d2b"}}, {"type": "Feature", "geometry": {"type": "Polygon", "coordinates": [[[37.0273294535588, 44.92849422947542], [37.027332534176736, 44.9284042625116], [37.0272058882039, 44.92840207403248], [37.02721204979131, 44.928222140113725], [37.02733869536922, 44.92822432857919], [37.02734177594376, 44.928134361610596], [37.02759506674806, 44.9281387381068], [37.02759198656844, 44.92822870508904], [37.02771863218975, 44.92823089313343], [37.02771555219313, 44.92832086012091], [37.02784219802637, 44.928323048031764], [37.027839118212746, 44.92841301502448], [37.027712472182046, 44.928410827106795], [37.0277093921565, 44.928500794091086], [37.0273294535588, 44.92849422947542]]]}, "properties": {"zone_id": "kerch-2025-02-21-004", "aoi": "kerch", "date": "2025-02-21", "scene_id": "S2C_MSIL2A_20250221T083011_R021_T37TCK_20250221T143912", "scene_datetime_utc": "2025-02-21T08:30:11.024000+00:00", "detection_status": "detected", "detection_status_ru": "обнаружено", "lon": 37.0275, "lat": 44.92833, "n_pixels": 5, "zone_area_km2": 0.0014, "cover_m2": 52.2, "p_mean": 0.951, "p_max": 0.996, "cover_m2_km2": 37285.7, "h3": "882d7639d3fffff", "valid_frac_scene": 0.611, "wind_ms": 11.0, "sea": "шторм", "scene_reliable": false, "field_event_id": "S4:DOORS3:T11", "field_profile": "B", "field_date": "2024-06-04", "field_distance_km": 272.3, "field_date_gap_days": 262, "field_conc_items_km2": 62.52, "conc_A_items_km2": null, "conc_A_lo80": null, "conc_A_hi80": null, "conc_A_lo95": null, "conc_A_hi95": null, "conc_A_status": "unavailable", "conc_A_status_ru": "концентрация недоступна", "conc_A_reasons": "вне бассейна профиля: nw_atlantic_subtropical", "conc_A_model": "conc-A-c6bce5631d2b", "conc_B_items_km2": 336.8, "conc_B_lo80": 71.5, "conc_B_hi80": 1132.8, "conc_B_lo95": 44.5, "conc_B_hi95": 2121.4, "conc_B_status": "research_estimate", "conc_B_status_ru": "исследовательская оценка", "conc_B_reasons": "ближайшее полевое измерение в 272 км (> 60 км); месяц 2 вне месяцев обучения [6]", "conc_B_model": "conc-B-c6bce5631d2b"}}, {"type": "Feature", "geometry": {"type": "Polygon", "coordinates": [[[37.271303761114474, 44.91039418062316], [37.271306459151134, 44.9103042009728], [37.27105591024511, 44.91021038657454], [37.2710586086512, 44.91012040693305], [37.27118523191248, 44.91012232437043], [37.27118793010852, 44.910032344721394], [37.27144117627434, 44.91003617916317], [37.27143847847307, 44.91012615882416], [37.27156510177237, 44.91012807584055], [37.271562404155816, 44.91021805550595], [37.27168902766517, 44.910219972387985], [37.27168633023333, 44.91030995205784], [37.271559706526595, 44.91030803516983], [37.27155700888471, 44.91039801483213], [37.271303761114474, 44.91039418062316]]]}, "properties": {"zone_id": "kerch-2025-02-21-005", "aoi": "kerch", "date": "2025-02-21", "scene_id": "S2C_MSIL2A_20250221T083011_R021_T37TCK_20250221T143912", "scene_datetime_utc": "2025-02-21T08:30:11.024000+00:00", "detection_status": "detected", "detection_status_ru": "обнаружено", "lon": 37.27137, "lat": 44.91022, "n_pixels": 4, "zone_area_km2": 0.0012, "cover_m2": 29.8, "p_mean": 0.869, "p_max": 0.973, "cover_m2_km2": 24833.3, "h3": "882d729249fffff", "valid_frac_scene": 0.611, "wind_ms": 11.0, "sea": "шторм", "scene_reliable": false, "field_event_id": "S4:DOORS3:T11", "field_profile": "B", "field_date": "2024-06-04", "field_distance_km": 273.0, "field_date_gap_days": 262, "field_conc_items_km2": 62.52, "conc_A_items_km2": null, "conc_A_lo80": null, "conc_A_hi80": null, "conc_A_lo95": null, "conc_A_hi95": null, "conc_A_status": "unavailable", "conc_A_status_ru": "концентрация недоступна", "conc_A_reasons": "вне бассейна профиля: nw_atlantic_subtropical", "conc_A_model": "conc-A-c6bce5631d2b", "conc_B_items_km2": 541.4, "conc_B_lo80": 115.4, "conc_B_hi80": 1819.1, "conc_B_lo95": 72.0, "conc_B_hi95": 3406.2, "conc_B_status": "research_estimate", "conc_B_status_ru": "исследовательская оценка", "conc_B_reasons": "ближайшее полевое измерение в 273 км (> 60 км); месяц 2 вне месяцев обучения [6]", "conc_B_model": "conc-B-c6bce5631d2b"}}, {"type": "Feature", "geometry": {"type": "Polygon", "coordinates": [[[36.61577346320016, 44.903176135157345], [36.615777182903365, 44.90308619241401], [36.61552779154132, 44.90299096225615], [36.615535231648366, 44.90281107679412], [36.61566178676956, 44.90281372055411], [36.61566550659991, 44.90272377781235], [36.61591489706432, 44.90281900765373], [36.615911177610485, 44.90290895041032], [36.616037732981034, 44.9029115937582], [36.616030294414955, 44.90309147928284], [36.61577346320016, 44.903176135157345]]]}, "properties": {"zone_id": "kerch-2025-02-21-006", "aoi": "kerch", "date": "2025-02-21", "scene_id": "S2C_MSIL2A_20250221T083011_R021_T37TCK_20250221T143912", "scene_datetime_utc": "2025-02-21T08:30:11.024000+00:00", "detection_status": "detected", "detection_status_ru": "обнаружено", "lon": 36.61578, "lat": 44.90295, "n_pixels": 4, "zone_area_km2": 0.0012, "cover_m2": 31.0, "p_mean": 0.959, "p_max": 0.996, "cover_m2_km2": 25833.3, "h3": "882d7602bdfffff", "valid_frac_scene": 0.611, "wind_ms": 11.0, "sea": "шторм", "scene_reliable": false, "field_event_id": "S4:DOORS3:T11", "field_profile": "B", "field_date": "2024-06-04", "field_distance_km": 268.0, "field_date_gap_days": 262, "field_conc_items_km2": 62.52, "conc_A_items_km2": null, "conc_A_lo80": null, "conc_A_hi80": null, "conc_A_lo95": null, "conc_A_hi95": null, "conc_A_status": "unavailable", "conc_A_status_ru": "концентрация недоступна", "conc_A_reasons": "вне бассейна профиля: nw_atlantic_subtropical", "conc_A_model": "conc-A-c6bce5631d2b", "conc_B_items_km2": 286.9, "conc_B_lo80": 60.8, "conc_B_hi80": 965.0, "conc_B_lo95": 37.7, "conc_B_hi95": 1807.4, "conc_B_status": "research_estimate", "conc_B_status_ru": "исследовательская оценка", "conc_B_reasons": "ближайшее полевое измерение в 268 км (> 60 км); месяц 2 вне месяцев обучения [6]", "conc_B_model": "conc-B-c6bce5631d2b"}}, {"type": "Feature", "geometry": {"type": "Polygon", "coordinates": [[[37.00744991763427, 44.873056388641075], [37.00745302327906, 44.87296642188298], [37.007326500474164, 44.87296421348278], [37.007332712113794, 44.872784279975605], [37.00745923452493, 44.87278648836202], [37.007462340126004, 44.87269652159914], [37.00771538459823, 44.872700937937935], [37.00771227939093, 44.87279090471459], [37.00783880184578, 44.87279311268076], [37.00783259178122, 44.87297304624305], [37.00770606893259, 44.87297083826311], [37.00770296368157, 44.87306080503498], [37.00744991763427, 44.873056388641075]]]}, "properties": {"zone_id": "kerch-2025-02-21-007", "aoi": "kerch", "date": "2025-02-21", "scene_id": "S2C_MSIL2A_20250221T083011_R021_T37TCK_20250221T143912", "scene_datetime_utc": "2025-02-21T08:30:11.024000+00:00", "detection_status": "detected", "detection_status_ru": "обнаружено", "lon": 37.00758, "lat": 44.87288, "n_pixels": 4, "zone_area_km2": 0.0012, "cover_m2": 36.9, "p_mean": 0.887, "p_max": 0.992, "cover_m2_km2": 30750.0, "h3": "882d7676d9fffff", "valid_frac_scene": 0.611, "wind_ms": 11.0, "sea": "шторм", "scene_reliable": false, "field_event_id": "S4:DOORS3:T11", "field_profile": "B", "field_date": "2024-06-04", "field_distance_km": 266.0, "field_date_gap_days": 262, "field_conc_items_km2": 62.52, "conc_A_items_km2": null, "conc_A_lo80": null, "conc_A_hi80": null, "conc_A_lo95": null, "conc_A_hi95": null, "conc_A_status": "unavailable", "conc_A_status_ru": "концентрация недоступна", "conc_A_reasons": "вне бассейна профиля: nw_atlantic_subtropical", "conc_A_model": "conc-A-c6bce5631d2b", "conc_B_items_km2": 304.0, "conc_B_lo80": 64.5, "conc_B_hi80": 1022.5, "conc_B_lo95": 40.0, "conc_B_hi95": 1915.0, "conc_B_status": "research_estimate", "conc_B_status_ru": "исследовательская оценка", "conc_B_reasons": "ближайшее полевое измерение в 266 км (> 60 км); месяц 2 вне месяцев обучения [6]", "conc_B_model": "conc-B-c6bce5631d2b"}}, {"type": "Feature", "geometry": {"type": "Polygon", "coordinates": [[[37.008160899113804, 44.86712740959988], [37.00816400300951, 44.86703744270912], [37.00803749313865, 44.86703523532376], [37.008043701280016, 44.86685530155126], [37.00791719181736, 44.86685309403961], [37.00792029606302, 44.86676312715787], [37.00817641844667, 44.86667757513018], [37.00817331460924, 44.86676754202732], [37.00842633321372, 44.86677195633655], [37.00842322975535, 44.86686192324586], [37.008549739276255, 44.86686413019727], [37.00854663600015, 44.86695409711187], [37.00842012628242, 44.86695189015356], [37.00841702279492, 44.86704185705967], [37.008160899113804, 44.86712740959988]]]}, "properties": {"zone_id": "kerch-2025-02-21-008", "aoi": "kerch", "date": "2025-02-21", "scene_id": "S2C_MSIL2A_20250221T083011_R021_T37TCK_20250221T143912", "scene_datetime_utc": "2025-02-21T08:30:11.024000+00:00", "detection_status": "detected", "detection_status_ru": "обнаружено", "lon": 37.00823, "lat": 44.8669, "n_pixels": 4, "zone_area_km2": 0.0013, "cover_m2": 47.5, "p_mean": 0.964, "p_max": 0.992, "cover_m2_km2": 36538.5, "h3": "882d7676ddfffff", "valid_frac_scene": 0.611, "wind_ms": 11.0, "sea": "шторм", "scene_reliable": false, "field_event_id": "S4:DOORS3:T11", "field_profile": "B", "field_date": "2024-06-04", "field_distance_km": 265.3, "field_date_gap_days": 262, "field_conc_items_km2": 62.52, "conc_A_items_km2": null, "conc_A_lo80": null, "conc_A_hi80": null, "conc_A_lo95": null, "conc_A_hi95": null, "conc_A_status": "unavailable", "conc_A_status_ru": "концентрация недоступна", "conc_A_reasons": "вне бассейна профиля: nw_atlantic_subtropical", "conc_A_model": "conc-A-c6bce5631d2b", "conc_B_items_km2": 304.0, "conc_B_lo80": 64.5, "conc_B_hi80": 1022.5, "conc_B_lo95": 40.0, "conc_B_hi95": 1915.0, "conc_B_status": "research_estimate", "conc_B_status_ru": "исследовательская оценка", "conc_B_reasons": "ближайшее полевое измерение в 265 км (> 60 км); месяц 2 вне месяцев обучения [6]", "conc_B_model": "conc-B-c6bce5631d2b"}}]}