{"type": "FeatureCollection", "features": [{"type": "Feature", "geometry": {"type": "Polygon", "coordinates": [[[49.04325943531283, 53.718408136631105], [49.04326360629728, 53.71831830566868], [49.04311215953015, 53.718315831551834], [49.04311633081436, 53.71822600059591], [49.04326777725916, 53.71822847470467], [49.04327194819846, 53.718138643739096], [49.04357484051116, 53.718143591366456], [49.043570670216496, 53.71823342234819], [49.04372211672902, 53.71823589588296], [49.04371794673411, 53.71832572687121], [49.04356649989926, 53.71832325332836], [49.04356232955945, 53.71841308430695], [49.04325943531283, 53.718408136631105]]]}, "properties": {"zone_id": "kuibyshev-2025-07-19-001", "aoi": "kuibyshev", "date": "2025-07-19", "scene_id": "S2C_MSIL2A_20250719T074631_R135_T39UUV_20250719T091413", "scene_datetime_utc": "2025-07-19T07:46:31.025000+00:00", "detection_status": "detected", "detection_status_ru": "обнаружено", "lon": 49.04342, "lat": 53.71828, "n_pixels": 2, "zone_area_km2": 0.0008, "cover_m2": 16.9, "p_mean": 0.575, "p_max": 0.639, "cover_m2_km2": 21125.0, "h3": "88108575a1fffff", "valid_frac_scene": 0.993, "wind_ms": 3.1, "sea": "спокойное", "scene_reliable": true, "field_event_id": "S4:DOORS3:T23", "field_profile": "B", "field_date": "2024-06-10", "field_distance_km": 1380.6, "field_date_gap_days": 404, "field_conc_items_km2": 102.37, "conc_A_items_km2": null, "conc_A_lo80": null, "conc_A_hi80": null, "conc_A_lo95": null, "conc_A_hi95": null, "conc_A_status": "unavailable", "conc_A_status_ru": "концентрация недоступна", "conc_A_reasons": "вне бассейна профиля: nw_atlantic_subtropical", "conc_A_model": "conc-A-c6bce5631d2b", "conc_B_items_km2": null, "conc_B_lo80": null, "conc_B_hi80": null, "conc_B_lo95": null, "conc_B_hi95": null, "conc_B_status": "unavailable", "conc_B_status_ru": "концентрация недоступна", "conc_B_reasons": "вне бассейна профиля: black_sea", "conc_B_model": "conc-B-c6bce5631d2b"}}, {"type": "Feature", "geometry": {"type": "Polygon", "coordinates": [[[49.1587764920943, 53.47454564820537], [49.15878038216596, 53.47445580754976], [49.15862979493557, 53.47445348663644], [49.158633685304004, 53.47436364598684], [49.15878427221667, 53.4743659668926], [49.15878816224643, 53.47427612623389], [49.15893874886233, 53.4742784469424], [49.158942638553434, 53.47418860627456], [49.15939439757369, 53.47419556723934], [49.15939050883573, 53.47428540792986], [49.15954109553542, 53.47428772787966], [49.159537207094225, 53.47437756857618], [49.15938662007683, 53.47437524861882], [49.15938273129698, 53.474465089306236], [49.1587764920943, 53.47454564820537]]]}, "properties": {"zone_id": "kuibyshev-2025-07-19-002", "aoi": "kuibyshev", "date": "2025-07-19", "scene_id": "S2C_MSIL2A_20250719T074631_R135_T39UUV_20250719T091413", "scene_datetime_utc": "2025-07-19T07:46:31.025000+00:00", "detection_status": "detected", "detection_status_ru": "обнаружено", "lon": 49.15907, "lat": 53.47436, "n_pixels": 5, "zone_area_km2": 0.0015, "cover_m2": 24.7, "p_mean": 0.698, "p_max": 0.827, "cover_m2_km2": 16466.7, "h3": "88108568a9fffff", "valid_frac_scene": 0.993, "wind_ms": 3.1, "sea": "спокойное", "scene_reliable": true, "field_event_id": "S4:DOORS3:T23", "field_profile": "B", "field_date": "2024-06-10", "field_distance_km": 1360.0, "field_date_gap_days": 404, "field_conc_items_km2": 102.37, "conc_A_items_km2": null, "conc_A_lo80": null, "conc_A_hi80": null, "conc_A_lo95": null, "conc_A_hi95": null, "conc_A_status": "unavailable", "conc_A_status_ru": "концентрация недоступна", "conc_A_reasons": "вне бассейна профиля: nw_atlantic_subtropical", "conc_A_model": "conc-A-c6bce5631d2b", "conc_B_items_km2": null, "conc_B_lo80": null, "conc_B_hi80": null, "conc_B_lo95": null, "conc_B_hi95": null, "conc_B_status": "unavailable", "conc_B_status_ru": "концентрация недоступна", "conc_B_reasons": "вне бассейна профиля: black_sea", "conc_B_model": "conc-B-c6bce5631d2b"}}, {"type": "Feature", "geometry": {"type": "Polygon", "coordinates": [[[49.17531016903346, 53.47201240496062], [49.17531402382938, 53.47192256343635], [49.17516344417445, 53.471920263430626], [49.175167299267294, 53.471830421912294], [49.175317878604545, 53.47183272191052], [49.17532173335894, 53.47174288038315], [49.17562289146035, 53.47174747979561], [49.175619037341306, 53.47183732133798], [49.175769616740816, 53.471839620767206], [49.17577347054218, 53.471749779217355], [49.17592404964478, 53.47175207844943], [49.17592790310771, 53.47166223689053], [49.1762290607398, 53.471666834770716], [49.17622520791222, 53.47175667634458], [49.176375787077056, 53.47175897500766], [49.1763719345464, 53.471848816587475], [49.17622135506388, 53.4718465179169], [49.1762175021948, 53.4719363594877], [49.17591634265665, 53.47193176156258], [49.175912489131456, 53.47202160311682], [49.175761909075824, 53.47201930386226], [49.1757657629187, 53.47192946231552], [49.17561518320151, 53.47192716287879], [49.17561132904095, 53.47201700441806], [49.17531016903346, 53.47201240496062]]]}, "properties": {"zone_id": "kuibyshev-2025-07-19-003", "aoi": "kuibyshev", "date": "2025-07-19", "scene_id": "S2C_MSIL2A_20250719T074631_R135_T39UUV_20250719T091413", "scene_datetime_utc": "2025-07-19T07:46:31.025000+00:00", "detection_status": "detected", "detection_status_ru": "обнаружено", "lon": 49.17578, "lat": 53.47185, "n_pixels": 5, "zone_area_km2": 0.0018, "cover_m2": 16.9, "p_mean": 0.624, "p_max": 0.737, "cover_m2_km2": 9388.9, "h3": "88108568abfffff", "valid_frac_scene": 0.993, "wind_ms": 3.1, "sea": "спокойное", "scene_reliable": true, "field_event_id": "S4:DOORS3:T23", "field_profile": "B", "field_date": "2024-06-10", "field_distance_km": 1360.2, "field_date_gap_days": 404, "field_conc_items_km2": 102.37, "conc_A_items_km2": null, "conc_A_lo80": null, "conc_A_hi80": null, "conc_A_lo95": null, "conc_A_hi95": null, "conc_A_status": "unavailable", "conc_A_status_ru": "концентрация недоступна", "conc_A_reasons": "вне бассейна профиля: nw_atlantic_subtropical", "conc_A_model": "conc-A-c6bce5631d2b", "conc_B_items_km2": null, "conc_B_lo80": null, "conc_B_hi80": null, "conc_B_lo95": null, "conc_B_hi95": null, "conc_B_status": "unavailable", "conc_B_status_ru": "концентрация недоступна", "conc_B_reasons": "вне бассейна профиля: black_sea", "conc_B_model": "conc-B-c6bce5631d2b"}}, {"type": "Feature", "geometry": {"type": "Polygon", "coordinates": [[[49.17834871150331, 53.47142947364422], [49.1783525598005, 53.47133963195934], [49.178201981954466, 53.471337335799305], [49.178205830548606, 53.47124749412036], [49.17835640807697, 53.471249790272914], [49.17836025633272, 53.47115994858493], [49.178661410816275, 53.471164540306084], [49.17865756319586, 53.47125438200903], [49.17880814078639, 53.471256677592585], [49.17880429346293, 53.471346519301456], [49.17865371555474, 53.47134422371042], [49.17864986789289, 53.47143406541026], [49.17834871150331, 53.47142947364422]]]}, "properties": {"zone_id": "kuibyshev-2025-07-19-004", "aoi": "kuibyshev", "date": "2025-07-19", "scene_id": "S2C_MSIL2A_20250719T074631_R135_T39UUV_20250719T091413", "scene_datetime_utc": "2025-07-19T07:46:31.025000+00:00", "detection_status": "detected", "detection_status_ru": "обнаружено", "lon": 49.17851, "lat": 53.4713, "n_pixels": 2, "zone_area_km2": 0.0008, "cover_m2": 7.5, "p_mean": 0.618, "p_max": 0.659, "cover_m2_km2": 9375.0, "h3": "88108568a1fffff", "valid_frac_scene": 0.993, "wind_ms": 3.1, "sea": "спокойное", "scene_reliable": true, "field_event_id": "S4:DOORS3:T23", "field_profile": "B", "field_date": "2024-06-10", "field_distance_km": 1360.3, "field_date_gap_days": 404, "field_conc_items_km2": 102.37, "conc_A_items_km2": null, "conc_A_lo80": null, "conc_A_hi80": null, "conc_A_lo95": null, "conc_A_hi95": null, "conc_A_status": "unavailable", "conc_A_status_ru": "концентрация недоступна", "conc_A_reasons": "вне бассейна профиля: nw_atlantic_subtropical", "conc_A_model": "conc-A-c6bce5631d2b", "conc_B_items_km2": null, "conc_B_lo80": null, "conc_B_hi80": null, "conc_B_lo95": null, "conc_B_hi95": null, "conc_B_status": "unavailable", "conc_B_status_ru": "концентрация недоступна", "conc_B_reasons": "вне бассейна профиля: black_sea", "conc_B_model": "conc-B-c6bce5631d2b"}}]}