{"type": "FeatureCollection", "features": [{"type": "Feature", "geometry": {"type": "Polygon", "coordinates": [[[37.614380230428544, 44.66111991365887], [37.614382374424544, 44.6610299153922], [37.61425627396724, 44.66102838515], [37.614260562319046, 44.6608483886217], [37.61451490623476, 44.660761450671856], [37.614512762463846, 44.66085144894782], [37.614638862551296, 44.6608529789021], [37.61463457536928, 44.66103297545904], [37.614380230428544, 44.66111991365887]]]}, "properties": {"zone_id": "novorossiysk-2025-06-28-001", "aoi": "novorossiysk", "date": "2025-06-28", "scene_id": "S2C_MSIL2A_20250628T081631_R121_T37TCK_20250628T120615", "scene_datetime_utc": "2025-06-28T08:16:31.025000+00:00", "detection_status": "detected", "detection_status_ru": "обнаружено", "lon": 37.61445, "lat": 44.66094, "n_pixels": 2, "zone_area_km2": 0.0008, "cover_m2": 10.6, "p_mean": 0.741, "p_max": 0.929, "cover_m2_km2": 13250.0, "h3": "882d728b07fffff", "valid_frac_scene": 1.0, "wind_ms": 4.1, "sea": "спокойное", "scene_reliable": true, "field_event_id": "S4:DOORS3:T12", "field_profile": "B", "field_date": "2024-06-04", "field_distance_km": 251.6, "field_date_gap_days": 389, "field_conc_items_km2": 48.97, "conc_A_items_km2": null, "conc_A_lo80": null, "conc_A_hi80": null, "conc_A_lo95": null, "conc_A_hi95": null, "conc_A_status": "unavailable", "conc_A_status_ru": "концентрация недоступна", "conc_A_reasons": "вне бассейна профиля: nw_atlantic_subtropical", "conc_A_model": "conc-A-c6bce5631d2b", "conc_B_items_km2": 621.6, "conc_B_lo80": 132.7, "conc_B_hi80": 2088.3, "conc_B_lo95": 82.8, "conc_B_hi95": 3910.2, "conc_B_status": "research_estimate", "conc_B_status_ru": "исследовательская оценка", "conc_B_reasons": "ближайшее полевое измерение в 252 км (> 60 км); log_dist_coast_km = 1.0 вне диапазона обучения [1.7; 5.0]", "conc_B_model": "conc-B-c6bce5631d2b"}}, {"type": "Feature", "geometry": {"type": "Polygon", "coordinates": [[[37.709482255181605, 44.64999099952653], [37.709484251275754, 44.64990099758841], [37.7093581700375, 44.64989957262866], [37.70936016631719, 44.64980957069351], [37.70961432429387, 44.6497224185194], [37.709612328413286, 44.649812420464954], [37.70973840947536, 44.64981384514195], [37.70973641378031, 44.64990384709044], [37.70961033252337, 44.649902422409], [37.70960833662409, 44.64999242435157], [37.709482255181605, 44.64999099952653]]]}, "properties": {"zone_id": "novorossiysk-2025-06-28-002", "aoi": "novorossiysk", "date": "2025-06-28", "scene_id": "S2C_MSIL2A_20250628T081631_R121_T37TCK_20250628T120615", "scene_datetime_utc": "2025-06-28T08:16:31.025000+00:00", "detection_status": "detected", "detection_status_ru": "обнаружено", "lon": 37.70955, "lat": 44.64986, "n_pixels": 1, "zone_area_km2": 0.0005, "cover_m2": 14.9, "p_mean": 0.831, "p_max": 0.831, "cover_m2_km2": 29800.0, "h3": "882d728913fffff", "valid_frac_scene": 1.0, "wind_ms": 4.1, "sea": "спокойное", "scene_reliable": true, "field_event_id": "S4:DOORS3:T12", "field_profile": "B", "field_date": "2024-06-04", "field_distance_km": 251.9, "field_date_gap_days": 389, "field_conc_items_km2": 48.97, "conc_A_items_km2": null, "conc_A_lo80": null, "conc_A_hi80": null, "conc_A_lo95": null, "conc_A_hi95": null, "conc_A_status": "unavailable", "conc_A_status_ru": "концентрация недоступна", "conc_A_reasons": "вне бассейна профиля: nw_atlantic_subtropical", "conc_A_model": "conc-A-c6bce5631d2b", "conc_B_items_km2": 901.4, "conc_B_lo80": 192.7, "conc_B_hi80": 3027.3, "conc_B_lo95": 120.4, "conc_B_hi95": 5668.0, "conc_B_status": "research_estimate", "conc_B_status_ru": "исследовательская оценка", "conc_B_reasons": "ближайшее полевое измерение в 252 км (> 60 км); log_dist_coast_km = 0.0 вне диапазона обучения [1.7; 5.0]", "conc_B_model": "conc-B-c6bce5631d2b"}}, {"type": "Feature", "geometry": {"type": "MultiPolygon", "coordinates": [[[[37.66278963682631, 44.623886751793776], [37.66253965852914, 44.623793799327544], [37.662537591718085, 44.62388379998435], [37.66241156917849, 44.623882323871115], [37.66240743513814, 44.624062325171025], [37.662657414359956, 44.624155277933816], [37.662659481005434, 44.6240652772769], [37.66278550395359, 44.62406675312132], [37.66278963682631, 44.623886751793776]]], [[[37.66265328103998, 44.624335279243134], [37.66290326182834, 44.62442823148221], [37.66290532811362, 44.624338230820584], [37.663031351664955, 44.62433970640078], [37.663035483817275, 44.624159705063825], [37.66278550395359, 44.62406675312132], [37.662783437502725, 44.62415675378284], [37.662657414359956, 44.624155277933816], [37.66265328103998, 44.624335279243134]]]]}, "properties": {"zone_id": "novorossiysk-2025-06-28-003", "aoi": "novorossiysk", "date": "2025-06-28", "scene_id": "S2C_MSIL2A_20250628T081631_R121_T37TCK_20250628T120615", "scene_datetime_utc": "2025-06-28T08:16:31.025000+00:00", "detection_status": "detected", "detection_status_ru": "обнаружено", "lon": 37.66272, "lat": 44.62411, "n_pixels": 4, "zone_area_km2": 0.0016, "cover_m2": 40.0, "p_mean": 0.745, "p_max": 0.839, "cover_m2_km2": 25000.0, "h3": "882d72896bfffff", "valid_frac_scene": 1.0, "wind_ms": 4.1, "sea": "спокойное", "scene_reliable": true, "field_event_id": "S4:DOORS3:T12", "field_profile": "B", "field_date": "2024-06-04", "field_distance_km": 248.3, "field_date_gap_days": 389, "field_conc_items_km2": 48.97, "conc_A_items_km2": null, "conc_A_lo80": null, "conc_A_hi80": null, "conc_A_lo95": null, "conc_A_hi95": null, "conc_A_status": "unavailable", "conc_A_status_ru": "концентрация недоступна", "conc_A_reasons": "вне бассейна профиля: nw_atlantic_subtropical", "conc_A_model": "conc-A-c6bce5631d2b", "conc_B_items_km2": 491.0, "conc_B_lo80": 104.6, "conc_B_hi80": 1650.1, "conc_B_lo95": 65.2, "conc_B_hi95": 3089.8, "conc_B_status": "research_estimate", "conc_B_status_ru": "исследовательская оценка", "conc_B_reasons": "ближайшее полевое измерение в 248 км (> 60 км)", "conc_B_model": "conc-B-c6bce5631d2b"}}, {"type": "Feature", "geometry": {"type": "Polygon", "coordinates": [[[37.91554271806529, 44.609822101720525], [37.91554439313254, 44.609732092425425], [37.91529406115514, 44.60963968973422], [37.91529573659577, 44.609549680443635], [37.91542173991573, 44.6095508772067], [37.915423415153995, 44.60946086791092], [37.91567542142836, 44.609463261012614], [37.91567374657917, 44.60955327031588], [37.91579974992265, 44.60955446666199], [37.91579640058979, 44.60973448527157], [37.91554271806529, 44.609822101720525]]]}, "properties": {"zone_id": "novorossiysk-2025-06-28-004", "aoi": "novorossiysk", "date": "2025-06-28", "scene_id": "S2C_MSIL2A_20250628T081631_R121_T37TCK_20250628T120615", "scene_datetime_utc": "2025-06-28T08:16:31.025000+00:00", "detection_status": "detected", "detection_status_ru": "обнаружено", "lon": 37.91557, "lat": 44.60963, "n_pixels": 3, "zone_area_km2": 0.001, "cover_m2": 12.2, "p_mean": 0.997, "p_max": 1.0, "cover_m2_km2": 12200.0, "h3": "882d721115fffff", "valid_frac_scene": 1.0, "wind_ms": 4.1, "sea": "спокойное", "scene_reliable": true, "field_event_id": "S4:DOORS3:T13", "field_profile": "B", "field_date": "2024-06-04", "field_distance_km": 251.3, "field_date_gap_days": 389, "field_conc_items_km2": 263.57, "conc_A_items_km2": null, "conc_A_lo80": null, "conc_A_hi80": null, "conc_A_lo95": null, "conc_A_hi95": null, "conc_A_status": "unavailable", "conc_A_status_ru": "концентрация недоступна", "conc_A_reasons": "вне бассейна профиля: nw_atlantic_subtropical", "conc_A_model": "conc-A-c6bce5631d2b", "conc_B_items_km2": 669.0, "conc_B_lo80": 142.8, "conc_B_hi80": 2247.3, "conc_B_lo95": 89.1, "conc_B_hi95": 4207.8, "conc_B_status": "research_estimate", "conc_B_status_ru": "исследовательская оценка", "conc_B_reasons": "ближайшее полевое измерение в 251 км (> 60 км); log_dist_coast_km = 0.8 вне диапазона обучения [1.7; 5.0]", "conc_B_model": "conc-B-c6bce5631d2b"}}, {"type": "Feature", "geometry": {"type": "Polygon", "coordinates": [[[37.94676850459829, 44.590488831132234], [37.94677013034348, 44.590398820614396], [37.94664416712175, 44.590397658826326], [37.946645793053676, 44.59030764831065], [37.94689934465168, 44.590219961216235], [37.94689771911605, 44.59030997174064], [37.94702368215866, 44.59031113324729], [37.94702205680977, 44.590401143773846], [37.94689609357282, 44.59039998226357], [37.94689446802197, 44.59048999278504], [37.94676850459829, 44.590488831132234]]]}, "properties": {"zone_id": "novorossiysk-2025-06-28-005", "aoi": "novorossiysk", "date": "2025-06-28", "scene_id": "S2C_MSIL2A_20250628T081631_R121_T37TCK_20250628T120615", "scene_datetime_utc": "2025-06-28T08:16:31.025000+00:00", "detection_status": "detected", "detection_status_ru": "обнаружено", "lon": 37.94683, "lat": 44.59035, "n_pixels": 1, "zone_area_km2": 0.0005, "cover_m2": 11.8, "p_mean": 0.918, "p_max": 0.918, "cover_m2_km2": 23600.0, "h3": "882d721ad9fffff", "valid_frac_scene": 1.0, "wind_ms": 4.1, "sea": "спокойное", "scene_reliable": true, "field_event_id": "S4:DOORS3:T13", "field_profile": "B", "field_date": "2024-06-04", "field_distance_km": 249.7, "field_date_gap_days": 389, "field_conc_items_km2": 263.57, "conc_A_items_km2": null, "conc_A_lo80": null, "conc_A_hi80": null, "conc_A_lo95": null, "conc_A_hi95": null, "conc_A_status": "unavailable", "conc_A_status_ru": "концентрация недоступна", "conc_A_reasons": "вне бассейна профиля: nw_atlantic_subtropical", "conc_A_model": "conc-A-c6bce5631d2b", "conc_B_items_km2": 669.0, "conc_B_lo80": 142.8, "conc_B_hi80": 2247.3, "conc_B_lo95": 89.1, "conc_B_hi95": 4207.8, "conc_B_status": "research_estimate", "conc_B_status_ru": "исследовательская оценка", "conc_B_reasons": "ближайшее полевое измерение в 250 км (> 60 км); log_dist_coast_km = 0.8 вне диапазона обучения [1.7; 5.0]", "conc_B_model": "conc-B-c6bce5631d2b"}}, {"type": "Feature", "geometry": {"type": "Polygon", "coordinates": [[[37.96510736393331, 44.56517921562765], [37.96510895996567, 44.565089204183366], [37.964983050637876, 44.56508806312752], [37.964986243068374, 44.564908040241654], [37.96523965677092, 44.56482031074808], [37.96523806095505, 44.56491032220034], [37.965363969909596, 44.564911462971516], [37.96536077864366, 44.56509148587873], [37.96510736393331, 44.56517921562765]]]}, "properties": {"zone_id": "novorossiysk-2025-06-28-006", "aoi": "novorossiysk", "date": "2025-06-28", "scene_id": "S2C_MSIL2A_20250628T081631_R121_T37TCK_20250628T120615", "scene_datetime_utc": "2025-06-28T08:16:31.025000+00:00", "detection_status": "detected", "detection_status_ru": "обнаружено", "lon": 37.96517, "lat": 44.565, "n_pixels": 2, "zone_area_km2": 0.0008, "cover_m2": 22.7, "p_mean": 0.839, "p_max": 0.973, "cover_m2_km2": 28375.0, "h3": "882d721a81fffff", "valid_frac_scene": 1.0, "wind_ms": 4.1, "sea": "спокойное", "scene_reliable": true, "field_event_id": "S4:DOORS3:T13", "field_profile": "B", "field_date": "2024-06-04", "field_distance_km": 247.2, "field_date_gap_days": 389, "field_conc_items_km2": 263.57, "conc_A_items_km2": null, "conc_A_lo80": null, "conc_A_hi80": null, "conc_A_lo95": null, "conc_A_hi95": null, "conc_A_status": "unavailable", "conc_A_status_ru": "концентрация недоступна", "conc_A_reasons": "вне бассейна профиля: nw_atlantic_subtropical", "conc_A_model": "conc-A-c6bce5631d2b", "conc_B_items_km2": 669.0, "conc_B_lo80": 142.8, "conc_B_hi80": 2247.3, "conc_B_lo95": 89.1, "conc_B_hi95": 4207.8, "conc_B_status": "research_estimate", "conc_B_status_ru": "исследовательская оценка", "conc_B_reasons": "ближайшее полевое измерение в 247 км (> 60 км); log_dist_coast_km = 0.8 вне диапазона обучения [1.7; 5.0]", "conc_B_model": "conc-B-c6bce5631d2b"}}]}