{"type": "FeatureCollection", "features": [{"type": "Feature", "geometry": {"type": "Polygon", "coordinates": [[[44.64173711122891, 48.79806580835801], [44.641737751848865, 48.797975850786365], [44.641601585020375, 48.79797542748633], [44.641602225880625, 48.7978854699146], [44.64187519942398, 48.79779635877536], [44.64187455905384, 48.79788631635115], [44.64201072564521, 48.797886739328156], [44.642010085515366, 48.79797669690388], [44.64187391868053, 48.79797627392555], [44.641873278304054, 48.798066231498524], [44.64173711122891, 48.79806580835801]]]}, "properties": {"zone_id": "volgograd-2026-08-04-001", "aoi": "volgograd", "date": "2026-08-04", "scene_id": "S2B_MSIL2A_20260804T080609_R078_T38UMV_20260804T103624", "scene_datetime_utc": "2026-08-04T08:06:09.024000+00:00", "detection_status": "detected", "detection_status_ru": "обнаружено", "lon": 44.64181, "lat": 48.79793, "n_pixels": 1, "zone_area_km2": 0.0005, "cover_m2": 4.7, "p_mean": 0.992, "p_max": 0.992, "cover_m2_km2": 9400.0, "h3": "882d48a1e5fffff", "valid_frac_scene": 1.0, "wind_ms": 2.5, "sea": "спокойное", "scene_reliable": true, "field_event_id": "S4:DOORS3:T23", "field_profile": "B", "field_date": "2024-06-10", "field_distance_km": 757.2, "field_date_gap_days": 785, "field_conc_items_km2": 102.37, "conc_A_items_km2": null, "conc_A_lo80": null, "conc_A_hi80": null, "conc_A_lo95": null, "conc_A_hi95": null, "conc_A_status": "unavailable", "conc_A_status_ru": "концентрация недоступна", "conc_A_reasons": "вне бассейна профиля: nw_atlantic_subtropical", "conc_A_model": "conc-A-c6bce5631d2b", "conc_B_items_km2": null, "conc_B_lo80": null, "conc_B_hi80": null, "conc_B_lo95": null, "conc_B_hi95": null, "conc_B_status": "unavailable", "conc_B_status_ru": "концентрация недоступна", "conc_B_reasons": "вне бассейна профиля: black_sea", "conc_B_model": "conc-B-c6bce5631d2b"}}]}