{"type": "FeatureCollection", "features": [{"type": "Feature", "geometry": {"type": "Polygon", "coordinates": [[[131.8013633581188, 43.31502421470948], [131.80135922352767, 43.31493427658932], [131.80123605265618, 43.31493729555289], [131.80122778389352, 43.31475741928852], [131.80110461336534, 43.31476043810074], [131.80110047919385, 43.31467049995653], [131.8012236495408, 43.31466748115373], [131.80121951520715, 43.3145775430172], [131.80146999017742, 43.31466144315071], [131.80147825962678, 43.31484131938083], [131.8016014302789, 43.31483830016176], [131.80160556521344, 43.314928238264784], [131.8014823943801, 43.31493125749329], [131.80148652915247, 43.31502119560401], [131.8013633581188, 43.31502421470948]]]}, "properties": {"zone_id": "vladivostok-2025-09-27-001", "aoi": "vladivostok", "date": "2025-09-27", "scene_id": "S2A_MSIL2A_20250927T021121_R103_T52TGN_20250927T061715", "scene_datetime_utc": "2025-09-27T02:11:21.024000+00:00", "detection_status": "detected", "detection_status_ru": "обнаружено", "lon": 131.80135, "lat": 43.3148, "n_pixels": 2, "zone_area_km2": 0.001, "cover_m2": 28.6, "p_mean": 0.602, "p_max": 0.659, "cover_m2_km2": 28600.0, "h3": "88316ccd11fffff", "valid_frac_scene": 1.0, "wind_ms": 3.0, "sea": "спокойное", "scene_reliable": true, "field_event_id": "S4:DOORS3:T23", "field_profile": "B", "field_date": "2024-06-10", "field_distance_km": 6964.6, "field_date_gap_days": 474, "field_conc_items_km2": 102.37, "conc_A_items_km2": null, "conc_A_lo80": null, "conc_A_hi80": null, "conc_A_lo95": null, "conc_A_hi95": null, "conc_A_status": "unavailable", "conc_A_status_ru": "концентрация недоступна", "conc_A_reasons": "вне бассейна профиля: nw_atlantic_subtropical", "conc_A_model": "conc-A-c6bce5631d2b", "conc_B_items_km2": null, "conc_B_lo80": null, "conc_B_hi80": null, "conc_B_lo95": null, "conc_B_hi95": null, "conc_B_status": "unavailable", "conc_B_status_ru": "концентрация недоступна", "conc_B_reasons": "вне бассейна профиля: black_sea", "conc_B_model": "conc-B-c6bce5631d2b"}}, {"type": "Feature", "geometry": {"type": "Polygon", "coordinates": [[[131.80143691314316, 43.31394193816074], [131.80143277859975, 43.31385200002918], [131.80130960992176, 43.31385501901204], [131.80130547557863, 43.31376508086931], [131.80142864407537, 43.313762061895886], [131.8014245095701, 43.313672123760846], [131.80167498101164, 43.31375602355163], [131.8016791158984, 43.31384596166607], [131.8015559472586, 43.31384898091385], [131.80156008198324, 43.313938919035984], [131.80143691314316, 43.31394193816074]]]}, "properties": {"zone_id": "vladivostok-2025-09-27-002", "aoi": "vladivostok", "date": "2025-09-27", "scene_id": "S2A_MSIL2A_20250927T021121_R103_T52TGN_20250927T061715", "scene_datetime_utc": "2025-09-27T02:11:21.024000+00:00", "detection_status": "detected", "detection_status_ru": "обнаружено", "lon": 131.80149, "lat": 43.31381, "n_pixels": 1, "zone_area_km2": 0.0005, "cover_m2": 16.1, "p_mean": 0.569, "p_max": 0.569, "cover_m2_km2": 32200.0, "h3": "88316ccd11fffff", "valid_frac_scene": 1.0, "wind_ms": 3.0, "sea": "спокойное", "scene_reliable": true, "field_event_id": "S4:DOORS3:T23", "field_profile": "B", "field_date": "2024-06-10", "field_distance_km": 6964.6, "field_date_gap_days": 474, "field_conc_items_km2": 102.37, "conc_A_items_km2": null, "conc_A_lo80": null, "conc_A_hi80": null, "conc_A_lo95": null, "conc_A_hi95": null, "conc_A_status": "unavailable", "conc_A_status_ru": "концентрация недоступна", "conc_A_reasons": "вне бассейна профиля: nw_atlantic_subtropical", "conc_A_model": "conc-A-c6bce5631d2b", "conc_B_items_km2": null, "conc_B_lo80": null, "conc_B_hi80": null, "conc_B_lo95": null, "conc_B_hi95": null, "conc_B_status": "unavailable", "conc_B_status_ru": "концентрация недоступна", "conc_B_reasons": "вне бассейна профиля: black_sea", "conc_B_model": "conc-B-c6bce5631d2b"}}, {"type": "Feature", "geometry": {"type": "Polygon", "coordinates": [[[131.80081280140087, 43.3137771554384], [131.8008086678016, 43.313687217256216], [131.80068549939068, 43.3136902355579], [131.80068136599166, 43.31360029736454], [131.8008045342214, 43.31359727907229], [131.80080040066025, 43.31350734088664], [131.80104673670007, 43.3135013039236], [131.8010508706236, 43.313591242090396], [131.80117403879612, 43.31358822340076], [131.80117817291995, 43.31367816155639], [131.80105500456622, 43.31368118025546], [131.8010591385279, 43.31377111841879], [131.80081280140087, 43.3137771554384]]]}, "properties": {"zone_id": "vladivostok-2025-09-27-003", "aoi": "vladivostok", "date": "2025-09-27", "scene_id": "S2A_MSIL2A_20250927T021121_R103_T52TGN_20250927T061715", "scene_datetime_utc": "2025-09-27T02:11:21.024000+00:00", "detection_status": "detected", "detection_status_ru": "обнаружено", "lon": 131.80093, "lat": 43.31364, "n_pixels": 2, "zone_area_km2": 0.0008, "cover_m2": 29.8, "p_mean": 0.778, "p_max": 0.961, "cover_m2_km2": 37250.0, "h3": "88316ccd11fffff", "valid_frac_scene": 1.0, "wind_ms": 3.0, "sea": "спокойное", "scene_reliable": true, "field_event_id": "S4:DOORS3:T23", "field_profile": "B", "field_date": "2024-06-10", "field_distance_km": 6964.6, "field_date_gap_days": 474, "field_conc_items_km2": 102.37, "conc_A_items_km2": null, "conc_A_lo80": null, "conc_A_hi80": null, "conc_A_lo95": null, "conc_A_hi95": null, "conc_A_status": "unavailable", "conc_A_status_ru": "концентрация недоступна", "conc_A_reasons": "вне бассейна профиля: nw_atlantic_subtropical", "conc_A_model": "conc-A-c6bce5631d2b", "conc_B_items_km2": null, "conc_B_lo80": null, "conc_B_hi80": null, "conc_B_lo95": null, "conc_B_hi95": null, "conc_B_status": "unavailable", "conc_B_status_ru": "концентрация недоступна", "conc_B_reasons": "вне бассейна профиля: black_sea", "conc_B_model": "conc-B-c6bce5631d2b"}}, {"type": "Feature", "geometry": {"type": "Polygon", "coordinates": [[[131.80190891223862, 43.31348017038039], [131.80190477706577, 43.313390232277875], [131.80165430686407, 43.3133063329534], [131.80165017209177, 43.31321639482855], [131.8017733394441, 43.31321337551431], [131.80176920450972, 43.31312343739716], [131.80201967409155, 43.313207336488475], [131.80202380940742, 43.31329727458503], [131.80214697688368, 43.31329425486398], [131.80215111239983, 43.31338419294938], [131.80202794474235, 43.313387212679864], [131.80203208009638, 43.313477150772925], [131.80190891223862, 43.31348017038039]]]}, "properties": {"zone_id": "vladivostok-2025-09-27-004", "aoi": "vladivostok", "date": "2025-09-27", "scene_id": "S2A_MSIL2A_20250927T021121_R103_T52TGN_20250927T061715", "scene_datetime_utc": "2025-09-27T02:11:21.024000+00:00", "detection_status": "detected", "detection_status_ru": "обнаружено", "lon": 131.8019, "lat": 43.3133, "n_pixels": 2, "zone_area_km2": 0.0008, "cover_m2": 22.7, "p_mean": 0.78, "p_max": 0.98, "cover_m2_km2": 28375.0, "h3": "88316ccd11fffff", "valid_frac_scene": 1.0, "wind_ms": 3.0, "sea": "спокойное", "scene_reliable": true, "field_event_id": "S4:DOORS3:T23", "field_profile": "B", "field_date": "2024-06-10", "field_distance_km": 6964.7, "field_date_gap_days": 474, "field_conc_items_km2": 102.37, "conc_A_items_km2": null, "conc_A_lo80": null, "conc_A_hi80": null, "conc_A_lo95": null, "conc_A_hi95": null, "conc_A_status": "unavailable", "conc_A_status_ru": "концентрация недоступна", "conc_A_reasons": "вне бассейна профиля: nw_atlantic_subtropical", "conc_A_model": "conc-A-c6bce5631d2b", "conc_B_items_km2": null, "conc_B_lo80": null, "conc_B_hi80": null, "conc_B_lo95": null, "conc_B_hi95": null, "conc_B_status": "unavailable", "conc_B_status_ru": "концентрация недоступна", "conc_B_reasons": "вне бассейна профиля: black_sea", "conc_B_model": "conc-B-c6bce5631d2b"}}, {"type": "Feature", "geometry": {"type": "Polygon", "coordinates": [[[131.80113683254032, 43.31277877992191], [131.8011326986073, 43.312688841748916], [131.8008822323155, 43.31260494061356], [131.80087809878296, 43.31251500241822], [131.80100126480022, 43.312511983974204], [131.8009971311056, 43.31242204578656], [131.80124346272052, 43.312416008519996], [131.80124759677753, 43.312505946688766], [131.80137076273758, 43.31250292784736], [131.80137903127118, 43.31268280416085], [131.80113683254032, 43.31277877992191]]]}, "properties": {"zone_id": "vladivostok-2025-09-27-005", "aoi": "vladivostok", "date": "2025-09-27", "scene_id": "S2A_MSIL2A_20250927T021121_R103_T52TGN_20250927T061715", "scene_datetime_utc": "2025-09-27T02:11:21.024000+00:00", "detection_status": "detected", "detection_status_ru": "обнаружено", "lon": 131.80115, "lat": 43.31258, "n_pixels": 3, "zone_area_km2": 0.001, "cover_m2": 37.3, "p_mean": 0.796, "p_max": 0.984, "cover_m2_km2": 37300.0, "h3": "88316ccd11fffff", "valid_frac_scene": 1.0, "wind_ms": 3.0, "sea": "спокойное", "scene_reliable": true, "field_event_id": "S4:DOORS3:T23", "field_profile": "B", "field_date": "2024-06-10", "field_distance_km": 6964.7, "field_date_gap_days": 474, "field_conc_items_km2": 102.37, "conc_A_items_km2": null, "conc_A_lo80": null, "conc_A_hi80": null, "conc_A_lo95": null, "conc_A_hi95": null, "conc_A_status": "unavailable", "conc_A_status_ru": "концентрация недоступна", "conc_A_reasons": "вне бассейна профиля: nw_atlantic_subtropical", "conc_A_model": "conc-A-c6bce5631d2b", "conc_B_items_km2": null, "conc_B_lo80": null, "conc_B_hi80": null, "conc_B_lo95": null, "conc_B_hi95": null, "conc_B_status": "unavailable", "conc_B_status_ru": "концентрация недоступна", "conc_B_reasons": "вне бассейна профиля: black_sea", "conc_B_model": "conc-B-c6bce5631d2b"}}, {"type": "Feature", "geometry": {"type": "MultiPolygon", "coordinates": [[[[131.79174316029813, 43.31228830521539], [131.79186632681856, 43.3122852966204], [131.79186220662714, 43.31219535772746], [131.79173904028792, 43.312198366313034], [131.7917349202967, 43.31210842740896], [131.79149270755238, 43.31220438308683], [131.79149682720018, 43.31229432200796], [131.79161999375864, 43.31229131367792], [131.79162411360667, 43.31238125258791], [131.79174728032731, 43.312378244116005], [131.79174316029813, 43.31228830521539]]], [[[131.79175140037552, 43.31246818301489], [131.7916282334737, 43.3124711914962], [131.79164471313192, 43.31283094711196], [131.79189516869062, 43.3129148688225], [131.79189104836615, 43.31282492994169], [131.79201421595474, 43.312821921157855], [131.79199773412216, 43.312462165654885], [131.79174728032731, 43.312378244116005], [131.79175140037552, 43.31246818301489]]]]}, "properties": {"zone_id": "vladivostok-2025-09-27-006", "aoi": "vladivostok", "date": "2025-09-27", "scene_id": "S2A_MSIL2A_20250927T021121_R103_T52TGN_20250927T061715", "scene_datetime_utc": "2025-09-27T02:11:21.024000+00:00", "detection_status": "detected", "detection_status_ru": "обнаружено", "lon": 131.79179, "lat": 43.31257, "n_pixels": 5, "zone_area_km2": 0.0019, "cover_m2": 56.1, "p_mean": 0.961, "p_max": 0.984, "cover_m2_km2": 29526.3, "h3": "88316ccd15fffff", "valid_frac_scene": 1.0, "wind_ms": 3.0, "sea": "спокойное", "scene_reliable": true, "field_event_id": "S4:DOORS3:T23", "field_profile": "B", "field_date": "2024-06-10", "field_distance_km": 6964.1, "field_date_gap_days": 474, "field_conc_items_km2": 102.37, "conc_A_items_km2": null, "conc_A_lo80": null, "conc_A_hi80": null, "conc_A_lo95": null, "conc_A_hi95": null, "conc_A_status": "unavailable", "conc_A_status_ru": "концентрация недоступна", "conc_A_reasons": "вне бассейна профиля: nw_atlantic_subtropical", "conc_A_model": "conc-A-c6bce5631d2b", "conc_B_items_km2": null, "conc_B_lo80": null, "conc_B_hi80": null, "conc_B_lo95": null, "conc_B_hi95": null, "conc_B_status": "unavailable", "conc_B_status_ru": "концентрация недоступна", "conc_B_reasons": "вне бассейна профиля: black_sea", "conc_B_model": "conc-B-c6bce5631d2b"}}, {"type": "Feature", "geometry": {"type": "Polygon", "coordinates": [[[131.80038956733097, 43.3126170131028], [131.8003854345232, 43.31252707486976], [131.8002622684106, 43.3125300926515], [131.8002581358031, 43.31244015440729], [131.80038130173452, 43.312437136634976], [131.8003771689649, 43.31234719839847], [131.80062763354016, 43.31243110069299], [131.80063176669123, 43.312521038908905], [131.80050860061675, 43.31252405695555], [131.8005127336057, 43.31261399517918], [131.80038956733097, 43.3126170131028]]]}, "properties": {"zone_id": "vladivostok-2025-09-27-007", "aoi": "vladivostok", "date": "2025-09-27", "scene_id": "S2A_MSIL2A_20250927T021121_R103_T52TGN_20250927T061715", "scene_datetime_utc": "2025-09-27T02:11:21.024000+00:00", "detection_status": "detected", "detection_status_ru": "обнаружено", "lon": 131.80044, "lat": 43.31248, "n_pixels": 1, "zone_area_km2": 0.0005, "cover_m2": 11.4, "p_mean": 0.584, "p_max": 0.584, "cover_m2_km2": 22800.0, "h3": "88316ccd11fffff", "valid_frac_scene": 1.0, "wind_ms": 3.0, "sea": "спокойное", "scene_reliable": true, "field_event_id": "S4:DOORS3:T23", "field_profile": "B", "field_date": "2024-06-10", "field_distance_km": 6964.7, "field_date_gap_days": 474, "field_conc_items_km2": 102.37, "conc_A_items_km2": null, "conc_A_lo80": null, "conc_A_hi80": null, "conc_A_lo95": null, "conc_A_hi95": null, "conc_A_status": "unavailable", "conc_A_status_ru": "концентрация недоступна", "conc_A_reasons": "вне бассейна профиля: nw_atlantic_subtropical", "conc_A_model": "conc-A-c6bce5631d2b", "conc_B_items_km2": null, "conc_B_lo80": null, "conc_B_hi80": null, "conc_B_lo95": null, "conc_B_hi95": null, "conc_B_status": "unavailable", "conc_B_status_ru": "концентрация недоступна", "conc_B_reasons": "вне бассейна профиля: black_sea", "conc_B_model": "conc-B-c6bce5631d2b"}}, {"type": "Feature", "geometry": {"type": "Polygon", "coordinates": [[[131.7997654718867, 43.31245222417195], [131.79976134002303, 43.31236228588831], [131.79963817417743, 43.3123653029889], [131.79963404251401, 43.312275364694095], [131.7997572081784, 43.31227234760293], [131.79975307635283, 43.3121824093158], [131.80000353944996, 43.312266313023216], [131.80000767165697, 43.31235625128975], [131.79988450584952, 43.31235926865526], [131.79988863789438, 43.31244920692947], [131.7997654718867, 43.31245222417195]]]}, "properties": {"zone_id": "vladivostok-2025-09-27-008", "aoi": "vladivostok", "date": "2025-09-27", "scene_id": "S2A_MSIL2A_20250927T021121_R103_T52TGN_20250927T061715", "scene_datetime_utc": "2025-09-27T02:11:21.024000+00:00", "detection_status": "detected", "detection_status_ru": "обнаружено", "lon": 131.79982, "lat": 43.31232, "n_pixels": 1, "zone_area_km2": 0.0005, "cover_m2": 11.8, "p_mean": 0.651, "p_max": 0.651, "cover_m2_km2": 23600.0, "h3": "88316ccd11fffff", "valid_frac_scene": 1.0, "wind_ms": 3.0, "sea": "спокойное", "scene_reliable": true, "field_event_id": "S4:DOORS3:T23", "field_profile": "B", "field_date": "2024-06-10", "field_distance_km": 6964.6, "field_date_gap_days": 474, "field_conc_items_km2": 102.37, "conc_A_items_km2": null, "conc_A_lo80": null, "conc_A_hi80": null, "conc_A_lo95": null, "conc_A_hi95": null, "conc_A_status": "unavailable", "conc_A_status_ru": "концентрация недоступна", "conc_A_reasons": "вне бассейна профиля: nw_atlantic_subtropical", "conc_A_model": "conc-A-c6bce5631d2b", "conc_B_items_km2": null, "conc_B_lo80": null, "conc_B_hi80": null, "conc_B_lo95": null, "conc_B_hi95": null, "conc_B_status": "unavailable", "conc_B_status_ru": "концентрация недоступна", "conc_B_reasons": "вне бассейна профиля: black_sea", "conc_B_model": "conc-B-c6bce5631d2b"}}, {"type": "Feature", "geometry": {"type": "Polygon", "coordinates": [[[131.9038145144983, 43.30427349549893], [131.90381023043187, 43.30418356523736], [131.90368709225964, 43.30418669390333], [131.90368280839402, 43.30409676363022], [131.9038059463852, 43.30409363497403], [131.90380166235832, 43.30400370470894], [131.90405222230828, 43.30408737726449], [131.90405650671704, 43.304177307508276], [131.90393336858435, 43.304180436439005], [131.90393765283181, 43.304270366690815], [131.9038145144983, 43.30427349549893]]]}, "properties": {"zone_id": "vladivostok-2025-09-27-009", "aoi": "vladivostok", "date": "2025-09-27", "scene_id": "S2A_MSIL2A_20250927T021121_R103_T52TGN_20250927T061715", "scene_datetime_utc": "2025-09-27T02:11:21.024000+00:00", "detection_status": "detected", "detection_status_ru": "обнаружено", "lon": 131.90387, "lat": 43.30414, "n_pixels": 1, "zone_area_km2": 0.0005, "cover_m2": 2.7, "p_mean": 0.969, "p_max": 0.969, "cover_m2_km2": 5400.0, "h3": "88316cccddfffff", "valid_frac_scene": 1.0, "wind_ms": 3.0, "sea": "спокойное", "scene_reliable": true, "field_event_id": "S4:DOORS3:T23", "field_profile": "B", "field_date": "2024-06-10", "field_distance_km": 6972.1, "field_date_gap_days": 474, "field_conc_items_km2": 102.37, "conc_A_items_km2": null, "conc_A_lo80": null, "conc_A_hi80": null, "conc_A_lo95": null, "conc_A_hi95": null, "conc_A_status": "unavailable", "conc_A_status_ru": "концентрация недоступна", "conc_A_reasons": "вне бассейна профиля: nw_atlantic_subtropical", "conc_A_model": "conc-A-c6bce5631d2b", "conc_B_items_km2": null, "conc_B_lo80": null, "conc_B_hi80": null, "conc_B_lo95": null, "conc_B_hi95": null, "conc_B_status": "unavailable", "conc_B_status_ru": "концентрация недоступна", "conc_B_reasons": "вне бассейна профиля: black_sea", "conc_B_model": "conc-B-c6bce5631d2b"}}, {"type": "Feature", "geometry": {"type": "Polygon", "coordinates": [[[131.90324914683603, 43.30275719405711], [131.9032448638297, 43.302667263726526], [131.90312172865612, 43.30267039169688], [131.9031174458506, 43.30258046135476], [131.90324058084315, 43.30257733339419], [131.90323629787636, 43.302487403060105], [131.9034825674402, 43.3024811467614], [131.90348685076904, 43.30257107707594], [131.90360998570233, 43.30256794871826], [131.903614269232, 43.302657879021275], [131.90349113411764, 43.30266100738873], [131.90349541748603, 43.30275093769978], [131.90324914683603, 43.30275719405711]]]}, "properties": {"zone_id": "vladivostok-2025-09-27-010", "aoi": "vladivostok", "date": "2025-09-27", "scene_id": "S2A_MSIL2A_20250927T021121_R103_T52TGN_20250927T061715", "scene_datetime_utc": "2025-09-27T02:11:21.024000+00:00", "detection_status": "detected", "detection_status_ru": "обнаружено", "lon": 131.90337, "lat": 43.30262, "n_pixels": 2, "zone_area_km2": 0.0008, "cover_m2": 4.7, "p_mean": 0.924, "p_max": 0.925, "cover_m2_km2": 5875.0, "h3": "88316cccddfffff", "valid_frac_scene": 1.0, "wind_ms": 3.0, "sea": "спокойное", "scene_reliable": true, "field_event_id": "S4:DOORS3:T23", "field_profile": "B", "field_date": "2024-06-10", "field_distance_km": 6972.2, "field_date_gap_days": 474, "field_conc_items_km2": 102.37, "conc_A_items_km2": null, "conc_A_lo80": null, "conc_A_hi80": null, "conc_A_lo95": null, "conc_A_hi95": null, "conc_A_status": "unavailable", "conc_A_status_ru": "концентрация недоступна", "conc_A_reasons": "вне бассейна профиля: nw_atlantic_subtropical", "conc_A_model": "conc-A-c6bce5631d2b", "conc_B_items_km2": null, "conc_B_lo80": null, "conc_B_hi80": null, "conc_B_lo95": null, "conc_B_hi95": null, "conc_B_status": "unavailable", "conc_B_status_ru": "концентрация недоступна", "conc_B_reasons": "вне бассейна профиля: black_sea", "conc_B_model": "conc-B-c6bce5631d2b"}}, {"type": "Feature", "geometry": {"type": "Polygon", "coordinates": [[[131.9555874024723, 43.29394239308344], [131.9555830436632, 43.29385246682552], [131.95533246197255, 43.29376890800707], [131.95532810356548, 43.2936789817257], [131.95545121484545, 43.293675798081175], [131.9554468562776, 43.293585871807984], [131.95569743734512, 43.29366943039518], [131.95570179629493, 43.2937593566467], [131.9558249076955, 43.293756172595295], [131.95582926684634, 43.29384609883512], [131.95570615526483, 43.29384928289646], [131.95571051425486, 43.293939209144455], [131.9555874024723, 43.29394239308344]]]}, "properties": {"zone_id": "vladivostok-2025-09-27-011", "aoi": "vladivostok", "date": "2025-09-27", "scene_id": "S2A_MSIL2A_20250927T021121_R103_T52TGN_20250927T061715", "scene_datetime_utc": "2025-09-27T02:11:21.024000+00:00", "detection_status": "detected", "detection_status_ru": "обнаружено", "lon": 131.95558, "lat": 43.29376, "n_pixels": 2, "zone_area_km2": 0.0008, "cover_m2": 11.8, "p_mean": 0.704, "p_max": 0.722, "cover_m2_km2": 14750.0, "h3": "88316c1b09fffff", "valid_frac_scene": 1.0, "wind_ms": 3.0, "sea": "спокойное", "scene_reliable": true, "field_event_id": "S4:DOORS3:T23", "field_profile": "B", "field_date": "2024-06-10", "field_distance_km": 6976.3, "field_date_gap_days": 474, "field_conc_items_km2": 102.37, "conc_A_items_km2": null, "conc_A_lo80": null, "conc_A_hi80": null, "conc_A_lo95": null, "conc_A_hi95": null, "conc_A_status": "unavailable", "conc_A_status_ru": "концентрация недоступна", "conc_A_reasons": "вне бассейна профиля: nw_atlantic_subtropical", "conc_A_model": "conc-A-c6bce5631d2b", "conc_B_items_km2": null, "conc_B_lo80": null, "conc_B_hi80": null, "conc_B_lo95": null, "conc_B_hi95": null, "conc_B_status": "unavailable", "conc_B_status_ru": "концентрация недоступна", "conc_B_reasons": "вне бассейна профиля: black_sea", "conc_B_model": "conc-B-c6bce5631d2b"}}, {"type": "Feature", "geometry": {"type": "Polygon", "coordinates": [[[131.95439661252567, 43.29226244167616], [131.95439225572667, 43.29217251529508], [131.95426914736132, 43.292175697712075], [131.95426479076332, 43.292085771319265], [131.95401421811806, 43.29200220932202], [131.95400550574615, 43.29182235648781], [131.95388239804413, 43.29182553846812], [131.9538780420692, 43.29173561203844], [131.95411990077474, 43.291639321553795], [131.95412425709137, 43.291729247965385], [131.95424736457232, 43.2917260657304], [131.95425172108995, 43.291815992130275], [131.95450229325283, 43.291899553621725], [131.9545110071121, 43.29207940637285], [131.95463411525637, 43.29207622370118], [131.95463847239708, 43.29216615006416], [131.95439661252567, 43.29226244167616]]]}, "properties": {"zone_id": "vladivostok-2025-09-27-012", "aoi": "vladivostok", "date": "2025-09-27", "scene_id": "S2A_MSIL2A_20250927T021121_R103_T52TGN_20250927T061715", "scene_datetime_utc": "2025-09-27T02:11:21.024000+00:00", "detection_status": "detected", "detection_status_ru": "обнаружено", "lon": 131.95426, "lat": 43.29195, "n_pixels": 6, "zone_area_km2": 0.0018, "cover_m2": 42.4, "p_mean": 0.847, "p_max": 0.984, "cover_m2_km2": 23555.6, "h3": "88316c1b09fffff", "valid_frac_scene": 1.0, "wind_ms": 3.0, "sea": "спокойное", "scene_reliable": true, "field_event_id": "S4:DOORS3:T23", "field_profile": "B", "field_date": "2024-06-10", "field_distance_km": 6976.3, "field_date_gap_days": 474, "field_conc_items_km2": 102.37, "conc_A_items_km2": null, "conc_A_lo80": null, "conc_A_hi80": null, "conc_A_lo95": null, "conc_A_hi95": null, "conc_A_status": "unavailable", "conc_A_status_ru": "концентрация недоступна", "conc_A_reasons": "вне бассейна профиля: nw_atlantic_subtropical", "conc_A_model": "conc-A-c6bce5631d2b", "conc_B_items_km2": null, "conc_B_lo80": null, "conc_B_hi80": null, "conc_B_lo95": null, "conc_B_hi95": null, "conc_B_status": "unavailable", "conc_B_status_ru": "концентрация недоступна", "conc_B_reasons": "вне бассейна профиля: black_sea", "conc_B_model": "conc-B-c6bce5631d2b"}}, {"type": "Feature", "geometry": {"type": "Polygon", "coordinates": [[[131.9536231158007, 43.291562122677774], [131.95361876024785, 43.291472196222905], [131.95349565320916, 43.29147537776653], [131.95349129785728, 43.291385451299945], [131.9536144047151, 43.29138226976625], [131.95361004920247, 43.291292343307816], [131.95386061837047, 43.29137590630194], [131.953864974265, 43.291465832738716], [131.9537418672665, 43.29146901454696], [131.95374622300022, 43.29155894099191], [131.9536231158007, 43.291562122677774]]]}, "properties": {"zone_id": "vladivostok-2025-09-27-013", "aoi": "vladivostok", "date": "2025-09-27", "scene_id": "S2A_MSIL2A_20250927T021121_R103_T52TGN_20250927T061715", "scene_datetime_utc": "2025-09-27T02:11:21.024000+00:00", "detection_status": "detected", "detection_status_ru": "обнаружено", "lon": 131.95368, "lat": 43.29143, "n_pixels": 1, "zone_area_km2": 0.0005, "cover_m2": 6.7, "p_mean": 0.929, "p_max": 0.929, "cover_m2_km2": 13400.0, "h3": "88316c1b01fffff", "valid_frac_scene": 1.0, "wind_ms": 3.0, "sea": "спокойное", "scene_reliable": true, "field_event_id": "S4:DOORS3:T23", "field_profile": "B", "field_date": "2024-06-10", "field_distance_km": 6976.3, "field_date_gap_days": 474, "field_conc_items_km2": 102.37, "conc_A_items_km2": null, "conc_A_lo80": null, "conc_A_hi80": null, "conc_A_lo95": null, "conc_A_hi95": null, "conc_A_status": "unavailable", "conc_A_status_ru": "концентрация недоступна", "conc_A_reasons": "вне бассейна профиля: nw_atlantic_subtropical", "conc_A_model": "conc-A-c6bce5631d2b", "conc_B_items_km2": null, "conc_B_lo80": null, "conc_B_hi80": null, "conc_B_lo95": null, "conc_B_hi95": null, "conc_B_status": "unavailable", "conc_B_status_ru": "концентрация недоступна", "conc_B_reasons": "вне бассейна профиля: black_sea", "conc_B_model": "conc-B-c6bce5631d2b"}}, {"type": "Feature", "geometry": {"type": "Polygon", "coordinates": [[[131.9532407291114, 43.291301887482156], [131.9532363741615, 43.29121196099215], [131.95299016102882, 43.29121832309364], [131.9529858064608, 43.29112839658199], [131.95286270004522, 43.291131577424345], [131.95285834567818, 43.291041650900965], [131.95298145191288, 43.29103847006856], [131.95297709738503, 43.29094854355336], [131.95322330943236, 43.29094218151148], [131.95322766432196, 43.29103210800681], [131.9533507704964, 43.29102892677748], [131.95335512558702, 43.2911188532611], [131.95347823192225, 43.29111567188952], [131.95348258721384, 43.29120559836142], [131.9533594806977, 43.29120877974294], [131.9533638358285, 43.291298706223024], [131.9532407291114, 43.291301887482156]]]}, "properties": {"zone_id": "vladivostok-2025-09-27-014", "aoi": "vladivostok", "date": "2025-09-27", "scene_id": "S2A_MSIL2A_20250927T021121_R103_T52TGN_20250927T061715", "scene_datetime_utc": "2025-09-27T02:11:21.024000+00:00", "detection_status": "detected", "detection_status_ru": "обнаружено", "lon": 131.95317, "lat": 43.29111, "n_pixels": 3, "zone_area_km2": 0.0011, "cover_m2": 22.7, "p_mean": 0.822, "p_max": 0.949, "cover_m2_km2": 20636.4, "h3": "88316c1b01fffff", "valid_frac_scene": 1.0, "wind_ms": 3.0, "sea": "спокойное", "scene_reliable": true, "field_event_id": "S4:DOORS3:T23", "field_profile": "B", "field_date": "2024-06-10", "field_distance_km": 6976.3, "field_date_gap_days": 474, "field_conc_items_km2": 102.37, "conc_A_items_km2": null, "conc_A_lo80": null, "conc_A_hi80": null, "conc_A_lo95": null, "conc_A_hi95": null, "conc_A_status": "unavailable", "conc_A_status_ru": "концентрация недоступна", "conc_A_reasons": "вне бассейна профиля: nw_atlantic_subtropical", "conc_A_model": "conc-A-c6bce5631d2b", "conc_B_items_km2": null, "conc_B_lo80": null, "conc_B_hi80": null, "conc_B_lo95": null, "conc_B_hi95": null, "conc_B_status": "unavailable", "conc_B_status_ru": "концентрация недоступна", "conc_B_reasons": "вне бассейна профиля: black_sea", "conc_B_model": "conc-B-c6bce5631d2b"}}, {"type": "Feature", "geometry": {"type": "Polygon", "coordinates": [[[131.95089861379873, 43.28875125340804], [131.950894262687, 43.28866132668789], [131.9507711610149, 43.28866450513534], [131.95076245921342, 43.288484651669854], [131.95100431058174, 43.28838836796684], [131.9510086618141, 43.28847829468237], [131.95113176308433, 43.28847511599019], [131.95114046597104, 43.2886549693961], [131.95089861379873, 43.28875125340804]]]}, "properties": {"zone_id": "vladivostok-2025-09-27-015", "aoi": "vladivostok", "date": "2025-09-27", "scene_id": "S2A_MSIL2A_20250927T021121_R103_T52TGN_20250927T061715", "scene_datetime_utc": "2025-09-27T02:11:21.024000+00:00", "detection_status": "detected", "detection_status_ru": "обнаружено", "lon": 131.95095, "lat": 43.28857, "n_pixels": 2, "zone_area_km2": 0.0008, "cover_m2": 14.1, "p_mean": 0.873, "p_max": 0.98, "cover_m2_km2": 17625.0, "h3": "88316c1b01fffff", "valid_frac_scene": 1.0, "wind_ms": 3.0, "sea": "спокойное", "scene_reliable": true, "field_event_id": "S4:DOORS3:T23", "field_profile": "B", "field_date": "2024-06-10", "field_distance_km": 6976.3, "field_date_gap_days": 474, "field_conc_items_km2": 102.37, "conc_A_items_km2": null, "conc_A_lo80": null, "conc_A_hi80": null, "conc_A_lo95": null, "conc_A_hi95": null, "conc_A_status": "unavailable", "conc_A_status_ru": "концентрация недоступна", "conc_A_reasons": "вне бассейна профиля: nw_atlantic_subtropical", "conc_A_model": "conc-A-c6bce5631d2b", "conc_B_items_km2": null, "conc_B_lo80": null, "conc_B_hi80": null, "conc_B_lo95": null, "conc_B_hi95": null, "conc_B_status": "unavailable", "conc_B_status_ru": "концентрация недоступна", "conc_B_reasons": "вне бассейна профиля: black_sea", "conc_B_model": "conc-B-c6bce5631d2b"}}, {"type": "Feature", "geometry": {"type": "Polygon", "coordinates": [[[131.95751381280215, 43.25994778907089], [131.9575094563278, 43.259857862433435], [131.9573864134348, 43.259861046315734], [131.95738205716117, 43.25977111966657], [131.9575050998736, 43.259767935794216], [131.95750074343945, 43.25967800915322], [131.9577468284429, 43.25967164103193], [131.95775118523824, 43.259761567653044], [131.95787422789041, 43.25975838338422], [131.9578785848864, 43.25984830999361], [131.95775554205366, 43.259851494272375], [131.95775989888915, 43.259941420889945], [131.95751381280215, 43.25994778907089]]]}, "properties": {"zone_id": "vladivostok-2025-09-27-016", "aoi": "vladivostok", "date": "2025-09-27", "scene_id": "S2A_MSIL2A_20250927T021121_R103_T52TGN_20250927T061715", "scene_datetime_utc": "2025-09-27T02:11:21.024000+00:00", "detection_status": "detected", "detection_status_ru": "обнаружено", "lon": 131.95763, "lat": 43.25981, "n_pixels": 2, "zone_area_km2": 0.0008, "cover_m2": 15.7, "p_mean": 0.757, "p_max": 0.996, "cover_m2_km2": 19625.0, "h3": "88316c186dfffff", "valid_frac_scene": 1.0, "wind_ms": 3.0, "sea": "спокойное", "scene_reliable": true, "field_event_id": "S4:DOORS3:T23", "field_profile": "B", "field_date": "2024-06-10", "field_distance_km": 6978.5, "field_date_gap_days": 474, "field_conc_items_km2": 102.37, "conc_A_items_km2": null, "conc_A_lo80": null, "conc_A_hi80": null, "conc_A_lo95": null, "conc_A_hi95": null, "conc_A_status": "unavailable", "conc_A_status_ru": "концентрация недоступна", "conc_A_reasons": "вне бассейна профиля: nw_atlantic_subtropical", "conc_A_model": "conc-A-c6bce5631d2b", "conc_B_items_km2": null, "conc_B_lo80": null, "conc_B_hi80": null, "conc_B_lo95": null, "conc_B_hi95": null, "conc_B_status": "unavailable", "conc_B_status_ru": "концентрация недоступна", "conc_B_reasons": "вне бассейна профиля: black_sea", "conc_B_model": "conc-B-c6bce5631d2b"}}, {"type": "Feature", "geometry": {"type": "Polygon", "coordinates": [[[131.81892117172833, 43.25471607436877], [131.81891701999416, 43.25462613665294], [131.81879397259135, 43.25462917116254], [131.818789821057, 43.25453923343549], [131.81891286827917, 43.25453619893537], [131.8189087165833, 43.254446261216046], [131.81915481060898, 43.254440191838206], [131.8191589626661, 43.254530129538566], [131.81928200983086, 43.25452709464189], [131.8192861620878, 43.25461703233102], [131.8191631147424, 43.254620067237184], [131.81916726683784, 43.254710004934054], [131.81892117172833, 43.25471607436877]]]}, "properties": {"zone_id": "vladivostok-2025-09-27-017", "aoi": "vladivostok", "date": "2025-09-27", "scene_id": "S2A_MSIL2A_20250927T021121_R103_T52TGN_20250927T061715", "scene_datetime_utc": "2025-09-27T02:11:21.024000+00:00", "detection_status": "detected", "detection_status_ru": "обнаружено", "lon": 131.81904, "lat": 43.25458, "n_pixels": 2, "zone_area_km2": 0.0008, "cover_m2": 11.0, "p_mean": 0.935, "p_max": 0.992, "cover_m2_km2": 13750.0, "h3": "88316ccdb3fffff", "valid_frac_scene": 1.0, "wind_ms": 3.0, "sea": "спокойное", "scene_reliable": true, "field_event_id": "S4:DOORS3:T23", "field_profile": "B", "field_date": "2024-06-10", "field_distance_km": 6969.5, "field_date_gap_days": 474, "field_conc_items_km2": 102.37, "conc_A_items_km2": null, "conc_A_lo80": null, "conc_A_hi80": null, "conc_A_lo95": null, "conc_A_hi95": null, "conc_A_status": "unavailable", "conc_A_status_ru": "концентрация недоступна", "conc_A_reasons": "вне бассейна профиля: nw_atlantic_subtropical", "conc_A_model": "conc-A-c6bce5631d2b", "conc_B_items_km2": null, "conc_B_lo80": null, "conc_B_hi80": null, "conc_B_lo95": null, "conc_B_hi95": null, "conc_B_status": "unavailable", "conc_B_status_ru": "концентрация недоступна", "conc_B_reasons": "вне бассейна профиля: black_sea", "conc_B_model": "conc-B-c6bce5631d2b"}}, {"type": "Feature", "geometry": {"type": "Polygon", "coordinates": [[[131.81015163504065, 43.25421168958602], [131.8101474962849, 43.254121751184194], [131.81002444896998, 43.25412477623287], [131.810020310414, 43.25403483781985], [131.8101433575483, 43.254031812780624], [131.81013921883073, 43.253941874375315], [131.81038531268075, 43.253935823919214], [131.8103894517596, 43.254025762305616], [131.8105124988366, 43.25402273686985], [131.81051663811516, 43.25411267524505], [131.8103935908575, 43.25411570069029], [131.8103977299745, 43.254205639073206], [131.81015163504065, 43.25421168958602]]]}, "properties": {"zone_id": "vladivostok-2025-09-27-018", "aoi": "vladivostok", "date": "2025-09-27", "scene_id": "S2A_MSIL2A_20250927T021121_R103_T52TGN_20250927T061715", "scene_datetime_utc": "2025-09-27T02:11:21.024000+00:00", "detection_status": "detected", "detection_status_ru": "обнаружено", "lon": 131.81027, "lat": 43.25407, "n_pixels": 2, "zone_area_km2": 0.0008, "cover_m2": 10.6, "p_mean": 0.861, "p_max": 0.894, "cover_m2_km2": 13250.0, "h3": "88316ccdb7fffff", "valid_frac_scene": 1.0, "wind_ms": 3.0, "sea": "спокойное", "scene_reliable": true, "field_event_id": "S4:DOORS3:T23", "field_profile": "B", "field_date": "2024-06-10", "field_distance_km": 6968.9, "field_date_gap_days": 474, "field_conc_items_km2": 102.37, "conc_A_items_km2": null, "conc_A_lo80": null, "conc_A_hi80": null, "conc_A_lo95": null, "conc_A_hi95": null, "conc_A_status": "unavailable", "conc_A_status_ru": "концентрация недоступна", "conc_A_reasons": "вне бассейна профиля: nw_atlantic_subtropical", "conc_A_model": "conc-A-c6bce5631d2b", "conc_B_items_km2": null, "conc_B_lo80": null, "conc_B_hi80": null, "conc_B_lo95": null, "conc_B_hi95": null, "conc_B_status": "unavailable", "conc_B_status_ru": "концентрация недоступна", "conc_B_reasons": "вне бассейна профиля: black_sea", "conc_B_model": "conc-B-c6bce5631d2b"}}, {"type": "Feature", "geometry": {"type": "Polygon", "coordinates": [[[131.7503767754521, 43.22072983933104], [131.75037272939662, 43.220639895835795], [131.75024974319206, 43.220642854764776], [131.7502456973356, 43.220552911258565], [131.7503686833598, 43.220549952338835], [131.75036463734162, 43.22046000884014], [131.7506146553522, 43.22054403410321], [131.75061870174974, 43.22063397758169], [131.7504957155825, 43.220636936774774], [131.7504997618184, 43.22072688026076], [131.7503767754521, 43.22072983933104]]]}, "properties": {"zone_id": "vladivostok-2025-09-27-019", "aoi": "vladivostok", "date": "2025-09-27", "scene_id": "S2A_MSIL2A_20250927T021121_R103_T52TGN_20250927T061715", "scene_datetime_utc": "2025-09-27T02:11:21.024000+00:00", "detection_status": "detected", "detection_status_ru": "обнаружено", "lon": 131.75043, "lat": 43.22059, "n_pixels": 1, "zone_area_km2": 0.0005, "cover_m2": 11.8, "p_mean": 0.996, "p_max": 0.996, "cover_m2_km2": 23600.0, "h3": "88316c509bfffff", "valid_frac_scene": 1.0, "wind_ms": 3.0, "sea": "спокойное", "scene_reliable": true, "field_event_id": "S4:DOORS3:T23", "field_profile": "B", "field_date": "2024-06-10", "field_distance_km": 6967.0, "field_date_gap_days": 474, "field_conc_items_km2": 102.37, "conc_A_items_km2": null, "conc_A_lo80": null, "conc_A_hi80": null, "conc_A_lo95": null, "conc_A_hi95": null, "conc_A_status": "unavailable", "conc_A_status_ru": "концентрация недоступна", "conc_A_reasons": "вне бассейна профиля: nw_atlantic_subtropical", "conc_A_model": "conc-A-c6bce5631d2b", "conc_B_items_km2": null, "conc_B_lo80": null, "conc_B_hi80": null, "conc_B_lo95": null, "conc_B_hi95": null, "conc_B_status": "unavailable", "conc_B_status_ru": "концентрация недоступна", "conc_B_reasons": "вне бассейна профиля: black_sea", "conc_B_model": "conc-B-c6bce5631d2b"}}, {"type": "Feature", "geometry": {"type": "Polygon", "coordinates": [[[131.83149151307032, 43.22028011812596], [131.83148734784828, 43.22019018084271], [131.8313643710511, 43.22019322694422], [131.83136020602853, 43.22010328964971], [131.83148318264543, 43.220100243557724], [131.83147901746176, 43.220010306270986], [131.83172913582155, 43.22009415097766], [131.83173330138504, 43.22018408824362], [131.83161032462627, 43.220187134609176], [131.83161449002864, 43.22027707188291], [131.83149151307032, 43.22028011812596]]]}, "properties": {"zone_id": "vladivostok-2025-09-27-020", "aoi": "vladivostok", "date": "2025-09-27", "scene_id": "S2A_MSIL2A_20250927T021121_R103_T52TGN_20250927T061715", "scene_datetime_utc": "2025-09-27T02:11:21.024000+00:00", "detection_status": "detected", "detection_status_ru": "обнаружено", "lon": 131.83155, "lat": 43.22014, "n_pixels": 1, "zone_area_km2": 0.0005, "cover_m2": 5.1, "p_mean": 0.929, "p_max": 0.929, "cover_m2_km2": 10200.0, "h3": "88316c5623fffff", "valid_frac_scene": 1.0, "wind_ms": 3.0, "sea": "спокойное", "scene_reliable": true, "field_event_id": "S4:DOORS3:T23", "field_profile": "B", "field_date": "2024-06-10", "field_distance_km": 6972.5, "field_date_gap_days": 474, "field_conc_items_km2": 102.37, "conc_A_items_km2": null, "conc_A_lo80": null, "conc_A_hi80": null, "conc_A_lo95": null, "conc_A_hi95": null, "conc_A_status": "unavailable", "conc_A_status_ru": "концентрация недоступна", "conc_A_reasons": "вне бассейна профиля: nw_atlantic_subtropical", "conc_A_model": "conc-A-c6bce5631d2b", "conc_B_items_km2": null, "conc_B_lo80": null, "conc_B_hi80": null, "conc_B_lo95": null, "conc_B_hi95": null, "conc_B_status": "unavailable", "conc_B_status_ru": "концентрация недоступна", "conc_B_reasons": "вне бассейна профиля: black_sea", "conc_B_model": "conc-B-c6bce5631d2b"}}, {"type": "Feature", "geometry": {"type": "Polygon", "coordinates": [[[131.74997545264858, 43.22001916751744], [131.74997140728343, 43.21992922398067], [131.74984842246585, 43.219932182439535], [131.74984437729964, 43.21984223889179], [131.74996736193688, 43.21983928044218], [131.749963316609, 43.21974933690195], [131.7502092854668, 43.21974341962506], [131.75021333115538, 43.21983336314679], [131.75033631573666, 43.21983040430103], [131.75034036162427, 43.2199203478118], [131.75021737686265, 43.2199233066668], [131.75022142258854, 43.22001325018508], [131.74997545264858, 43.22001916751744]]]}, "properties": {"zone_id": "vladivostok-2025-09-27-021", "aoi": "vladivostok", "date": "2025-09-27", "scene_id": "S2A_MSIL2A_20250927T021121_R103_T52TGN_20250927T061715", "scene_datetime_utc": "2025-09-27T02:11:21.024000+00:00", "detection_status": "detected", "detection_status_ru": "обнаружено", "lon": 131.75009, "lat": 43.21988, "n_pixels": 2, "zone_area_km2": 0.0008, "cover_m2": 16.1, "p_mean": 0.88, "p_max": 0.98, "cover_m2_km2": 20125.0, "h3": "88316c509bfffff", "valid_frac_scene": 1.0, "wind_ms": 3.0, "sea": "спокойное", "scene_reliable": true, "field_event_id": "S4:DOORS3:T23", "field_profile": "B", "field_date": "2024-06-10", "field_distance_km": 6967.0, "field_date_gap_days": 474, "field_conc_items_km2": 102.37, "conc_A_items_km2": null, "conc_A_lo80": null, "conc_A_hi80": null, "conc_A_lo95": null, "conc_A_hi95": null, "conc_A_status": "unavailable", "conc_A_status_ru": "концентрация недоступна", "conc_A_reasons": "вне бассейна профиля: nw_atlantic_subtropical", "conc_A_model": "conc-A-c6bce5631d2b", "conc_B_items_km2": null, "conc_B_lo80": null, "conc_B_hi80": null, "conc_B_lo95": null, "conc_B_hi95": null, "conc_B_status": "unavailable", "conc_B_status_ru": "концентрация недоступна", "conc_B_reasons": "вне бассейна профиля: black_sea", "conc_B_model": "conc-B-c6bce5631d2b"}}, {"type": "Feature", "geometry": {"type": "Polygon", "coordinates": [[[131.73399426197201, 43.21229880585062], [131.73399024118228, 43.21220886098829], [131.73386727023313, 43.21221180184923], [131.7338632496422, 43.21212185697599], [131.73398622041105, 43.21211891612425], [131.73398219965839, 43.21202897125847], [131.73385922906982, 43.21203191210103], [131.73385118798063, 43.21185202234596], [131.73409310754064, 43.21175619570381], [131.73409712841803, 43.21184614056557], [131.7342200986089, 43.21184319947736], [131.7342241196851, 43.21193314432818], [131.73434709003774, 43.21193020309875], [131.73435513260637, 43.21211009277687], [131.73411321211287, 43.21220591999533], [131.73411723308294, 43.212295864848464], [131.73399426197201, 43.21229880585062]]]}, "properties": {"zone_id": "vladivostok-2025-09-27-022", "aoi": "vladivostok", "date": "2025-09-27", "scene_id": "S2A_MSIL2A_20250927T021121_R103_T52TGN_20250927T061715", "scene_datetime_utc": "2025-09-27T02:11:21.024000+00:00", "detection_status": "detected", "detection_status_ru": "обнаружено", "lon": 131.73409, "lat": 43.21202, "n_pixels": 5, "zone_area_km2": 0.0015, "cover_m2": 20.0, "p_mean": 0.885, "p_max": 0.98, "cover_m2_km2": 13333.3, "h3": "88316c5095fffff", "valid_frac_scene": 1.0, "wind_ms": 3.0, "sea": "спокойное", "scene_reliable": true, "field_event_id": "S4:DOORS3:T23", "field_profile": "B", "field_date": "2024-06-10", "field_distance_km": 6966.4, "field_date_gap_days": 474, "field_conc_items_km2": 102.37, "conc_A_items_km2": null, "conc_A_lo80": null, "conc_A_hi80": null, "conc_A_lo95": null, "conc_A_hi95": null, "conc_A_status": "unavailable", "conc_A_status_ru": "концентрация недоступна", "conc_A_reasons": "вне бассейна профиля: nw_atlantic_subtropical", "conc_A_model": "conc-A-c6bce5631d2b", "conc_B_items_km2": null, "conc_B_lo80": null, "conc_B_hi80": null, "conc_B_lo95": null, "conc_B_hi95": null, "conc_B_status": "unavailable", "conc_B_status_ru": "концентрация недоступна", "conc_B_reasons": "вне бассейна профиля: black_sea", "conc_B_model": "conc-B-c6bce5631d2b"}}, {"type": "Feature", "geometry": {"type": "Polygon", "coordinates": [[[131.73728850241707, 43.208888456361095], [131.73728447726558, 43.208798511692564], [131.73716151350618, 43.20880145590961], [131.73715748855352, 43.20871151123016], [131.73728045213264, 43.2087085670223], [131.7372764270183, 43.20861862235032], [131.73752637923528, 43.20870267821059], [131.73753040472874, 43.20879262286244], [131.73740744100644, 43.208795567343515], [131.73741146633822, 43.208885512002844], [131.73728850241707, 43.208888456361095]]]}, "properties": {"zone_id": "vladivostok-2025-09-27-023", "aoi": "vladivostok", "date": "2025-09-27", "scene_id": "S2A_MSIL2A_20250927T021121_R103_T52TGN_20250927T061715", "scene_datetime_utc": "2025-09-27T02:11:21.024000+00:00", "detection_status": "detected", "detection_status_ru": "обнаружено", "lon": 131.73734, "lat": 43.20875, "n_pixels": 1, "zone_area_km2": 0.0005, "cover_m2": 3.5, "p_mean": 0.91, "p_max": 0.91, "cover_m2_km2": 7000.0, "h3": "88316c5097fffff", "valid_frac_scene": 1.0, "wind_ms": 3.0, "sea": "спокойное", "scene_reliable": true, "field_event_id": "S4:DOORS3:T23", "field_profile": "B", "field_date": "2024-06-10", "field_distance_km": 6966.8, "field_date_gap_days": 474, "field_conc_items_km2": 102.37, "conc_A_items_km2": null, "conc_A_lo80": null, "conc_A_hi80": null, "conc_A_lo95": null, "conc_A_hi95": null, "conc_A_status": "unavailable", "conc_A_status_ru": "концентрация недоступна", "conc_A_reasons": "вне бассейна профиля: nw_atlantic_subtropical", "conc_A_model": "conc-A-c6bce5631d2b", "conc_B_items_km2": null, "conc_B_lo80": null, "conc_B_hi80": null, "conc_B_lo95": null, "conc_B_hi95": null, "conc_B_status": "unavailable", "conc_B_status_ru": "концентрация недоступна", "conc_B_reasons": "вне бассейна профиля: black_sea", "conc_B_model": "conc-B-c6bce5631d2b"}}, {"type": "Feature", "geometry": {"type": "Polygon", "coordinates": [[[131.7440795298667, 43.20386343105334], [131.74407549544458, 43.203773486816864], [131.74382555544776, 43.20368944491446], [131.74382152142329, 43.20359950065608], [131.743944474049, 43.203596549563414], [131.7439404398629, 43.20350660531255], [131.74419037924469, 43.203590646982114], [131.74419441380982, 43.20368059121281], [131.74431736655998, 43.203677639714975], [131.74432140132393, 43.20376758393473], [131.74419844839358, 43.20377053544179], [131.7442024829959, 43.20386047966904], [131.7440795298667, 43.20386343105334]]]}, "properties": {"zone_id": "vladivostok-2025-09-27-024", "aoi": "vladivostok", "date": "2025-09-27", "scene_id": "S2A_MSIL2A_20250927T021121_R103_T52TGN_20250927T061715", "scene_datetime_utc": "2025-09-27T02:11:21.024000+00:00", "detection_status": "detected", "detection_status_ru": "обнаружено", "lon": 131.74407, "lat": 43.20368, "n_pixels": 2, "zone_area_km2": 0.0008, "cover_m2": 8.6, "p_mean": 0.582, "p_max": 0.631, "cover_m2_km2": 10750.0, "h3": "88316c5569fffff", "valid_frac_scene": 1.0, "wind_ms": 3.0, "sea": "спокойное", "scene_reliable": true, "field_event_id": "S4:DOORS3:T23", "field_profile": "B", "field_date": "2024-06-10", "field_distance_km": 6967.6, "field_date_gap_days": 474, "field_conc_items_km2": 102.37, "conc_A_items_km2": null, "conc_A_lo80": null, "conc_A_hi80": null, "conc_A_lo95": null, "conc_A_hi95": null, "conc_A_status": "unavailable", "conc_A_status_ru": "концентрация недоступна", "conc_A_reasons": "вне бассейна профиля: nw_atlantic_subtropical", "conc_A_model": "conc-A-c6bce5631d2b", "conc_B_items_km2": null, "conc_B_lo80": null, "conc_B_hi80": null, "conc_B_lo95": null, "conc_B_hi95": null, "conc_B_status": "unavailable", "conc_B_status_ru": "концентрация недоступна", "conc_B_reasons": "вне бассейна профиля: black_sea", "conc_B_model": "conc-B-c6bce5631d2b"}}, {"type": "Feature", "geometry": {"type": "Polygon", "coordinates": [[[131.68173096372558, 43.17986124851639], [131.68172702420583, 43.17977129925464], [131.68160411306172, 43.179774182215375], [131.68160017374015, 43.17968423294289], [131.6817230847042, 43.17968134999117], [131.68171914522074, 43.17959140072601], [131.68196890657785, 43.17967558369207], [131.68197284643952, 43.179765532937516], [131.68184993533177, 43.17976841616202], [131.68185387503152, 43.17985836541475], [131.68173096372558, 43.17986124851639]]]}, "properties": {"zone_id": "vladivostok-2025-09-27-025", "aoi": "vladivostok", "date": "2025-09-27", "scene_id": "S2A_MSIL2A_20250927T021121_R103_T52TGN_20250927T061715", "scene_datetime_utc": "2025-09-27T02:11:21.024000+00:00", "detection_status": "detected", "detection_status_ru": "обнаружено", "lon": 131.68179, "lat": 43.17972, "n_pixels": 1, "zone_area_km2": 0.0005, "cover_m2": 4.7, "p_mean": 0.996, "p_max": 0.996, "cover_m2_km2": 9400.0, "h3": "88316c4205fffff", "valid_frac_scene": 1.0, "wind_ms": 3.0, "sea": "спокойное", "scene_reliable": true, "field_event_id": "S4:DOORS3:T23", "field_profile": "B", "field_date": "2024-06-10", "field_distance_km": 6964.8, "field_date_gap_days": 474, "field_conc_items_km2": 102.37, "conc_A_items_km2": null, "conc_A_lo80": null, "conc_A_hi80": null, "conc_A_lo95": null, "conc_A_hi95": null, "conc_A_status": "unavailable", "conc_A_status_ru": "концентрация недоступна", "conc_A_reasons": "вне бассейна профиля: nw_atlantic_subtropical", "conc_A_model": "conc-A-c6bce5631d2b", "conc_B_items_km2": null, "conc_B_lo80": null, "conc_B_hi80": null, "conc_B_lo95": null, "conc_B_hi95": null, "conc_B_status": "unavailable", "conc_B_status_ru": "концентрация недоступна", "conc_B_reasons": "вне бассейна профиля: black_sea", "conc_B_model": "conc-B-c6bce5631d2b"}}, {"type": "Feature", "geometry": {"type": "Polygon", "coordinates": [[[131.64734486579536, 43.16427500912106], [131.6473409788696, 43.16418505709642], [131.6472180955387, 43.164187902298956], [131.64721420881074, 43.1640979502637], [131.64733709196176, 43.164095105070054], [131.64733320507182, 43.164005153041984], [131.64758285821006, 43.16408941428726], [131.64758674547772, 43.16417936629583], [131.64746386218263, 43.16418221176203], [131.6474677492883, 43.1642721637778], [131.64734486579536, 43.16427500912106]]]}, "properties": {"zone_id": "vladivostok-2025-09-27-026", "aoi": "vladivostok", "date": "2025-09-27", "scene_id": "S2A_MSIL2A_20250927T021121_R103_T52TGN_20250927T061715", "scene_datetime_utc": "2025-09-27T02:11:21.024000+00:00", "detection_status": "detected", "detection_status_ru": "обнаружено", "lon": 131.6474, "lat": 43.16414, "n_pixels": 1, "zone_area_km2": 0.0005, "cover_m2": 4.3, "p_mean": 0.98, "p_max": 0.98, "cover_m2_km2": 8600.0, "h3": "88316c4311fffff", "valid_frac_scene": 1.0, "wind_ms": 3.0, "sea": "спокойное", "scene_reliable": true, "field_event_id": "S4:DOORS3:T23", "field_profile": "B", "field_date": "2024-06-10", "field_distance_km": 6963.5, "field_date_gap_days": 474, "field_conc_items_km2": 102.37, "conc_A_items_km2": null, "conc_A_lo80": null, "conc_A_hi80": null, "conc_A_lo95": null, "conc_A_hi95": null, "conc_A_status": "unavailable", "conc_A_status_ru": "концентрация недоступна", "conc_A_reasons": "вне бассейна профиля: nw_atlantic_subtropical", "conc_A_model": "conc-A-c6bce5631d2b", "conc_B_items_km2": null, "conc_B_lo80": null, "conc_B_hi80": null, "conc_B_lo95": null, "conc_B_hi95": null, "conc_B_status": "unavailable", "conc_B_status_ru": "концентрация недоступна", "conc_B_reasons": "вне бассейна профиля: black_sea", "conc_B_model": "conc-B-c6bce5631d2b"}}, {"type": "Feature", "geometry": {"type": "Polygon", "coordinates": [[[131.6518703686747, 43.16083857986974], [131.65186647557636, 43.16074862812031], [131.65174359958255, 43.1607514780027], [131.651739706682, 43.16066152624266], [131.65186258249594, 43.160658676369174], [131.65185868943345, 43.16056872461634], [131.65210833407, 43.16065297622676], [131.65211222751014, 43.16074292796008], [131.6519893515522, 43.1607457781061], [131.65199324483044, 43.160835729846625], [131.6518703686747, 43.16083857986974]]]}, "properties": {"zone_id": "vladivostok-2025-09-27-027", "aoi": "vladivostok", "date": "2025-09-27", "scene_id": "S2A_MSIL2A_20250927T021121_R103_T52TGN_20250927T061715", "scene_datetime_utc": "2025-09-27T02:11:21.024000+00:00", "detection_status": "detected", "detection_status_ru": "обнаружено", "lon": 131.65193, "lat": 43.1607, "n_pixels": 1, "zone_area_km2": 0.0005, "cover_m2": 3.1, "p_mean": 0.89, "p_max": 0.89, "cover_m2_km2": 6200.0, "h3": "88316c4313fffff", "valid_frac_scene": 1.0, "wind_ms": 3.0, "sea": "спокойное", "scene_reliable": true, "field_event_id": "S4:DOORS3:T23", "field_profile": "B", "field_date": "2024-06-10", "field_distance_km": 6964.0, "field_date_gap_days": 474, "field_conc_items_km2": 102.37, "conc_A_items_km2": null, "conc_A_lo80": null, "conc_A_hi80": null, "conc_A_lo95": null, "conc_A_hi95": null, "conc_A_status": "unavailable", "conc_A_status_ru": "концентрация недоступна", "conc_A_reasons": "вне бассейна профиля: nw_atlantic_subtropical", "conc_A_model": "conc-A-c6bce5631d2b", "conc_B_items_km2": null, "conc_B_lo80": null, "conc_B_hi80": null, "conc_B_lo95": null, "conc_B_hi95": null, "conc_B_status": "unavailable", "conc_B_status_ru": "концентрация недоступна", "conc_B_reasons": "вне бассейна профиля: black_sea", "conc_B_model": "conc-B-c6bce5631d2b"}}, {"type": "Feature", "geometry": {"type": "Polygon", "coordinates": [[[131.65258815463147, 43.160371719256936], [131.6525842605436, 43.16028176755245], [131.6524613855568, 43.16028461818115], [131.6524535977946, 43.16010471474925], [131.6526954528169, 43.16000906169496], [131.6526993470308, 43.160099013395644], [131.65282222162196, 43.160096162521135], [131.65283001046336, 43.160276065899595], [131.65258815463147, 43.160371719256936]]]}, "properties": {"zone_id": "vladivostok-2025-09-27-028", "aoi": "vladivostok", "date": "2025-09-27", "scene_id": "S2A_MSIL2A_20250927T021121_R103_T52TGN_20250927T061715", "scene_datetime_utc": "2025-09-27T02:11:21.024000+00:00", "detection_status": "detected", "detection_status_ru": "обнаружено", "lon": 131.65264, "lat": 43.16019, "n_pixels": 2, "zone_area_km2": 0.0008, "cover_m2": 5.1, "p_mean": 0.651, "p_max": 0.788, "cover_m2_km2": 6375.0, "h3": "88316c4313fffff", "valid_frac_scene": 1.0, "wind_ms": 3.0, "sea": "спокойное", "scene_reliable": true, "field_event_id": "S4:DOORS3:T23", "field_profile": "B", "field_date": "2024-06-10", "field_distance_km": 6964.1, "field_date_gap_days": 474, "field_conc_items_km2": 102.37, "conc_A_items_km2": null, "conc_A_lo80": null, "conc_A_hi80": null, "conc_A_lo95": null, "conc_A_hi95": null, "conc_A_status": "unavailable", "conc_A_status_ru": "концентрация недоступна", "conc_A_reasons": "вне бассейна профиля: nw_atlantic_subtropical", "conc_A_model": "conc-A-c6bce5631d2b", "conc_B_items_km2": null, "conc_B_lo80": null, "conc_B_hi80": null, "conc_B_lo95": null, "conc_B_hi95": null, "conc_B_status": "unavailable", "conc_B_status_ru": "концентрация недоступна", "conc_B_reasons": "вне бассейна профиля: black_sea", "conc_B_model": "conc-B-c6bce5631d2b"}}, {"type": "Feature", "geometry": {"type": "Polygon", "coordinates": [[[131.6516852079579, 43.15940220142336], [131.65168131532644, 43.15931224963778], [131.65155844219257, 43.15931509924587], [131.65155065734314, 43.159135195651814], [131.6516735301173, 43.15913234606154], [131.65166963753964, 43.15904239427085], [131.65191538267445, 43.1590366947127], [131.65191927561182, 43.15912664648558], [131.65204214833216, 43.15912379649989], [131.65204993462044, 43.1593037000227], [131.65192706154036, 43.1593065500262], [131.65193095453157, 43.15939650179395], [131.6516852079579, 43.15940220142336]]]}, "properties": {"zone_id": "vladivostok-2025-09-27-029", "aoi": "vladivostok", "date": "2025-09-27", "scene_id": "S2A_MSIL2A_20250927T021121_R103_T52TGN_20250927T061715", "scene_datetime_utc": "2025-09-27T02:11:21.024000+00:00", "detection_status": "detected", "detection_status_ru": "обнаружено", "lon": 131.6518, "lat": 43.15922, "n_pixels": 4, "zone_area_km2": 0.0012, "cover_m2": 16.5, "p_mean": 0.978, "p_max": 0.996, "cover_m2_km2": 13750.0, "h3": "88316c4313fffff", "valid_frac_scene": 1.0, "wind_ms": 3.0, "sea": "спокойное", "scene_reliable": true, "field_event_id": "S4:DOORS3:T23", "field_profile": "B", "field_date": "2024-06-10", "field_distance_km": 6964.1, "field_date_gap_days": 474, "field_conc_items_km2": 102.37, "conc_A_items_km2": null, "conc_A_lo80": null, "conc_A_hi80": null, "conc_A_lo95": null, "conc_A_hi95": null, "conc_A_status": "unavailable", "conc_A_status_ru": "концентрация недоступна", "conc_A_reasons": "вне бассейна профиля: nw_atlantic_subtropical", "conc_A_model": "conc-A-c6bce5631d2b", "conc_B_items_km2": null, "conc_B_lo80": null, "conc_B_hi80": null, "conc_B_lo95": null, "conc_B_hi95": null, "conc_B_status": "unavailable", "conc_B_status_ru": "концентрация недоступна", "conc_B_reasons": "вне бассейна профиля: black_sea", "conc_B_model": "conc-B-c6bce5631d2b"}}, {"type": "Feature", "geometry": {"type": "Polygon", "coordinates": [[[131.88556012172697, 43.15806059317425], [131.8855558862462, 43.15797065915585], [131.8854330400979, 43.15797375982179], [131.88542880481637, 43.15788382579196], [131.885551650785, 43.157880725135705], [131.88554741534327, 43.157790791113804], [131.88579734266375, 43.15787452342804], [131.88580157848438, 43.157964457428804], [131.88567873237506, 43.15796755835818], [131.8856829680355, 43.158057492366886], [131.88556012172697, 43.15806059317425]]]}, "properties": {"zone_id": "vladivostok-2025-09-27-030", "aoi": "vladivostok", "date": "2025-09-27", "scene_id": "S2A_MSIL2A_20250927T021121_R103_T52TGN_20250927T061715", "scene_datetime_utc": "2025-09-27T02:11:21.024000+00:00", "detection_status": "detected", "detection_status_ru": "обнаружено", "lon": 131.88562, "lat": 43.15792, "n_pixels": 1, "zone_area_km2": 0.0005, "cover_m2": 5.9, "p_mean": 0.906, "p_max": 0.906, "cover_m2_km2": 11800.0, "h3": "88316c54d9fffff", "valid_frac_scene": 1.0, "wind_ms": 3.0, "sea": "спокойное", "scene_reliable": true, "field_event_id": "S4:DOORS3:T23", "field_profile": "B", "field_date": "2024-06-10", "field_distance_km": 6979.9, "field_date_gap_days": 474, "field_conc_items_km2": 102.37, "conc_A_items_km2": null, "conc_A_lo80": null, "conc_A_hi80": null, "conc_A_lo95": null, "conc_A_hi95": null, "conc_A_status": "unavailable", "conc_A_status_ru": "концентрация недоступна", "conc_A_reasons": "вне бассейна профиля: nw_atlantic_subtropical", "conc_A_model": "conc-A-c6bce5631d2b", "conc_B_items_km2": null, "conc_B_lo80": null, "conc_B_hi80": null, "conc_B_lo95": null, "conc_B_hi95": null, "conc_B_status": "unavailable", "conc_B_status_ru": "концентрация недоступна", "conc_B_reasons": "вне бассейна профиля: black_sea", "conc_B_model": "conc-B-c6bce5631d2b"}}, {"type": "Feature", "geometry": {"type": "Polygon", "coordinates": [[[131.83039557819876, 43.11405876554558], [131.8303914300026, 43.11396882650243], [131.83026866599158, 43.11397186547036], [131.83026451799387, 43.11388192641598], [131.83038728182555, 43.113878887457545], [131.83038313366762, 43.11378894841092], [131.83063280943165, 43.11387280914607], [131.83063695796739, 43.11396274817197], [131.83051419399453, 43.11396578740297], [131.83051834237003, 43.11405572643662], [131.83039557819876, 43.11405876554558]]]}, "properties": {"zone_id": "vladivostok-2025-09-27-031", "aoi": "vladivostok", "date": "2025-09-27", "scene_id": "S2A_MSIL2A_20250927T021121_R103_T52TGN_20250927T061715", "scene_datetime_utc": "2025-09-27T02:11:21.024000+00:00", "detection_status": "detected", "detection_status_ru": "обнаружено", "lon": 131.83045, "lat": 43.11392, "n_pixels": 1, "zone_area_km2": 0.0005, "cover_m2": 7.8, "p_mean": 0.737, "p_max": 0.737, "cover_m2_km2": 15600.0, "h3": "88316c4641fffff", "valid_frac_scene": 1.0, "wind_ms": 3.0, "sea": "спокойное", "scene_reliable": true, "field_event_id": "S4:DOORS3:T23", "field_profile": "B", "field_date": "2024-06-10", "field_distance_km": 6978.9, "field_date_gap_days": 474, "field_conc_items_km2": 102.37, "conc_A_items_km2": null, "conc_A_lo80": null, "conc_A_hi80": null, "conc_A_lo95": null, "conc_A_hi95": null, "conc_A_status": "unavailable", "conc_A_status_ru": "концентрация недоступна", "conc_A_reasons": "вне бассейна профиля: nw_atlantic_subtropical", "conc_A_model": "conc-A-c6bce5631d2b", "conc_B_items_km2": null, "conc_B_lo80": null, "conc_B_hi80": null, "conc_B_lo95": null, "conc_B_hi95": null, "conc_B_status": "unavailable", "conc_B_status_ru": "концентрация недоступна", "conc_B_reasons": "вне бассейна профиля: black_sea", "conc_B_model": "conc-B-c6bce5631d2b"}}, {"type": "Feature", "geometry": {"type": "Polygon", "coordinates": [[[131.64063824005262, 43.09995970211583], [131.64063437166513, 43.09986974858983], [131.64051161636593, 43.09987258322305], [131.6405077481756, 43.09978262968649], [131.64063050329545, 43.09977979506214], [131.64062663494357, 43.099689841532744], [131.64087601348177, 43.09977412541881], [131.64087988221007, 43.09986407892879], [131.6407571269465, 43.09986691382507], [131.64076099551332, 43.09995686734222], [131.64063824005262, 43.09995970211583]]]}, "properties": {"zone_id": "vladivostok-2025-09-27-032", "aoi": "vladivostok", "date": "2025-09-27", "scene_id": "S2A_MSIL2A_20250927T021121_R103_T52TGN_20250927T061715", "scene_datetime_utc": "2025-09-27T02:11:21.024000+00:00", "detection_status": "detected", "detection_status_ru": "обнаружено", "lon": 131.64069, "lat": 43.09982, "n_pixels": 1, "zone_area_km2": 0.0005, "cover_m2": 4.3, "p_mean": 0.659, "p_max": 0.659, "cover_m2_km2": 8600.0, "h3": "88316c41c1fffff", "valid_frac_scene": 1.0, "wind_ms": 3.0, "sea": "спокойное", "scene_reliable": true, "field_event_id": "S4:DOORS3:T23", "field_profile": "B", "field_date": "2024-06-10", "field_distance_km": 6967.0, "field_date_gap_days": 474, "field_conc_items_km2": 102.37, "conc_A_items_km2": null, "conc_A_lo80": null, "conc_A_hi80": null, "conc_A_lo95": null, "conc_A_hi95": null, "conc_A_status": "unavailable", "conc_A_status_ru": "концентрация недоступна", "conc_A_reasons": "вне бассейна профиля: nw_atlantic_subtropical", "conc_A_model": "conc-A-c6bce5631d2b", "conc_B_items_km2": null, "conc_B_lo80": null, "conc_B_hi80": null, "conc_B_lo95": null, "conc_B_hi95": null, "conc_B_status": "unavailable", "conc_B_status_ru": "концентрация недоступна", "conc_B_reasons": "вне бассейна профиля: black_sea", "conc_B_model": "conc-B-c6bce5631d2b"}}, {"type": "Feature", "geometry": {"type": "Polygon", "coordinates": [[[131.63699720075152, 43.09815282353705], [131.63699333793795, 43.0980628697186], [131.63687058588806, 43.09806570035145], [131.63686286067295, 43.09788579269175], [131.63710450109826, 43.09779017751522], [131.63710836403774, 43.097880131329916], [131.63723111569342, 43.0978773004517], [131.63723884198438, 43.09805720805833], [131.63699720075152, 43.09815282353705]]]}, "properties": {"zone_id": "vladivostok-2025-09-27-033", "aoi": "vladivostok", "date": "2025-09-27", "scene_id": "S2A_MSIL2A_20250927T021121_R103_T52TGN_20250927T061715", "scene_datetime_utc": "2025-09-27T02:11:21.024000+00:00", "detection_status": "detected", "detection_status_ru": "обнаружено", "lon": 131.63705, "lat": 43.09797, "n_pixels": 2, "zone_area_km2": 0.0008, "cover_m2": 10.2, "p_mean": 0.833, "p_max": 1.0, "cover_m2_km2": 12750.0, "h3": "88316c41c1fffff", "valid_frac_scene": 1.0, "wind_ms": 3.0, "sea": "спокойное", "scene_reliable": true, "field_event_id": "S4:DOORS3:T23", "field_profile": "B", "field_date": "2024-06-10", "field_distance_km": 6966.9, "field_date_gap_days": 474, "field_conc_items_km2": 102.37, "conc_A_items_km2": null, "conc_A_lo80": null, "conc_A_hi80": null, "conc_A_lo95": null, "conc_A_hi95": null, "conc_A_status": "unavailable", "conc_A_status_ru": "концентрация недоступна", "conc_A_reasons": "вне бассейна профиля: nw_atlantic_subtropical", "conc_A_model": "conc-A-c6bce5631d2b", "conc_B_items_km2": null, "conc_B_lo80": null, "conc_B_hi80": null, "conc_B_lo95": null, "conc_B_hi95": null, "conc_B_status": "unavailable", "conc_B_status_ru": "концентрация недоступна", "conc_B_reasons": "вне бассейна профиля: black_sea", "conc_B_model": "conc-B-c6bce5631d2b"}}, {"type": "Feature", "geometry": {"type": "Polygon", "coordinates": [[[131.85084888151016, 43.075462903160165], [131.85084470899062, 43.075372965104755], [131.85072202422822, 43.07537602383346], [131.85071785190684, 43.07528608576674], [131.85084053649027, 43.07528302704759], [131.85083636400915, 43.07519308898867], [131.8510859055995, 43.0752769092152], [131.85109007845776, 43.07536684725326], [131.85096739373378, 43.075369906244674], [131.85097156643232, 43.07545984429053], [131.85084888151016, 43.075462903160165]]]}, "properties": {"zone_id": "vladivostok-2025-09-27-034", "aoi": "vladivostok", "date": "2025-09-27", "scene_id": "S2A_MSIL2A_20250927T021121_R103_T52TGN_20250927T061715", "scene_datetime_utc": "2025-09-27T02:11:21.024000+00:00", "detection_status": "detected", "detection_status_ru": "обнаружено", "lon": 131.8509, "lat": 43.07533, "n_pixels": 1, "zone_area_km2": 0.0005, "cover_m2": 3.9, "p_mean": 0.91, "p_max": 0.91, "cover_m2_km2": 7800.0, "h3": "88316c4613fffff", "valid_frac_scene": 1.0, "wind_ms": 3.0, "sea": "спокойное", "scene_reliable": true, "field_event_id": "S4:DOORS3:T23", "field_profile": "B", "field_date": "2024-06-10", "field_distance_km": 6982.7, "field_date_gap_days": 474, "field_conc_items_km2": 102.37, "conc_A_items_km2": null, "conc_A_lo80": null, "conc_A_hi80": null, "conc_A_lo95": null, "conc_A_hi95": null, "conc_A_status": "unavailable", "conc_A_status_ru": "концентрация недоступна", "conc_A_reasons": "вне бассейна профиля: nw_atlantic_subtropical", "conc_A_model": "conc-A-c6bce5631d2b", "conc_B_items_km2": null, "conc_B_lo80": null, "conc_B_hi80": null, "conc_B_lo95": null, "conc_B_hi95": null, "conc_B_status": "unavailable", "conc_B_status_ru": "концентрация недоступна", "conc_B_reasons": "вне бассейна профиля: black_sea", "conc_B_model": "conc-B-c6bce5631d2b"}}, {"type": "Feature", "geometry": {"type": "Polygon", "coordinates": [[[131.86873641106, 43.07186405616615], [131.86873221290958, 43.07177411945932], [131.86860953724258, 43.071777197159584], [131.86860533929038, 43.07168726044138], [131.8687280147785, 43.07168418275073], [131.86872381666672, 43.071594246040405], [131.86897336569666, 43.07167802697545], [131.86897756418563, 43.07176796366479], [131.86885488855728, 43.07177104162772], [131.86885908688663, 43.07186097832493], [131.86873641106, 43.07186405616615]]]}, "properties": {"zone_id": "vladivostok-2025-09-27-035", "aoi": "vladivostok", "date": "2025-09-27", "scene_id": "S2A_MSIL2A_20250927T021121_R103_T52TGN_20250927T061715", "scene_datetime_utc": "2025-09-27T02:11:21.024000+00:00", "detection_status": "detected", "detection_status_ru": "обнаружено", "lon": 131.86879, "lat": 43.07173, "n_pixels": 1, "zone_area_km2": 0.0005, "cover_m2": 8.2, "p_mean": 0.996, "p_max": 0.996, "cover_m2_km2": 16400.0, "h3": "88316c46c9fffff", "valid_frac_scene": 1.0, "wind_ms": 3.0, "sea": "спокойное", "scene_reliable": true, "field_event_id": "S4:DOORS3:T23", "field_profile": "B", "field_date": "2024-06-10", "field_distance_km": 6984.1, "field_date_gap_days": 474, "field_conc_items_km2": 102.37, "conc_A_items_km2": null, "conc_A_lo80": null, "conc_A_hi80": null, "conc_A_lo95": null, "conc_A_hi95": null, "conc_A_status": "unavailable", "conc_A_status_ru": "концентрация недоступна", "conc_A_reasons": "вне бассейна профиля: nw_atlantic_subtropical", "conc_A_model": "conc-A-c6bce5631d2b", "conc_B_items_km2": null, "conc_B_lo80": null, "conc_B_hi80": null, "conc_B_lo95": null, "conc_B_hi95": null, "conc_B_status": "unavailable", "conc_B_status_ru": "концентрация недоступна", "conc_B_reasons": "вне бассейна профиля: black_sea", "conc_B_model": "conc-B-c6bce5631d2b"}}, {"type": "Feature", "geometry": {"type": "Polygon", "coordinates": [[[131.84959982780433, 43.06441885266158], [131.8495956587199, 43.06432891433428], [131.84947299584928, 43.064331971099506], [131.84946882696292, 43.064242032760916], [131.84959148965464, 43.06423897600524], [131.84958732060858, 43.064149037674454], [131.8498368149805, 43.06423286209997], [131.84984098440347, 43.06432280040991], [131.8497183215713, 43.06432585743776], [131.84972249083458, 43.06441579575551], [131.84959982780433, 43.06441885266158]]]}, "properties": {"zone_id": "vladivostok-2025-09-27-036", "aoi": "vladivostok", "date": "2025-09-27", "scene_id": "S2A_MSIL2A_20250927T021121_R103_T52TGN_20250927T061715", "scene_datetime_utc": "2025-09-27T02:11:21.024000+00:00", "detection_status": "detected", "detection_status_ru": "обнаружено", "lon": 131.84965, "lat": 43.06428, "n_pixels": 1, "zone_area_km2": 0.0005, "cover_m2": 3.5, "p_mean": 0.949, "p_max": 0.949, "cover_m2_km2": 7000.0, "h3": "88316c46e9fffff", "valid_frac_scene": 1.0, "wind_ms": 3.0, "sea": "спокойное", "scene_reliable": true, "field_event_id": "S4:DOORS3:T23", "field_profile": "B", "field_date": "2024-06-10", "field_distance_km": 6983.3, "field_date_gap_days": 474, "field_conc_items_km2": 102.37, "conc_A_items_km2": null, "conc_A_lo80": null, "conc_A_hi80": null, "conc_A_lo95": null, "conc_A_hi95": null, "conc_A_status": "unavailable", "conc_A_status_ru": "концентрация недоступна", "conc_A_reasons": "вне бассейна профиля: nw_atlantic_subtropical", "conc_A_model": "conc-A-c6bce5631d2b", "conc_B_items_km2": null, "conc_B_lo80": null, "conc_B_hi80": null, "conc_B_lo95": null, "conc_B_hi95": null, "conc_B_status": "unavailable", "conc_B_status_ru": "концентрация недоступна", "conc_B_reasons": "вне бассейна профиля: black_sea", "conc_B_model": "conc-B-c6bce5631d2b"}}, {"type": "Feature", "geometry": {"type": "Polygon", "coordinates": [[[131.81752641135492, 43.063953044140014], [131.81752228922446, 43.06386310330865], [131.81739962387758, 43.063866125669676], [131.817395501945, 43.06377618482711], [131.817518167113, 43.06377316247554], [131.81751404502054, 43.063683221640694], [131.81775937494191, 43.0636771765625], [131.81776349739218, 43.06376711737845], [131.81788616250327, 43.06376409463294], [131.81789028515138, 43.06385403543771], [131.8177676198614, 43.06385705819266], [131.8177717423496, 43.06394699900513], [131.81752641135492, 43.063953044140014]]]}, "properties": {"zone_id": "vladivostok-2025-09-27-037", "aoi": "vladivostok", "date": "2025-09-27", "scene_id": "S2A_MSIL2A_20250927T021121_R103_T52TGN_20250927T061715", "scene_datetime_utc": "2025-09-27T02:11:21.024000+00:00", "detection_status": "detected", "detection_status_ru": "обнаружено", "lon": 131.81764, "lat": 43.06382, "n_pixels": 2, "zone_area_km2": 0.0008, "cover_m2": 12.5, "p_mean": 0.867, "p_max": 0.878, "cover_m2_km2": 15625.0, "h3": "88316c4637fffff", "valid_frac_scene": 1.0, "wind_ms": 3.0, "sea": "спокойное", "scene_reliable": true, "field_event_id": "S4:DOORS3:T23", "field_profile": "B", "field_date": "2024-06-10", "field_distance_km": 6981.2, "field_date_gap_days": 474, "field_conc_items_km2": 102.37, "conc_A_items_km2": null, "conc_A_lo80": null, "conc_A_hi80": null, "conc_A_lo95": null, "conc_A_hi95": null, "conc_A_status": "unavailable", "conc_A_status_ru": "концентрация недоступна", "conc_A_reasons": "вне бассейна профиля: nw_atlantic_subtropical", "conc_A_model": "conc-A-c6bce5631d2b", "conc_B_items_km2": null, "conc_B_lo80": null, "conc_B_hi80": null, "conc_B_lo95": null, "conc_B_hi95": null, "conc_B_status": "unavailable", "conc_B_status_ru": "концентрация недоступна", "conc_B_reasons": "вне бассейна профиля: black_sea", "conc_B_model": "conc-B-c6bce5631d2b"}}, {"type": "Feature", "geometry": {"type": "Polygon", "coordinates": [[[131.70290523464575, 43.062937937540916], [131.70290128022364, 43.06284798800174], [131.70277860504686, 43.062850887444085], [131.7027746508219, 43.06276093789416], [131.7028973258197, 43.06275803846086], [131.70289337143396, 43.06266808891828], [131.70313872101707, 43.0626622896758], [131.70314267576072, 43.06275223920025], [131.7032653507039, 43.06274933937292], [131.70326930564465, 43.062839288886614], [131.70314663052253, 43.06284218872299], [131.70315058530252, 43.06293213824404], [131.70290523464575, 43.062937937540916]]]}, "properties": {"zone_id": "vladivostok-2025-09-27-038", "aoi": "vladivostok", "date": "2025-09-27", "scene_id": "S2A_MSIL2A_20250927T021121_R103_T52TGN_20250927T061715", "scene_datetime_utc": "2025-09-27T02:11:21.024000+00:00", "detection_status": "detected", "detection_status_ru": "обнаружено", "lon": 131.70302, "lat": 43.0628, "n_pixels": 2, "zone_area_km2": 0.0008, "cover_m2": 5.1, "p_mean": 0.743, "p_max": 0.843, "cover_m2_km2": 6375.0, "h3": "88316c40bbfffff", "valid_frac_scene": 1.0, "wind_ms": 3.0, "sea": "спокойное", "scene_reliable": true, "field_event_id": "S4:DOORS3:T23", "field_profile": "B", "field_date": "2024-06-10", "field_distance_km": 6973.5, "field_date_gap_days": 474, "field_conc_items_km2": 102.37, "conc_A_items_km2": null, "conc_A_lo80": null, "conc_A_hi80": null, "conc_A_lo95": null, "conc_A_hi95": null, "conc_A_status": "unavailable", "conc_A_status_ru": "концентрация недоступна", "conc_A_reasons": "вне бассейна профиля: nw_atlantic_subtropical", "conc_A_model": "conc-A-c6bce5631d2b", "conc_B_items_km2": null, "conc_B_lo80": null, "conc_B_hi80": null, "conc_B_lo95": null, "conc_B_hi95": null, "conc_B_status": "unavailable", "conc_B_status_ru": "концентрация недоступна", "conc_B_reasons": "вне бассейна профиля: black_sea", "conc_B_model": "conc-B-c6bce5631d2b"}}, {"type": "Feature", "geometry": {"type": "Polygon", "coordinates": [[[131.63982159613613, 43.01515768662456], [131.6398177403818, 43.01506773170231], [131.63969515404509, 43.01507056101659], [131.639691298487, 43.01498060608381], [131.6398138846452, 43.01497777677837], [131.63981002892635, 43.01488782185273], [131.6400590569083, 43.01497211777405], [131.640062913002, 43.0150620726803], [131.63994032670078, 43.01506490225688], [131.63994418263368, 43.01515485717027], [131.63982159613613, 43.01515768662456]]]}, "properties": {"zone_id": "vladivostok-2025-09-27-039", "aoi": "vladivostok", "date": "2025-09-27", "scene_id": "S2A_MSIL2A_20250927T021121_R103_T52TGN_20250927T061715", "scene_datetime_utc": "2025-09-27T02:11:21.024000+00:00", "detection_status": "detected", "detection_status_ru": "обнаружено", "lon": 131.63988, "lat": 43.01502, "n_pixels": 1, "zone_area_km2": 0.0005, "cover_m2": 3.9, "p_mean": 0.894, "p_max": 0.894, "cover_m2_km2": 7800.0, "h3": "88316c4c4dfffff", "valid_frac_scene": 1.0, "wind_ms": 3.0, "sea": "спокойное", "scene_reliable": true, "field_event_id": "S4:DOORS3:T23", "field_profile": "B", "field_date": "2024-06-10", "field_distance_km": 6972.2, "field_date_gap_days": 474, "field_conc_items_km2": 102.37, "conc_A_items_km2": null, "conc_A_lo80": null, "conc_A_hi80": null, "conc_A_lo95": null, "conc_A_hi95": null, "conc_A_status": "unavailable", "conc_A_status_ru": "концентрация недоступна", "conc_A_reasons": "вне бассейна профиля: nw_atlantic_subtropical", "conc_A_model": "conc-A-c6bce5631d2b", "conc_B_items_km2": null, "conc_B_lo80": null, "conc_B_hi80": null, "conc_B_lo95": null, "conc_B_hi95": null, "conc_B_status": "unavailable", "conc_B_status_ru": "концентрация недоступна", "conc_B_reasons": "вне бассейна профиля: black_sea", "conc_B_model": "conc-B-c6bce5631d2b"}}, {"type": "Feature", "geometry": {"type": "Polygon", "coordinates": [[[131.96018367194634, 43.01208640985851], [131.96017934912277, 43.011996479531355], [131.95992993335955, 43.01191289347725], [131.95992561093237, 43.011822963126704], [131.9600481572438, 43.011819791064724], [131.9600438346582, 43.01172986072235], [131.9602932498069, 43.01181344654768], [131.960297572769, 43.01190337686847], [131.96042011919906, 43.0119002044035], [131.96042444235937, 43.01199013471259], [131.96030189575103, 43.01199330718748], [131.9603062187529, 43.012083237504726], [131.96018367194634, 43.01208640985851]]]}, "properties": {"zone_id": "vladivostok-2025-09-27-040", "aoi": "vladivostok", "date": "2025-09-27", "scene_id": "S2A_MSIL2A_20250927T021121_R103_T52TGN_20250927T061715", "scene_datetime_utc": "2025-09-27T02:11:21.024000+00:00", "detection_status": "detected", "detection_status_ru": "обнаружено", "lon": 131.96018, "lat": 43.01191, "n_pixels": 2, "zone_area_km2": 0.0008, "cover_m2": 8.2, "p_mean": 0.971, "p_max": 0.973, "cover_m2_km2": 10250.0, "h3": "88316c720dfffff", "valid_frac_scene": 1.0, "wind_ms": 3.0, "sea": "спокойное", "scene_reliable": true, "field_event_id": "S4:DOORS3:T23", "field_profile": "B", "field_date": "2024-06-10", "field_distance_km": 6994.0, "field_date_gap_days": 474, "field_conc_items_km2": 102.37, "conc_A_items_km2": null, "conc_A_lo80": null, "conc_A_hi80": null, "conc_A_lo95": null, "conc_A_hi95": null, "conc_A_status": "unavailable", "conc_A_status_ru": "концентрация недоступна", "conc_A_reasons": "вне бассейна профиля: nw_atlantic_subtropical", "conc_A_model": "conc-A-c6bce5631d2b", "conc_B_items_km2": null, "conc_B_lo80": null, "conc_B_hi80": null, "conc_B_lo95": null, "conc_B_hi95": null, "conc_B_status": "unavailable", "conc_B_status_ru": "концентрация недоступна", "conc_B_reasons": "вне бассейна профиля: black_sea", "conc_B_model": "conc-B-c6bce5631d2b"}}, {"type": "Feature", "geometry": {"type": "Polygon", "coordinates": [[[131.74408079596992, 43.00595046420827], [131.7440767893358, 43.00586051685167], [131.7439542318143, 43.00586345732658], [131.7439462189582, 43.00568356258982], [131.7441873265119, 43.00558773419313], [131.7441913332691, 43.0056776815457], [131.7443138903969, 43.00567474082704], [131.74432190432344, 43.005854635508626], [131.74408079596992, 43.00595046420827]]]}, "properties": {"zone_id": "vladivostok-2025-09-27-041", "aoi": "vladivostok", "date": "2025-09-27", "scene_id": "S2A_MSIL2A_20250927T021121_R103_T52TGN_20250927T061715", "scene_datetime_utc": "2025-09-27T02:11:21.024000+00:00", "detection_status": "detected", "detection_status_ru": "обнаружено", "lon": 131.74413, "lat": 43.00577, "n_pixels": 2, "zone_area_km2": 0.0008, "cover_m2": 8.6, "p_mean": 0.902, "p_max": 0.914, "cover_m2_km2": 10750.0, "h3": "88316c45e5fffff", "valid_frac_scene": 1.0, "wind_ms": 3.0, "sea": "спокойное", "scene_reliable": true, "field_event_id": "S4:DOORS3:T23", "field_profile": "B", "field_date": "2024-06-10", "field_distance_km": 6979.8, "field_date_gap_days": 474, "field_conc_items_km2": 102.37, "conc_A_items_km2": null, "conc_A_lo80": null, "conc_A_hi80": null, "conc_A_lo95": null, "conc_A_hi95": null, "conc_A_status": "unavailable", "conc_A_status_ru": "концентрация недоступна", "conc_A_reasons": "вне бассейна профиля: nw_atlantic_subtropical", "conc_A_model": "conc-A-c6bce5631d2b", "conc_B_items_km2": null, "conc_B_lo80": null, "conc_B_hi80": null, "conc_B_lo95": null, "conc_B_hi95": null, "conc_B_status": "unavailable", "conc_B_status_ru": "концентрация недоступна", "conc_B_reasons": "вне бассейна профиля: black_sea", "conc_B_model": "conc-B-c6bce5631d2b"}}, {"type": "Feature", "geometry": {"type": "Polygon", "coordinates": [[[131.96167200279817, 42.981793627717856], [131.96166768237748, 42.98170369703445], [131.96154519607546, 42.981706869058605], [131.96153655564981, 42.98152700766666], [131.96177720698273, 42.98143073284831], [131.96178152752185, 42.981520663527114], [131.96190401342807, 42.98151749126101], [131.96191265492195, 42.981697352593464], [131.96167200279817, 42.981793627717856]]]}, "properties": {"zone_id": "vladivostok-2025-09-27-042", "aoi": "vladivostok", "date": "2025-09-27", "scene_id": "S2A_MSIL2A_20250927T021121_R103_T52TGN_20250927T061715", "scene_datetime_utc": "2025-09-27T02:11:21.024000+00:00", "detection_status": "detected", "detection_status_ru": "обнаружено", "lon": 131.96172, "lat": 42.98161, "n_pixels": 2, "zone_area_km2": 0.0008, "cover_m2": 8.2, "p_mean": 0.843, "p_max": 0.941, "cover_m2_km2": 10250.0, "h3": "88316c7231fffff", "valid_frac_scene": 1.0, "wind_ms": 3.0, "sea": "спокойное", "scene_reliable": true, "field_event_id": "S4:DOORS3:T23", "field_profile": "B", "field_date": "2024-06-10", "field_distance_km": 6996.0, "field_date_gap_days": 474, "field_conc_items_km2": 102.37, "conc_A_items_km2": null, "conc_A_lo80": null, "conc_A_hi80": null, "conc_A_lo95": null, "conc_A_hi95": null, "conc_A_status": "unavailable", "conc_A_status_ru": "концентрация недоступна", "conc_A_reasons": "вне бассейна профиля: nw_atlantic_subtropical", "conc_A_model": "conc-A-c6bce5631d2b", "conc_B_items_km2": null, "conc_B_lo80": null, "conc_B_hi80": null, "conc_B_lo95": null, "conc_B_hi95": null, "conc_B_status": "unavailable", "conc_B_status_ru": "концентрация недоступна", "conc_B_reasons": "вне бассейна профиля: black_sea", "conc_B_model": "conc-B-c6bce5631d2b"}}, {"type": "Feature", "geometry": {"type": "Polygon", "coordinates": [[[131.97948172193964, 42.97727909824206], [131.97947737624722, 42.977189168940896], [131.97935490088526, 42.97719235975578], [131.97934620991632, 42.977012501128236], [131.9795868140978, 42.97691619011102], [131.97959115990824, 42.977006119407505], [131.97971363487423, 42.97700292835086], [131.9797223269111, 42.97718278691857], [131.97948172193964, 42.97727909824206]]]}, "properties": {"zone_id": "vladivostok-2025-09-27-043", "aoi": "vladivostok", "date": "2025-09-27", "scene_id": "S2A_MSIL2A_20250927T021121_R103_T52TGN_20250927T061715", "scene_datetime_utc": "2025-09-27T02:11:21.024000+00:00", "detection_status": "detected", "detection_status_ru": "обнаружено", "lon": 131.97953, "lat": 42.9771, "n_pixels": 2, "zone_area_km2": 0.0008, "cover_m2": 12.2, "p_mean": 0.759, "p_max": 0.831, "cover_m2_km2": 15250.0, "h3": "88316c72edfffff", "valid_frac_scene": 1.0, "wind_ms": 3.0, "sea": "спокойное", "scene_reliable": true, "field_event_id": "S4:DOORS3:T23", "field_profile": "B", "field_date": "2024-06-10", "field_distance_km": 6997.5, "field_date_gap_days": 474, "field_conc_items_km2": 102.37, "conc_A_items_km2": null, "conc_A_lo80": null, "conc_A_hi80": null, "conc_A_lo95": null, "conc_A_hi95": null, "conc_A_status": "unavailable", "conc_A_status_ru": "концентрация недоступна", "conc_A_reasons": "вне бассейна профиля: nw_atlantic_subtropical", "conc_A_model": "conc-A-c6bce5631d2b", "conc_B_items_km2": null, "conc_B_lo80": null, "conc_B_hi80": null, "conc_B_lo95": null, "conc_B_hi95": null, "conc_B_status": "unavailable", "conc_B_status_ru": "концентрация недоступна", "conc_B_reasons": "вне бассейна профиля: black_sea", "conc_B_model": "conc-B-c6bce5631d2b"}}, {"type": "Feature", "geometry": {"type": "Polygon", "coordinates": [[[131.96287819939772, 42.97626978543516], [131.96287387805302, 42.97617985476287], [131.96275140284854, 42.97618302775257], [131.9627470817017, 42.97609309706859], [131.9628695567282, 42.97608992408882], [131.96286523542327, 42.975999993413005], [131.96311450672164, 42.9760835777367], [131.9631188284024, 42.9761735083909], [131.96299635323766, 42.976176681642315], [131.96300067476034, 42.97626661230469], [131.96287819939772, 42.97626978543516]]]}, "properties": {"zone_id": "vladivostok-2025-09-27-044", "aoi": "vladivostok", "date": "2025-09-27", "scene_id": "S2A_MSIL2A_20250927T021121_R103_T52TGN_20250927T061715", "scene_datetime_utc": "2025-09-27T02:11:21.024000+00:00", "detection_status": "detected", "detection_status_ru": "обнаружено", "lon": 131.96293, "lat": 42.97613, "n_pixels": 1, "zone_area_km2": 0.0005, "cover_m2": 3.9, "p_mean": 0.914, "p_max": 0.914, "cover_m2_km2": 7800.0, "h3": "88316c7233fffff", "valid_frac_scene": 1.0, "wind_ms": 3.0, "sea": "спокойное", "scene_reliable": true, "field_event_id": "S4:DOORS3:T23", "field_profile": "B", "field_date": "2024-06-10", "field_distance_km": 6996.4, "field_date_gap_days": 474, "field_conc_items_km2": 102.37, "conc_A_items_km2": null, "conc_A_lo80": null, "conc_A_hi80": null, "conc_A_lo95": null, "conc_A_hi95": null, "conc_A_status": "unavailable", "conc_A_status_ru": "концентрация недоступна", "conc_A_reasons": "вне бассейна профиля: nw_atlantic_subtropical", "conc_A_model": "conc-A-c6bce5631d2b", "conc_B_items_km2": null, "conc_B_lo80": null, "conc_B_hi80": null, "conc_B_lo95": null, "conc_B_hi95": null, "conc_B_status": "unavailable", "conc_B_status_ru": "концентрация недоступна", "conc_B_reasons": "вне бассейна профиля: black_sea", "conc_B_model": "conc-B-c6bce5631d2b"}}, {"type": "Feature", "geometry": {"type": "Polygon", "coordinates": [[[131.971315951932, 42.97578074247082], [131.97131161836592, 42.975690812478604], [131.97118914506854, 42.97569399446768], [131.97118481170034, 42.97560406446375], [131.97130728481972, 42.97560088248463], [131.97130295129347, 42.97551095248887], [131.97155223099867, 42.97559451813381], [131.97155656490082, 42.9756844481079], [131.97143409164335, 42.97568763035868], [131.97143842538742, 42.97577756034096], [131.971315951932, 42.97578074247082]]]}, "properties": {"zone_id": "vladivostok-2025-09-27-045", "aoi": "vladivostok", "date": "2025-09-27", "scene_id": "S2A_MSIL2A_20250927T021121_R103_T52TGN_20250927T061715", "scene_datetime_utc": "2025-09-27T02:11:21.024000+00:00", "detection_status": "detected", "detection_status_ru": "обнаружено", "lon": 131.97137, "lat": 42.97564, "n_pixels": 1, "zone_area_km2": 0.0005, "cover_m2": 5.1, "p_mean": 0.529, "p_max": 0.529, "cover_m2_km2": 10200.0, "h3": "88316c72edfffff", "valid_frac_scene": 1.0, "wind_ms": 3.0, "sea": "спокойное", "scene_reliable": true, "field_event_id": "S4:DOORS3:T23", "field_profile": "B", "field_date": "2024-06-10", "field_distance_km": 6997.0, "field_date_gap_days": 474, "field_conc_items_km2": 102.37, "conc_A_items_km2": null, "conc_A_lo80": null, "conc_A_hi80": null, "conc_A_lo95": null, "conc_A_hi95": null, "conc_A_status": "unavailable", "conc_A_status_ru": "концентрация недоступна", "conc_A_reasons": "вне бассейна профиля: nw_atlantic_subtropical", "conc_A_model": "conc-A-c6bce5631d2b", "conc_B_items_km2": null, "conc_B_lo80": null, "conc_B_hi80": null, "conc_B_lo95": null, "conc_B_hi95": null, "conc_B_status": "unavailable", "conc_B_status_ru": "концентрация недоступна", "conc_B_reasons": "вне бассейна профиля: black_sea", "conc_B_model": "conc-B-c6bce5631d2b"}}]}