{"type": "FeatureCollection", "features": [{"type": "Feature", "geometry": {"type": "Polygon", "coordinates": [[[44.69741323220229, 48.86884317759832], [44.69741377461546, 48.868753220632016], [44.69727741507969, 48.868752862719994], [44.697277957734606, 48.86866290575338], [44.69741431702596, 48.86866326366428], [44.697414859433756, 48.86857330669514], [44.69768757753567, 48.86857402203092], [44.69768703561671, 48.868663979002314], [44.69782339491612, 48.868664336429454], [44.697822853238904, 48.86875429340058], [44.69768649369508, 48.86875393597231], [44.69768595177075, 48.868843892940866], [44.69741323220229, 48.86884317759832]]]}, "properties": {"zone_id": "volgograd-2025-06-04-001", "aoi": "volgograd", "date": "2025-06-04", "scene_id": "S2A_MSIL2A_20250604T080021_R035_T38UMV_20250604T112417", "scene_datetime_utc": "2025-06-04T08:00:21.024000+00:00", "detection_status": "detected", "detection_status_ru": "обнаружено", "lon": 44.69755, "lat": 48.86871, "n_pixels": 2, "zone_area_km2": 0.0008, "cover_m2": 7.5, "p_mean": 0.947, "p_max": 0.98, "cover_m2_km2": 9375.0, "h3": "882d48a0b5fffff", "valid_frac_scene": 0.993, "wind_ms": 5.5, "sea": "спокойное", "scene_reliable": true, "field_event_id": "S4:DOORS3:T23", "field_profile": "B", "field_date": "2024-06-10", "field_distance_km": 765.9, "field_date_gap_days": 359, "field_conc_items_km2": 102.37, "conc_A_items_km2": null, "conc_A_lo80": null, "conc_A_hi80": null, "conc_A_lo95": null, "conc_A_hi95": null, "conc_A_status": "unavailable", "conc_A_status_ru": "концентрация недоступна", "conc_A_reasons": "вне бассейна профиля: nw_atlantic_subtropical", "conc_A_model": "conc-A-c6bce5631d2b", "conc_B_items_km2": null, "conc_B_lo80": null, "conc_B_hi80": null, "conc_B_lo95": null, "conc_B_hi95": null, "conc_B_status": "unavailable", "conc_B_status_ru": "концентрация недоступна", "conc_B_reasons": "вне бассейна профиля: black_sea", "conc_B_model": "conc-B-c6bce5631d2b"}}, {"type": "Feature", "geometry": {"type": "Polygon", "coordinates": [[[44.68590767061531, 48.85522867609951], [44.68590823338349, 48.85513871901703], [44.68577191097512, 48.85513834757519], [44.68577247398476, 48.85504839049247], [44.68604568083418, 48.85495917612612], [44.68604511831581, 48.85504913321261], [44.68618144048552, 48.855049504330914], [44.6861808782086, 48.855139461417146], [44.68604455579466, 48.855139090297676], [44.686043993270715, 48.85522904738132], [44.68590767061531, 48.85522867609951]]]}, "properties": {"zone_id": "volgograd-2025-06-04-002", "aoi": "volgograd", "date": "2025-06-04", "scene_id": "S2A_MSIL2A_20250604T080021_R035_T38UMV_20250604T112417", "scene_datetime_utc": "2025-06-04T08:00:21.024000+00:00", "detection_status": "detected", "detection_status_ru": "обнаружено", "lon": 44.68598, "lat": 48.85509, "n_pixels": 1, "zone_area_km2": 0.0005, "cover_m2": 4.7, "p_mean": 0.973, "p_max": 0.973, "cover_m2_km2": 9400.0, "h3": "882d48a0a7fffff", "valid_frac_scene": 0.993, "wind_ms": 5.5, "sea": "спокойное", "scene_reliable": true, "field_event_id": "S4:DOORS3:T23", "field_profile": "B", "field_date": "2024-06-10", "field_distance_km": 764.2, "field_date_gap_days": 359, "field_conc_items_km2": 102.37, "conc_A_items_km2": null, "conc_A_lo80": null, "conc_A_hi80": null, "conc_A_lo95": null, "conc_A_hi95": null, "conc_A_status": "unavailable", "conc_A_status_ru": "концентрация недоступна", "conc_A_reasons": "вне бассейна профиля: nw_atlantic_subtropical", "conc_A_model": "conc-A-c6bce5631d2b", "conc_B_items_km2": null, "conc_B_lo80": null, "conc_B_hi80": null, "conc_B_lo95": null, "conc_B_hi95": null, "conc_B_status": "unavailable", "conc_B_status_ru": "концентрация недоступна", "conc_B_reasons": "вне бассейна профиля: black_sea", "conc_B_model": "conc-B-c6bce5631d2b"}}, {"type": "Feature", "geometry": {"type": "Polygon", "coordinates": [[[44.55992530353374, 48.73274127668944], [44.55992608863619, 48.73265131898894], [44.55979009965254, 48.732650799559025], [44.55979088499369, 48.73256084185875], [44.560063647331795, 48.73247192284989], [44.560062862479704, 48.73256188055485], [44.56019885122853, 48.73256239966218], [44.56019806661514, 48.73265235736735], [44.560062077623726, 48.732651838258384], [44.56006129276386, 48.73274179596051], [44.55992530353374, 48.73274127668944]]]}, "properties": {"zone_id": "volgograd-2025-06-04-003", "aoi": "volgograd", "date": "2025-06-04", "scene_id": "S2A_MSIL2A_20250604T080021_R035_T38UMV_20250604T112417", "scene_datetime_utc": "2025-06-04T08:00:21.024000+00:00", "detection_status": "detected", "detection_status_ru": "обнаружено", "lon": 44.55999, "lat": 48.73261, "n_pixels": 1, "zone_area_km2": 0.0005, "cover_m2": 4.7, "p_mean": 0.957, "p_max": 0.957, "cover_m2_km2": 9400.0, "h3": "882d48aa47fffff", "valid_frac_scene": 0.993, "wind_ms": 5.5, "sea": "спокойное", "scene_reliable": true, "field_event_id": "S4:DOORS3:T23", "field_profile": "B", "field_date": "2024-06-10", "field_distance_km": 748.3, "field_date_gap_days": 359, "field_conc_items_km2": 102.37, "conc_A_items_km2": null, "conc_A_lo80": null, "conc_A_hi80": null, "conc_A_lo95": null, "conc_A_hi95": null, "conc_A_status": "unavailable", "conc_A_status_ru": "концентрация недоступна", "conc_A_reasons": "вне бассейна профиля: nw_atlantic_subtropical", "conc_A_model": "conc-A-c6bce5631d2b", "conc_B_items_km2": null, "conc_B_lo80": null, "conc_B_hi80": null, "conc_B_lo95": null, "conc_B_hi95": null, "conc_B_status": "unavailable", "conc_B_status_ru": "концентрация недоступна", "conc_B_reasons": "вне бассейна профиля: black_sea", "conc_B_model": "conc-B-c6bce5631d2b"}}]}