{"type": "FeatureCollection", "features": [{"type": "Feature", "geometry": {"type": "Polygon", "coordinates": [[[29.91199642195307, 60.081439208030154], [29.911988508332605, 60.08134953251241], [29.911809015878042, 60.08135348607155], [29.911801102793778, 60.081263810537706], [29.911980594762234, 60.08125985699281], [29.911972681241966, 60.08117018147134], [29.912152172674215, 60.081166227697345], [29.912144258717948, 60.08107655218829], [29.912511155388405, 60.08115831941936], [29.912519070366976, 60.0812479948981], [29.912698562135002, 60.081244040379836], [29.912706477649788, 60.08133371584249], [29.912526985395658, 60.08133767037497], [29.912534900474448, 60.081427345849974], [29.91199642195307, 60.081439208030154]]]}, "properties": {"zone_id": "neva-2025-04-15-001", "aoi": "neva", "date": "2025-04-15", "scene_id": "S2B_MSIL2A_20250415T093039_R136_T36VUM_20250415T114145", "scene_datetime_utc": "2025-04-15T09:30:39.025000+00:00", "detection_status": "detected", "detection_status_ru": "обнаружено", "lon": 29.91225, "lat": 60.08128, "n_pixels": 4, "zone_area_km2": 0.0012, "cover_m2": 29.0, "p_mean": 0.85, "p_max": 0.996, "cover_m2_km2": 24166.7, "h3": "88110684b3fffff", "valid_frac_scene": 1.0, "wind_ms": 8.7, "sea": "шторм", "scene_reliable": false, "field_event_id": "S3:HE419_MarLitter_transect28", "field_profile": "B", "field_date": "2014-04-11", "field_distance_km": 1411.2, "field_date_gap_days": 4022, "field_conc_items_km2": 43.1, "conc_A_items_km2": null, "conc_A_lo80": null, "conc_A_hi80": null, "conc_A_lo95": null, "conc_A_hi95": null, "conc_A_status": "unavailable", "conc_A_status_ru": "концентрация недоступна", "conc_A_reasons": "вне бассейна профиля: nw_atlantic_subtropical", "conc_A_model": "conc-A-c6bce5631d2b", "conc_B_items_km2": null, "conc_B_lo80": null, "conc_B_hi80": null, "conc_B_lo95": null, "conc_B_hi95": null, "conc_B_status": "unavailable", "conc_B_status_ru": "концентрация недоступна", "conc_B_reasons": "вне бассейна профиля: black_sea", "conc_B_model": "conc-B-c6bce5631d2b"}}]}