{"type": "FeatureCollection", "features": [{"type": "Feature", "geometry": {"type": "Polygon", "coordinates": [[[37.81699560588676, 44.67780262106857], [37.816997437484794, 44.677712615918125], [37.81687129083182, 44.677711309013425], [37.81687495439255, 44.67753129871622], [37.817129078303424, 44.677443907211], [37.81712724692632, 44.67753391236999], [37.817253393206066, 44.677535218987934], [37.817249730816506, 44.67771522930961], [37.81699560588676, 44.67780262106857]]]}, "properties": {"zone_id": "novorossiysk-2025-08-17-001", "aoi": "novorossiysk", "date": "2025-08-17", "scene_id": "S2C_MSIL2A_20250817T081621_R121_T37TCK_20250817T140515", "scene_datetime_utc": "2025-08-17T08:16:21.025000+00:00", "detection_status": "detected", "detection_status_ru": "обнаружено", "lon": 37.81706, "lat": 44.67762, "n_pixels": 2, "zone_area_km2": 0.0008, "cover_m2": 6.3, "p_mean": 0.943, "p_max": 0.965, "cover_m2_km2": 7875.0, "h3": "882d721205fffff", "valid_frac_scene": 0.999, "wind_ms": 4.0, "sea": "спокойное", "scene_reliable": true, "field_event_id": "S4:DOORS3:T12", "field_profile": "B", "field_date": "2024-06-04", "field_distance_km": 256.9, "field_date_gap_days": 439, "field_conc_items_km2": 48.97, "conc_A_items_km2": null, "conc_A_lo80": null, "conc_A_hi80": null, "conc_A_lo95": null, "conc_A_hi95": null, "conc_A_status": "unavailable", "conc_A_status_ru": "концентрация недоступна", "conc_A_reasons": "вне бассейна профиля: nw_atlantic_subtropical", "conc_A_model": "conc-A-c6bce5631d2b", "conc_B_items_km2": 570.4, "conc_B_lo80": 121.7, "conc_B_hi80": 1916.4, "conc_B_lo95": 75.9, "conc_B_hi95": 3588.5, "conc_B_status": "research_estimate", "conc_B_status_ru": "исследовательская оценка", "conc_B_reasons": "ближайшее полевое измерение в 257 км (> 60 км); месяц 8 вне месяцев обучения [6]; log_dist_coast_km = 1.3 вне диапазона обучения [1.7; 5.0]", "conc_B_model": "conc-B-c6bce5631d2b"}}, {"type": "Feature", "geometry": {"type": "Polygon", "coordinates": [[[37.56295071291363, 44.66993679261031], [37.56295293715454, 44.66984679647685], [37.562826820375506, 44.66984520920679], [37.562829044801035, 44.66975521307677], [37.562955161385034, 44.669756800341865], [37.56295738560512, 44.66966680420537], [37.563209618414305, 44.669669978307994], [37.563207394584296, 44.669759974454394], [37.56333351119955, 44.66976156130182], [37.56333128755416, 44.669851557451665], [37.56320517074388, 44.66984997059928], [37.56320294689304, 44.66993996674265], [37.56295071291363, 44.66993679261031]]]}, "properties": {"zone_id": "novorossiysk-2025-08-17-002", "aoi": "novorossiysk", "date": "2025-08-17", "scene_id": "S2C_MSIL2A_20250817T081621_R121_T37TCK_20250817T140515", "scene_datetime_utc": "2025-08-17T08:16:21.025000+00:00", "detection_status": "detected", "detection_status_ru": "обнаружено", "lon": 37.56308, "lat": 44.6698, "n_pixels": 2, "zone_area_km2": 0.0008, "cover_m2": 12.5, "p_mean": 0.959, "p_max": 0.988, "cover_m2_km2": 15625.0, "h3": "882d728b49fffff", "valid_frac_scene": 0.999, "wind_ms": 4.0, "sea": "спокойное", "scene_reliable": true, "field_event_id": "S4:DOORS3:T12", "field_profile": "B", "field_date": "2024-06-04", "field_distance_km": 251.8, "field_date_gap_days": 439, "field_conc_items_km2": 48.97, "conc_A_items_km2": null, "conc_A_lo80": null, "conc_A_hi80": null, "conc_A_lo95": null, "conc_A_hi95": null, "conc_A_status": "unavailable", "conc_A_status_ru": "концентрация недоступна", "conc_A_reasons": "вне бассейна профиля: nw_atlantic_subtropical", "conc_A_model": "conc-A-c6bce5631d2b", "conc_B_items_km2": 901.4, "conc_B_lo80": 192.7, "conc_B_hi80": 3027.3, "conc_B_lo95": 120.4, "conc_B_hi95": 5668.0, "conc_B_status": "research_estimate", "conc_B_status_ru": "исследовательская оценка", "conc_B_reasons": "ближайшее полевое измерение в 252 км (> 60 км); месяц 8 вне месяцев обучения [6]; log_dist_coast_km = 0.0 вне диапазона обучения [1.7; 5.0]", "conc_B_model": "conc-B-c6bce5631d2b"}}, {"type": "Feature", "geometry": {"type": "Polygon", "coordinates": [[[37.81785521140331, 44.660346817183346], [37.81785704055756, 44.66025681172877], [37.81773093172125, 44.66025550617198], [37.817732761061954, 44.66016550071998], [37.81798680729521, 44.66007810622458], [37.81798497835312, 44.660168111686204], [37.818111087011545, 44.66016941696049], [37.8181092582559, 44.660259422424716], [37.81798314940245, 44.660258117146356], [37.81798132044322, 44.660348122605015], [37.81785521140331, 44.660346817183346]]]}, "properties": {"zone_id": "novorossiysk-2025-08-17-003", "aoi": "novorossiysk", "date": "2025-08-17", "scene_id": "S2C_MSIL2A_20250817T081621_R121_T37TCK_20250817T140515", "scene_datetime_utc": "2025-08-17T08:16:21.025000+00:00", "detection_status": "detected", "detection_status_ru": "обнаружено", "lon": 37.81792, "lat": 44.66021, "n_pixels": 1, "zone_area_km2": 0.0005, "cover_m2": 7.5, "p_mean": 0.906, "p_max": 0.906, "cover_m2_km2": 15000.0, "h3": "882d72122dfffff", "valid_frac_scene": 0.999, "wind_ms": 4.0, "sea": "спокойное", "scene_reliable": true, "field_event_id": "S4:DOORS3:T12", "field_profile": "B", "field_date": "2024-06-04", "field_distance_km": 255.1, "field_date_gap_days": 439, "field_conc_items_km2": 48.97, "conc_A_items_km2": null, "conc_A_lo80": null, "conc_A_hi80": null, "conc_A_lo95": null, "conc_A_hi95": null, "conc_A_status": "unavailable", "conc_A_status_ru": "концентрация недоступна", "conc_A_reasons": "вне бассейна профиля: nw_atlantic_subtropical", "conc_A_model": "conc-A-c6bce5631d2b", "conc_B_items_km2": 540.9, "conc_B_lo80": 115.4, "conc_B_hi80": 1817.7, "conc_B_lo95": 71.9, "conc_B_hi95": 3403.6, "conc_B_status": "research_estimate", "conc_B_status_ru": "исследовательская оценка", "conc_B_reasons": "ближайшее полевое измерение в 255 км (> 60 км); месяц 8 вне месяцев обучения [6]", "conc_B_model": "conc-B-c6bce5631d2b"}}, {"type": "Feature", "geometry": {"type": "Polygon", "coordinates": [[[37.89213773981189, 44.634444344283075], [37.89213945249539, 44.6343543360823], [37.89201339649707, 44.634353113102314], [37.89201510936733, 44.63426310490391], [37.89226893345512, 44.63417554250961], [37.89226722098243, 44.63426555071714], [37.892393276802004, 44.634266773415106], [37.89239156451608, 44.634356781624966], [37.89226550850172, 44.6343555589232], [37.892263796013, 44.63444556712777], [37.89213773981189, 44.634444344283075]]]}, "properties": {"zone_id": "novorossiysk-2025-08-17-004", "aoi": "novorossiysk", "date": "2025-08-17", "scene_id": "S2C_MSIL2A_20250817T081621_R121_T37TCK_20250817T140515", "scene_datetime_utc": "2025-08-17T08:16:21.025000+00:00", "detection_status": "detected", "detection_status_ru": "обнаружено", "lon": 37.8922, "lat": 44.63431, "n_pixels": 1, "zone_area_km2": 0.0005, "cover_m2": 5.5, "p_mean": 0.957, "p_max": 0.957, "cover_m2_km2": 11000.0, "h3": "882d72102dfffff", "valid_frac_scene": 0.999, "wind_ms": 4.0, "sea": "спокойное", "scene_reliable": true, "field_event_id": "S4:DOORS3:T13", "field_profile": "B", "field_date": "2024-06-04", "field_distance_km": 253.6, "field_date_gap_days": 439, "field_conc_items_km2": 263.57, "conc_A_items_km2": null, "conc_A_lo80": null, "conc_A_hi80": null, "conc_A_lo95": null, "conc_A_hi95": null, "conc_A_status": "unavailable", "conc_A_status_ru": "концентрация недоступна", "conc_A_reasons": "вне бассейна профиля: nw_atlantic_subtropical", "conc_A_model": "conc-A-c6bce5631d2b", "conc_B_items_km2": 570.4, "conc_B_lo80": 121.7, "conc_B_hi80": 1916.4, "conc_B_lo95": 75.9, "conc_B_hi95": 3588.5, "conc_B_status": "research_estimate", "conc_B_status_ru": "исследовательская оценка", "conc_B_reasons": "ближайшее полевое измерение в 254 км (> 60 км); месяц 8 вне месяцев обучения [6]; log_dist_coast_km = 1.3 вне диапазона обучения [1.7; 5.0]", "conc_B_model": "conc-B-c6bce5631d2b"}}]}