{"type": "FeatureCollection", "features": [{"type": "Feature", "geometry": {"type": "Polygon", "coordinates": [[[131.76189063815744, 43.290233523415175], [131.76188656530599, 43.290143581887804], [131.76176344034295, 43.29014655699139], [131.76175936769127, 43.29005661545301], [131.7618824924733, 43.290053640358714], [131.76187841965944, 43.28996369882789], [131.76212874198103, 43.290047689773026], [131.7621328151757, 43.29013763128352], [131.76200969025024, 43.29014060665185], [131.7620137632827, 43.29023054816992], [131.76189063815744, 43.290233523415175]]]}, "properties": {"zone_id": "vladivostok-2026-07-22-001", "aoi": "vladivostok", "date": "2026-07-22", "scene_id": "S2C_MSIL2A_20260722T020651_R103_T52TGN_20260722T053514", "scene_datetime_utc": "2026-07-22T02:06:51.025000+00:00", "detection_status": "detected", "detection_status_ru": "обнаружено", "lon": 131.76195, "lat": 43.2901, "n_pixels": 1, "zone_area_km2": 0.0005, "cover_m2": 42.4, "p_mean": 0.592, "p_max": 0.592, "cover_m2_km2": 84800.0, "h3": "88316c52c3fffff", "valid_frac_scene": 0.998, "wind_ms": 2.6, "sea": "спокойное", "scene_reliable": true, "field_event_id": "S4:DOORS3:T23", "field_profile": "B", "field_date": "2024-06-10", "field_distance_km": 6963.4, "field_date_gap_days": 772, "field_conc_items_km2": 102.37, "conc_A_items_km2": null, "conc_A_lo80": null, "conc_A_hi80": null, "conc_A_lo95": null, "conc_A_hi95": null, "conc_A_status": "unavailable", "conc_A_status_ru": "концентрация недоступна", "conc_A_reasons": "вне бассейна профиля: nw_atlantic_subtropical", "conc_A_model": "conc-A-c6bce5631d2b", "conc_B_items_km2": null, "conc_B_lo80": null, "conc_B_hi80": null, "conc_B_lo95": null, "conc_B_hi95": null, "conc_B_status": "unavailable", "conc_B_status_ru": "концентрация недоступна", "conc_B_reasons": "вне бассейна профиля: black_sea", "conc_B_model": "conc-B-c6bce5631d2b"}}, {"type": "Feature", "geometry": {"type": "Polygon", "coordinates": [[[131.93336833481618, 43.24202188633931], [131.93336401658098, 43.24193195746561], [131.93324100709634, 43.24193511433635], [131.93323237104656, 43.24175525656394], [131.93335538017033, 43.24175209971292], [131.93335106199487, 43.24166217083392], [131.93360139835815, 43.24174578561463], [131.9336057169144, 43.24183571447213], [131.93372872615888, 43.241832557215], [131.9337330449155, 43.24192248606087], [131.93361003549057, 43.24192564332787], [131.93361435408664, 43.242015572181835], [131.93336833481618, 43.24202188633931]]]}, "properties": {"zone_id": "vladivostok-2026-07-22-002", "aoi": "vladivostok", "date": "2026-07-22", "scene_id": "S2C_MSIL2A_20260722T020651_R103_T52TGN_20260722T053514", "scene_datetime_utc": "2026-07-22T02:06:51.025000+00:00", "detection_status": "detected", "detection_status_ru": "обнаружено", "lon": 131.93346, "lat": 43.24185, "n_pixels": 3, "zone_area_km2": 0.001, "cover_m2": 16.1, "p_mean": 0.722, "p_max": 0.933, "cover_m2_km2": 16100.0, "h3": "88316c190bfffff", "valid_frac_scene": 0.998, "wind_ms": 2.6, "sea": "спокойное", "scene_reliable": true, "field_event_id": "S4:DOORS3:T23", "field_profile": "B", "field_date": "2024-06-10", "field_distance_km": 6978.0, "field_date_gap_days": 772, "field_conc_items_km2": 102.37, "conc_A_items_km2": null, "conc_A_lo80": null, "conc_A_hi80": null, "conc_A_lo95": null, "conc_A_hi95": null, "conc_A_status": "unavailable", "conc_A_status_ru": "концентрация недоступна", "conc_A_reasons": "вне бассейна профиля: nw_atlantic_subtropical", "conc_A_model": "conc-A-c6bce5631d2b", "conc_B_items_km2": null, "conc_B_lo80": null, "conc_B_hi80": null, "conc_B_lo95": null, "conc_B_hi95": null, "conc_B_status": "unavailable", "conc_B_status_ru": "концентрация недоступна", "conc_B_reasons": "вне бассейна профиля: black_sea", "conc_B_model": "conc-B-c6bce5631d2b"}}, {"type": "Feature", "geometry": {"type": "Polygon", "coordinates": [[[131.68879785396638, 43.19509237074714], [131.6887939019715, 43.195002422246915], [131.68867096097608, 43.19500531361043], [131.68866305740133, 43.19482541658677], [131.68890498653286, 43.194729685267575], [131.68890893865327, 43.19481963376389], [131.6890318792519, 43.19481674215451], [131.68903978390767, 43.19499663912397], [131.68879785396638, 43.19509237074714]]]}, "properties": {"zone_id": "vladivostok-2026-07-22-003", "aoi": "vladivostok", "date": "2026-07-22", "scene_id": "S2C_MSIL2A_20260722T020651_R103_T52TGN_20260722T053514", "scene_datetime_utc": "2026-07-22T02:06:51.025000+00:00", "detection_status": "detected", "detection_status_ru": "обнаружено", "lon": 131.68885, "lat": 43.19491, "n_pixels": 2, "zone_area_km2": 0.0008, "cover_m2": 7.8, "p_mean": 0.922, "p_max": 0.973, "cover_m2_km2": 9750.0, "h3": "88316c4247fffff", "valid_frac_scene": 0.998, "wind_ms": 2.6, "sea": "спокойное", "scene_reliable": true, "field_event_id": "S4:DOORS3:T23", "field_profile": "B", "field_date": "2024-06-10", "field_distance_km": 6964.4, "field_date_gap_days": 772, "field_conc_items_km2": 102.37, "conc_A_items_km2": null, "conc_A_lo80": null, "conc_A_hi80": null, "conc_A_lo95": null, "conc_A_hi95": null, "conc_A_status": "unavailable", "conc_A_status_ru": "концентрация недоступна", "conc_A_reasons": "вне бассейна профиля: nw_atlantic_subtropical", "conc_A_model": "conc-A-c6bce5631d2b", "conc_B_items_km2": null, "conc_B_lo80": null, "conc_B_hi80": null, "conc_B_lo95": null, "conc_B_hi95": null, "conc_B_status": "unavailable", "conc_B_status_ru": "концентрация недоступна", "conc_B_reasons": "вне бассейна профиля: black_sea", "conc_B_model": "conc-B-c6bce5631d2b"}}, {"type": "Feature", "geometry": {"type": "Polygon", "coordinates": [[[131.69385050604785, 43.1924522659263], [131.693846546997, 43.19236231775801], [131.69372361181166, 43.19236521441018], [131.69371965295923, 43.19227526623112], [131.6938425879644, 43.19227236958802], [131.69383862895006, 43.19218242141629], [131.6940884579201, 43.192266575905975], [131.69409241731296, 43.19235652405786], [131.6939694821641, 43.19235942097391], [131.6939734413951, 43.19244936913315], [131.69385050604785, 43.1924522659263]]]}, "properties": {"zone_id": "vladivostok-2026-07-22-004", "aoi": "vladivostok", "date": "2026-07-22", "scene_id": "S2C_MSIL2A_20260722T020651_R103_T52TGN_20260722T053514", "scene_datetime_utc": "2026-07-22T02:06:51.025000+00:00", "detection_status": "detected", "detection_status_ru": "обнаружено", "lon": 131.69391, "lat": 43.19232, "n_pixels": 1, "zone_area_km2": 0.0005, "cover_m2": 7.5, "p_mean": 0.788, "p_max": 0.788, "cover_m2_km2": 15000.0, "h3": "88316c4247fffff", "valid_frac_scene": 0.998, "wind_ms": 2.6, "sea": "спокойное", "scene_reliable": true, "field_event_id": "S4:DOORS3:T23", "field_profile": "B", "field_date": "2024-06-10", "field_distance_km": 6964.9, "field_date_gap_days": 772, "field_conc_items_km2": 102.37, "conc_A_items_km2": null, "conc_A_lo80": null, "conc_A_hi80": null, "conc_A_lo95": null, "conc_A_hi95": null, "conc_A_status": "unavailable", "conc_A_status_ru": "концентрация недоступна", "conc_A_reasons": "вне бассейна профиля: nw_atlantic_subtropical", "conc_A_model": "conc-A-c6bce5631d2b", "conc_B_items_km2": null, "conc_B_lo80": null, "conc_B_hi80": null, "conc_B_lo95": null, "conc_B_hi95": null, "conc_B_status": "unavailable", "conc_B_status_ru": "концентрация недоступна", "conc_B_reasons": "вне бассейна профиля: black_sea", "conc_B_model": "conc-B-c6bce5631d2b"}}, {"type": "Feature", "geometry": {"type": "Polygon", "coordinates": [[[131.70480618277267, 43.17859732659863], [131.7048022095552, 43.178507379024296], [131.70467930327916, 43.17851028670637], [131.70467533026005, 43.178420339121224], [131.70479823635605, 43.17841743144825], [131.70479426317522, 43.17832748387048], [131.70504404849316, 43.17841161570666], [131.70504802205232, 43.17850156326453], [131.70492511581293, 43.17850447121035], [131.7049290892104, 43.1785944187756], [131.70480618277267, 43.17859732659863]]]}, "properties": {"zone_id": "vladivostok-2026-07-22-005", "aoi": "vladivostok", "date": "2026-07-22", "scene_id": "S2C_MSIL2A_20260722T020651_R103_T52TGN_20260722T053514", "scene_datetime_utc": "2026-07-22T02:06:51.025000+00:00", "detection_status": "detected", "detection_status_ru": "обнаружено", "lon": 131.70486, "lat": 43.17846, "n_pixels": 1, "zone_area_km2": 0.0005, "cover_m2": 6.7, "p_mean": 0.91, "p_max": 0.91, "cover_m2_km2": 13400.0, "h3": "88316c420bfffff", "valid_frac_scene": 0.998, "wind_ms": 2.6, "sea": "спокойное", "scene_reliable": true, "field_event_id": "S4:DOORS3:T23", "field_profile": "B", "field_date": "2024-06-10", "field_distance_km": 6966.5, "field_date_gap_days": 772, "field_conc_items_km2": 102.37, "conc_A_items_km2": null, "conc_A_lo80": null, "conc_A_hi80": null, "conc_A_lo95": null, "conc_A_hi95": null, "conc_A_status": "unavailable", "conc_A_status_ru": "концентрация недоступна", "conc_A_reasons": "вне бассейна профиля: nw_atlantic_subtropical", "conc_A_model": "conc-A-c6bce5631d2b", "conc_B_items_km2": null, "conc_B_lo80": null, "conc_B_hi80": null, "conc_B_lo95": null, "conc_B_hi95": null, "conc_B_status": "unavailable", "conc_B_status_ru": "концентрация недоступна", "conc_B_reasons": "вне бассейна профиля: black_sea", "conc_B_model": "conc-B-c6bce5631d2b"}}, {"type": "Feature", "geometry": {"type": "Polygon", "coordinates": [[[131.70395355920874, 43.176006288835], [131.70394958760215, 43.175916341156444], [131.70382668643612, 43.17591924778383], [131.70382271502785, 43.17582930009449], [131.7039456160139, 43.175826393476186], [131.70394164444392, 43.175736445794215], [131.70418744600116, 43.17573063218019], [131.70419141793107, 43.17582057984399], [131.70431431886223, 43.1758176728301], [131.70431829099044, 43.17590762048311], [131.70419538987932, 43.175910527506076], [131.70419936184587, 43.17600047516646], [131.70395355920874, 43.176006288835]]]}, "properties": {"zone_id": "vladivostok-2026-07-22-006", "aoi": "vladivostok", "date": "2026-07-22", "scene_id": "S2C_MSIL2A_20260722T020651_R103_T52TGN_20260722T053514", "scene_datetime_utc": "2026-07-22T02:06:51.025000+00:00", "detection_status": "detected", "detection_status_ru": "обнаружено", "lon": 131.70407, "lat": 43.17587, "n_pixels": 2, "zone_area_km2": 0.0008, "cover_m2": 19.2, "p_mean": 0.89, "p_max": 0.996, "cover_m2_km2": 24000.0, "h3": "88316c421dfffff", "valid_frac_scene": 0.998, "wind_ms": 2.6, "sea": "спокойное", "scene_reliable": true, "field_event_id": "S4:DOORS3:T23", "field_profile": "B", "field_date": "2024-06-10", "field_distance_km": 6966.6, "field_date_gap_days": 772, "field_conc_items_km2": 102.37, "conc_A_items_km2": null, "conc_A_lo80": null, "conc_A_hi80": null, "conc_A_lo95": null, "conc_A_hi95": null, "conc_A_status": "unavailable", "conc_A_status_ru": "концентрация недоступна", "conc_A_reasons": "вне бассейна профиля: nw_atlantic_subtropical", "conc_A_model": "conc-A-c6bce5631d2b", "conc_B_items_km2": null, "conc_B_lo80": null, "conc_B_hi80": null, "conc_B_lo95": null, "conc_B_hi95": null, "conc_B_status": "unavailable", "conc_B_status_ru": "концентрация недоступна", "conc_B_reasons": "вне бассейна профиля: black_sea", "conc_B_model": "conc-B-c6bce5631d2b"}}, {"type": "Feature", "geometry": {"type": "Polygon", "coordinates": [[[131.7038068295777, 43.17546950931998], [131.70380285826096, 43.17537956162209], [131.70367995815647, 43.1753824680631], [131.70367201593777, 43.175202572643975], [131.70391384396666, 43.175106811972434], [131.7039178154085, 43.1751967596664], [131.7040407151164, 43.175193852979824], [131.70404865841493, 43.17537374834445], [131.7038068295777, 43.17546950931998]]]}, "properties": {"zone_id": "vladivostok-2026-07-22-007", "aoi": "vladivostok", "date": "2026-07-22", "scene_id": "S2C_MSIL2A_20260722T020651_R103_T52TGN_20260722T053514", "scene_datetime_utc": "2026-07-22T02:06:51.025000+00:00", "detection_status": "detected", "detection_status_ru": "обнаружено", "lon": 131.70386, "lat": 43.17529, "n_pixels": 2, "zone_area_km2": 0.0008, "cover_m2": 14.9, "p_mean": 0.812, "p_max": 0.824, "cover_m2_km2": 18625.0, "h3": "88316c421dfffff", "valid_frac_scene": 0.998, "wind_ms": 2.6, "sea": "спокойное", "scene_reliable": true, "field_event_id": "S4:DOORS3:T23", "field_profile": "B", "field_date": "2024-06-10", "field_distance_km": 6966.6, "field_date_gap_days": 772, "field_conc_items_km2": 102.37, "conc_A_items_km2": null, "conc_A_lo80": null, "conc_A_hi80": null, "conc_A_lo95": null, "conc_A_hi95": null, "conc_A_status": "unavailable", "conc_A_status_ru": "концентрация недоступна", "conc_A_reasons": "вне бассейна профиля: nw_atlantic_subtropical", "conc_A_model": "conc-A-c6bce5631d2b", "conc_B_items_km2": null, "conc_B_lo80": null, "conc_B_hi80": null, "conc_B_lo95": null, "conc_B_hi95": null, "conc_B_status": "unavailable", "conc_B_status_ru": "концентрация недоступна", "conc_B_reasons": "вне бассейна профиля: black_sea", "conc_B_model": "conc-B-c6bce5631d2b"}}, {"type": "Feature", "geometry": {"type": "Polygon", "coordinates": [[[131.69948943740846, 43.16683748747596], [131.6994854736233, 43.166747539321484], [131.69936259038786, 43.16675044066331], [131.6993586268009, 43.16666049249806], [131.6994815098564, 43.16665759116531], [131.6994775461078, 43.16656764300742], [131.69972727591266, 43.16665178810436], [131.69973124003937, 43.1667417362424], [131.69960835684049, 43.16674463784785], [131.69961232080553, 43.16683458599326], [131.69948943740846, 43.16683748747596]]]}, "properties": {"zone_id": "vladivostok-2026-07-22-008", "aoi": "vladivostok", "date": "2026-07-22", "scene_id": "S2C_MSIL2A_20260722T020651_R103_T52TGN_20260722T053514", "scene_datetime_utc": "2026-07-22T02:06:51.025000+00:00", "detection_status": "detected", "detection_status_ru": "обнаружено", "lon": 131.69954, "lat": 43.1667, "n_pixels": 1, "zone_area_km2": 0.0005, "cover_m2": 7.8, "p_mean": 0.51, "p_max": 0.51, "cover_m2_km2": 15600.0, "h3": "88316c4215fffff", "valid_frac_scene": 0.998, "wind_ms": 2.6, "sea": "спокойное", "scene_reliable": true, "field_event_id": "S4:DOORS3:T23", "field_profile": "B", "field_date": "2024-06-10", "field_distance_km": 6966.8, "field_date_gap_days": 772, "field_conc_items_km2": 102.37, "conc_A_items_km2": null, "conc_A_lo80": null, "conc_A_hi80": null, "conc_A_lo95": null, "conc_A_hi95": null, "conc_A_status": "unavailable", "conc_A_status_ru": "концентрация недоступна", "conc_A_reasons": "вне бассейна профиля: nw_atlantic_subtropical", "conc_A_model": "conc-A-c6bce5631d2b", "conc_B_items_km2": null, "conc_B_lo80": null, "conc_B_hi80": null, "conc_B_lo95": null, "conc_B_hi95": null, "conc_B_status": "unavailable", "conc_B_status_ru": "концентрация недоступна", "conc_B_reasons": "вне бассейна профиля: black_sea", "conc_B_model": "conc-B-c6bce5631d2b"}}, {"type": "Feature", "geometry": {"type": "Polygon", "coordinates": [[[131.6992278169677, 43.166483497345226], [131.6992238536154, 43.16639354916577], [131.69910097106302, 43.16639645020767], [131.69909700790888, 43.166306502017434], [131.69921989028137, 43.166303600984605], [131.6992159269656, 43.16621365280173], [131.6994656549715, 43.16629779852348], [131.69946961866532, 43.16638774668651], [131.6993467361495, 43.16639064799205], [131.6993506996817, 43.16648059616243], [131.6992278169677, 43.166483497345226]]]}, "properties": {"zone_id": "vladivostok-2026-07-22-009", "aoi": "vladivostok", "date": "2026-07-22", "scene_id": "S2C_MSIL2A_20260722T020651_R103_T52TGN_20260722T053514", "scene_datetime_utc": "2026-07-22T02:06:51.025000+00:00", "detection_status": "detected", "detection_status_ru": "обнаружено", "lon": 131.69928, "lat": 43.16635, "n_pixels": 1, "zone_area_km2": 0.0005, "cover_m2": 4.7, "p_mean": 0.902, "p_max": 0.902, "cover_m2_km2": 9400.0, "h3": "88316c4215fffff", "valid_frac_scene": 0.998, "wind_ms": 2.6, "sea": "спокойное", "scene_reliable": true, "field_event_id": "S4:DOORS3:T23", "field_profile": "B", "field_date": "2024-06-10", "field_distance_km": 6966.9, "field_date_gap_days": 772, "field_conc_items_km2": 102.37, "conc_A_items_km2": null, "conc_A_lo80": null, "conc_A_hi80": null, "conc_A_lo95": null, "conc_A_hi95": null, "conc_A_status": "unavailable", "conc_A_status_ru": "концентрация недоступна", "conc_A_reasons": "вне бассейна профиля: nw_atlantic_subtropical", "conc_A_model": "conc-A-c6bce5631d2b", "conc_B_items_km2": null, "conc_B_lo80": null, "conc_B_hi80": null, "conc_B_lo95": null, "conc_B_hi95": null, "conc_B_status": "unavailable", "conc_B_status_ru": "концентрация недоступна", "conc_B_reasons": "вне бассейна профиля: black_sea", "conc_B_model": "conc-B-c6bce5631d2b"}}, {"type": "Feature", "geometry": {"type": "Polygon", "coordinates": [[[131.64336732401605, 43.166167877493464], [131.64336344266962, 43.16607792520958], [131.64324055514967, 43.16608076623935], [131.643236674001, 43.1659908139449], [131.64335956134104, 43.165987972924], [131.64335568003034, 43.16589802063672], [131.6436053359674, 43.16598229048671], [131.64360921765584, 43.166072242754524], [131.64348633017167, 43.16607508404796], [131.64349021169807, 43.16616503632297], [131.64336732401605, 43.166167877493464]]]}, "properties": {"zone_id": "vladivostok-2026-07-22-010", "aoi": "vladivostok", "date": "2026-07-22", "scene_id": "S2C_MSIL2A_20260722T020651_R103_T52TGN_20260722T053514", "scene_datetime_utc": "2026-07-22T02:06:51.025000+00:00", "detection_status": "detected", "detection_status_ru": "обнаружено", "lon": 131.64342, "lat": 43.16603, "n_pixels": 1, "zone_area_km2": 0.0005, "cover_m2": 3.9, "p_mean": 0.529, "p_max": 0.529, "cover_m2_km2": 7800.0, "h3": "88316c4311fffff", "valid_frac_scene": 0.998, "wind_ms": 2.6, "sea": "спокойное", "scene_reliable": true, "field_event_id": "S4:DOORS3:T23", "field_profile": "B", "field_date": "2024-06-10", "field_distance_km": 6963.1, "field_date_gap_days": 772, "field_conc_items_km2": 102.37, "conc_A_items_km2": null, "conc_A_lo80": null, "conc_A_hi80": null, "conc_A_lo95": null, "conc_A_hi95": null, "conc_A_status": "unavailable", "conc_A_status_ru": "концентрация недоступна", "conc_A_reasons": "вне бассейна профиля: nw_atlantic_subtropical", "conc_A_model": "conc-A-c6bce5631d2b", "conc_B_items_km2": null, "conc_B_lo80": null, "conc_B_hi80": null, "conc_B_lo95": null, "conc_B_hi95": null, "conc_B_status": "unavailable", "conc_B_status_ru": "концентрация недоступна", "conc_B_reasons": "вне бассейна профиля: black_sea", "conc_B_model": "conc-B-c6bce5631d2b"}}, {"type": "Feature", "geometry": {"type": "Polygon", "coordinates": [[[131.89086012354286, 43.16612041117061], [131.89085587909483, 43.166030477699785], [131.89073301737142, 43.16603358451771], [131.8907287731227, 43.16594365103544], [131.89085163466635, 43.16594054422721], [131.89084739025742, 43.16585061075288], [131.89109735769495, 43.16593433021551], [131.891101602483, 43.16602426366867], [131.89097874079872, 43.1660273707501], [131.89098298542652, 43.16611730421121], [131.89086012354286, 43.16612041117061]]]}, "properties": {"zone_id": "vladivostok-2026-07-22-011", "aoi": "vladivostok", "date": "2026-07-22", "scene_id": "S2C_MSIL2A_20260722T020651_R103_T52TGN_20260722T053514", "scene_datetime_utc": "2026-07-22T02:06:51.025000+00:00", "detection_status": "detected", "detection_status_ru": "обнаружено", "lon": 131.89092, "lat": 43.16598, "n_pixels": 1, "zone_area_km2": 0.0005, "cover_m2": 6.7, "p_mean": 0.647, "p_max": 0.647, "cover_m2_km2": 13400.0, "h3": "88316c56b3fffff", "valid_frac_scene": 0.998, "wind_ms": 2.6, "sea": "спокойное", "scene_reliable": true, "field_event_id": "S4:DOORS3:T23", "field_profile": "B", "field_date": "2024-06-10", "field_distance_km": 6979.8, "field_date_gap_days": 772, "field_conc_items_km2": 102.37, "conc_A_items_km2": null, "conc_A_lo80": null, "conc_A_hi80": null, "conc_A_lo95": null, "conc_A_hi95": null, "conc_A_status": "unavailable", "conc_A_status_ru": "концентрация недоступна", "conc_A_reasons": "вне бассейна профиля: nw_atlantic_subtropical", "conc_A_model": "conc-A-c6bce5631d2b", "conc_B_items_km2": null, "conc_B_lo80": null, "conc_B_hi80": null, "conc_B_lo95": null, "conc_B_hi95": null, "conc_B_status": "unavailable", "conc_B_status_ru": "концентрация недоступна", "conc_B_reasons": "вне бассейна профиля: black_sea", "conc_B_model": "conc-B-c6bce5631d2b"}}, {"type": "Feature", "geometry": {"type": "Polygon", "coordinates": [[[131.6401295956398, 43.1652522238966], [131.64012571916797, 43.16516227136331], [131.64000283316247, 43.16516510886772], [131.63999895688843, 43.16507515632385], [131.64012184271408, 43.1650723188283], [131.64011796627798, 43.164982366291596], [131.64036761431169, 43.165066643441705], [131.64037149112545, 43.16515659595897], [131.64024860515565, 43.165159433727055], [131.64025248180738, 43.16524938625148], [131.6401295956398, 43.1652522238966]]]}, "properties": {"zone_id": "vladivostok-2026-07-22-012", "aoi": "vladivostok", "date": "2026-07-22", "scene_id": "S2C_MSIL2A_20260722T020651_R103_T52TGN_20260722T053514", "scene_datetime_utc": "2026-07-22T02:06:51.025000+00:00", "detection_status": "detected", "detection_status_ru": "обнаружено", "lon": 131.64019, "lat": 43.16512, "n_pixels": 1, "zone_area_km2": 0.0005, "cover_m2": 4.7, "p_mean": 0.898, "p_max": 0.898, "cover_m2_km2": 9400.0, "h3": "88316c4315fffff", "valid_frac_scene": 0.998, "wind_ms": 2.6, "sea": "спокойное", "scene_reliable": true, "field_event_id": "S4:DOORS3:T23", "field_profile": "B", "field_date": "2024-06-10", "field_distance_km": 6962.9, "field_date_gap_days": 772, "field_conc_items_km2": 102.37, "conc_A_items_km2": null, "conc_A_lo80": null, "conc_A_hi80": null, "conc_A_lo95": null, "conc_A_hi95": null, "conc_A_status": "unavailable", "conc_A_status_ru": "концентрация недоступна", "conc_A_reasons": "вне бассейна профиля: nw_atlantic_subtropical", "conc_A_model": "conc-A-c6bce5631d2b", "conc_B_items_km2": null, "conc_B_lo80": null, "conc_B_hi80": null, "conc_B_lo95": null, "conc_B_hi95": null, "conc_B_status": "unavailable", "conc_B_status_ru": "концентрация недоступна", "conc_B_reasons": "вне бассейна профиля: black_sea", "conc_B_model": "conc-B-c6bce5631d2b"}}, {"type": "Feature", "geometry": {"type": "Polygon", "coordinates": [[[131.6562022192433, 43.16145836207158], [131.65619831970568, 43.161368410647775], [131.65607544290128, 43.16137126521488], [131.6560715435615, 43.16128131378045], [131.656194420186, 43.16127845922225], [131.6561905206843, 43.16118850779504], [131.65644017338116, 43.161272749710434], [131.6564440732606, 43.16136270111811], [131.65632119649212, 43.16136555594885], [131.65632509620963, 43.16145550736373], [131.6562022192433, 43.16145836207158]]]}, "properties": {"zone_id": "vladivostok-2026-07-22-013", "aoi": "vladivostok", "date": "2026-07-22", "scene_id": "S2C_MSIL2A_20260722T020651_R103_T52TGN_20260722T053514", "scene_datetime_utc": "2026-07-22T02:06:51.025000+00:00", "detection_status": "detected", "detection_status_ru": "обнаружено", "lon": 131.65626, "lat": 43.16132, "n_pixels": 1, "zone_area_km2": 0.0005, "cover_m2": 4.3, "p_mean": 0.627, "p_max": 0.627, "cover_m2_km2": 8600.0, "h3": "88316c431bfffff", "valid_frac_scene": 0.998, "wind_ms": 2.6, "sea": "спокойное", "scene_reliable": true, "field_event_id": "S4:DOORS3:T23", "field_profile": "B", "field_date": "2024-06-10", "field_distance_km": 6964.3, "field_date_gap_days": 772, "field_conc_items_km2": 102.37, "conc_A_items_km2": null, "conc_A_lo80": null, "conc_A_hi80": null, "conc_A_lo95": null, "conc_A_hi95": null, "conc_A_status": "unavailable", "conc_A_status_ru": "концентрация недоступна", "conc_A_reasons": "вне бассейна профиля: nw_atlantic_subtropical", "conc_A_model": "conc-A-c6bce5631d2b", "conc_B_items_km2": null, "conc_B_lo80": null, "conc_B_hi80": null, "conc_B_lo95": null, "conc_B_hi95": null, "conc_B_status": "unavailable", "conc_B_status_ru": "концентрация недоступна", "conc_B_reasons": "вне бассейна профиля: black_sea", "conc_B_model": "conc-B-c6bce5631d2b"}}, {"type": "Feature", "geometry": {"type": "Polygon", "coordinates": [[[131.87406361344432, 43.156819498667765], [131.87405939500712, 43.15672956372032], [131.87393655010268, 43.15673265197213], [131.87393233186458, 43.15664271701328], [131.87405517658934, 43.15663962877111], [131.87405095819096, 43.156549693820146], [131.87430086598044, 43.156633451891636], [131.87430508475765, 43.15672338682154], [131.8741822398921, 43.15672647533679], [131.87418645850903, 43.15681641027459], [131.87406361344432, 43.156819498667765]]]}, "properties": {"zone_id": "vladivostok-2026-07-22-014", "aoi": "vladivostok", "date": "2026-07-22", "scene_id": "S2C_MSIL2A_20260722T020651_R103_T52TGN_20260722T053514", "scene_datetime_utc": "2026-07-22T02:06:51.025000+00:00", "detection_status": "detected", "detection_status_ru": "обнаружено", "lon": 131.87412, "lat": 43.15668, "n_pixels": 1, "zone_area_km2": 0.0005, "cover_m2": 3.9, "p_mean": 0.78, "p_max": 0.78, "cover_m2_km2": 7800.0, "h3": "88316c54ddfffff", "valid_frac_scene": 0.998, "wind_ms": 2.6, "sea": "спокойное", "scene_reliable": true, "field_event_id": "S4:DOORS3:T23", "field_profile": "B", "field_date": "2024-06-10", "field_distance_km": 6979.2, "field_date_gap_days": 772, "field_conc_items_km2": 102.37, "conc_A_items_km2": null, "conc_A_lo80": null, "conc_A_hi80": null, "conc_A_lo95": null, "conc_A_hi95": null, "conc_A_status": "unavailable", "conc_A_status_ru": "концентрация недоступна", "conc_A_reasons": "вне бассейна профиля: nw_atlantic_subtropical", "conc_A_model": "conc-A-c6bce5631d2b", "conc_B_items_km2": null, "conc_B_lo80": null, "conc_B_hi80": null, "conc_B_lo95": null, "conc_B_hi95": null, "conc_B_status": "unavailable", "conc_B_status_ru": "концентрация недоступна", "conc_B_reasons": "вне бассейна профиля: black_sea", "conc_B_model": "conc-B-c6bce5631d2b"}}, {"type": "Feature", "geometry": {"type": "Polygon", "coordinates": [[[131.79687175051987, 43.15513234855045], [131.79686764553296, 43.1550424075636], [131.79674479579552, 43.15504541284199], [131.7967365862379, 43.15486553084432], [131.79697817986505, 43.154769579210665], [131.79698228497494, 43.154859520193334], [131.7971051343151, 43.154856514670236], [131.7971133449511, 43.15503639661157], [131.79687175051987, 43.15513234855045]]]}, "properties": {"zone_id": "vladivostok-2026-07-22-015", "aoi": "vladivostok", "date": "2026-07-22", "scene_id": "S2C_MSIL2A_20260722T020651_R103_T52TGN_20260722T053514", "scene_datetime_utc": "2026-07-22T02:06:51.025000+00:00", "detection_status": "detected", "detection_status_ru": "обнаружено", "lon": 131.79692, "lat": 43.15495, "n_pixels": 2, "zone_area_km2": 0.0008, "cover_m2": 7.5, "p_mean": 0.992, "p_max": 0.996, "cover_m2_km2": 9375.0, "h3": "88316c55c1fffff", "valid_frac_scene": 0.998, "wind_ms": 2.6, "sea": "спокойное", "scene_reliable": true, "field_event_id": "S4:DOORS3:T23", "field_profile": "B", "field_date": "2024-06-10", "field_distance_km": 6974.1, "field_date_gap_days": 772, "field_conc_items_km2": 102.37, "conc_A_items_km2": null, "conc_A_lo80": null, "conc_A_hi80": null, "conc_A_lo95": null, "conc_A_hi95": null, "conc_A_status": "unavailable", "conc_A_status_ru": "концентрация недоступна", "conc_A_reasons": "вне бассейна профиля: nw_atlantic_subtropical", "conc_A_model": "conc-A-c6bce5631d2b", "conc_B_items_km2": null, "conc_B_lo80": null, "conc_B_hi80": null, "conc_B_lo95": null, "conc_B_hi95": null, "conc_B_status": "unavailable", "conc_B_status_ru": "концентрация недоступна", "conc_B_reasons": "вне бассейна профиля: black_sea", "conc_B_model": "conc-B-c6bce5631d2b"}}, {"type": "Feature", "geometry": {"type": "Polygon", "coordinates": [[[131.78849768691808, 43.146782958848576], [131.7884935954053, 43.14669301708762], [131.7883707615119, 43.14669601291352], [131.78836667019766, 43.146606071141484], [131.78848950391136, 43.14660307532493], [131.78848541243627, 43.146513133560525], [131.78873517128224, 43.14659708329675], [131.7887392631355, 43.14668702504069], [131.7886164292798, 43.14669002113001], [131.78862052097227, 43.146779962881595], [131.78849768691808, 43.146782958848576]]]}, "properties": {"zone_id": "vladivostok-2026-07-22-016", "aoi": "vladivostok", "date": "2026-07-22", "scene_id": "S2C_MSIL2A_20260722T020651_R103_T52TGN_20260722T053514", "scene_datetime_utc": "2026-07-22T02:06:51.025000+00:00", "detection_status": "detected", "detection_status_ru": "обнаружено", "lon": 131.78855, "lat": 43.14665, "n_pixels": 1, "zone_area_km2": 0.0005, "cover_m2": 4.3, "p_mean": 0.671, "p_max": 0.671, "cover_m2_km2": 8600.0, "h3": "88316c558dfffff", "valid_frac_scene": 0.998, "wind_ms": 2.6, "sea": "спокойное", "scene_reliable": true, "field_event_id": "S4:DOORS3:T23", "field_profile": "B", "field_date": "2024-06-10", "field_distance_km": 6974.1, "field_date_gap_days": 772, "field_conc_items_km2": 102.37, "conc_A_items_km2": null, "conc_A_lo80": null, "conc_A_hi80": null, "conc_A_lo95": null, "conc_A_hi95": null, "conc_A_status": "unavailable", "conc_A_status_ru": "концентрация недоступна", "conc_A_reasons": "вне бассейна профиля: nw_atlantic_subtropical", "conc_A_model": "conc-A-c6bce5631d2b", "conc_B_items_km2": null, "conc_B_lo80": null, "conc_B_hi80": null, "conc_B_lo95": null, "conc_B_hi95": null, "conc_B_status": "unavailable", "conc_B_status_ru": "концентрация недоступна", "conc_B_reasons": "вне бассейна профиля: black_sea", "conc_B_model": "conc-B-c6bce5631d2b"}}, {"type": "Feature", "geometry": {"type": "Polygon", "coordinates": [[[131.87168147803607, 43.14535410273496], [131.87167726477958, 43.145264167418766], [131.87155444257897, 43.14526725246061], [131.87154601648342, 43.14508738180368], [131.87178744676902, 43.14499127631507], [131.87179166014684, 43.145081211626874], [131.87191448194946, 43.14507812634098], [131.8719229091226, 43.14525799694007], [131.87168147803607, 43.14535410273496]]]}, "properties": {"zone_id": "vladivostok-2026-07-22-017", "aoi": "vladivostok", "date": "2026-07-22", "scene_id": "S2C_MSIL2A_20260722T020651_R103_T52TGN_20260722T053514", "scene_datetime_utc": "2026-07-22T02:06:51.025000+00:00", "detection_status": "detected", "detection_status_ru": "обнаружено", "lon": 131.87173, "lat": 43.14517, "n_pixels": 2, "zone_area_km2": 0.0008, "cover_m2": 14.5, "p_mean": 0.975, "p_max": 0.996, "cover_m2_km2": 18125.0, "h3": "88316c54d5fffff", "valid_frac_scene": 0.998, "wind_ms": 2.6, "sea": "спокойное", "scene_reliable": true, "field_event_id": "S4:DOORS3:T23", "field_profile": "B", "field_date": "2024-06-10", "field_distance_km": 6979.8, "field_date_gap_days": 772, "field_conc_items_km2": 102.37, "conc_A_items_km2": null, "conc_A_lo80": null, "conc_A_hi80": null, "conc_A_lo95": null, "conc_A_hi95": null, "conc_A_status": "unavailable", "conc_A_status_ru": "концентрация недоступна", "conc_A_reasons": "вне бассейна профиля: nw_atlantic_subtropical", "conc_A_model": "conc-A-c6bce5631d2b", "conc_B_items_km2": null, "conc_B_lo80": null, "conc_B_hi80": null, "conc_B_lo95": null, "conc_B_hi95": null, "conc_B_status": "unavailable", "conc_B_status_ru": "концентрация недоступна", "conc_B_reasons": "вне бассейна профиля: black_sea", "conc_B_model": "conc-B-c6bce5631d2b"}}, {"type": "Feature", "geometry": {"type": "Polygon", "coordinates": [[[131.8762408415384, 43.13245363679469], [131.87623662349878, 43.13236370163509], [131.87611382760795, 43.13236679083573], [131.87610960976727, 43.13227685566473], [131.87623240547862, 43.13227376647373], [131.8762281874779, 43.132183831310634], [131.87647799684308, 43.13226758769696], [131.87648221522218, 43.132357522839015], [131.8763594193702, 43.132360612302854], [131.87636363758926, 43.132450547452805], [131.8762408415384, 43.13245363679469]]]}, "properties": {"zone_id": "vladivostok-2026-07-22-018", "aoi": "vladivostok", "date": "2026-07-22", "scene_id": "S2C_MSIL2A_20260722T020651_R103_T52TGN_20260722T053514", "scene_datetime_utc": "2026-07-22T02:06:51.025000+00:00", "detection_status": "detected", "detection_status_ru": "обнаружено", "lon": 131.8763, "lat": 43.13232, "n_pixels": 1, "zone_area_km2": 0.0005, "cover_m2": 7.8, "p_mean": 0.533, "p_max": 0.533, "cover_m2_km2": 15600.0, "h3": "88316c549dfffff", "valid_frac_scene": 0.998, "wind_ms": 2.6, "sea": "спокойное", "scene_reliable": true, "field_event_id": "S4:DOORS3:T23", "field_profile": "B", "field_date": "2024-06-10", "field_distance_km": 6980.9, "field_date_gap_days": 772, "field_conc_items_km2": 102.37, "conc_A_items_km2": null, "conc_A_lo80": null, "conc_A_hi80": null, "conc_A_lo95": null, "conc_A_hi95": null, "conc_A_status": "unavailable", "conc_A_status_ru": "концентрация недоступна", "conc_A_reasons": "вне бассейна профиля: nw_atlantic_subtropical", "conc_A_model": "conc-A-c6bce5631d2b", "conc_B_items_km2": null, "conc_B_lo80": null, "conc_B_hi80": null, "conc_B_lo95": null, "conc_B_hi95": null, "conc_B_status": "unavailable", "conc_B_status_ru": "концентрация недоступна", "conc_B_reasons": "вне бассейна профиля: black_sea", "conc_B_model": "conc-B-c6bce5631d2b"}}, {"type": "Feature", "geometry": {"type": "Polygon", "coordinates": [[[131.87431038022513, 43.13061131937126], [131.8743061652854, 43.13052138403013], [131.87418337287207, 43.13052447105411], [131.87417494340977, 43.130344600347314], [131.87405215133597, 43.13034768722039], [131.87404793681338, 43.13025775185473], [131.87417072870772, 43.130254664991305], [131.87416651402515, 43.130164729633535], [131.87441631243823, 43.13024849086964], [131.87442474257952, 43.13042836154135], [131.87454753477456, 43.130425274263835], [131.87455175005377, 43.13051520958741], [131.87442895767927, 43.13051829687458], [131.8744331727985, 43.13060823220605], [131.87431038022513, 43.13061131937126]]]}, "properties": {"zone_id": "vladivostok-2026-07-22-019", "aoi": "vladivostok", "date": "2026-07-22", "scene_id": "S2C_MSIL2A_20260722T020651_R103_T52TGN_20260722T053514", "scene_datetime_utc": "2026-07-22T02:06:51.025000+00:00", "detection_status": "detected", "detection_status_ru": "обнаружено", "lon": 131.8743, "lat": 43.13039, "n_pixels": 2, "zone_area_km2": 0.001, "cover_m2": 7.1, "p_mean": 0.778, "p_max": 0.894, "cover_m2_km2": 7100.0, "h3": "88316c5491fffff", "valid_frac_scene": 0.998, "wind_ms": 2.6, "sea": "спокойное", "scene_reliable": true, "field_event_id": "S4:DOORS3:T23", "field_profile": "B", "field_date": "2024-06-10", "field_distance_km": 6980.9, "field_date_gap_days": 772, "field_conc_items_km2": 102.37, "conc_A_items_km2": null, "conc_A_lo80": null, "conc_A_hi80": null, "conc_A_lo95": null, "conc_A_hi95": null, "conc_A_status": "unavailable", "conc_A_status_ru": "концентрация недоступна", "conc_A_reasons": "вне бассейна профиля: nw_atlantic_subtropical", "conc_A_model": "conc-A-c6bce5631d2b", "conc_B_items_km2": null, "conc_B_lo80": null, "conc_B_hi80": null, "conc_B_lo95": null, "conc_B_hi95": null, "conc_B_status": "unavailable", "conc_B_status_ru": "концентрация недоступна", "conc_B_reasons": "вне бассейна профиля: black_sea", "conc_B_model": "conc-B-c6bce5631d2b"}}, {"type": "Feature", "geometry": {"type": "Polygon", "coordinates": [[[131.85414775481948, 43.06979799707539], [131.8541435783021, 43.069708059189196], [131.85389405592113, 43.06962424503982], [131.85388987980002, 43.069534307130986], [131.85401255257213, 43.06953124533694], [131.85400837629132, 43.06944130743593], [131.85425372142, 43.06943518347298], [131.85425789805862, 43.06952512135486], [131.85438057077303, 43.06952205916683], [131.85438892446578, 43.069701934906185], [131.85414775481948, 43.06979799707539]]]}, "properties": {"zone_id": "vladivostok-2026-07-22-020", "aoi": "vladivostok", "date": "2026-07-22", "scene_id": "S2C_MSIL2A_20260722T020651_R103_T52TGN_20260722T053514", "scene_datetime_utc": "2026-07-22T02:06:51.025000+00:00", "detection_status": "detected", "detection_status_ru": "обнаружено", "lon": 131.85416, "lat": 43.0696, "n_pixels": 3, "zone_area_km2": 0.001, "cover_m2": 10.2, "p_mean": 0.906, "p_max": 0.988, "cover_m2_km2": 10200.0, "h3": "88316c4613fffff", "valid_frac_scene": 0.998, "wind_ms": 2.6, "sea": "спокойное", "scene_reliable": true, "field_event_id": "S4:DOORS3:T23", "field_profile": "B", "field_date": "2024-06-10", "field_distance_km": 6983.3, "field_date_gap_days": 772, "field_conc_items_km2": 102.37, "conc_A_items_km2": null, "conc_A_lo80": null, "conc_A_hi80": null, "conc_A_lo95": null, "conc_A_hi95": null, "conc_A_status": "unavailable", "conc_A_status_ru": "концентрация недоступна", "conc_A_reasons": "вне бассейна профиля: nw_atlantic_subtropical", "conc_A_model": "conc-A-c6bce5631d2b", "conc_B_items_km2": null, "conc_B_lo80": null, "conc_B_hi80": null, "conc_B_lo95": null, "conc_B_hi95": null, "conc_B_status": "unavailable", "conc_B_status_ru": "концентрация недоступна", "conc_B_reasons": "вне бассейна профиля: black_sea", "conc_B_model": "conc-B-c6bce5631d2b"}}, {"type": "Feature", "geometry": {"type": "Polygon", "coordinates": [[[131.86259242068476, 43.066525467647836], [131.86258823229915, 43.06643553037317], [131.86246556661862, 43.06643860118401], [131.86246137843116, 43.06634866389798], [131.8625840439328, 43.06634559309674], [131.86257985558572, 43.06625565581859], [131.86282518617338, 43.0662495138414], [131.8628293748782, 43.06633945110035], [131.86295204032197, 43.066336379905195], [131.86295622922495, 43.06642631715282], [131.8628335636023, 43.06642938835758], [131.86283775234565, 43.06651932561304], [131.86259242068476, 43.066525467647836]]]}, "properties": {"zone_id": "vladivostok-2026-07-22-021", "aoi": "vladivostok", "date": "2026-07-22", "scene_id": "S2C_MSIL2A_20260722T020651_R103_T52TGN_20260722T053514", "scene_datetime_utc": "2026-07-22T02:06:51.025000+00:00", "detection_status": "detected", "detection_status_ru": "обнаружено", "lon": 131.86271, "lat": 43.06639, "n_pixels": 2, "zone_area_km2": 0.0008, "cover_m2": 31.4, "p_mean": 0.506, "p_max": 0.51, "cover_m2_km2": 39250.0, "h3": "88316c46c5fffff", "valid_frac_scene": 0.998, "wind_ms": 2.6, "sea": "спокойное", "scene_reliable": true, "field_event_id": "S4:DOORS3:T23", "field_profile": "B", "field_date": "2024-06-10", "field_distance_km": 6984.1, "field_date_gap_days": 772, "field_conc_items_km2": 102.37, "conc_A_items_km2": null, "conc_A_lo80": null, "conc_A_hi80": null, "conc_A_lo95": null, "conc_A_hi95": null, "conc_A_status": "unavailable", "conc_A_status_ru": "концентрация недоступна", "conc_A_reasons": "вне бассейна профиля: nw_atlantic_subtropical", "conc_A_model": "conc-A-c6bce5631d2b", "conc_B_items_km2": null, "conc_B_lo80": null, "conc_B_hi80": null, "conc_B_lo95": null, "conc_B_hi95": null, "conc_B_status": "unavailable", "conc_B_status_ru": "концентрация недоступна", "conc_B_reasons": "вне бассейна профиля: black_sea", "conc_B_model": "conc-B-c6bce5631d2b"}}, {"type": "Feature", "geometry": {"type": "Polygon", "coordinates": [[[131.81704932733695, 43.05622114785287], [131.81704520701683, 43.056131206862695], [131.81692255703194, 43.056134228280115], [131.81691843690962, 43.05604428727877], [131.81704108671568, 43.056041265870796], [131.8170369664335, 43.055951324877164], [131.81728638627092, 43.05603522266104], [131.8172905069297, 43.05612516363404], [131.81716785698276, 43.056128185314016], [131.81717197748168, 43.05621812629473], [131.81704932733695, 43.05622114785287]]]}, "properties": {"zone_id": "vladivostok-2026-07-22-022", "aoi": "vladivostok", "date": "2026-07-22", "scene_id": "S2C_MSIL2A_20260722T020651_R103_T52TGN_20260722T053514", "scene_datetime_utc": "2026-07-22T02:06:51.025000+00:00", "detection_status": "detected", "detection_status_ru": "обнаружено", "lon": 131.8171, "lat": 43.05608, "n_pixels": 1, "zone_area_km2": 0.0005, "cover_m2": 5.9, "p_mean": 0.596, "p_max": 0.596, "cover_m2_km2": 11800.0, "h3": "88316c445dfffff", "valid_frac_scene": 0.998, "wind_ms": 2.6, "sea": "спокойное", "scene_reliable": true, "field_event_id": "S4:DOORS3:T23", "field_profile": "B", "field_date": "2024-06-10", "field_distance_km": 6981.6, "field_date_gap_days": 772, "field_conc_items_km2": 102.37, "conc_A_items_km2": null, "conc_A_lo80": null, "conc_A_hi80": null, "conc_A_lo95": null, "conc_A_hi95": null, "conc_A_status": "unavailable", "conc_A_status_ru": "концентрация недоступна", "conc_A_reasons": "вне бассейна профиля: nw_atlantic_subtropical", "conc_A_model": "conc-A-c6bce5631d2b", "conc_B_items_km2": null, "conc_B_lo80": null, "conc_B_hi80": null, "conc_B_lo95": null, "conc_B_hi95": null, "conc_B_status": "unavailable", "conc_B_status_ru": "концентрация недоступна", "conc_B_reasons": "вне бассейна профиля: black_sea", "conc_B_model": "conc-B-c6bce5631d2b"}}, {"type": "Feature", "geometry": {"type": "Polygon", "coordinates": [[[131.74020765705316, 42.99334718204758], [131.74020365783105, 42.99325723420054], [131.7400811249586, 42.9932601698421], [131.74007312692618, 42.99308027412451], [131.74031419259438, 42.99298445490407], [131.74031819193956, 42.99307440274708], [131.74044072441868, 42.993071466861835], [131.74044872352079, 42.99325136252436], [131.74020765705316, 42.99334718204758]]]}, "properties": {"zone_id": "vladivostok-2026-07-22-023", "aoi": "vladivostok", "date": "2026-07-22", "scene_id": "S2C_MSIL2A_20260722T020651_R103_T52TGN_20260722T053514", "scene_datetime_utc": "2026-07-22T02:06:51.025000+00:00", "detection_status": "detected", "detection_status_ru": "обнаружено", "lon": 131.74026, "lat": 42.99317, "n_pixels": 2, "zone_area_km2": 0.0008, "cover_m2": 12.9, "p_mean": 0.904, "p_max": 0.945, "cover_m2_km2": 16125.0, "h3": "88316c45adfffff", "valid_frac_scene": 0.998, "wind_ms": 2.6, "sea": "спокойное", "scene_reliable": true, "field_event_id": "S4:DOORS3:T23", "field_profile": "B", "field_date": "2024-06-10", "field_distance_km": 6980.3, "field_date_gap_days": 772, "field_conc_items_km2": 102.37, "conc_A_items_km2": null, "conc_A_lo80": null, "conc_A_hi80": null, "conc_A_lo95": null, "conc_A_hi95": null, "conc_A_status": "unavailable", "conc_A_status_ru": "концентрация недоступна", "conc_A_reasons": "вне бассейна профиля: nw_atlantic_subtropical", "conc_A_model": "conc-A-c6bce5631d2b", "conc_B_items_km2": null, "conc_B_lo80": null, "conc_B_hi80": null, "conc_B_lo95": null, "conc_B_hi95": null, "conc_B_status": "unavailable", "conc_B_status_ru": "концентрация недоступна", "conc_B_reasons": "вне бассейна профиля: black_sea", "conc_B_model": "conc-B-c6bce5631d2b"}}]}