{"type": "FeatureCollection", "features": [{"type": "Feature", "geometry": {"type": "Polygon", "coordinates": [[[37.30011745462676, 44.86977733450947], [37.30012010395354, 44.86968735286005], [37.299993567463666, 44.86968546882572], [37.299998866473885, 44.86950550553399], [37.30012540256982, 44.869507389556574], [37.300128051859296, 44.86941740790251], [37.30038112369449, 44.8694211755155], [37.30037847479897, 44.86951115718132], [37.3005050109322, 44.86951304078349], [37.3004997134978, 44.86969300412223], [37.30037317697061, 44.869691120508314], [37.30037052803778, 44.86978110216948], [37.30011745462676, 44.86977733450947]]]}, "properties": {"zone_id": "kerch-2025-06-11-001", "aoi": "kerch", "date": "2025-06-11", "scene_id": "S2C_MSIL2A_20250611T082621_R021_T37TCK_20250611T155416", "scene_datetime_utc": "2025-06-11T08:26:21.025000+00:00", "detection_status": "detected", "detection_status_ru": "обнаружено", "lon": 37.30025, "lat": 44.8696, "n_pixels": 4, "zone_area_km2": 0.0012, "cover_m2": 49.4, "p_mean": 0.831, "p_max": 0.941, "cover_m2_km2": 41166.7, "h3": "882d72935bfffff", "valid_frac_scene": 1.0, "wind_ms": 3.9, "sea": "спокойное", "scene_reliable": false, "field_event_id": "S4:DOORS3:T11", "field_profile": "B", "field_date": "2024-06-04", "field_distance_km": 269.0, "field_date_gap_days": 372, "field_conc_items_km2": 62.52, "conc_A_items_km2": null, "conc_A_lo80": null, "conc_A_hi80": null, "conc_A_lo95": null, "conc_A_hi95": null, "conc_A_status": "unavailable", "conc_A_status_ru": "концентрация недоступна", "conc_A_reasons": "вне бассейна профиля: nw_atlantic_subtropical", "conc_A_model": "conc-A-c6bce5631d2b", "conc_B_items_km2": 592.2, "conc_B_lo80": 126.4, "conc_B_hi80": 1989.6, "conc_B_lo95": 78.8, "conc_B_hi95": 3725.4, "conc_B_status": "research_estimate", "conc_B_status_ru": "исследовательская оценка", "conc_B_reasons": "ближайшее полевое измерение в 269 км (> 60 км); log_dist_coast_km = 1.2 вне диапазона обучения [1.7; 5.0]", "conc_B_model": "conc-B-c6bce5631d2b"}}]}