{"type": "FeatureCollection", "features": [{"type": "Feature", "geometry": {"type": "Polygon", "coordinates": [[[44.68520159873405, 48.88086489884302], [44.685202163276074, 48.88077494216865], [44.685065771220515, 48.880774569748155], [44.685066336004326, 48.880684613073534], [44.685339683920915, 48.880595401072505], [44.68533911962907, 48.88068535775087], [44.68547551144564, 48.88068572984757], [44.68547494739558, 48.880775686525695], [44.68533855533443, 48.88077531442784], [44.685337991036995, 48.88086527110338], [44.68520159873405, 48.88086489884302]]]}, "properties": {"zone_id": "volgograd-2025-08-29-001", "aoi": "volgograd", "date": "2025-08-29", "scene_id": "S2B_MSIL2A_20250829T080609_R078_T38UMV_20250829T090947", "scene_datetime_utc": "2025-08-29T08:06:09.024000+00:00", "detection_status": "detected", "detection_status_ru": "обнаружено", "lon": 44.68527, "lat": 48.88073, "n_pixels": 1, "zone_area_km2": 0.0005, "cover_m2": 5.1, "p_mean": 0.82, "p_max": 0.82, "cover_m2_km2": 10200.0, "h3": "882d48a0b9fffff", "valid_frac_scene": 1.0, "wind_ms": 2.8, "sea": "спокойное", "scene_reliable": true, "field_event_id": "S4:DOORS3:T23", "field_profile": "B", "field_date": "2024-06-10", "field_distance_km": 766.9, "field_date_gap_days": 445, "field_conc_items_km2": 102.37, "conc_A_items_km2": null, "conc_A_lo80": null, "conc_A_hi80": null, "conc_A_lo95": null, "conc_A_hi95": null, "conc_A_status": "unavailable", "conc_A_status_ru": "концентрация недоступна", "conc_A_reasons": "вне бассейна профиля: nw_atlantic_subtropical", "conc_A_model": "conc-A-c6bce5631d2b", "conc_B_items_km2": null, "conc_B_lo80": null, "conc_B_hi80": null, "conc_B_lo95": null, "conc_B_hi95": null, "conc_B_status": "unavailable", "conc_B_status_ru": "концентрация недоступна", "conc_B_reasons": "вне бассейна профиля: black_sea", "conc_B_model": "conc-B-c6bce5631d2b"}}, {"type": "Feature", "geometry": {"type": "Polygon", "coordinates": [[[44.679881727030136, 48.880940211486376], [44.67988230111394, 48.8808502548595], [44.679745908923884, 48.88084987614636], [44.67974705757214, 48.880669962890785], [44.67988344927303, 48.88067034160156], [44.6798840233483, 48.88058038497046], [44.680020414807444, 48.88058076351871], [44.680020988635285, 48.880490806885], [44.680293197734265, 48.88058152013127], [44.68029205104839, 48.88076143339921], [44.68001869330685, 48.880850633411356], [44.680018119467626, 48.880940590039394], [44.679881727030136, 48.880940211486376]]]}, "properties": {"zone_id": "volgograd-2025-08-29-002", "aoi": "volgograd", "date": "2025-08-29", "scene_id": "S2B_MSIL2A_20250829T080609_R078_T38UMV_20250829T090947", "scene_datetime_utc": "2025-08-29T08:06:09.024000+00:00", "detection_status": "detected", "detection_status_ru": "обнаружено", "lon": 44.68002, "lat": 48.88072, "n_pixels": 4, "zone_area_km2": 0.0012, "cover_m2": 16.5, "p_mean": 0.873, "p_max": 0.922, "cover_m2_km2": 13750.0, "h3": "882d48a087fffff", "valid_frac_scene": 1.0, "wind_ms": 2.8, "sea": "спокойное", "scene_reliable": true, "field_event_id": "S4:DOORS3:T23", "field_profile": "B", "field_date": "2024-06-10", "field_distance_km": 766.8, "field_date_gap_days": 445, "field_conc_items_km2": 102.37, "conc_A_items_km2": null, "conc_A_lo80": null, "conc_A_hi80": null, "conc_A_lo95": null, "conc_A_hi95": null, "conc_A_status": "unavailable", "conc_A_status_ru": "концентрация недоступна", "conc_A_reasons": "вне бассейна профиля: nw_atlantic_subtropical", "conc_A_model": "conc-A-c6bce5631d2b", "conc_B_items_km2": null, "conc_B_lo80": null, "conc_B_hi80": null, "conc_B_lo95": null, "conc_B_hi95": null, "conc_B_status": "unavailable", "conc_B_status_ru": "концентрация недоступна", "conc_B_reasons": "вне бассейна профиля: black_sea", "conc_B_model": "conc-B-c6bce5631d2b"}}, {"type": "Feature", "geometry": {"type": "Polygon", "coordinates": [[[44.67961353866784, 48.88021980086095], [44.67961411321804, 48.88012984422516], [44.67947772299034, 48.880129465198905], [44.679478297782275, 48.88003950856289], [44.67975165205129, 48.87995030981186], [44.679751077751355, 48.88004026645168], [44.67988746774017, 48.880040645154104], [44.67988689368197, 48.8801306017937], [44.67975050344858, 48.88013022309009], [44.67974992914296, 48.880220179727075], [44.67961353866784, 48.88021980086095]]]}, "properties": {"zone_id": "volgograd-2025-08-29-003", "aoi": "volgograd", "date": "2025-08-29", "scene_id": "S2B_MSIL2A_20250829T080609_R078_T38UMV_20250829T090947", "scene_datetime_utc": "2025-08-29T08:06:09.024000+00:00", "detection_status": "detected", "detection_status_ru": "обнаружено", "lon": 44.67968, "lat": 48.88009, "n_pixels": 1, "zone_area_km2": 0.0005, "cover_m2": 5.5, "p_mean": 0.58, "p_max": 0.58, "cover_m2_km2": 11000.0, "h3": "882d48a087fffff", "valid_frac_scene": 1.0, "wind_ms": 2.8, "sea": "спокойное", "scene_reliable": true, "field_event_id": "S4:DOORS3:T23", "field_profile": "B", "field_date": "2024-06-10", "field_distance_km": 766.7, "field_date_gap_days": 445, "field_conc_items_km2": 102.37, "conc_A_items_km2": null, "conc_A_lo80": null, "conc_A_hi80": null, "conc_A_lo95": null, "conc_A_hi95": null, "conc_A_status": "unavailable", "conc_A_status_ru": "концентрация недоступна", "conc_A_reasons": "вне бассейна профиля: nw_atlantic_subtropical", "conc_A_model": "conc-A-c6bce5631d2b", "conc_B_items_km2": null, "conc_B_lo80": null, "conc_B_hi80": null, "conc_B_lo95": null, "conc_B_hi95": null, "conc_B_status": "unavailable", "conc_B_status_ru": "концентрация недоступна", "conc_B_reasons": "вне бассейна профиля: black_sea", "conc_B_model": "conc-B-c6bce5631d2b"}}, {"type": "Feature", "geometry": {"type": "Polygon", "coordinates": [[[44.679890337988475, 48.87959086193488], [44.6798909120296, 48.87950090528679], [44.67961870951712, 48.879410191087814], [44.6796192840417, 48.87932023443928], [44.679755672071074, 48.87932061329347], [44.679756246348234, 48.87923065664233], [44.68002902192641, 48.87923141386441], [44.68002844813838, 48.879321370517935], [44.6801648361763, 48.8793217488882], [44.68016368908087, 48.87950166219339], [44.679890337988475, 48.87959086193488]]]}, "properties": {"zone_id": "volgograd-2025-08-29-004", "aoi": "volgograd", "date": "2025-08-29", "scene_id": "S2B_MSIL2A_20250829T080609_R078_T38UMV_20250829T090947", "scene_datetime_utc": "2025-08-29T08:06:09.024000+00:00", "detection_status": "detected", "detection_status_ru": "обнаружено", "lon": 44.67991, "lat": 48.8794, "n_pixels": 3, "zone_area_km2": 0.001, "cover_m2": 14.9, "p_mean": 0.677, "p_max": 0.745, "cover_m2_km2": 14900.0, "h3": "882d48a087fffff", "valid_frac_scene": 1.0, "wind_ms": 2.8, "sea": "спокойное", "scene_reliable": true, "field_event_id": "S4:DOORS3:T23", "field_profile": "B", "field_date": "2024-06-10", "field_distance_km": 766.6, "field_date_gap_days": 445, "field_conc_items_km2": 102.37, "conc_A_items_km2": null, "conc_A_lo80": null, "conc_A_hi80": null, "conc_A_lo95": null, "conc_A_hi95": null, "conc_A_status": "unavailable", "conc_A_status_ru": "концентрация недоступна", "conc_A_reasons": "вне бассейна профиля: nw_atlantic_subtropical", "conc_A_model": "conc-A-c6bce5631d2b", "conc_B_items_km2": null, "conc_B_lo80": null, "conc_B_hi80": null, "conc_B_lo95": null, "conc_B_hi95": null, "conc_B_status": "unavailable", "conc_B_status_ru": "концентрация недоступна", "conc_B_reasons": "вне бассейна профиля: black_sea", "conc_B_model": "conc-B-c6bce5631d2b"}}, {"type": "Feature", "geometry": {"type": "Polygon", "coordinates": [[[44.67989320816564, 48.87914107868026], [44.67989378219253, 48.8790511220251], [44.679757394894, 48.879050743335796], [44.679757969162615, 48.878960786680395], [44.679894356216586, 48.878961165368516], [44.679894930237786, 48.87887120871053], [44.68016770386514, 48.878871965600446], [44.680167130333054, 48.87896192226082], [44.68030351739556, 48.878962300465005], [44.6803029441052, 48.87905225712517], [44.680166556798135, 48.87905187891979], [44.680165983260366, 48.879141835577336], [44.67989320816564, 48.87914107868026]]]}, "properties": {"zone_id": "volgograd-2025-08-29-005", "aoi": "volgograd", "date": "2025-08-29", "scene_id": "S2B_MSIL2A_20250829T080609_R078_T38UMV_20250829T090947", "scene_datetime_utc": "2025-08-29T08:06:09.024000+00:00", "detection_status": "detected", "detection_status_ru": "обнаружено", "lon": 44.68003, "lat": 48.87901, "n_pixels": 2, "zone_area_km2": 0.0008, "cover_m2": 8.6, "p_mean": 0.835, "p_max": 0.925, "cover_m2_km2": 10750.0, "h3": "882d48a087fffff", "valid_frac_scene": 1.0, "wind_ms": 2.8, "sea": "спокойное", "scene_reliable": true, "field_event_id": "S4:DOORS3:T23", "field_profile": "B", "field_date": "2024-06-10", "field_distance_km": 766.6, "field_date_gap_days": 445, "field_conc_items_km2": 102.37, "conc_A_items_km2": null, "conc_A_lo80": null, "conc_A_hi80": null, "conc_A_lo95": null, "conc_A_hi95": null, "conc_A_status": "unavailable", "conc_A_status_ru": "концентрация недоступна", "conc_A_reasons": "вне бассейна профиля: nw_atlantic_subtropical", "conc_A_model": "conc-A-c6bce5631d2b", "conc_B_items_km2": null, "conc_B_lo80": null, "conc_B_hi80": null, "conc_B_lo95": null, "conc_B_hi95": null, "conc_B_status": "unavailable", "conc_B_status_ru": "концентрация недоступна", "conc_B_reasons": "вне бассейна профиля: black_sea", "conc_B_model": "conc-B-c6bce5631d2b"}}]}