{"type": "FeatureCollection", "features": [{"type": "Feature", "geometry": {"type": "Polygon", "coordinates": [[[31.304357142013817, 42.41718349948197], [31.304359567953014, 42.41709347889242], [31.30423807708404, 42.41709168129407], [31.30424050318574, 42.417001660708614], [31.304485910330943, 42.4169152351671], [31.30448348458758, 42.41700525576536], [31.304604975305164, 42.4170070531007], [31.3046025497243, 42.41709707370305], [31.3044810588331, 42.41709527636208], [31.304478633067518, 42.417185296957264], [31.304357142013817, 42.41718349948197]]]}, "properties": {"zone_id": "s4_zonguldak-2024-06-17-001", "aoi": "s4_zonguldak", "date": "2024-06-17", "scene_id": "S2B_MSIL2A_20240617T084559_R107_T36TUN_20240617T132026", "scene_datetime_utc": "2024-06-17T08:45:59.024000+00:00", "detection_status": "detected", "detection_status_ru": "обнаружено", "lon": 31.30442, "lat": 42.41705, "n_pixels": 1, "zone_area_km2": 0.0005, "cover_m2": 6.3, "p_mean": 0.631, "p_max": 0.631, "cover_m2_km2": 12600.0, "h3": "882d206a0bfffff", "valid_frac_scene": 1.0, "wind_ms": 2.8, "sea": "спокойное", "scene_reliable": true, "field_event_id": "S4:DOORS3:T31", "field_profile": "B", "field_date": "2024-06-17", "field_distance_km": 8.9, "field_date_gap_days": 0, "field_conc_items_km2": 345.29, "conc_A_items_km2": null, "conc_A_lo80": null, "conc_A_hi80": null, "conc_A_lo95": null, "conc_A_hi95": null, "conc_A_status": "unavailable", "conc_A_status_ru": "концентрация недоступна", "conc_A_reasons": "вне бассейна профиля: nw_atlantic_subtropical", "conc_A_model": "conc-A-c6bce5631d2b", "conc_B_items_km2": 169.0, "conc_B_lo80": 35.5, "conc_B_hi80": 569.4, "conc_B_lo95": 21.9, "conc_B_hi95": 1066.7, "conc_B_status": "research_estimate", "conc_B_status_ru": "исследовательская оценка", "conc_B_reasons": "ближайшее полевое измерение в 123 км (> 60 км)", "conc_B_model": "conc-B-c6bce5631d2b"}}, {"type": "Feature", "geometry": {"type": "Polygon", "coordinates": [[[31.55007447785253, 42.397680893370946], [31.550076550912124, 42.39759086185209], [31.549955083338297, 42.39758932524377], [31.54995715656192, 42.397499293728224], [31.55007862396222, 42.39750083033172], [31.55008069700283, 42.39741079880988], [31.550323631484886, 42.397413871621296], [31.55032155879132, 42.397503903152774], [31.550443026220112, 42.39750543937032], [31.550440953690575, 42.397595470905124], [31.550319486088267, 42.39759393468276], [31.550317413375716, 42.397683966211254], [31.55007447785253, 42.397680893370946]]]}, "properties": {"zone_id": "s4_zonguldak-2024-06-17-002", "aoi": "s4_zonguldak", "date": "2024-06-17", "scene_id": "S2B_MSIL2A_20240617T084559_R107_T36TUN_20240617T132026", "scene_datetime_utc": "2024-06-17T08:45:59.024000+00:00", "detection_status": "detected", "detection_status_ru": "обнаружено", "lon": 31.5502, "lat": 42.39755, "n_pixels": 2, "zone_area_km2": 0.0008, "cover_m2": 4.7, "p_mean": 0.608, "p_max": 0.667, "cover_m2_km2": 5875.0, "h3": "882d23d217fffff", "valid_frac_scene": 1.0, "wind_ms": 2.8, "sea": "спокойное", "scene_reliable": true, "field_event_id": "S4:DOORS3:T30", "field_profile": "B", "field_date": "2024-06-17", "field_distance_km": 13.9, "field_date_gap_days": 0, "field_conc_items_km2": 587.41, "conc_A_items_km2": null, "conc_A_lo80": null, "conc_A_hi80": null, "conc_A_lo95": null, "conc_A_hi95": null, "conc_A_status": "unavailable", "conc_A_status_ru": "концентрация недоступна", "conc_A_reasons": "вне бассейна профиля: nw_atlantic_subtropical", "conc_A_model": "conc-A-c6bce5631d2b", "conc_B_items_km2": 177.2, "conc_B_lo80": 37.3, "conc_B_hi80": 597.0, "conc_B_lo95": 23.0, "conc_B_hi95": 1118.4, "conc_B_status": "research_estimate", "conc_B_status_ru": "исследовательская оценка", "conc_B_reasons": "ближайшее полевое измерение в 110 км (> 60 км)", "conc_B_model": "conc-B-c6bce5631d2b"}}, {"type": "Feature", "geometry": {"type": "Polygon", "coordinates": [[[31.347874141872367, 42.38918101333677], [31.34787650325464, 42.38909099030397], [31.347755063698852, 42.38908923975322], [31.347757425243685, 42.38899921672435], [31.34800266520659, 42.38891269464497], [31.34800030401932, 42.38900271768633], [31.348121743423356, 42.389004467974445], [31.348119382398657, 42.389094491019755], [31.34799794282124, 42.38909274072614], [31.347995581612356, 42.389182763764445], [31.347874141872367, 42.38918101333677]]]}, "properties": {"zone_id": "s4_zonguldak-2024-06-17-003", "aoi": "s4_zonguldak", "date": "2024-06-17", "scene_id": "S2B_MSIL2A_20240617T084559_R107_T36TUN_20240617T132026", "scene_datetime_utc": "2024-06-17T08:45:59.024000+00:00", "detection_status": "detected", "detection_status_ru": "обнаружено", "lon": 31.34794, "lat": 42.38905, "n_pixels": 1, "zone_area_km2": 0.0005, "cover_m2": 8.2, "p_mean": 0.8, "p_max": 0.8, "cover_m2_km2": 16400.0, "h3": "882d206843fffff", "valid_frac_scene": 1.0, "wind_ms": 2.8, "sea": "спокойное", "scene_reliable": true, "field_event_id": "S4:DOORS3:T31", "field_profile": "B", "field_date": "2024-06-17", "field_distance_km": 13.3, "field_date_gap_days": 0, "field_conc_items_km2": 345.29, "conc_A_items_km2": null, "conc_A_lo80": null, "conc_A_hi80": null, "conc_A_lo95": null, "conc_A_hi95": null, "conc_A_status": "unavailable", "conc_A_status_ru": "концентрация недоступна", "conc_A_reasons": "вне бассейна профиля: nw_atlantic_subtropical", "conc_A_model": "conc-A-c6bce5631d2b", "conc_B_items_km2": 171.8, "conc_B_lo80": 36.1, "conc_B_hi80": 578.9, "conc_B_lo95": 22.2, "conc_B_hi95": 1084.5, "conc_B_status": "research_estimate", "conc_B_status_ru": "исследовательская оценка", "conc_B_reasons": "ближайшее полевое измерение в 122 км (> 60 км)", "conc_B_model": "conc-B-c6bce5631d2b"}}, {"type": "Feature", "geometry": {"type": "Polygon", "coordinates": [[[31.56246586345604, 42.38712008663191], [31.562467918043087, 42.387030054454925], [31.562346470167867, 42.38702853128027], [31.56235057966061, 42.38684846693135], [31.56247202718896, 42.38684999009646], [31.562474081747784, 42.386759957914975], [31.562716976485856, 42.3867630038498], [31.562714922273898, 42.38685303604084], [31.562836369830478, 42.386854558820126], [31.562834315782542, 42.38694459101443], [31.562712868052532, 42.386943068230366], [31.562710813821756, 42.387033100418414], [31.56246586345604, 42.38712008663191]]]}, "properties": {"zone_id": "s4_zonguldak-2024-06-17-004", "aoi": "s4_zonguldak", "date": "2024-06-17", "scene_id": "S2B_MSIL2A_20240617T084559_R107_T36TUN_20240617T132026", "scene_datetime_utc": "2024-06-17T08:45:59.024000+00:00", "detection_status": "detected", "detection_status_ru": "обнаружено", "lon": 31.56257, "lat": 42.38693, "n_pixels": 3, "zone_area_km2": 0.001, "cover_m2": 8.2, "p_mean": 0.746, "p_max": 0.902, "cover_m2_km2": 8200.0, "h3": "882d23d233fffff", "valid_frac_scene": 1.0, "wind_ms": 2.8, "sea": "спокойное", "scene_reliable": true, "field_event_id": "S4:DOORS3:T30", "field_profile": "B", "field_date": "2024-06-17", "field_distance_km": 15.3, "field_date_gap_days": 0, "field_conc_items_km2": 587.41, "conc_A_items_km2": null, "conc_A_lo80": null, "conc_A_hi80": null, "conc_A_lo95": null, "conc_A_hi95": null, "conc_A_status": "unavailable", "conc_A_status_ru": "концентрация недоступна", "conc_A_reasons": "вне бассейна профиля: nw_atlantic_subtropical", "conc_A_model": "conc-A-c6bce5631d2b", "conc_B_items_km2": 178.7, "conc_B_lo80": 37.6, "conc_B_hi80": 602.0, "conc_B_lo95": 23.2, "conc_B_hi95": 1127.9, "conc_B_status": "research_estimate", "conc_B_status_ru": "исследовательская оценка", "conc_B_reasons": "ближайшее полевое измерение в 110 км (> 60 км)", "conc_B_model": "conc-B-c6bce5631d2b"}}, {"type": "Feature", "geometry": {"type": "Polygon", "coordinates": [[[31.542207088887736, 42.385873587864744], [31.54220917233247, 42.38578355647422], [31.5420877279473, 42.385782011875854], [31.542091895154975, 42.385601949099986], [31.542336866483886, 42.385515006748896], [31.542334783241184, 42.385605038148775], [31.5424562272986, 42.38560658248027], [31.542452061131417, 42.38578664528517], [31.542207088887736, 42.385873587864744]]]}, "properties": {"zone_id": "s4_zonguldak-2024-06-17-005", "aoi": "s4_zonguldak", "date": "2024-06-17", "scene_id": "S2B_MSIL2A_20240617T084559_R107_T36TUN_20240617T132026", "scene_datetime_utc": "2024-06-17T08:45:59.024000+00:00", "detection_status": "detected", "detection_status_ru": "обнаружено", "lon": 31.54227, "lat": 42.38569, "n_pixels": 2, "zone_area_km2": 0.0008, "cover_m2": 3.9, "p_mean": 0.555, "p_max": 0.561, "cover_m2_km2": 4875.0, "h3": "882d23d239fffff", "valid_frac_scene": 1.0, "wind_ms": 2.8, "sea": "спокойное", "scene_reliable": true, "field_event_id": "S4:DOORS3:T30", "field_profile": "B", "field_date": "2024-06-17", "field_distance_km": 15.1, "field_date_gap_days": 0, "field_conc_items_km2": 587.41, "conc_A_items_km2": null, "conc_A_lo80": null, "conc_A_hi80": null, "conc_A_lo95": null, "conc_A_hi95": null, "conc_A_status": "unavailable", "conc_A_status_ru": "концентрация недоступна", "conc_A_reasons": "вне бассейна профиля: nw_atlantic_subtropical", "conc_A_model": "conc-A-c6bce5631d2b", "conc_B_items_km2": 177.6, "conc_B_lo80": 37.3, "conc_B_hi80": 598.2, "conc_B_lo95": 23.0, "conc_B_hi95": 1120.7, "conc_B_status": "research_estimate", "conc_B_status_ru": "исследовательская оценка", "conc_B_reasons": "ближайшее полевое измерение в 111 км (> 60 км)", "conc_B_model": "conc-B-c6bce5631d2b"}}, {"type": "Feature", "geometry": {"type": "Polygon", "coordinates": [[[31.57817744689596, 42.38533477667811], [31.578179478904975, 42.385244743855594], [31.57805803363802, 42.38524323737537], [31.578060065811147, 42.38515320455606], [31.578181510904685, 42.38515471103156], [31.578183542895093, 42.385064678206035], [31.57830498782451, 42.385066184548215], [31.578307019632188, 42.384976151716465], [31.578547877711266, 42.385069196846736], [31.57854381476168, 42.385249262524624], [31.578422369466804, 42.38524775643021], [31.578420337804634, 42.385337789262174], [31.57817744689596, 42.38533477667811]]]}, "properties": {"zone_id": "s4_zonguldak-2024-06-17-006", "aoi": "s4_zonguldak", "date": "2024-06-17", "scene_id": "S2B_MSIL2A_20240617T084559_R107_T36TUN_20240617T132026", "scene_datetime_utc": "2024-06-17T08:45:59.024000+00:00", "detection_status": "detected", "detection_status_ru": "обнаружено", "lon": 31.57832, "lat": 42.38517, "n_pixels": 3, "zone_area_km2": 0.001, "cover_m2": 11.0, "p_mean": 0.707, "p_max": 0.784, "cover_m2_km2": 11000.0, "h3": "882d23d051fffff", "valid_frac_scene": 1.0, "wind_ms": 2.8, "sea": "спокойное", "scene_reliable": true, "field_event_id": "S4:DOORS3:T30", "field_profile": "B", "field_date": "2024-06-17", "field_distance_km": 15.9, "field_date_gap_days": 0, "field_conc_items_km2": 587.41, "conc_A_items_km2": null, "conc_A_lo80": null, "conc_A_hi80": null, "conc_A_lo95": null, "conc_A_hi95": null, "conc_A_status": "unavailable", "conc_A_status_ru": "концентрация недоступна", "conc_A_reasons": "вне бассейна профиля: nw_atlantic_subtropical", "conc_A_model": "conc-A-c6bce5631d2b", "conc_B_items_km2": 178.7, "conc_B_lo80": 37.6, "conc_B_hi80": 602.0, "conc_B_lo95": 23.2, "conc_B_hi95": 1127.9, "conc_B_status": "research_estimate", "conc_B_status_ru": "исследовательская оценка", "conc_B_reasons": "ближайшее полевое измерение в 109 км (> 60 км)", "conc_B_model": "conc-B-c6bce5631d2b"}}, {"type": "Feature", "geometry": {"type": "Polygon", "coordinates": [[[31.54049596878486, 42.381078743397545], [31.540498054324594, 42.38098871200007], [31.54037661927251, 42.380987165729664], [31.540378704976067, 42.380897134335534], [31.5406236600903, 42.38081019533277], [31.540621574743042, 42.38090022673809], [31.54074300964085, 42.3809017727465], [31.540740924457413, 42.380991804155165], [31.540619489386227, 42.38099025814191], [31.540617404019862, 42.38108028954422], [31.54049596878486, 42.381078743397545]]]}, "properties": {"zone_id": "s4_zonguldak-2024-06-17-007", "aoi": "s4_zonguldak", "date": "2024-06-17", "scene_id": "S2B_MSIL2A_20240617T084559_R107_T36TUN_20240617T132026", "scene_datetime_utc": "2024-06-17T08:45:59.024000+00:00", "detection_status": "detected", "detection_status_ru": "обнаружено", "lon": 31.54056, "lat": 42.38094, "n_pixels": 1, "zone_area_km2": 0.0005, "cover_m2": 2.4, "p_mean": 0.69, "p_max": 0.69, "cover_m2_km2": 4800.0, "h3": "882d23d23dfffff", "valid_frac_scene": 1.0, "wind_ms": 2.8, "sea": "спокойное", "scene_reliable": true, "field_event_id": "S4:DOORS3:T30", "field_profile": "B", "field_date": "2024-06-17", "field_distance_km": 15.6, "field_date_gap_days": 0, "field_conc_items_km2": 587.41, "conc_A_items_km2": null, "conc_A_lo80": null, "conc_A_hi80": null, "conc_A_lo95": null, "conc_A_hi95": null, "conc_A_status": "unavailable", "conc_A_status_ru": "концентрация недоступна", "conc_A_reasons": "вне бассейна профиля: nw_atlantic_subtropical", "conc_A_model": "conc-A-c6bce5631d2b", "conc_B_items_km2": 177.6, "conc_B_lo80": 37.3, "conc_B_hi80": 598.2, "conc_B_lo95": 23.0, "conc_B_hi95": 1120.7, "conc_B_status": "research_estimate", "conc_B_status_ru": "исследовательская оценка", "conc_B_reasons": "ближайшее полевое измерение в 112 км (> 60 км)", "conc_B_model": "conc-B-c6bce5631d2b"}}]}