{"type": "FeatureCollection", "features": [{"type": "Feature", "geometry": {"type": "Polygon", "coordinates": [[[36.64529025698574, 45.005331185105085], [36.645293943766056, 45.00524124205597], [36.645040377462315, 45.00523601080455], [36.64504406462143, 45.00514606777009], [36.64491728169361, 45.005143451941606], [36.64492096903344, 45.00505350891364], [36.645047751763215, 45.005056124733976], [36.64505143888768, 45.0049661816962], [36.64543178658677, 45.00497402828896], [36.64542810005648, 45.00506397135121], [36.64555488285554, 45.00506658660905], [36.645547510139096, 45.005246472744865], [36.64529025698574, 45.005331185105085]]]}, "properties": {"zone_id": "kerch-2025-02-11-001", "aoi": "kerch", "date": "2025-02-11", "scene_id": "S2C_MSIL2A_20250211T083121_R021_T37TCK_20250211T121153", "scene_datetime_utc": "2025-02-11T08:31:21.025000+00:00", "detection_status": "detected", "detection_status_ru": "обнаружено", "lon": 36.64527, "lat": 45.00513, "n_pixels": 4, "zone_area_km2": 0.0013, "cover_m2": 30.6, "p_mean": 0.842, "p_max": 0.98, "cover_m2_km2": 23538.5, "h3": "882d760643fffff", "valid_frac_scene": 0.993, "wind_ms": 9.3, "sea": "шторм", "scene_reliable": false, "field_event_id": "S4:DOORS3:T11", "field_profile": "B", "field_date": "2024-06-04", "field_distance_km": 279.4, "field_date_gap_days": 252, "field_conc_items_km2": 62.52, "conc_A_items_km2": null, "conc_A_lo80": null, "conc_A_hi80": null, "conc_A_lo95": null, "conc_A_hi95": null, "conc_A_status": "unavailable", "conc_A_status_ru": "концентрация недоступна", "conc_A_reasons": "вне бассейна профиля: nw_atlantic_subtropical", "conc_A_model": "conc-A-c6bce5631d2b", "conc_B_items_km2": 348.8, "conc_B_lo80": 74.1, "conc_B_hi80": 1172.8, "conc_B_lo95": 46.1, "conc_B_hi95": 2196.4, "conc_B_status": "research_estimate", "conc_B_status_ru": "исследовательская оценка", "conc_B_reasons": "ближайшее полевое измерение в 279 км (> 60 км); месяц 2 вне месяцев обучения [6]", "conc_B_model": "conc-B-c6bce5631d2b"}}, {"type": "Feature", "geometry": {"type": "Polygon", "coordinates": [[[36.692519893502045, 45.004675388646284], [36.69252350629232, 45.00458544256356], [36.69239672031663, 45.00458287946883], [36.6924039462424, 45.00440298731441], [36.69253073182194, 45.004405550393145], [36.69253434456128, 45.00431560430547], [36.69278791537514, 45.00432073002505], [36.69278430303194, 45.00441067612872], [36.69291108866241, 45.00441323878556], [36.69290386432125, 45.00459313100392], [36.69277707829463, 45.0045905683311], [36.69277346590051, 45.00468051442982], [36.692519893502045, 45.004675388646284]]]}, "properties": {"zone_id": "kerch-2025-02-11-002", "aoi": "kerch", "date": "2025-02-11", "scene_id": "S2C_MSIL2A_20250211T083121_R021_T37TCK_20250211T121153", "scene_datetime_utc": "2025-02-11T08:31:21.025000+00:00", "detection_status": "detected", "detection_status_ru": "обнаружено", "lon": 36.69265, "lat": 45.0045, "n_pixels": 4, "zone_area_km2": 0.0012, "cover_m2": 15.3, "p_mean": 0.924, "p_max": 0.996, "cover_m2_km2": 12750.0, "h3": "882d76063bfffff", "valid_frac_scene": 0.993, "wind_ms": 9.3, "sea": "шторм", "scene_reliable": false, "field_event_id": "S4:DOORS3:T11", "field_profile": "B", "field_date": "2024-06-04", "field_distance_km": 279.3, "field_date_gap_days": 252, "field_conc_items_km2": 62.52, "conc_A_items_km2": null, "conc_A_lo80": null, "conc_A_hi80": null, "conc_A_lo95": null, "conc_A_hi95": null, "conc_A_status": "unavailable", "conc_A_status_ru": "концентрация недоступна", "conc_A_reasons": "вне бассейна профиля: nw_atlantic_subtropical", "conc_A_model": "conc-A-c6bce5631d2b", "conc_B_items_km2": 353.9, "conc_B_lo80": 75.2, "conc_B_hi80": 1189.9, "conc_B_lo95": 46.7, "conc_B_hi95": 2228.4, "conc_B_status": "research_estimate", "conc_B_status_ru": "исследовательская оценка", "conc_B_reasons": "ближайшее полевое измерение в 279 км (> 60 км); месяц 2 вне месяцев обучения [6]", "conc_B_model": "conc-B-c6bce5631d2b"}}, {"type": "Feature", "geometry": {"type": "Polygon", "coordinates": [[[36.75319933357145, 45.00075481072469], [36.753202850925284, 45.00066486078565], [36.75307606824832, 45.00066236522456], [36.75308310330252, 45.000482465357095], [36.753209885583345, 45.00048496090262], [36.75321340288758, 45.00039501095865], [36.753466967102675, 45.00040000161225], [36.75346345019457, 45.00048995157177], [36.75359023252498, 45.00049244669539], [36.753583199055335, 45.000672346625116], [36.75345641632879, 45.000669851485924], [36.753452899371105, 45.00075980144055], [36.75319933357145, 45.00075481072469]]]}, "properties": {"zone_id": "kerch-2025-02-11-003", "aoi": "kerch", "date": "2025-02-11", "scene_id": "S2C_MSIL2A_20250211T083121_R021_T37TCK_20250211T121153", "scene_datetime_utc": "2025-02-11T08:31:21.025000+00:00", "detection_status": "detected", "detection_status_ru": "обнаружено", "lon": 36.75333, "lat": 45.00058, "n_pixels": 4, "zone_area_km2": 0.0012, "cover_m2": 20.4, "p_mean": 0.995, "p_max": 1.0, "cover_m2_km2": 17000.0, "h3": "882d7606a7fffff", "valid_frac_scene": 0.993, "wind_ms": 9.3, "sea": "шторм", "scene_reliable": false, "field_event_id": "S4:DOORS3:T11", "field_profile": "B", "field_date": "2024-06-04", "field_distance_km": 278.9, "field_date_gap_days": 252, "field_conc_items_km2": 62.52, "conc_A_items_km2": null, "conc_A_lo80": null, "conc_A_hi80": null, "conc_A_lo95": null, "conc_A_hi95": null, "conc_A_status": "unavailable", "conc_A_status_ru": "концентрация недоступна", "conc_A_reasons": "вне бассейна профиля: nw_atlantic_subtropical", "conc_A_model": "conc-A-c6bce5631d2b", "conc_B_items_km2": 353.9, "conc_B_lo80": 75.2, "conc_B_hi80": 1189.9, "conc_B_lo95": 46.7, "conc_B_hi95": 2228.4, "conc_B_status": "research_estimate", "conc_B_status_ru": "исследовательская оценка", "conc_B_reasons": "ближайшее полевое измерение в 279 км (> 60 км); месяц 2 вне месяцев обучения [6]", "conc_B_model": "conc-B-c6bce5631d2b"}}, {"type": "Feature", "geometry": {"type": "Polygon", "coordinates": [[[36.94355469457623, 44.996241023882206], [36.94355791355665, 44.99615106262445], [36.943431124980954, 44.99614877857206], [36.94343756329267, 44.99596885606601], [36.94356435147212, 44.99597114010415], [36.94356757040716, 44.995881178841586], [36.9438211464152, 44.995885746481626], [36.94381792787641, 44.99597570775843], [36.943944716101235, 44.99597799137459], [36.9439382793745, 44.99615791393764], [36.943811490753426, 44.99615563030724], [36.94380827216925, 44.99624559157924], [36.94355469457623, 44.996241023882206]]]}, "properties": {"zone_id": "kerch-2025-02-11-004", "aoi": "kerch", "date": "2025-02-11", "scene_id": "S2C_MSIL2A_20250211T083121_R021_T37TCK_20250211T121153", "scene_datetime_utc": "2025-02-11T08:31:21.025000+00:00", "detection_status": "detected", "detection_status_ru": "обнаружено", "lon": 36.94369, "lat": 44.99606, "n_pixels": 4, "zone_area_km2": 0.0012, "cover_m2": 12.5, "p_mean": 0.979, "p_max": 1.0, "cover_m2_km2": 10416.7, "h3": "882d763a89fffff", "valid_frac_scene": 0.993, "wind_ms": 9.3, "sea": "шторм", "scene_reliable": false, "field_event_id": "S4:DOORS3:T11", "field_profile": "B", "field_date": "2024-06-04", "field_distance_km": 279.2, "field_date_gap_days": 252, "field_conc_items_km2": 62.52, "conc_A_items_km2": null, "conc_A_lo80": null, "conc_A_hi80": null, "conc_A_lo95": null, "conc_A_hi95": null, "conc_A_status": "unavailable", "conc_A_status_ru": "концентрация недоступна", "conc_A_reasons": "вне бассейна профиля: nw_atlantic_subtropical", "conc_A_model": "conc-A-c6bce5631d2b", "conc_B_items_km2": 384.4, "conc_B_lo80": 81.7, "conc_B_hi80": 1292.3, "conc_B_lo95": 50.9, "conc_B_hi95": 2420.0, "conc_B_status": "research_estimate", "conc_B_status_ru": "исследовательская оценка", "conc_B_reasons": "ближайшее полевое измерение в 279 км (> 60 км); месяц 2 вне месяцев обучения [6]", "conc_B_model": "conc-B-c6bce5631d2b"}}, {"type": "Feature", "geometry": {"type": "Polygon", "coordinates": [[[36.81823344445689, 44.99553496577167], [36.81823685942863, 44.99544501179564], [36.817986721316274, 44.99535021140187], [36.81799013665202, 44.99526025743769], [36.81811691297997, 44.9952626807085], [36.81812032810162, 44.99517272673514], [36.81837729511907, 44.99508761884969], [36.81837388040956, 44.995177572839765], [36.8185006565876, 44.99517999568114], [36.81849382751656, 44.995359903671584], [36.81862060410675, 44.99536232638744], [36.818617189745204, 44.99545228038777], [36.81849041295697, 44.995449857664354], [36.81848699838133, 44.995539811655505], [36.81823344445689, 44.99553496577167]]]}, "properties": {"zone_id": "kerch-2025-02-11-005", "aoi": "kerch", "date": "2025-02-11", "scene_id": "S2C_MSIL2A_20250211T083121_R021_T37TCK_20250211T121153", "scene_datetime_utc": "2025-02-11T08:31:21.025000+00:00", "detection_status": "detected", "detection_status_ru": "обнаружено", "lon": 36.8183, "lat": 44.99533, "n_pixels": 4, "zone_area_km2": 0.0014, "cover_m2": 15.7, "p_mean": 0.883, "p_max": 0.992, "cover_m2_km2": 11214.3, "h3": "882d760483fffff", "valid_frac_scene": 0.993, "wind_ms": 9.3, "sea": "шторм", "scene_reliable": false, "field_event_id": "S4:DOORS3:T11", "field_profile": "B", "field_date": "2024-06-04", "field_distance_km": 278.5, "field_date_gap_days": 252, "field_conc_items_km2": 62.52, "conc_A_items_km2": null, "conc_A_lo80": null, "conc_A_hi80": null, "conc_A_lo95": null, "conc_A_hi95": null, "conc_A_status": "unavailable", "conc_A_status_ru": "концентрация недоступна", "conc_A_reasons": "вне бассейна профиля: nw_atlantic_subtropical", "conc_A_model": "conc-A-c6bce5631d2b", "conc_B_items_km2": 351.5, "conc_B_lo80": 74.7, "conc_B_hi80": 1182.1, "conc_B_lo95": 46.4, "conc_B_hi95": 2213.7, "conc_B_status": "research_estimate", "conc_B_status_ru": "исследовательская оценка", "conc_B_reasons": "ближайшее полевое измерение в 278 км (> 60 км); месяц 2 вне месяцев обучения [6]", "conc_B_model": "conc-B-c6bce5631d2b"}}, {"type": "Feature", "geometry": {"type": "Polygon", "coordinates": [[[36.79348056627302, 44.96283220917885], [36.79348401603615, 44.96274225617723], [36.793234061005265, 44.96264740457448], [36.793240961241295, 44.96246749859364], [36.79336766322671, 44.96246994794833], [36.793371113122724, 44.96237999494782], [36.79362106724615, 44.962474846236326], [36.793617617729325, 44.96256479925049], [36.79374431996105, 44.96256724819143], [36.793737421274194, 44.96274715423013], [36.79348056627302, 44.96283220917885]]]}, "properties": {"zone_id": "kerch-2025-02-11-006", "aoi": "kerch", "date": "2025-02-11", "scene_id": "S2C_MSIL2A_20250211T083121_R021_T37TCK_20250211T121153", "scene_datetime_utc": "2025-02-11T08:31:21.025000+00:00", "detection_status": "detected", "detection_status_ru": "обнаружено", "lon": 36.79349, "lat": 44.96261, "n_pixels": 4, "zone_area_km2": 0.0012, "cover_m2": 14.9, "p_mean": 0.854, "p_max": 1.0, "cover_m2_km2": 12416.7, "h3": "882d7605d9fffff", "valid_frac_scene": 0.993, "wind_ms": 9.3, "sea": "шторм", "scene_reliable": false, "field_event_id": "S4:DOORS3:T11", "field_profile": "B", "field_date": "2024-06-04", "field_distance_km": 274.8, "field_date_gap_days": 252, "field_conc_items_km2": 62.52, "conc_A_items_km2": null, "conc_A_lo80": null, "conc_A_hi80": null, "conc_A_lo95": null, "conc_A_hi95": null, "conc_A_status": "unavailable", "conc_A_status_ru": "концентрация недоступна", "conc_A_reasons": "вне бассейна профиля: nw_atlantic_subtropical", "conc_A_model": "conc-A-c6bce5631d2b", "conc_B_items_km2": 325.5, "conc_B_lo80": 69.1, "conc_B_hi80": 1094.8, "conc_B_lo95": 42.9, "conc_B_hi95": 2050.3, "conc_B_status": "research_estimate", "conc_B_status_ru": "исследовательская оценка", "conc_B_reasons": "ближайшее полевое измерение в 275 км (> 60 км); месяц 2 вне месяцев обучения [6]", "conc_B_model": "conc-B-c6bce5631d2b"}}, {"type": "Feature", "geometry": {"type": "Polygon", "coordinates": [[[37.0651200124363, 44.95407652675033], [37.06512303675616, 44.95398655816338], [37.064872651306935, 44.95389229440247], [37.0648787006666, 44.953712357247454], [37.06500540514145, 44.9537145048905], [37.06500842960222, 44.95362453630391], [37.06525881413378, 44.953718799755094], [37.06525579005428, 44.95380876835349], [37.065382494769494, 44.953810915581755], [37.06537644696336, 44.953990852787186], [37.0651200124363, 44.95407652675033]]]}, "properties": {"zone_id": "kerch-2025-02-11-007", "aoi": "kerch", "date": "2025-02-11", "scene_id": "S2C_MSIL2A_20250211T083121_R021_T37TCK_20250211T121153", "scene_datetime_utc": "2025-02-11T08:31:21.025000+00:00", "detection_status": "detected", "detection_status_ru": "обнаружено", "lon": 37.06513, "lat": 44.95385, "n_pixels": 4, "zone_area_km2": 0.0012, "cover_m2": 14.9, "p_mean": 0.961, "p_max": 1.0, "cover_m2_km2": 12416.7, "h3": "882d7638b7fffff", "valid_frac_scene": 0.993, "wind_ms": 9.3, "sea": "шторм", "scene_reliable": false, "field_event_id": "S4:DOORS3:T11", "field_profile": "B", "field_date": "2024-06-04", "field_distance_km": 275.4, "field_date_gap_days": 252, "field_conc_items_km2": 62.52, "conc_A_items_km2": null, "conc_A_lo80": null, "conc_A_hi80": null, "conc_A_lo95": null, "conc_A_hi95": null, "conc_A_status": "unavailable", "conc_A_status_ru": "концентрация недоступна", "conc_A_reasons": "вне бассейна профиля: nw_atlantic_subtropical", "conc_A_model": "conc-A-c6bce5631d2b", "conc_B_items_km2": 368.9, "conc_B_lo80": 78.4, "conc_B_hi80": 1240.4, "conc_B_lo95": 48.8, "conc_B_hi95": 2322.9, "conc_B_status": "research_estimate", "conc_B_status_ru": "исследовательская оценка", "conc_B_reasons": "ближайшее полевое измерение в 275 км (> 60 км); месяц 2 вне месяцев обучения [6]", "conc_B_model": "conc-B-c6bce5631d2b"}}, {"type": "Feature", "geometry": {"type": "Polygon", "coordinates": [[[36.92265402356115, 44.953193338863095], [36.92265727036922, 44.95310337811099], [36.922403886214624, 44.95309876689334], [36.92240713340278, 44.95300880615402], [36.92228044154602, 44.953006500341715], [36.92228368891658, 44.95291653960797], [36.92254031920998, 44.95283119032803], [36.9225435661547, 44.95274122957668], [36.92279370220908, 44.95283580122162], [36.92278720906454, 44.953015722748226], [36.922913900982294, 44.95301802799872], [36.92291065458481, 44.953107988766824], [36.92278396246939, 44.95310568350912], [36.92278071585899, 44.95319564426842], [36.92265402356115, 44.953193338863095]]]}, "properties": {"zone_id": "kerch-2025-02-11-008", "aoi": "kerch", "date": "2025-02-11", "scene_id": "S2C_MSIL2A_20250211T083121_R021_T37TCK_20250211T121153", "scene_datetime_utc": "2025-02-11T08:31:21.025000+00:00", "detection_status": "detected", "detection_status_ru": "обнаружено", "lon": 36.9226, "lat": 44.95297, "n_pixels": 4, "zone_area_km2": 0.0013, "cover_m2": 16.1, "p_mean": 0.99, "p_max": 0.996, "cover_m2_km2": 12384.6, "h3": "882d763a37fffff", "valid_frac_scene": 0.993, "wind_ms": 9.3, "sea": "шторм", "scene_reliable": false, "field_event_id": "S4:DOORS3:T11", "field_profile": "B", "field_date": "2024-06-04", "field_distance_km": 274.3, "field_date_gap_days": 252, "field_conc_items_km2": 62.52, "conc_A_items_km2": null, "conc_A_lo80": null, "conc_A_hi80": null, "conc_A_lo95": null, "conc_A_hi95": null, "conc_A_status": "unavailable", "conc_A_status_ru": "концентрация недоступна", "conc_A_reasons": "вне бассейна профиля: nw_atlantic_subtropical", "conc_A_model": "conc-A-c6bce5631d2b", "conc_B_items_km2": 332.0, "conc_B_lo80": 70.5, "conc_B_hi80": 1116.5, "conc_B_lo95": 43.8, "conc_B_hi95": 2090.9, "conc_B_status": "research_estimate", "conc_B_status_ru": "исследовательская оценка", "conc_B_reasons": "ближайшее полевое измерение в 274 км (> 60 км); месяц 2 вне месяцев обучения [6]", "conc_B_model": "conc-B-c6bce5631d2b"}}, {"type": "Feature", "geometry": {"type": "Polygon", "coordinates": [[[36.725971907138224, 44.95133504570858], [36.725975460968705, 44.95124509667832], [36.72584878952156, 44.95124257304939], [36.72586300546676, 44.950882776943395], [36.72611990034691, 44.95079787495155], [36.72611634679742, 44.9508878239979], [36.72624301748778, 44.95089034731458], [36.72622880391308, 44.95125014351501], [36.725971907138224, 44.95133504570858]]]}, "properties": {"zone_id": "kerch-2025-02-11-009", "aoi": "kerch", "date": "2025-02-11", "scene_id": "S2C_MSIL2A_20250211T083121_R021_T37TCK_20250211T121153", "scene_datetime_utc": "2025-02-11T08:31:21.025000+00:00", "detection_status": "detected", "detection_status_ru": "обнаружено", "lon": 36.72605, "lat": 44.95107, "n_pixels": 4, "zone_area_km2": 0.0014, "cover_m2": 32.5, "p_mean": 0.99, "p_max": 1.0, "cover_m2_km2": 23214.3, "h3": "882d760467fffff", "valid_frac_scene": 0.993, "wind_ms": 9.3, "sea": "шторм", "scene_reliable": false, "field_event_id": "S4:DOORS3:T11", "field_profile": "B", "field_date": "2024-06-04", "field_distance_km": 273.4, "field_date_gap_days": 252, "field_conc_items_km2": 62.52, "conc_A_items_km2": null, "conc_A_lo80": null, "conc_A_hi80": null, "conc_A_lo95": null, "conc_A_hi95": null, "conc_A_status": "unavailable", "conc_A_status_ru": "концентрация недоступна", "conc_A_reasons": "вне бассейна профиля: nw_atlantic_subtropical", "conc_A_model": "conc-A-c6bce5631d2b", "conc_B_items_km2": 314.0, "conc_B_lo80": 66.6, "conc_B_hi80": 1055.9, "conc_B_lo95": 41.4, "conc_B_hi95": 1977.6, "conc_B_status": "research_estimate", "conc_B_status_ru": "исследовательская оценка", "conc_B_reasons": "ближайшее полевое измерение в 273 км (> 60 км); месяц 2 вне месяцев обучения [6]", "conc_B_model": "conc-B-c6bce5631d2b"}}, {"type": "Feature", "geometry": {"type": "Polygon", "coordinates": [[[36.99222369704458, 44.94678642210579], [36.99222683446253, 44.94669645735], [36.99197346750446, 44.94669200098142], [36.99197660530295, 44.94660203623793], [36.991849922043656, 44.94659980784993], [36.99185306002504, 44.9465098431118], [36.9919797430867, 44.946512071492855], [36.991982880855716, 44.946422106746176], [36.99236292953622, 44.94642879102584], [36.992359792360105, 44.94651875579336], [36.99248647548071, 44.94652098361267], [36.992480201479545, 44.946700913156846], [36.99222369704458, 44.94678642210579]]]}, "properties": {"zone_id": "kerch-2025-02-11-010", "aoi": "kerch", "date": "2025-02-11", "scene_id": "S2C_MSIL2A_20250211T083121_R021_T37TCK_20250211T121153", "scene_datetime_utc": "2025-02-11T08:31:21.025000+00:00", "detection_status": "detected", "detection_status_ru": "обнаружено", "lon": 36.9922, "lat": 44.94658, "n_pixels": 4, "zone_area_km2": 0.0013, "cover_m2": 15.3, "p_mean": 0.907, "p_max": 0.996, "cover_m2_km2": 11769.2, "h3": "882d7638edfffff", "valid_frac_scene": 0.993, "wind_ms": 9.3, "sea": "шторм", "scene_reliable": false, "field_event_id": "S4:DOORS3:T11", "field_profile": "B", "field_date": "2024-06-04", "field_distance_km": 274.0, "field_date_gap_days": 252, "field_conc_items_km2": 62.52, "conc_A_items_km2": null, "conc_A_lo80": null, "conc_A_hi80": null, "conc_A_lo95": null, "conc_A_hi95": null, "conc_A_status": "unavailable", "conc_A_status_ru": "концентрация недоступна", "conc_A_reasons": "вне бассейна профиля: nw_atlantic_subtropical", "conc_A_model": "conc-A-c6bce5631d2b", "conc_B_items_km2": 348.8, "conc_B_lo80": 74.1, "conc_B_hi80": 1172.8, "conc_B_lo95": 46.1, "conc_B_hi95": 2196.3, "conc_B_status": "research_estimate", "conc_B_status_ru": "исследовательская оценка", "conc_B_reasons": "ближайшее полевое измерение в 274 км (> 60 км); месяц 2 вне месяцев обучения [6]", "conc_B_model": "conc-B-c6bce5631d2b"}}, {"type": "Feature", "geometry": {"type": "Polygon", "coordinates": [[[36.71547619646729, 44.94428395537101], [36.71547976581461, 44.944194006886214], [36.71535311079965, 44.94419147192542], [36.71535668032766, 44.94410152344688], [36.715483335145144, 44.94410405839977], [36.71549047375595, 44.943924161421954], [36.71561712819527, 44.94392669621868], [36.71562069727807, 44.943836747719395], [36.715870437124195, 44.94393176539109], [36.71586329969818, 44.94411166241635], [36.71598995458271, 44.944114196807845], [36.71598638604203, 44.944204145325905], [36.715859730960034, 44.944201610926505], [36.71585616220513, 44.94429155943502], [36.715729506942424, 44.94428902488737], [36.715733075894796, 44.94419907638676], [36.71547619646729, 44.94428395537101]]]}, "properties": {"zone_id": "kerch-2025-02-11-011", "aoi": "kerch", "date": "2025-02-11", "scene_id": "S2C_MSIL2A_20250211T083121_R021_T37TCK_20250211T121153", "scene_datetime_utc": "2025-02-11T08:31:21.025000+00:00", "detection_status": "detected", "detection_status_ru": "обнаружено", "lon": 36.71567, "lat": 44.94409, "n_pixels": 4, "zone_area_km2": 0.0014, "cover_m2": 18.8, "p_mean": 0.951, "p_max": 0.992, "cover_m2_km2": 13428.6, "h3": "882d760465fffff", "valid_frac_scene": 0.993, "wind_ms": 9.3, "sea": "шторм", "scene_reliable": false, "field_event_id": "S4:DOORS3:T11", "field_profile": "B", "field_date": "2024-06-04", "field_distance_km": 272.6, "field_date_gap_days": 252, "field_conc_items_km2": 62.52, "conc_A_items_km2": null, "conc_A_lo80": null, "conc_A_hi80": null, "conc_A_lo95": null, "conc_A_hi95": null, "conc_A_status": "unavailable", "conc_A_status_ru": "концентрация недоступна", "conc_A_reasons": "вне бассейна профиля: nw_atlantic_subtropical", "conc_A_model": "conc-A-c6bce5631d2b", "conc_B_items_km2": 313.2, "conc_B_lo80": 66.5, "conc_B_hi80": 1053.3, "conc_B_lo95": 41.3, "conc_B_hi95": 1972.6, "conc_B_status": "research_estimate", "conc_B_status_ru": "исследовательская оценка", "conc_B_reasons": "ближайшее полевое измерение в 273 км (> 60 км); месяц 2 вне месяцев обучения [6]", "conc_B_model": "conc-B-c6bce5631d2b"}}, {"type": "Feature", "geometry": {"type": "Polygon", "coordinates": [[[36.6863704712347, 44.92731406777034], [36.686374083895416, 44.927224120854845], [36.68612085365077, 44.92721898774535], [36.686124466689066, 44.92712904084421], [36.68599785178947, 44.92712647408708], [36.686001465008076, 44.92703652719229], [36.6861280797104, 44.927039093941424], [36.686131692714774, 44.92694914703699], [36.68625830723679, 44.926951713637855], [36.68626192002693, 44.92686176672375], [36.68651876110594, 44.92677695255694], [36.68651514872731, 44.926866899488694], [36.686641763102934, 44.92686946566078], [36.68663815090462, 44.9269594125989], [36.686511536331714, 44.92695684641881], [36.68650431148965, 44.92713674027405], [36.6866309264571, 44.92713930647015], [36.6866273142079, 44.92722925340329], [36.6863704712347, 44.92731406777034]]]}, "properties": {"zone_id": "kerch-2025-02-11-012", "aoi": "kerch", "date": "2025-02-11", "scene_id": "S2C_MSIL2A_20250211T083121_R021_T37TCK_20250211T121153", "scene_datetime_utc": "2025-02-11T08:31:21.025000+00:00", "detection_status": "detected", "detection_status_ru": "обнаружено", "lon": 36.68634, "lat": 44.92705, "n_pixels": 5, "zone_area_km2": 0.0016, "cover_m2": 28.2, "p_mean": 0.941, "p_max": 1.0, "cover_m2_km2": 17625.0, "h3": "882d76073dfffff", "valid_frac_scene": 0.993, "wind_ms": 9.3, "sea": "шторм", "scene_reliable": false, "field_event_id": "S4:DOORS3:T11", "field_profile": "B", "field_date": "2024-06-04", "field_distance_km": 270.7, "field_date_gap_days": 252, "field_conc_items_km2": 62.52, "conc_A_items_km2": null, "conc_A_lo80": null, "conc_A_hi80": null, "conc_A_lo95": null, "conc_A_hi95": null, "conc_A_status": "unavailable", "conc_A_status_ru": "концентрация недоступна", "conc_A_reasons": "вне бассейна профиля: nw_atlantic_subtropical", "conc_A_model": "conc-A-c6bce5631d2b", "conc_B_items_km2": 302.4, "conc_B_lo80": 64.1, "conc_B_hi80": 1017.1, "conc_B_lo95": 39.8, "conc_B_hi95": 1904.9, "conc_B_status": "research_estimate", "conc_B_status_ru": "исследовательская оценка", "conc_B_reasons": "ближайшее полевое измерение в 271 км (> 60 км); месяц 2 вне месяцев обучения [6]", "conc_B_model": "conc-B-c6bce5631d2b"}}, {"type": "Feature", "geometry": {"type": "Polygon", "coordinates": [[[36.92416956969265, 44.92522467930436], [36.92417281097236, 44.92513471802359], [36.92404618025626, 44.925132415281674], [36.924052663164765, 44.92495249272966], [36.92392603285865, 44.924950189861796], [36.92392927448745, 44.92486022859056], [36.92405590459619, 44.92486253145124], [36.92405914601239, 44.92477257017123], [36.92431240588077, 44.92477717545729], [36.924309164859324, 44.92486713675167], [36.924435795013714, 44.92486943919141], [36.9244260724502, 44.925139323086476], [36.92416956969265, 44.92522467930436]]]}, "properties": {"zone_id": "kerch-2025-02-11-013", "aoi": "kerch", "date": "2025-02-11", "scene_id": "S2C_MSIL2A_20250211T083121_R021_T37TCK_20250211T121153", "scene_datetime_utc": "2025-02-11T08:31:21.025000+00:00", "detection_status": "detected", "detection_status_ru": "обнаружено", "lon": 36.92421, "lat": 44.92498, "n_pixels": 4, "zone_area_km2": 0.0013, "cover_m2": 14.9, "p_mean": 0.986, "p_max": 0.996, "cover_m2_km2": 11461.5, "h3": "882d763869fffff", "valid_frac_scene": 0.993, "wind_ms": 9.3, "sea": "шторм", "scene_reliable": false, "field_event_id": "S4:DOORS3:T11", "field_profile": "B", "field_date": "2024-06-04", "field_distance_km": 271.2, "field_date_gap_days": 252, "field_conc_items_km2": 62.52, "conc_A_items_km2": null, "conc_A_lo80": null, "conc_A_hi80": null, "conc_A_lo95": null, "conc_A_hi95": null, "conc_A_status": "unavailable", "conc_A_status_ru": "концентрация недоступна", "conc_A_reasons": "вне бассейна профиля: nw_atlantic_subtropical", "conc_A_model": "conc-A-c6bce5631d2b", "conc_B_items_km2": 320.7, "conc_B_lo80": 68.1, "conc_B_hi80": 1078.6, "conc_B_lo95": 42.3, "conc_B_hi95": 2019.9, "conc_B_status": "research_estimate", "conc_B_status_ru": "исследовательская оценка", "conc_B_reasons": "ближайшее полевое измерение в 271 км (> 60 км); месяц 2 вне месяцев обучения [6]", "conc_B_model": "conc-B-c6bce5631d2b"}}, {"type": "Feature", "geometry": {"type": "Polygon", "coordinates": [[[36.998096375639086, 44.92006356081418], [36.99809950097214, 44.91997359531247], [36.99797287576689, 44.91997137474062], [36.99797912678369, 44.91979144374628], [36.99785250198785, 44.91978922304798], [36.9978556276716, 44.91969925755533], [36.997982252270084, 44.91970147824671], [36.997985377741784, 44.91961151274555], [36.99823550151107, 44.91970591920852], [36.9982323764194, 44.91979588472196], [36.998359001259274, 44.91979810499933], [36.998355876350296, 44.91988807051807], [36.9984825014022, 44.91989029066207], [36.99847937667592, 44.91998025618614], [36.998352751426644, 44.91997803603522], [36.99834962648832, 44.920068001550796], [36.998096375639086, 44.92006356081418]]]}, "properties": {"zone_id": "kerch-2025-02-11-014", "aoi": "kerch", "date": "2025-02-11", "scene_id": "S2C_MSIL2A_20250211T083121_R021_T37TCK_20250211T121153", "scene_datetime_utc": "2025-02-11T08:31:21.025000+00:00", "detection_status": "detected", "detection_status_ru": "обнаружено", "lon": 36.99817, "lat": 44.91986, "n_pixels": 4, "zone_area_km2": 0.0013, "cover_m2": 15.3, "p_mean": 0.874, "p_max": 1.0, "cover_m2_km2": 11769.2, "h3": "882d7639cbfffff", "valid_frac_scene": 0.993, "wind_ms": 9.3, "sea": "шторм", "scene_reliable": false, "field_event_id": "S4:DOORS3:T11", "field_profile": "B", "field_date": "2024-06-04", "field_distance_km": 271.1, "field_date_gap_days": 252, "field_conc_items_km2": 62.52, "conc_A_items_km2": null, "conc_A_lo80": null, "conc_A_hi80": null, "conc_A_lo95": null, "conc_A_hi95": null, "conc_A_status": "unavailable", "conc_A_status_ru": "концентрация недоступна", "conc_A_reasons": "вне бассейна профиля: nw_atlantic_subtropical", "conc_A_model": "conc-A-c6bce5631d2b", "conc_B_items_km2": 324.8, "conc_B_lo80": 69.0, "conc_B_hi80": 1092.4, "conc_B_lo95": 42.8, "conc_B_hi95": 2045.9, "conc_B_status": "research_estimate", "conc_B_status_ru": "исследовательская оценка", "conc_B_reasons": "ближайшее полевое измерение в 271 км (> 60 км); месяц 2 вне месяцев обучения [6]", "conc_B_model": "conc-B-c6bce5631d2b"}}, {"type": "Feature", "geometry": {"type": "Polygon", "coordinates": [[[36.66273096396047, 44.91341944302536], [36.662734611746586, 44.9133294973998], [36.66260802925343, 44.913326905331346], [36.66261167721954, 44.91323695971221], [36.66273825951558, 44.913239551772584], [36.662741907267446, 44.91314960614372], [36.6628684893835, 44.91315219805582], [36.66287213692112, 44.913062252417205], [36.66312530081035, 44.91306743580469], [36.663121653666956, 44.91315738145946], [36.663248235834374, 44.91315997295102], [36.66324458887098, 44.91324991861222], [36.662987776784284, 44.91333468111613], [36.662984129392406, 44.91342462675788], [36.66273096396047, 44.91341944302536]]]}, "properties": {"zone_id": "kerch-2025-02-11-015", "aoi": "kerch", "date": "2025-02-11", "scene_id": "S2C_MSIL2A_20250211T083121_R021_T37TCK_20250211T121153", "scene_datetime_utc": "2025-02-11T08:31:21.025000+00:00", "detection_status": "detected", "detection_status_ru": "обнаружено", "lon": 36.66293, "lat": 44.91324, "n_pixels": 4, "zone_area_km2": 0.0012, "cover_m2": 23.1, "p_mean": 0.789, "p_max": 0.988, "cover_m2_km2": 19250.0, "h3": "882d7600dbfffff", "valid_frac_scene": 0.993, "wind_ms": 9.3, "sea": "шторм", "scene_reliable": false, "field_event_id": "S4:DOORS3:T11", "field_profile": "B", "field_date": "2024-06-04", "field_distance_km": 269.1, "field_date_gap_days": 252, "field_conc_items_km2": 62.52, "conc_A_items_km2": null, "conc_A_lo80": null, "conc_A_hi80": null, "conc_A_lo95": null, "conc_A_hi95": null, "conc_A_status": "unavailable", "conc_A_status_ru": "концентрация недоступна", "conc_A_reasons": "вне бассейна профиля: nw_atlantic_subtropical", "conc_A_model": "conc-A-c6bce5631d2b", "conc_B_items_km2": 291.3, "conc_B_lo80": 61.7, "conc_B_hi80": 979.8, "conc_B_lo95": 38.3, "conc_B_hi95": 1835.0, "conc_B_status": "research_estimate", "conc_B_status_ru": "исследовательская оценка", "conc_B_reasons": "ближайшее полевое измерение в 269 км (> 60 км); месяц 2 вне месяцев обучения [6]", "conc_B_model": "conc-B-c6bce5631d2b"}}, {"type": "Feature", "geometry": {"type": "Polygon", "coordinates": [[[37.09096442529147, 44.91256223838236], [37.090967404916405, 44.91247226777474], [37.09084078916527, 44.91247015044806], [37.09084376897355, 44.91238017984548], [37.09097038452736, 44.912382297165536], [37.09097634370729, 44.912202355942405], [37.09123255324191, 44.91211661950808], [37.09122957406758, 44.91220659013523], [37.09135618926871, 44.91220870702119], [37.09134725225378, 44.91247861891296], [37.09122063646067, 44.91247650200718], [37.09121765723038, 44.912566472628015], [37.09096442529147, 44.91256223838236]]]}, "properties": {"zone_id": "kerch-2025-02-11-016", "aoi": "kerch", "date": "2025-02-11", "scene_id": "S2C_MSIL2A_20250211T083121_R021_T37TCK_20250211T121153", "scene_datetime_utc": "2025-02-11T08:31:21.025000+00:00", "detection_status": "detected", "detection_status_ru": "обнаружено", "lon": 37.09113, "lat": 44.91236, "n_pixels": 4, "zone_area_km2": 0.0013, "cover_m2": 25.1, "p_mean": 0.954, "p_max": 0.996, "cover_m2_km2": 19307.7, "h3": "882d762a67fffff", "valid_frac_scene": 0.993, "wind_ms": 9.3, "sea": "шторм", "scene_reliable": false, "field_event_id": "S4:DOORS3:T11", "field_profile": "B", "field_date": "2024-06-04", "field_distance_km": 271.1, "field_date_gap_days": 252, "field_conc_items_km2": 62.52, "conc_A_items_km2": null, "conc_A_lo80": null, "conc_A_hi80": null, "conc_A_lo95": null, "conc_A_hi95": null, "conc_A_status": "unavailable", "conc_A_status_ru": "концентрация недоступна", "conc_A_reasons": "вне бассейна профиля: nw_atlantic_subtropical", "conc_A_model": "conc-A-c6bce5631d2b", "conc_B_items_km2": 348.2, "conc_B_lo80": 74.0, "conc_B_hi80": 1170.8, "conc_B_lo95": 46.0, "conc_B_hi95": 2192.7, "conc_B_status": "research_estimate", "conc_B_status_ru": "исследовательская оценка", "conc_B_reasons": "ближайшее полевое измерение в 271 км (> 60 км); месяц 2 вне месяцев обучения [6]", "conc_B_model": "conc-B-c6bce5631d2b"}}, {"type": "Feature", "geometry": {"type": "Polygon", "coordinates": [[[36.80441854915519, 44.9120917807541], [36.804421975761485, 44.91200182628912], [36.804172218783485, 44.91190700177368], [36.804179072704386, 44.911727092865966], [36.80405248133877, 44.91172465764641], [36.804055908472264, 44.91163470319771], [36.8041824996407, 44.91163713840967], [36.80418592656093, 44.91154718395175], [36.804439108551726, 44.911552053939836], [36.80443568202585, 44.911642008412954], [36.80456227324255, 44.91164444320426], [36.80455199415995, 44.91191430663662], [36.804678585984284, 44.9119167413105], [36.80467515978843, 44.912006695792286], [36.804548567766915, 44.912004261110816], [36.80454514135779, 44.91209421558339], [36.80441854915519, 44.9120917807541]]]}, "properties": {"zone_id": "kerch-2025-02-11-017", "aoi": "kerch", "date": "2025-02-11", "scene_id": "S2C_MSIL2A_20250211T083121_R021_T37TCK_20250211T121153", "scene_datetime_utc": "2025-02-11T08:31:21.025000+00:00", "detection_status": "detected", "detection_status_ru": "обнаружено", "lon": 36.80437, "lat": 44.91179, "n_pixels": 5, "zone_area_km2": 0.0016, "cover_m2": 23.9, "p_mean": 0.872, "p_max": 0.984, "cover_m2_km2": 14937.5, "h3": "882d760edbfffff", "valid_frac_scene": 0.993, "wind_ms": 9.3, "sea": "шторм", "scene_reliable": false, "field_event_id": "S4:DOORS3:T11", "field_profile": "B", "field_date": "2024-06-04", "field_distance_km": 269.2, "field_date_gap_days": 252, "field_conc_items_km2": 62.52, "conc_A_items_km2": null, "conc_A_lo80": null, "conc_A_hi80": null, "conc_A_lo95": null, "conc_A_hi95": null, "conc_A_status": "unavailable", "conc_A_status_ru": "концентрация недоступна", "conc_A_reasons": "вне бассейна профиля: nw_atlantic_subtropical", "conc_A_model": "conc-A-c6bce5631d2b", "conc_B_items_km2": 295.2, "conc_B_lo80": 62.6, "conc_B_hi80": 993.2, "conc_B_lo95": 38.9, "conc_B_hi95": 1860.1, "conc_B_status": "research_estimate", "conc_B_status_ru": "исследовательская оценка", "conc_B_reasons": "ближайшее полевое измерение в 269 км (> 60 км); месяц 2 вне месяцев обучения [6]", "conc_B_model": "conc-B-c6bce5631d2b"}}, {"type": "Feature", "geometry": {"type": "Polygon", "coordinates": [[[36.807337018009356, 44.91196783707129], [36.80734044004829, 44.91187788242851], [36.80709067855213, 44.91178306421568], [36.8070941009533, 44.91169310958481], [36.8072206925076, 44.91169554143155], [36.80722411469552, 44.91160558679147], [36.8073507060687, 44.9116080184904], [36.807354128043386, 44.91151806384111], [36.807610732007845, 44.911432972137064], [36.80760731044359, 44.91152292680316], [36.807733901667795, 44.911525358073845], [36.80772705888546, 44.911705267416316], [36.8076004672669, 44.911702836130445], [36.80759362402595, 44.91188274545123], [36.807337018009356, 44.91196783707129]]]}, "properties": {"zone_id": "kerch-2025-02-11-018", "aoi": "kerch", "date": "2025-02-11", "scene_id": "S2C_MSIL2A_20250211T083121_R021_T37TCK_20250211T121153", "scene_datetime_utc": "2025-02-11T08:31:21.025000+00:00", "detection_status": "detected", "detection_status_ru": "обнаружено", "lon": 36.80744, "lat": 44.91171, "n_pixels": 5, "zone_area_km2": 0.0016, "cover_m2": 27.1, "p_mean": 0.893, "p_max": 0.996, "cover_m2_km2": 16937.5, "h3": "882d7605adfffff", "valid_frac_scene": 0.993, "wind_ms": 9.3, "sea": "шторм", "scene_reliable": false, "field_event_id": "S4:DOORS3:T11", "field_profile": "B", "field_date": "2024-06-04", "field_distance_km": 269.2, "field_date_gap_days": 252, "field_conc_items_km2": 62.52, "conc_A_items_km2": null, "conc_A_lo80": null, "conc_A_hi80": null, "conc_A_lo95": null, "conc_A_hi95": null, "conc_A_status": "unavailable", "conc_A_status_ru": "концентрация недоступна", "conc_A_reasons": "вне бассейна профиля: nw_atlantic_subtropical", "conc_A_model": "conc-A-c6bce5631d2b", "conc_B_items_km2": 295.2, "conc_B_lo80": 62.6, "conc_B_hi80": 993.2, "conc_B_lo95": 38.9, "conc_B_hi95": 1860.1, "conc_B_status": "research_estimate", "conc_B_status_ru": "исследовательская оценка", "conc_B_reasons": "ближайшее полевое измерение в 269 км (> 60 км); месяц 2 вне месяцев обучения [6]", "conc_B_model": "conc-B-c6bce5631d2b"}}, {"type": "Feature", "geometry": {"type": "Polygon", "coordinates": [[[37.050205143677445, 44.90782246220812], [37.05020818639273, 44.90773249368528], [37.05008158408675, 44.907730331348496], [37.05008462698501, 44.90764036283081], [37.05021122909373, 44.90764252516085], [37.05021427178045, 44.90755255663485], [37.05034087370618, 44.90755471881788], [37.05034391618135, 44.907464750283545], [37.050470517924126, 44.907466912319556], [37.050467475646215, 44.907556880860646], [37.05072372145251, 44.907471235970824], [37.05072067956912, 44.907561204525386], [37.050847281552, 44.90756336614736], [37.05084423985159, 44.907653334707085], [37.050587993396384, 44.907738979854045], [37.05058495127288, 44.90782894839711], [37.05045834872678, 44.907826786474374], [37.05046139104755, 44.90773681793806], [37.050205143677445, 44.90782246220812]]]}, "properties": {"zone_id": "kerch-2025-02-11-019", "aoi": "kerch", "date": "2025-02-11", "scene_id": "S2C_MSIL2A_20250211T083121_R021_T37TCK_20250211T121153", "scene_datetime_utc": "2025-02-11T08:31:21.025000+00:00", "detection_status": "detected", "detection_status_ru": "обнаружено", "lon": 37.05046, "lat": 44.90765, "n_pixels": 4, "zone_area_km2": 0.0014, "cover_m2": 30.6, "p_mean": 0.973, "p_max": 0.996, "cover_m2_km2": 21857.1, "h3": "882d7639b9fffff", "valid_frac_scene": 0.993, "wind_ms": 9.3, "sea": "шторм", "scene_reliable": false, "field_event_id": "S4:DOORS3:T11", "field_profile": "B", "field_date": "2024-06-04", "field_distance_km": 270.2, "field_date_gap_days": 252, "field_conc_items_km2": 62.52, "conc_A_items_km2": null, "conc_A_lo80": null, "conc_A_hi80": null, "conc_A_lo95": null, "conc_A_hi95": null, "conc_A_status": "unavailable", "conc_A_status_ru": "концентрация недоступна", "conc_A_reasons": "вне бассейна профиля: nw_atlantic_subtropical", "conc_A_model": "conc-A-c6bce5631d2b", "conc_B_items_km2": 336.8, "conc_B_lo80": 71.5, "conc_B_hi80": 1132.8, "conc_B_lo95": 44.5, "conc_B_hi95": 2121.4, "conc_B_status": "research_estimate", "conc_B_status_ru": "исследовательская оценка", "conc_B_reasons": "ближайшее полевое измерение в 270 км (> 60 км); месяц 2 вне месяцев обучения [6]", "conc_B_model": "conc-B-c6bce5631d2b"}}, {"type": "Feature", "geometry": {"type": "Polygon", "coordinates": [[[36.762005864896, 44.904876670050974], [36.76200935678379, 44.90478671805387], [36.76188278426372, 44.904784236390405], [36.76189326042001, 44.90451438041246], [36.76201983234883, 44.90451686205269], [36.76202332417106, 44.90442691004902], [36.76227646768371, 44.9044318728935], [36.762272976255645, 44.90452182491264], [36.76239954823364, 44.90452430613236], [36.76239605698627, 44.9046142581576], [36.76226948481119, 44.90461177693015], [36.762262501873124, 44.90479168096025], [36.762005864896, 44.904876670050974]]]}, "properties": {"zone_id": "kerch-2025-02-11-020", "aoi": "kerch", "date": "2025-02-11", "scene_id": "S2C_MSIL2A_20250211T083121_R021_T37TCK_20250211T121153", "scene_datetime_utc": "2025-02-11T08:31:21.025000+00:00", "detection_status": "detected", "detection_status_ru": "обнаружено", "lon": 36.76211, "lat": 44.90463, "n_pixels": 4, "zone_area_km2": 0.0013, "cover_m2": 29.8, "p_mean": 0.909, "p_max": 0.992, "cover_m2_km2": 22923.1, "h3": "882d76053dfffff", "valid_frac_scene": 0.993, "wind_ms": 9.3, "sea": "шторм", "scene_reliable": false, "field_event_id": "S4:DOORS3:T11", "field_profile": "B", "field_date": "2024-06-04", "field_distance_km": 268.3, "field_date_gap_days": 252, "field_conc_items_km2": 62.52, "conc_A_items_km2": null, "conc_A_lo80": null, "conc_A_hi80": null, "conc_A_lo95": null, "conc_A_hi95": null, "conc_A_status": "unavailable", "conc_A_status_ru": "концентрация недоступна", "conc_A_reasons": "вне бассейна профиля: nw_atlantic_subtropical", "conc_A_model": "conc-A-c6bce5631d2b", "conc_B_items_km2": 287.5, "conc_B_lo80": 60.9, "conc_B_hi80": 967.1, "conc_B_lo95": 37.8, "conc_B_hi95": 1811.3, "conc_B_status": "research_estimate", "conc_B_status_ru": "исследовательская оценка", "conc_B_reasons": "ближайшее полевое измерение в 268 км (> 60 км); месяц 2 вне месяцев обучения [6]", "conc_B_model": "conc-B-c6bce5631d2b"}}, {"type": "Feature", "geometry": {"type": "Polygon", "coordinates": [[[36.939271195285336, 44.89624165326927], [36.939274409746695, 44.89615169067244], [36.93914784144948, 44.896149405823266], [36.93915105609284, 44.896059443231955], [36.938901134960304, 44.89596491054867], [36.93890434996766, 44.895874947968395], [36.93916069993238, 44.895789555448395], [36.939157485334285, 44.89587951804451], [36.93941062076128, 44.895884087559914], [36.93940740654227, 44.89597405016869], [36.93953397447549, 44.89597633472326], [36.93952754638639, 44.896156259950246], [36.939271195285336, 44.89624165326927]]]}, "properties": {"zone_id": "kerch-2025-02-11-021", "aoi": "kerch", "date": "2025-02-11", "scene_id": "S2C_MSIL2A_20250211T083121_R021_T37TCK_20250211T121153", "scene_datetime_utc": "2025-02-11T08:31:21.025000+00:00", "detection_status": "detected", "detection_status_ru": "обнаружено", "lon": 36.93925, "lat": 44.89602, "n_pixels": 4, "zone_area_km2": 0.0013, "cover_m2": 18.8, "p_mean": 0.857, "p_max": 0.976, "cover_m2_km2": 14461.5, "h3": "882d76395dfffff", "valid_frac_scene": 0.993, "wind_ms": 9.3, "sea": "шторм", "scene_reliable": false, "field_event_id": "S4:DOORS3:T11", "field_profile": "B", "field_date": "2024-06-04", "field_distance_km": 268.1, "field_date_gap_days": 252, "field_conc_items_km2": 62.52, "conc_A_items_km2": null, "conc_A_lo80": null, "conc_A_hi80": null, "conc_A_lo95": null, "conc_A_hi95": null, "conc_A_status": "unavailable", "conc_A_status_ru": "концентрация недоступна", "conc_A_reasons": "вне бассейна профиля: nw_atlantic_subtropical", "conc_A_model": "conc-A-c6bce5631d2b", "conc_B_items_km2": 305.5, "conc_B_lo80": 64.8, "conc_B_hi80": 1027.7, "conc_B_lo95": 40.2, "conc_B_hi95": 1924.7, "conc_B_status": "research_estimate", "conc_B_status_ru": "исследовательская оценка", "conc_B_reasons": "ближайшее полевое измерение в 268 км (> 60 км); месяц 2 вне месяцев обучения [6]", "conc_B_model": "conc-B-c6bce5631d2b"}}, {"type": "Feature", "geometry": {"type": "Polygon", "coordinates": [[[36.7485498398888, 44.886157836155064], [36.748553350470225, 44.886067884691485], [36.748426820172895, 44.886065388925275], [36.7484338416801, 44.88588548600877], [36.74856037158366, 44.88588798175941], [36.74856388211567, 44.88579803029091], [36.74881694157845, 44.88580302135641], [36.74881343144021, 44.88589297284048], [36.7489399613932, 44.88589546817089], [36.74893294146108, 44.88607537114966], [36.74880641111432, 44.88607287580367], [36.74880290092667, 44.886162827282824], [36.7485498398888, 44.886157836155064]]]}, "properties": {"zone_id": "kerch-2025-02-11-022", "aoi": "kerch", "date": "2025-02-11", "scene_id": "S2C_MSIL2A_20250211T083121_R021_T37TCK_20250211T121153", "scene_datetime_utc": "2025-02-11T08:31:21.025000+00:00", "detection_status": "detected", "detection_status_ru": "обнаружено", "lon": 36.74868, "lat": 44.88598, "n_pixels": 4, "zone_area_km2": 0.0012, "cover_m2": 12.9, "p_mean": 0.912, "p_max": 0.98, "cover_m2_km2": 10750.0, "h3": "882d760521fffff", "valid_frac_scene": 0.993, "wind_ms": 9.3, "sea": "шторм", "scene_reliable": false, "field_event_id": "S4:DOORS3:T11", "field_profile": "B", "field_date": "2024-06-04", "field_distance_km": 266.2, "field_date_gap_days": 252, "field_conc_items_km2": 62.52, "conc_A_items_km2": null, "conc_A_lo80": null, "conc_A_hi80": null, "conc_A_lo95": null, "conc_A_hi95": null, "conc_A_status": "unavailable", "conc_A_status_ru": "концентрация недоступна", "conc_A_reasons": "вне бассейна профиля: nw_atlantic_subtropical", "conc_A_model": "conc-A-c6bce5631d2b", "conc_B_items_km2": 280.3, "conc_B_lo80": 59.4, "conc_B_hi80": 943.0, "conc_B_lo95": 36.8, "conc_B_hi95": 1766.2, "conc_B_status": "research_estimate", "conc_B_status_ru": "исследовательская оценка", "conc_B_reasons": "ближайшее полевое измерение в 266 км (> 60 км); месяц 2 вне месяцев обучения [6]", "conc_B_model": "conc-B-c6bce5631d2b"}}, {"type": "Feature", "geometry": {"type": "Polygon", "coordinates": [[[36.94725102521048, 44.881982108632556], [36.94725422563893, 44.88189214535951], [36.94712768797622, 44.88188986991687], [36.9471308885866, 44.88179990664932], [36.94725742605236, 44.88180218208487], [36.94726062645078, 44.88171221880862], [36.94738716373461, 44.88171449409695], [36.94739036392105, 44.881624530812005], [36.9476434381399, 44.881629080954156], [36.94764023834734, 44.88171904425328], [36.947766775676236, 44.8817213191213], [36.947763576065604, 44.88181128242593], [36.9475073010094, 44.88189669582446], [36.94750410097484, 44.881986659111696], [36.94725102521048, 44.881982108632556]]]}, "properties": {"zone_id": "kerch-2025-02-11-023", "aoi": "kerch", "date": "2025-02-11", "scene_id": "S2C_MSIL2A_20250211T083121_R021_T37TCK_20250211T121153", "scene_datetime_utc": "2025-02-11T08:31:21.025000+00:00", "detection_status": "detected", "detection_status_ru": "обнаружено", "lon": 36.94745, "lat": 44.88181, "n_pixels": 4, "zone_area_km2": 0.0012, "cover_m2": 21.6, "p_mean": 0.821, "p_max": 0.937, "cover_m2_km2": 18000.0, "h3": "882d763909fffff", "valid_frac_scene": 0.993, "wind_ms": 9.3, "sea": "шторм", "scene_reliable": false, "field_event_id": "S4:DOORS3:T11", "field_profile": "B", "field_date": "2024-06-04", "field_distance_km": 266.5, "field_date_gap_days": 252, "field_conc_items_km2": 62.52, "conc_A_items_km2": null, "conc_A_lo80": null, "conc_A_hi80": null, "conc_A_lo95": null, "conc_A_hi95": null, "conc_A_status": "unavailable", "conc_A_status_ru": "концентрация недоступна", "conc_A_reasons": "вне бассейна профиля: nw_atlantic_subtropical", "conc_A_model": "conc-A-c6bce5631d2b", "conc_B_items_km2": 297.2, "conc_B_lo80": 63.0, "conc_B_hi80": 999.7, "conc_B_lo95": 39.1, "conc_B_hi95": 1872.2, "conc_B_status": "research_estimate", "conc_B_status_ru": "исследовательская оценка", "conc_B_reasons": "ближайшее полевое измерение в 267 км (> 60 км); месяц 2 вне месяцев обучения [6]", "conc_B_model": "conc-B-c6bce5631d2b"}}, {"type": "Feature", "geometry": {"type": "Polygon", "coordinates": [[[36.754608326656914, 44.88015576276368], [36.754611827064224, 44.88006581083114], [36.7544853093964, 44.88006332203641], [36.754492310555385, 44.87988341818192], [36.75461882782955, 44.87988590696113], [36.75462232818758, 44.87979595502367], [36.754875362391545, 44.8798009321464], [36.754871862427166, 44.87989088409939], [36.75499837975062, 44.87989337245845], [36.75499138016625, 44.88007327637503], [36.754864862449146, 44.880070788000445], [36.7548613624355, 44.88016073994852], [36.754608326656914, 44.88015576276368]]]}, "properties": {"zone_id": "kerch-2025-02-11-024", "aoi": "kerch", "date": "2025-02-11", "scene_id": "S2C_MSIL2A_20250211T083121_R021_T37TCK_20250211T121153", "scene_datetime_utc": "2025-02-11T08:31:21.025000+00:00", "detection_status": "detected", "detection_status_ru": "обнаружено", "lon": 36.75474, "lat": 44.87998, "n_pixels": 4, "zone_area_km2": 0.0012, "cover_m2": 29.0, "p_mean": 0.943, "p_max": 1.0, "cover_m2_km2": 24166.7, "h3": "882d760525fffff", "valid_frac_scene": 0.993, "wind_ms": 9.3, "sea": "шторм", "scene_reliable": false, "field_event_id": "S4:DOORS3:T11", "field_profile": "B", "field_date": "2024-06-04", "field_distance_km": 265.5, "field_date_gap_days": 252, "field_conc_items_km2": 62.52, "conc_A_items_km2": null, "conc_A_lo80": null, "conc_A_hi80": null, "conc_A_lo95": null, "conc_A_hi95": null, "conc_A_status": "unavailable", "conc_A_status_ru": "концентрация недоступна", "conc_A_reasons": "вне бассейна профиля: nw_atlantic_subtropical", "conc_A_model": "conc-A-c6bce5631d2b", "conc_B_items_km2": 280.3, "conc_B_lo80": 59.4, "conc_B_hi80": 943.0, "conc_B_lo95": 36.8, "conc_B_hi95": 1766.2, "conc_B_status": "research_estimate", "conc_B_status_ru": "исследовательская оценка", "conc_B_reasons": "ближайшее полевое измерение в 266 км (> 60 км); месяц 2 вне месяцев обучения [6]", "conc_B_model": "conc-B-c6bce5631d2b"}}, {"type": "Feature", "geometry": {"type": "Polygon", "coordinates": [[[36.97533305449398, 44.879152846049806], [36.975336210846955, 44.87906288115976], [36.975209677174085, 44.87906063694187], [36.97521599022946, 44.878880707170985], [36.97534252350846, 44.87888295137486], [36.975345679816996, 44.87879298648003], [36.975725279152115, 44.878799718230056], [36.975722123434366, 44.87888968314591], [36.97584865677263, 44.87889192678936], [36.975845501236996, 44.87898189171061], [36.97571896770181, 44.878979648060145], [36.97571581195444, 44.8790696129728], [36.97546274453463, 44.87906512523755], [36.97545958837859, 44.879155090134596], [36.97533305449398, 44.879152846049806]]]}, "properties": {"zone_id": "kerch-2025-02-11-025", "aoi": "kerch", "date": "2025-02-11", "scene_id": "S2C_MSIL2A_20250211T083121_R021_T37TCK_20250211T121153", "scene_datetime_utc": "2025-02-11T08:31:21.025000+00:00", "detection_status": "detected", "detection_status_ru": "обнаружено", "lon": 36.9755, "lat": 44.87895, "n_pixels": 4, "zone_area_km2": 0.0013, "cover_m2": 14.9, "p_mean": 0.775, "p_max": 0.996, "cover_m2_km2": 11461.5, "h3": "882d763939fffff", "valid_frac_scene": 0.993, "wind_ms": 9.3, "sea": "шторм", "scene_reliable": false, "field_event_id": "S4:DOORS3:T11", "field_profile": "B", "field_date": "2024-06-04", "field_distance_km": 266.4, "field_date_gap_days": 252, "field_conc_items_km2": 62.52, "conc_A_items_km2": null, "conc_A_lo80": null, "conc_A_hi80": null, "conc_A_lo95": null, "conc_A_hi95": null, "conc_A_status": "unavailable", "conc_A_status_ru": "концентрация недоступна", "conc_A_reasons": "вне бассейна профиля: nw_atlantic_subtropical", "conc_A_model": "conc-A-c6bce5631d2b", "conc_B_items_km2": 302.8, "conc_B_lo80": 64.2, "conc_B_hi80": 1018.4, "conc_B_lo95": 39.9, "conc_B_hi95": 1907.4, "conc_B_status": "research_estimate", "conc_B_status_ru": "исследовательская оценка", "conc_B_reasons": "ближайшее полевое измерение в 266 км (> 60 км); месяц 2 вне месяцев обучения [6]", "conc_B_model": "conc-B-c6bce5631d2b"}}, {"type": "Feature", "geometry": {"type": "Polygon", "coordinates": [[[36.76080686768043, 44.87703677658597], [36.76081035805016, 44.876946824222415], [36.76068384668026, 44.8769443424288], [36.76069082776417, 44.87676443771229], [36.760564316804256, 44.876761955794116], [36.76056780751844, 44.876672003441136], [36.76069431828156, 44.87667448535157], [36.76069780878257, 44.87658453298923], [36.76095082996435, 44.87658949637451], [36.76094733985694, 44.876679448752334], [36.76107385066919, 44.87668193024266], [36.7610703607422, 44.87677188262659], [36.76119687176763, 44.87677436398463], [36.761193382021055, 44.87686431637466], [36.76106687079883, 44.87686183500889], [36.761063380839076, 44.87695178738955], [36.76080686768043, 44.87703677658597]]]}, "properties": {"zone_id": "kerch-2025-02-11-026", "aoi": "kerch", "date": "2025-02-11", "scene_id": "S2C_MSIL2A_20250211T083121_R021_T37TCK_20250211T121153", "scene_datetime_utc": "2025-02-11T08:31:21.025000+00:00", "detection_status": "detected", "detection_status_ru": "обнаружено", "lon": 36.76088, "lat": 44.87679, "n_pixels": 4, "zone_area_km2": 0.0014, "cover_m2": 33.7, "p_mean": 0.978, "p_max": 1.0, "cover_m2_km2": 24071.4, "h3": "882d760e1bfffff", "valid_frac_scene": 0.993, "wind_ms": 9.3, "sea": "шторм", "scene_reliable": false, "field_event_id": "S4:DOORS3:T11", "field_profile": "B", "field_date": "2024-06-04", "field_distance_km": 265.2, "field_date_gap_days": 252, "field_conc_items_km2": 62.52, "conc_A_items_km2": null, "conc_A_lo80": null, "conc_A_hi80": null, "conc_A_lo95": null, "conc_A_hi95": null, "conc_A_status": "unavailable", "conc_A_status_ru": "концентрация недоступна", "conc_A_reasons": "вне бассейна профиля: nw_atlantic_subtropical", "conc_A_model": "conc-A-c6bce5631d2b", "conc_B_items_km2": 280.3, "conc_B_lo80": 59.4, "conc_B_hi80": 943.0, "conc_B_lo95": 36.8, "conc_B_hi95": 1766.2, "conc_B_status": "research_estimate", "conc_B_status_ru": "исследовательская оценка", "conc_B_reasons": "ближайшее полевое измерение в 265 км (> 60 км); месяц 2 вне месяцев обучения [6]", "conc_B_model": "conc-B-c6bce5631d2b"}}, {"type": "Feature", "geometry": {"type": "Polygon", "coordinates": [[[36.87720938364638, 44.872239164535365], [36.877212692103946, 44.87214920512413], [36.876962979627564, 44.87205454029023], [36.876969597252305, 44.871874621489034], [36.87709610731014, 44.87187697425491], [36.87709941590241, 44.87178701484454], [36.87734912747237, 44.8718816793665], [36.87734581925819, 44.87197163878992], [36.8774723295594, 44.871973991142994], [36.87746571347809, 44.87215390999967], [36.87720938364638, 44.872239164535365]]]}, "properties": {"zone_id": "kerch-2025-02-11-027", "aoi": "kerch", "date": "2025-02-11", "scene_id": "S2C_MSIL2A_20250211T083121_R021_T37TCK_20250211T121153", "scene_datetime_utc": "2025-02-11T08:31:21.025000+00:00", "detection_status": "detected", "detection_status_ru": "обнаружено", "lon": 36.87722, "lat": 44.87201, "n_pixels": 4, "zone_area_km2": 0.0012, "cover_m2": 34.1, "p_mean": 0.923, "p_max": 0.98, "cover_m2_km2": 28416.7, "h3": "882d760cd1fffff", "valid_frac_scene": 0.993, "wind_ms": 9.3, "sea": "шторм", "scene_reliable": false, "field_event_id": "S4:DOORS3:T11", "field_profile": "B", "field_date": "2024-06-04", "field_distance_km": 265.0, "field_date_gap_days": 252, "field_conc_items_km2": 62.52, "conc_A_items_km2": null, "conc_A_lo80": null, "conc_A_hi80": null, "conc_A_lo95": null, "conc_A_hi95": null, "conc_A_status": "unavailable", "conc_A_status_ru": "концентрация недоступна", "conc_A_reasons": "вне бассейна профиля: nw_atlantic_subtropical", "conc_A_model": "conc-A-c6bce5631d2b", "conc_B_items_km2": 280.9, "conc_B_lo80": 59.5, "conc_B_hi80": 945.0, "conc_B_lo95": 36.9, "conc_B_hi95": 1770.0, "conc_B_status": "research_estimate", "conc_B_status_ru": "исследовательская оценка", "conc_B_reasons": "ближайшее полевое измерение в 265 км (> 60 км); месяц 2 вне месяцев обучения [6]", "conc_B_model": "conc-B-c6bce5631d2b"}}, {"type": "Feature", "geometry": {"type": "Polygon", "coordinates": [[[36.816023631518306, 44.866583898417886], [36.81602703462037, 44.866493942535556], [36.81577404826045, 44.86648910202156], [36.81577745174, 44.8663991461527], [36.81565095878071, 44.86639672569324], [36.815654362441, 44.86630676983029], [36.81578085520356, 44.8663091902822], [36.81578425865116, 44.866219234410075], [36.8161637364445, 44.86622649490314], [36.816160333587064, 44.866316450797896], [36.8162868264135, 44.866318870689796], [36.81628002104416, 44.86649878248955], [36.816023631518306, 44.866583898417886]]]}, "properties": {"zone_id": "kerch-2025-02-11-028", "aoi": "kerch", "date": "2025-02-11", "scene_id": "S2C_MSIL2A_20250211T083121_R021_T37TCK_20250211T121153", "scene_datetime_utc": "2025-02-11T08:31:21.025000+00:00", "detection_status": "detected", "detection_status_ru": "обнаружено", "lon": 36.816, "lat": 44.86638, "n_pixels": 4, "zone_area_km2": 0.0013, "cover_m2": 18.8, "p_mean": 0.931, "p_max": 0.996, "cover_m2_km2": 14461.5, "h3": "882d760ea9fffff", "valid_frac_scene": 0.993, "wind_ms": 9.3, "sea": "шторм", "scene_reliable": false, "field_event_id": "S4:DOORS3:T11", "field_profile": "B", "field_date": "2024-06-04", "field_distance_km": 264.2, "field_date_gap_days": 252, "field_conc_items_km2": 62.52, "conc_A_items_km2": null, "conc_A_lo80": null, "conc_A_hi80": null, "conc_A_lo95": null, "conc_A_hi95": null, "conc_A_status": "unavailable", "conc_A_status_ru": "концентрация недоступна", "conc_A_reasons": "вне бассейна профиля: nw_atlantic_subtropical", "conc_A_model": "conc-A-c6bce5631d2b", "conc_B_items_km2": 274.7, "conc_B_lo80": 58.2, "conc_B_hi80": 924.2, "conc_B_lo95": 36.1, "conc_B_hi95": 1731.0, "conc_B_status": "research_estimate", "conc_B_status_ru": "исследовательская оценка", "conc_B_reasons": "ближайшее полевое измерение в 264 км (> 60 км); месяц 2 вне месяцев обучения [6]", "conc_B_model": "conc-B-c6bce5631d2b"}}, {"type": "Feature", "geometry": {"type": "Polygon", "coordinates": [[[36.622117463287275, 44.86297919964933], [36.62212116790565, 44.86288925585581], [36.62199469969008, 44.86288662107935], [36.62199840448765, 44.86279667729239], [36.62212487250665, 44.862799312060616], [36.622128577090265, 44.86270936826376], [36.622381512787236, 44.86271463736403], [36.62238521696032, 44.86262469354907], [36.6225116846383, 44.86262732788111], [36.622507980661794, 44.86271727170427], [36.622634448553725, 44.86271990590459], [36.62262704094174, 44.86289979356236], [36.62250057265664, 44.862897159345614], [36.62249686862801, 44.862987103163796], [36.622117463287275, 44.86297919964933]]]}, "properties": {"zone_id": "kerch-2025-02-11-029", "aoi": "kerch", "date": "2025-02-11", "scene_id": "S2C_MSIL2A_20250211T083121_R021_T37TCK_20250211T121153", "scene_datetime_utc": "2025-02-11T08:31:21.025000+00:00", "detection_status": "detected", "detection_status_ru": "обнаружено", "lon": 36.62235, "lat": 44.86283, "n_pixels": 4, "zone_area_km2": 0.0013, "cover_m2": 22.7, "p_mean": 0.939, "p_max": 0.996, "cover_m2_km2": 17461.5, "h3": "882d760015fffff", "valid_frac_scene": 0.993, "wind_ms": 9.3, "sea": "шторм", "scene_reliable": false, "field_event_id": "S4:DOORS3:T11", "field_profile": "B", "field_date": "2024-06-04", "field_distance_km": 263.6, "field_date_gap_days": 252, "field_conc_items_km2": 62.52, "conc_A_items_km2": null, "conc_A_lo80": null, "conc_A_hi80": null, "conc_A_lo95": null, "conc_A_hi95": null, "conc_A_status": "unavailable", "conc_A_status_ru": "концентрация недоступна", "conc_A_reasons": "вне бассейна профиля: nw_atlantic_subtropical", "conc_A_model": "conc-A-c6bce5631d2b", "conc_B_items_km2": 272.8, "conc_B_lo80": 57.8, "conc_B_hi80": 917.8, "conc_B_lo95": 35.8, "conc_B_hi95": 1719.0, "conc_B_status": "research_estimate", "conc_B_status_ru": "исследовательская оценка", "conc_B_reasons": "ближайшее полевое измерение в 264 км (> 60 км); месяц 2 вне месяцев обучения [6]", "conc_B_model": "conc-B-c6bce5631d2b"}}, {"type": "Feature", "geometry": {"type": "Polygon", "coordinates": [[[36.618970596226724, 44.862553513692454], [36.61897430568992, 44.86246357009782], [36.61884783869544, 44.86246093185611], [36.6188515483378, 44.86237098826804], [36.61897801513572, 44.862373626501515], [36.61898172456411, 44.86228368290356], [36.619108191182846, 44.862286320988886], [36.619111900397264, 44.86219637738103], [36.61936483329381, 44.86220165311547], [36.61936112447253, 44.86229159673977], [36.619487591143475, 44.86229423440533], [36.61948017384185, 44.862474121665414], [36.61935370677777, 44.86247148398341], [36.619349997904294, 44.862561427602714], [36.618970596226724, 44.862553513692454]]]}, "properties": {"zone_id": "kerch-2025-02-11-030", "aoi": "kerch", "date": "2025-02-11", "scene_id": "S2C_MSIL2A_20250211T083121_R021_T37TCK_20250211T121153", "scene_datetime_utc": "2025-02-11T08:31:21.025000+00:00", "detection_status": "detected", "detection_status_ru": "обнаружено", "lon": 36.61919, "lat": 44.86239, "n_pixels": 5, "zone_area_km2": 0.0014, "cover_m2": 22.4, "p_mean": 0.853, "p_max": 0.969, "cover_m2_km2": 16000.0, "h3": "882d760015fffff", "valid_frac_scene": 0.993, "wind_ms": 9.3, "sea": "шторм", "scene_reliable": false, "field_event_id": "S4:DOORS3:T11", "field_profile": "B", "field_date": "2024-06-04", "field_distance_km": 263.5, "field_date_gap_days": 252, "field_conc_items_km2": 62.52, "conc_A_items_km2": null, "conc_A_lo80": null, "conc_A_hi80": null, "conc_A_lo95": null, "conc_A_hi95": null, "conc_A_status": "unavailable", "conc_A_status_ru": "концентрация недоступна", "conc_A_reasons": "вне бассейна профиля: nw_atlantic_subtropical", "conc_A_model": "conc-A-c6bce5631d2b", "conc_B_items_km2": 272.8, "conc_B_lo80": 57.8, "conc_B_hi80": 917.8, "conc_B_lo95": 35.8, "conc_B_hi95": 1719.0, "conc_B_status": "research_estimate", "conc_B_status_ru": "исследовательская оценка", "conc_B_reasons": "ближайшее полевое измерение в 264 км (> 60 км); месяц 2 вне месяцев обучения [6]", "conc_B_model": "conc-B-c6bce5631d2b"}}, {"type": "Feature", "geometry": {"type": "Polygon", "coordinates": [[[36.74645795039582, 44.85541942543977], [36.74646146047542, 44.85532947361965], [36.74633499769058, 44.85532697686821], [36.74634201819353, 44.85514707323861], [36.746468480585236, 44.85514956997448], [36.74647199061544, 44.85505961814942], [36.74672491505512, 44.85506461118578], [36.74672140541805, 44.85515456302641], [36.74684786785916, 44.85515705934248], [36.74684084892876, 44.85533696303437], [36.74671438609452, 44.855334466702715], [36.746710876408045, 44.855424418538426], [36.74645795039582, 44.85541942543977]]]}, "properties": {"zone_id": "kerch-2025-02-11-031", "aoi": "kerch", "date": "2025-02-11", "scene_id": "S2C_MSIL2A_20250211T083121_R021_T37TCK_20250211T121153", "scene_datetime_utc": "2025-02-11T08:31:21.025000+00:00", "detection_status": "detected", "detection_status_ru": "обнаружено", "lon": 36.74659, "lat": 44.85524, "n_pixels": 4, "zone_area_km2": 0.0012, "cover_m2": 11.8, "p_mean": 0.943, "p_max": 0.988, "cover_m2_km2": 9833.3, "h3": "882d760e01fffff", "valid_frac_scene": 0.993, "wind_ms": 9.3, "sea": "шторм", "scene_reliable": false, "field_event_id": "S4:DOORS3:T11", "field_profile": "B", "field_date": "2024-06-04", "field_distance_km": 262.8, "field_date_gap_days": 252, "field_conc_items_km2": 62.52, "conc_A_items_km2": null, "conc_A_lo80": null, "conc_A_hi80": null, "conc_A_lo95": null, "conc_A_hi95": null, "conc_A_status": "unavailable", "conc_A_status_ru": "концентрация недоступна", "conc_A_reasons": "вне бассейна профиля: nw_atlantic_subtropical", "conc_A_model": "conc-A-c6bce5631d2b", "conc_B_items_km2": 267.8, "conc_B_lo80": 56.7, "conc_B_hi80": 900.9, "conc_B_lo95": 35.2, "conc_B_hi95": 1687.4, "conc_B_status": "research_estimate", "conc_B_status_ru": "исследовательская оценка", "conc_B_reasons": "ближайшее полевое измерение в 263 км (> 60 км); месяц 2 вне месяцев обучения [6]", "conc_B_model": "conc-B-c6bce5631d2b"}}, {"type": "Feature", "geometry": {"type": "Polygon", "coordinates": [[[36.94925043391881, 44.84708987160116], [36.94925362734597, 44.846999907663715], [36.949127165939046, 44.846997635813], [36.949133553141586, 44.846817707947466], [36.94926001415533, 44.846819979784044], [36.94926320753754, 44.8467300158418], [36.94951612921679, 44.84673455908094], [36.949512936227755, 44.846824523037355], [36.94963939728644, 44.846826794454095], [36.94963620447901, 44.84691675841599], [36.94976266574926, 44.84691902969988], [36.94975947312345, 44.84700899366726], [36.9496330116566, 44.8470067223763], [36.94962981881922, 44.847096686334986], [36.94925043391881, 44.84708987160116]]]}, "properties": {"zone_id": "kerch-2025-02-11-032", "aoi": "kerch", "date": "2025-02-11", "scene_id": "S2C_MSIL2A_20250211T083121_R021_T37TCK_20250211T121153", "scene_datetime_utc": "2025-02-11T08:31:21.025000+00:00", "detection_status": "detected", "detection_status_ru": "обнаружено", "lon": 36.94942, "lat": 44.84692, "n_pixels": 5, "zone_area_km2": 0.0014, "cover_m2": 22.0, "p_mean": 0.951, "p_max": 0.992, "cover_m2_km2": 15714.3, "h3": "882d76765bfffff", "valid_frac_scene": 0.993, "wind_ms": 9.3, "sea": "шторм", "scene_reliable": false, "field_event_id": "S4:DOORS3:T11", "field_profile": "B", "field_date": "2024-06-04", "field_distance_km": 262.7, "field_date_gap_days": 252, "field_conc_items_km2": 62.52, "conc_A_items_km2": null, "conc_A_lo80": null, "conc_A_hi80": null, "conc_A_lo95": null, "conc_A_hi95": null, "conc_A_status": "unavailable", "conc_A_status_ru": "концентрация недоступна", "conc_A_reasons": "вне бассейна профиля: nw_atlantic_subtropical", "conc_A_model": "conc-A-c6bce5631d2b", "conc_B_items_km2": 283.2, "conc_B_lo80": 60.0, "conc_B_hi80": 952.7, "conc_B_lo95": 37.2, "conc_B_hi95": 1784.3, "conc_B_status": "research_estimate", "conc_B_status_ru": "исследовательская оценка", "conc_B_reasons": "ближайшее полевое измерение в 263 км (> 60 км); месяц 2 вне месяцев обучения [6]", "conc_B_model": "conc-B-c6bce5631d2b"}}, {"type": "Feature", "geometry": {"type": "Polygon", "coordinates": [[[36.88902683732459, 44.84680229208113], [36.88903012445737, 44.846712331580676], [36.88890366851761, 44.8467099930567], [36.888910243130006, 44.84653007206558], [36.88878378759878, 44.846527733416266], [36.8887870750784, 44.846437772925576], [36.88891353041308, 44.8464401115676], [36.88891681768073, 44.84635015106801], [36.88916972800324, 44.84635482791769], [36.889166441128694, 44.84644478843188], [36.889292896509644, 44.846447126654134], [36.889283036383155, 44.84671700820888], [36.88902683732459, 44.84680229208113]]]}, "properties": {"zone_id": "kerch-2025-02-11-033", "aoi": "kerch", "date": "2025-02-11", "scene_id": "S2C_MSIL2A_20250211T083121_R021_T37TCK_20250211T121153", "scene_datetime_utc": "2025-02-11T08:31:21.025000+00:00", "detection_status": "detected", "detection_status_ru": "обнаружено", "lon": 36.88907, "lat": 44.84656, "n_pixels": 4, "zone_area_km2": 0.0013, "cover_m2": 15.7, "p_mean": 0.865, "p_max": 0.937, "cover_m2_km2": 12076.9, "h3": "882d760c81fffff", "valid_frac_scene": 0.993, "wind_ms": 9.3, "sea": "шторм", "scene_reliable": false, "field_event_id": "S4:DOORS3:T11", "field_profile": "B", "field_date": "2024-06-04", "field_distance_km": 262.3, "field_date_gap_days": 252, "field_conc_items_km2": 62.52, "conc_A_items_km2": null, "conc_A_lo80": null, "conc_A_hi80": null, "conc_A_lo95": null, "conc_A_hi95": null, "conc_A_status": "unavailable", "conc_A_status_ru": "концентрация недоступна", "conc_A_reasons": "вне бассейна профиля: nw_atlantic_subtropical", "conc_A_model": "conc-A-c6bce5631d2b", "conc_B_items_km2": 277.1, "conc_B_lo80": 58.7, "conc_B_hi80": 932.3, "conc_B_lo95": 36.4, "conc_B_hi95": 1746.1, "conc_B_status": "research_estimate", "conc_B_status_ru": "исследовательская оценка", "conc_B_reasons": "ближайшее полевое измерение в 262 км (> 60 км); месяц 2 вне месяцев обучения [6]", "conc_B_model": "conc-B-c6bce5631d2b"}}, {"type": "Feature", "geometry": {"type": "Polygon", "coordinates": [[[36.869386124685555, 44.84409684571625], [36.869389442075416, 44.84400688631695], [36.869139863032366, 44.843912206470186], [36.869143180784135, 44.84382224708239], [36.86926962878851, 44.843824607367914], [36.8692729463282, 44.84373464797112], [36.86952584199061, 44.84373936810771], [36.869529159121704, 44.84364940869461], [36.86977873771526, 44.8437440876847], [36.86977542096164, 44.843834047110924], [36.86964897289501, 44.84383168738503], [36.86964233894805, 44.844011606217904], [36.869386124685555, 44.84409684571625]]]}, "properties": {"zone_id": "kerch-2025-02-11-034", "aoi": "kerch", "date": "2025-02-11", "scene_id": "S2C_MSIL2A_20250211T083121_R021_T37TCK_20250211T121153", "scene_datetime_utc": "2025-02-11T08:31:21.025000+00:00", "detection_status": "detected", "detection_status_ru": "обнаружено", "lon": 36.86946, "lat": 44.84387, "n_pixels": 4, "zone_area_km2": 0.0013, "cover_m2": 14.1, "p_mean": 0.865, "p_max": 1.0, "cover_m2_km2": 10846.2, "h3": "882d760cebfffff", "valid_frac_scene": 0.993, "wind_ms": 9.3, "sea": "шторм", "scene_reliable": false, "field_event_id": "S4:DOORS3:T11", "field_profile": "B", "field_date": "2024-06-04", "field_distance_km": 261.9, "field_date_gap_days": 252, "field_conc_items_km2": 62.52, "conc_A_items_km2": null, "conc_A_lo80": null, "conc_A_hi80": null, "conc_A_lo95": null, "conc_A_hi95": null, "conc_A_status": "unavailable", "conc_A_status_ru": "концентрация недоступна", "conc_A_reasons": "вне бассейна профиля: nw_atlantic_subtropical", "conc_A_model": "conc-A-c6bce5631d2b", "conc_B_items_km2": 275.0, "conc_B_lo80": 58.3, "conc_B_hi80": 925.2, "conc_B_lo95": 36.1, "conc_B_hi95": 1732.9, "conc_B_status": "research_estimate", "conc_B_status_ru": "исследовательская оценка", "conc_B_reasons": "ближайшее полевое измерение в 262 км (> 60 км); месяц 2 вне месяцев обучения [6]", "conc_B_model": "conc-B-c6bce5631d2b"}}]}