{"type": "FeatureCollection", "features": [{"type": "Feature", "geometry": {"type": "Polygon", "coordinates": [[[44.725194226418495, 48.87556964788238], [44.72519471914877, 48.8754796908015], [44.72492245606752, 48.87538908337565], [44.72492294928194, 48.875299126293996], [44.725059326940745, 48.875299451545374], [44.7250598199082, 48.87520949446127], [44.72533208226567, 48.875300101564285], [44.7253315897848, 48.87539005864902], [44.725467967695444, 48.87539038341756], [44.725467475456654, 48.87548034050191], [44.72533109730149, 48.87548001573236], [44.72533060481574, 48.875569972814255], [44.725194226418495, 48.87556964788238]]]}, "properties": {"zone_id": "volgograd-2026-08-06-001", "aoi": "volgograd", "date": "2026-08-06", "scene_id": "S2C_MSIL2A_20260806T075611_R035_T38UMV_20260806T113012", "scene_datetime_utc": "2026-08-06T07:56:11.026000+00:00", "detection_status": "detected", "detection_status_ru": "обнаружено", "lon": 44.7252, "lat": 48.87539, "n_pixels": 2, "zone_area_km2": 0.0008, "cover_m2": 16.9, "p_mean": 0.745, "p_max": 0.875, "cover_m2_km2": 21125.0, "h3": "882d48ae59fffff", "valid_frac_scene": 1.0, "wind_ms": 2.6, "sea": "спокойное", "scene_reliable": true, "field_event_id": "S4:DOORS3:T23", "field_profile": "B", "field_date": "2024-06-10", "field_distance_km": 767.3, "field_date_gap_days": 787, "field_conc_items_km2": 102.37, "conc_A_items_km2": null, "conc_A_lo80": null, "conc_A_hi80": null, "conc_A_lo95": null, "conc_A_hi95": null, "conc_A_status": "unavailable", "conc_A_status_ru": "концентрация недоступна", "conc_A_reasons": "вне бассейна профиля: nw_atlantic_subtropical", "conc_A_model": "conc-A-c6bce5631d2b", "conc_B_items_km2": null, "conc_B_lo80": null, "conc_B_hi80": null, "conc_B_lo95": null, "conc_B_hi95": null, "conc_B_status": "unavailable", "conc_B_status_ru": "концентрация недоступна", "conc_B_reasons": "вне бассейна профиля: black_sea", "conc_B_model": "conc-B-c6bce5631d2b"}}, {"type": "Feature", "geometry": {"type": "Polygon", "coordinates": [[[44.72478706508208, 48.875208843799236], [44.724787558536136, 48.87511888671577], [44.72451529814946, 48.875028278327804], [44.72451579208765, 48.87493832124355], [44.724652168761054, 48.8749386469747], [44.72465266245228, 48.874848689888005], [44.72492492211519, 48.87493929795314], [44.72492442891055, 48.87502925504049], [44.7250608058358, 48.8750295802888], [44.725060312873225, 48.875119537375745], [44.72492393570346, 48.8751192121264], [44.724923442493925, 48.87520916921089], [44.72478706508208, 48.875208843799236]]]}, "properties": {"zone_id": "volgograd-2026-08-06-002", "aoi": "volgograd", "date": "2026-08-06", "scene_id": "S2C_MSIL2A_20260806T075611_R035_T38UMV_20260806T113012", "scene_datetime_utc": "2026-08-06T07:56:11.026000+00:00", "detection_status": "detected", "detection_status_ru": "обнаружено", "lon": 44.72479, "lat": 48.87503, "n_pixels": 2, "zone_area_km2": 0.0008, "cover_m2": 11.8, "p_mean": 0.678, "p_max": 0.694, "cover_m2_km2": 14750.0, "h3": "882d48ae59fffff", "valid_frac_scene": 1.0, "wind_ms": 2.6, "sea": "спокойное", "scene_reliable": true, "field_event_id": "S4:DOORS3:T23", "field_profile": "B", "field_date": "2024-06-10", "field_distance_km": 767.3, "field_date_gap_days": 787, "field_conc_items_km2": 102.37, "conc_A_items_km2": null, "conc_A_lo80": null, "conc_A_hi80": null, "conc_A_lo95": null, "conc_A_hi95": null, "conc_A_status": "unavailable", "conc_A_status_ru": "концентрация недоступна", "conc_A_reasons": "вне бассейна профиля: nw_atlantic_subtropical", "conc_A_model": "conc-A-c6bce5631d2b", "conc_B_items_km2": null, "conc_B_lo80": null, "conc_B_hi80": null, "conc_B_lo95": null, "conc_B_hi95": null, "conc_B_status": "unavailable", "conc_B_status_ru": "концентрация недоступна", "conc_B_reasons": "вне бассейна профиля: black_sea", "conc_B_model": "conc-B-c6bce5631d2b"}}, {"type": "Feature", "geometry": {"type": "Polygon", "coordinates": [[[44.666007446774096, 48.87523348923306], [44.66600804561885, 48.87514353264123], [44.66587166913199, 48.87514313755188], [44.66587226821829, 48.87505318095986], [44.66600864446064, 48.87505357604797], [44.66600984213531, 48.874873662857205], [44.666283191994765, 48.87478449594458], [44.6662825936509, 48.87487445254459], [44.666418969413144, 48.87487484714635], [44.66641777320552, 48.87505476034457], [44.66614442210869, 48.87514392756929], [44.66614382350844, 48.87523388416238], [44.666007446774096, 48.87523348923306]]]}, "properties": {"zone_id": "volgograd-2026-08-06-003", "aoi": "volgograd", "date": "2026-08-06", "scene_id": "S2C_MSIL2A_20260806T075611_R035_T38UMV_20260806T113012", "scene_datetime_utc": "2026-08-06T07:56:11.026000+00:00", "detection_status": "detected", "detection_status_ru": "обнаружено", "lon": 44.66617, "lat": 48.87501, "n_pixels": 3, "zone_area_km2": 0.0011, "cover_m2": 300.0, "p_mean": 0.584, "p_max": 0.702, "cover_m2_km2": 272727.3, "h3": "882d48a085fffff", "valid_frac_scene": 1.0, "wind_ms": 2.6, "sea": "спокойное", "scene_reliable": true, "field_event_id": "S4:DOORS3:T23", "field_profile": "B", "field_date": "2024-06-10", "field_distance_km": 765.8, "field_date_gap_days": 787, "field_conc_items_km2": 102.37, "conc_A_items_km2": null, "conc_A_lo80": null, "conc_A_hi80": null, "conc_A_lo95": null, "conc_A_hi95": null, "conc_A_status": "unavailable", "conc_A_status_ru": "концентрация недоступна", "conc_A_reasons": "вне бассейна профиля: nw_atlantic_subtropical", "conc_A_model": "conc-A-c6bce5631d2b", "conc_B_items_km2": null, "conc_B_lo80": null, "conc_B_hi80": null, "conc_B_lo95": null, "conc_B_hi95": null, "conc_B_status": "unavailable", "conc_B_status_ru": "концентрация недоступна", "conc_B_reasons": "вне бассейна профиля: black_sea", "conc_B_model": "conc-B-c6bce5631d2b"}}, {"type": "Feature", "geometry": {"type": "Polygon", "coordinates": [[[44.69112462787316, 48.871435296586306], [44.69112518160958, 48.87134533971339], [44.69098881510991, 48.87134497435043], [44.690989369088044, 48.871255017477246], [44.691262655087684, 48.87116579116271], [44.69126210160121, 48.871255748039616], [44.691398467861916, 48.87125611307889], [44.691397914617156, 48.87134606995553], [44.691261548111996, 48.87134570491509], [44.69126099462004, 48.87143566178916], [44.69112462787316, 48.871435296586306]]]}, "properties": {"zone_id": "volgograd-2026-08-06-004", "aoi": "volgograd", "date": "2026-08-06", "scene_id": "S2C_MSIL2A_20260806T075611_R035_T38UMV_20260806T113012", "scene_datetime_utc": "2026-08-06T07:56:11.026000+00:00", "detection_status": "detected", "detection_status_ru": "обнаружено", "lon": 44.69119, "lat": 48.8713, "n_pixels": 1, "zone_area_km2": 0.0005, "cover_m2": 6.3, "p_mean": 0.545, "p_max": 0.545, "cover_m2_km2": 12600.0, "h3": "882d48a0bdfffff", "valid_frac_scene": 1.0, "wind_ms": 2.6, "sea": "спокойное", "scene_reliable": true, "field_event_id": "S4:DOORS3:T23", "field_profile": "B", "field_date": "2024-06-10", "field_distance_km": 766.1, "field_date_gap_days": 787, "field_conc_items_km2": 102.37, "conc_A_items_km2": null, "conc_A_lo80": null, "conc_A_hi80": null, "conc_A_lo95": null, "conc_A_hi95": null, "conc_A_status": "unavailable", "conc_A_status_ru": "концентрация недоступна", "conc_A_reasons": "вне бассейна профиля: nw_atlantic_subtropical", "conc_A_model": "conc-A-c6bce5631d2b", "conc_B_items_km2": null, "conc_B_lo80": null, "conc_B_hi80": null, "conc_B_lo95": null, "conc_B_hi95": null, "conc_B_status": "unavailable", "conc_B_status_ru": "концентрация недоступна", "conc_B_reasons": "вне бассейна профиля: black_sea", "conc_B_model": "conc-B-c6bce5631d2b"}}, {"type": "Feature", "geometry": {"type": "Polygon", "coordinates": [[[44.6916706476357, 48.871346799552605], [44.69167120039153, 48.87125684267368], [44.691534834125356, 48.87125647795691], [44.69153594011772, 48.87107656419711], [44.691809224178144, 48.87098733658044], [44.69180867167499, 48.87107729346476], [44.69194503745773, 48.87107765785669], [44.69194393293212, 48.87125757162339], [44.6916706476357, 48.871346799552605]]]}, "properties": {"zone_id": "volgograd-2026-08-06-005", "aoi": "volgograd", "date": "2026-08-06", "scene_id": "S2C_MSIL2A_20260806T075611_R035_T38UMV_20260806T113012", "scene_datetime_utc": "2026-08-06T07:56:11.026000+00:00", "detection_status": "detected", "detection_status_ru": "обнаружено", "lon": 44.69174, "lat": 48.87117, "n_pixels": 2, "zone_area_km2": 0.0008, "cover_m2": 14.9, "p_mean": 0.598, "p_max": 0.624, "cover_m2_km2": 18625.0, "h3": "882d48a0bdfffff", "valid_frac_scene": 1.0, "wind_ms": 2.6, "sea": "спокойное", "scene_reliable": true, "field_event_id": "S4:DOORS3:T23", "field_profile": "B", "field_date": "2024-06-10", "field_distance_km": 766.1, "field_date_gap_days": 787, "field_conc_items_km2": 102.37, "conc_A_items_km2": null, "conc_A_lo80": null, "conc_A_hi80": null, "conc_A_lo95": null, "conc_A_hi95": null, "conc_A_status": "unavailable", "conc_A_status_ru": "концентрация недоступна", "conc_A_reasons": "вне бассейна профиля: nw_atlantic_subtropical", "conc_A_model": "conc-A-c6bce5631d2b", "conc_B_items_km2": null, "conc_B_lo80": null, "conc_B_hi80": null, "conc_B_lo95": null, "conc_B_hi95": null, "conc_B_status": "unavailable", "conc_B_status_ru": "концентрация недоступна", "conc_B_reasons": "вне бассейна профиля: black_sea", "conc_B_model": "conc-B-c6bce5631d2b"}}, {"type": "Feature", "geometry": {"type": "Polygon", "coordinates": [[[44.66849372989406, 48.8704728707827], [44.66849432418148, 48.8703829140935], [44.668357960598726, 48.87038252197274], [44.66835914965362, 48.87020260859257], [44.66863246987843, 48.87011343597322], [44.66863187584429, 48.87020339266789], [44.66876823894405, 48.870203784463655], [44.66876705135582, 48.87038369785123], [44.66849372989406, 48.8704728707827]]]}, "properties": {"zone_id": "volgograd-2026-08-06-006", "aoi": "volgograd", "date": "2026-08-06", "scene_id": "S2C_MSIL2A_20260806T075611_R035_T38UMV_20260806T113012", "scene_datetime_utc": "2026-08-06T07:56:11.026000+00:00", "detection_status": "detected", "detection_status_ru": "обнаружено", "lon": 44.66856, "lat": 48.87029, "n_pixels": 2, "zone_area_km2": 0.0008, "cover_m2": 200.0, "p_mean": 0.698, "p_max": 0.698, "cover_m2_km2": 250000.0, "h3": "882d48a0a9fffff", "valid_frac_scene": 1.0, "wind_ms": 2.6, "sea": "спокойное", "scene_reliable": true, "field_event_id": "S4:DOORS3:T23", "field_profile": "B", "field_date": "2024-06-10", "field_distance_km": 765.4, "field_date_gap_days": 787, "field_conc_items_km2": 102.37, "conc_A_items_km2": null, "conc_A_lo80": null, "conc_A_hi80": null, "conc_A_lo95": null, "conc_A_hi95": null, "conc_A_status": "unavailable", "conc_A_status_ru": "концентрация недоступна", "conc_A_reasons": "вне бассейна профиля: nw_atlantic_subtropical", "conc_A_model": "conc-A-c6bce5631d2b", "conc_B_items_km2": null, "conc_B_lo80": null, "conc_B_hi80": null, "conc_B_lo95": null, "conc_B_hi95": null, "conc_B_status": "unavailable", "conc_B_status_ru": "концентрация недоступна", "conc_B_reasons": "вне бассейна профиля: black_sea", "conc_B_model": "conc-B-c6bce5631d2b"}}, {"type": "Feature", "geometry": {"type": "Polygon", "coordinates": [[[44.668633063909624, 48.87002347927712], [44.668633657937875, 48.869933522579615], [44.6684972955744, 48.86993313062629], [44.6684990783748, 48.86966326052897], [44.66877239541012, 48.86957408756256], [44.66877180163808, 48.86966404426696], [44.66890816327413, 48.86966443589407], [44.668906382673676, 48.86993430600249], [44.668633063909624, 48.87002347927712]]]}, "properties": {"zone_id": "volgograd-2026-08-06-007", "aoi": "volgograd", "date": "2026-08-06", "scene_id": "S2C_MSIL2A_20260806T075611_R035_T38UMV_20260806T113012", "scene_datetime_utc": "2026-08-06T07:56:11.026000+00:00", "detection_status": "detected", "detection_status_ru": "обнаружено", "lon": 44.6687, "lat": 48.8698, "n_pixels": 3, "zone_area_km2": 0.0011, "cover_m2": 300.0, "p_mean": 0.647, "p_max": 0.651, "cover_m2_km2": 272727.3, "h3": "882d48a0a9fffff", "valid_frac_scene": 1.0, "wind_ms": 2.6, "sea": "спокойное", "scene_reliable": true, "field_event_id": "S4:DOORS3:T23", "field_profile": "B", "field_date": "2024-06-10", "field_distance_km": 765.3, "field_date_gap_days": 787, "field_conc_items_km2": 102.37, "conc_A_items_km2": null, "conc_A_lo80": null, "conc_A_hi80": null, "conc_A_lo95": null, "conc_A_hi95": null, "conc_A_status": "unavailable", "conc_A_status_ru": "концентрация недоступна", "conc_A_reasons": "вне бассейна профиля: nw_atlantic_subtropical", "conc_A_model": "conc-A-c6bce5631d2b", "conc_B_items_km2": null, "conc_B_lo80": null, "conc_B_hi80": null, "conc_B_lo95": null, "conc_B_hi95": null, "conc_B_status": "unavailable", "conc_B_status_ru": "концентрация недоступна", "conc_B_reasons": "вне бассейна профиля: black_sea", "conc_B_model": "conc-B-c6bce5631d2b"}}, {"type": "Feature", "geometry": {"type": "Polygon", "coordinates": [[[44.69031753099061, 48.86963396439351], [44.69031808613877, 48.86954400749919], [44.69018172454457, 48.8695436411917], [44.69018283532151, 48.86936372740112], [44.690456112430375, 48.86927450295053], [44.690455557534904, 48.86936445985025], [44.69059191864573, 48.869364825832946], [44.69059080933541, 48.86954473963043], [44.69031753099061, 48.86963396439351]]]}, "properties": {"zone_id": "volgograd-2026-08-06-008", "aoi": "volgograd", "date": "2026-08-06", "scene_id": "S2C_MSIL2A_20260806T075611_R035_T38UMV_20260806T113012", "scene_datetime_utc": "2026-08-06T07:56:11.026000+00:00", "detection_status": "detected", "detection_status_ru": "обнаружено", "lon": 44.69039, "lat": 48.86945, "n_pixels": 2, "zone_area_km2": 0.0008, "cover_m2": 13.7, "p_mean": 0.698, "p_max": 0.847, "cover_m2_km2": 17125.0, "h3": "882d48a0a3fffff", "valid_frac_scene": 1.0, "wind_ms": 2.6, "sea": "спокойное", "scene_reliable": true, "field_event_id": "S4:DOORS3:T23", "field_profile": "B", "field_date": "2024-06-10", "field_distance_km": 765.8, "field_date_gap_days": 787, "field_conc_items_km2": 102.37, "conc_A_items_km2": null, "conc_A_lo80": null, "conc_A_hi80": null, "conc_A_lo95": null, "conc_A_hi95": null, "conc_A_status": "unavailable", "conc_A_status_ru": "концентрация недоступна", "conc_A_reasons": "вне бассейна профиля: nw_atlantic_subtropical", "conc_A_model": "conc-A-c6bce5631d2b", "conc_B_items_km2": null, "conc_B_lo80": null, "conc_B_hi80": null, "conc_B_lo95": null, "conc_B_hi95": null, "conc_B_status": "unavailable", "conc_B_status_ru": "концентрация недоступна", "conc_B_reasons": "вне бассейна профиля: black_sea", "conc_B_model": "conc-B-c6bce5631d2b"}}, {"type": "Feature", "geometry": {"type": "Polygon", "coordinates": [[[44.728808134268505, 48.862984034905345], [44.728808620303866, 48.862894077600025], [44.72853641884314, 48.86280347861975], [44.72853690536238, 48.862713521313616], [44.728673248863664, 48.86271384222999], [44.72867373513614, 48.862623884921426], [44.72894593587346, 48.862714483579076], [44.72894545008727, 48.86280444088823], [44.72908179384013, 48.86280476132196], [44.72908130829588, 48.862894718630706], [44.72894496429867, 48.862894398195984], [44.72894447850766, 48.862984355502306], [44.728808134268505, 48.862984034905345]]]}, "properties": {"zone_id": "volgograd-2026-08-06-009", "aoi": "volgograd", "date": "2026-08-06", "scene_id": "S2C_MSIL2A_20260806T075611_R035_T38UMV_20260806T113012", "scene_datetime_utc": "2026-08-06T07:56:11.026000+00:00", "detection_status": "detected", "detection_status_ru": "обнаружено", "lon": 44.72881, "lat": 48.8628, "n_pixels": 2, "zone_area_km2": 0.0008, "cover_m2": 200.0, "p_mean": 0.516, "p_max": 0.518, "cover_m2_km2": 250000.0, "h3": "882d48ae55fffff", "valid_frac_scene": 1.0, "wind_ms": 2.6, "sea": "спокойное", "scene_reliable": true, "field_event_id": "S4:DOORS3:T23", "field_profile": "B", "field_date": "2024-06-10", "field_distance_km": 766.1, "field_date_gap_days": 787, "field_conc_items_km2": 102.37, "conc_A_items_km2": null, "conc_A_lo80": null, "conc_A_hi80": null, "conc_A_lo95": null, "conc_A_hi95": null, "conc_A_status": "unavailable", "conc_A_status_ru": "концентрация недоступна", "conc_A_reasons": "вне бассейна профиля: nw_atlantic_subtropical", "conc_A_model": "conc-A-c6bce5631d2b", "conc_B_items_km2": null, "conc_B_lo80": null, "conc_B_hi80": null, "conc_B_lo95": null, "conc_B_hi95": null, "conc_B_status": "unavailable", "conc_B_status_ru": "концентрация недоступна", "conc_B_reasons": "вне бассейна профиля: black_sea", "conc_B_model": "conc-B-c6bce5631d2b"}}, {"type": "Feature", "geometry": {"type": "Polygon", "coordinates": [[[44.68342493417629, 48.859809773717934], [44.68342550148421, 48.85971981672877], [44.6832891666683, 48.8597194423257], [44.68328973421771, 48.85962948533631], [44.68356297042173, 48.85954027698572], [44.68356240336374, 48.8596302339789], [44.683698737940965, 48.8596306080584], [44.68369817112446, 48.85972056505132], [44.683561836302935, 48.85972019097065], [44.68356126923932, 48.85981014796099], [44.68342493417629, 48.859809773717934]]]}, "properties": {"zone_id": "volgograd-2026-08-06-010", "aoi": "volgograd", "date": "2026-08-06", "scene_id": "S2C_MSIL2A_20260806T075611_R035_T38UMV_20260806T113012", "scene_datetime_utc": "2026-08-06T07:56:11.026000+00:00", "detection_status": "detected", "detection_status_ru": "обнаружено", "lon": 44.68349, "lat": 48.85968, "n_pixels": 1, "zone_area_km2": 0.0005, "cover_m2": 8.2, "p_mean": 0.796, "p_max": 0.796, "cover_m2_km2": 16400.0, "h3": "882d48a0a7fffff", "valid_frac_scene": 1.0, "wind_ms": 2.6, "sea": "спокойное", "scene_reliable": true, "field_event_id": "S4:DOORS3:T23", "field_profile": "B", "field_date": "2024-06-10", "field_distance_km": 764.6, "field_date_gap_days": 787, "field_conc_items_km2": 102.37, "conc_A_items_km2": null, "conc_A_lo80": null, "conc_A_hi80": null, "conc_A_lo95": null, "conc_A_hi95": null, "conc_A_status": "unavailable", "conc_A_status_ru": "концентрация недоступна", "conc_A_reasons": "вне бассейна профиля: nw_atlantic_subtropical", "conc_A_model": "conc-A-c6bce5631d2b", "conc_B_items_km2": null, "conc_B_lo80": null, "conc_B_hi80": null, "conc_B_lo95": null, "conc_B_hi95": null, "conc_B_status": "unavailable", "conc_B_status_ru": "концентрация недоступна", "conc_B_reasons": "вне бассейна профиля: black_sea", "conc_B_model": "conc-B-c6bce5631d2b"}}, {"type": "Feature", "geometry": {"type": "Polygon", "coordinates": [[[44.6492257153115, 48.81769998939155], [44.64922634297418, 48.81761003205506], [44.649090122864386, 48.81760961747834], [44.649090750767684, 48.81751966014172], [44.64922697063374, 48.81752007471713], [44.649227598290196, 48.8174301173778], [44.64963625717581, 48.81743136013434], [44.64963563025056, 48.81752131747759], [44.64977185012904, 48.81752173140915], [44.64977122344441, 48.81761168875228], [44.649635003322196, 48.81761127481943], [44.64963437639073, 48.81770123215983], [44.6492257153115, 48.81769998939155]]]}, "properties": {"zone_id": "volgograd-2026-08-06-011", "aoi": "volgograd", "date": "2026-08-06", "scene_id": "S2C_MSIL2A_20260806T075611_R035_T38UMV_20260806T113012", "scene_datetime_utc": "2026-08-06T07:56:11.026000+00:00", "detection_status": "detected", "detection_status_ru": "обнаружено", "lon": 44.64943, "lat": 48.81757, "n_pixels": 3, "zone_area_km2": 0.0011, "cover_m2": 12.9, "p_mean": 0.729, "p_max": 0.851, "cover_m2_km2": 11727.3, "h3": "882d48a18dfffff", "valid_frac_scene": 1.0, "wind_ms": 2.6, "sea": "спокойное", "scene_reliable": true, "field_event_id": "S4:DOORS3:T23", "field_profile": "B", "field_date": "2024-06-10", "field_distance_km": 759.4, "field_date_gap_days": 787, "field_conc_items_km2": 102.37, "conc_A_items_km2": null, "conc_A_lo80": null, "conc_A_hi80": null, "conc_A_lo95": null, "conc_A_hi95": null, "conc_A_status": "unavailable", "conc_A_status_ru": "концентрация недоступна", "conc_A_reasons": "вне бассейна профиля: nw_atlantic_subtropical", "conc_A_model": "conc-A-c6bce5631d2b", "conc_B_items_km2": null, "conc_B_lo80": null, "conc_B_hi80": null, "conc_B_lo95": null, "conc_B_hi95": null, "conc_B_status": "unavailable", "conc_B_status_ru": "концентрация недоступна", "conc_B_reasons": "вне бассейна профиля: black_sea", "conc_B_model": "conc-B-c6bce5631d2b"}}, {"type": "Feature", "geometry": {"type": "Polygon", "coordinates": [[[44.581557453218814, 48.74802519282492], [44.581558200130885, 48.747935235109466], [44.581422169526085, 48.74793474109374], [44.581422916677255, 48.74784478337841], [44.58169572406686, 48.74775581352635], [44.58169497740497, 48.7478457712462], [44.58183100777436, 48.74784626493924], [44.58183026135157, 48.74793622265922], [44.58169423073938, 48.74793572896463], [44.5816934840701, 48.748025686681636], [44.581557453218814, 48.74802519282492]]]}, "properties": {"zone_id": "volgograd-2026-08-06-012", "aoi": "volgograd", "date": "2026-08-06", "scene_id": "S2C_MSIL2A_20260806T075611_R035_T38UMV_20260806T113012", "scene_datetime_utc": "2026-08-06T07:56:11.026000+00:00", "detection_status": "detected", "detection_status_ru": "обнаружено", "lon": 44.58163, "lat": 48.74789, "n_pixels": 1, "zone_area_km2": 0.0005, "cover_m2": 5.9, "p_mean": 0.831, "p_max": 0.831, "cover_m2_km2": 11800.0, "h3": "882d48aa57fffff", "valid_frac_scene": 1.0, "wind_ms": 2.6, "sea": "спокойное", "scene_reliable": true, "field_event_id": "S4:DOORS3:T23", "field_profile": "B", "field_date": "2024-06-10", "field_distance_km": 750.4, "field_date_gap_days": 787, "field_conc_items_km2": 102.37, "conc_A_items_km2": null, "conc_A_lo80": null, "conc_A_hi80": null, "conc_A_lo95": null, "conc_A_hi95": null, "conc_A_status": "unavailable", "conc_A_status_ru": "концентрация недоступна", "conc_A_reasons": "вне бассейна профиля: nw_atlantic_subtropical", "conc_A_model": "conc-A-c6bce5631d2b", "conc_B_items_km2": null, "conc_B_lo80": null, "conc_B_hi80": null, "conc_B_lo95": null, "conc_B_hi95": null, "conc_B_status": "unavailable", "conc_B_status_ru": "концентрация недоступна", "conc_B_reasons": "вне бассейна профиля: black_sea", "conc_B_model": "conc-B-c6bce5631d2b"}}]}