{"type": "FeatureCollection", "features": [{"type": "Feature", "geometry": {"type": "Polygon", "coordinates": [[[29.598882443067115, 60.03765500651288], [29.598875392198448, 60.037565306797866], [29.598696090163852, 60.03756883401497], [29.598689039824894, 60.03747913428555], [29.598868341374374, 60.03747560708114], [29.598861290594893, 60.0373859073627], [29.59922694433954, 60.03746855194312], [29.599233996133854, 60.037558251634465], [29.599054694188446, 60.03756177933769], [29.59906174554224, 60.037651479040015], [29.598882443067115, 60.03765500651288]]]}, "properties": {"zone_id": "neva-2025-09-29-001", "aoi": "neva", "date": "2025-09-29", "scene_id": "S2A_MSIL2A_20250929T093151_R136_T36VUM_20250929T111219", "scene_datetime_utc": "2025-09-29T09:31:51.024000+00:00", "detection_status": "detected", "detection_status_ru": "обнаружено", "lon": 29.59896, "lat": 60.03752, "n_pixels": 1, "zone_area_km2": 0.0005, "cover_m2": 5.1, "p_mean": 0.671, "p_max": 0.671, "cover_m2_km2": 10200.0, "h3": "88110695dbfffff", "valid_frac_scene": 0.996, "wind_ms": 4.8, "sea": "спокойное", "scene_reliable": true, "field_event_id": "S3:HE419_MarLitter_transect28", "field_profile": "B", "field_date": "2014-04-11", "field_distance_km": 1393.1, "field_date_gap_days": 4189, "field_conc_items_km2": 43.1, "conc_A_items_km2": null, "conc_A_lo80": null, "conc_A_hi80": null, "conc_A_lo95": null, "conc_A_hi95": null, "conc_A_status": "unavailable", "conc_A_status_ru": "концентрация недоступна", "conc_A_reasons": "вне бассейна профиля: nw_atlantic_subtropical", "conc_A_model": "conc-A-c6bce5631d2b", "conc_B_items_km2": null, "conc_B_lo80": null, "conc_B_hi80": null, "conc_B_lo95": null, "conc_B_hi95": null, "conc_B_status": "unavailable", "conc_B_status_ru": "концентрация недоступна", "conc_B_reasons": "вне бассейна профиля: black_sea", "conc_B_model": "conc-B-c6bce5631d2b"}}, {"type": "Feature", "geometry": {"type": "Polygon", "coordinates": [[[29.60841916373573, 60.00602342086459], [29.608412096020775, 60.00593372139631], [29.608046770383904, 60.0058510997419], [29.608039703726313, 60.005761400244715], [29.60821883224791, 60.00575786147103], [29.60821176515096, 60.005668161984836], [29.608928276854705, 60.005654004513474], [29.608935345887716, 60.00574370394874], [29.609114474186, 60.00574016396128], [29.609121543747705, 60.00582986338207], [29.608942414965398, 60.00583340338224], [29.608949484087752, 60.00592310281407], [29.608591225421105, 60.00593018211165], [29.608598293620073, 60.006019881567205], [29.60841916373573, 60.00602342086459]]]}, "properties": {"zone_id": "neva-2025-09-29-002", "aoi": "neva", "date": "2025-09-29", "scene_id": "S2A_MSIL2A_20250929T093151_R136_T36VUM_20250929T111219", "scene_datetime_utc": "2025-09-29T09:31:51.024000+00:00", "detection_status": "detected", "detection_status_ru": "обнаружено", "lon": 29.60856, "lat": 60.00581, "n_pixels": 5, "zone_area_km2": 0.0015, "cover_m2": 59.6, "p_mean": 0.885, "p_max": 0.996, "cover_m2_km2": 39733.3, "h3": "881106958dfffff", "valid_frac_scene": 0.996, "wind_ms": 4.8, "sea": "спокойное", "scene_reliable": true, "field_event_id": "S3:HE419_MarLitter_transect28", "field_profile": "B", "field_date": "2014-04-11", "field_distance_km": 1392.7, "field_date_gap_days": 4189, "field_conc_items_km2": 43.1, "conc_A_items_km2": null, "conc_A_lo80": null, "conc_A_hi80": null, "conc_A_lo95": null, "conc_A_hi95": null, "conc_A_status": "unavailable", "conc_A_status_ru": "концентрация недоступна", "conc_A_reasons": "вне бассейна профиля: nw_atlantic_subtropical", "conc_A_model": "conc-A-c6bce5631d2b", "conc_B_items_km2": null, "conc_B_lo80": null, "conc_B_hi80": null, "conc_B_lo95": null, "conc_B_hi95": null, "conc_B_status": "unavailable", "conc_B_status_ru": "концентрация недоступна", "conc_B_reasons": "вне бассейна профиля: black_sea", "conc_B_model": "conc-B-c6bce5631d2b"}}, {"type": "Feature", "geometry": {"type": "Polygon", "coordinates": [[[30.169683767521633, 59.97423760847836], [30.169675191407382, 59.97414795292751], [30.16949632212528, 59.974152251442504], [30.16948774654713, 59.97406259587425], [30.169666615347253, 59.97405829737471], [30.169658039341236, 59.973968641819944], [30.170015775815166, 59.97396004412532], [30.17002435278514, 59.974049699649214], [30.170203221422902, 59.97404540042322], [30.17021179892898, 59.974135055929686], [30.17003292980924, 59.974139355171104], [30.170041506887458, 59.974229010691054], [30.169683767521633, 59.97423760847836]]]}, "properties": {"zone_id": "neva-2025-09-29-003", "aoi": "neva", "date": "2025-09-29", "scene_id": "S2A_MSIL2A_20250929T093151_R136_T36VUM_20250929T111219", "scene_datetime_utc": "2025-09-29T09:31:51.024000+00:00", "detection_status": "detected", "detection_status_ru": "обнаружено", "lon": 30.16985, "lat": 59.9741, "n_pixels": 2, "zone_area_km2": 0.0008, "cover_m2": 11.0, "p_mean": 0.686, "p_max": 0.8, "cover_m2_km2": 13750.0, "h3": "8811061683fffff", "valid_frac_scene": 0.996, "wind_ms": 4.8, "sea": "спокойное", "scene_reliable": true, "field_event_id": "S3:HE419_MarLitter_transect28", "field_profile": "B", "field_date": "2014-04-11", "field_distance_km": 1422.2, "field_date_gap_days": 4189, "field_conc_items_km2": 43.1, "conc_A_items_km2": null, "conc_A_lo80": null, "conc_A_hi80": null, "conc_A_lo95": null, "conc_A_hi95": null, "conc_A_status": "unavailable", "conc_A_status_ru": "концентрация недоступна", "conc_A_reasons": "вне бассейна профиля: nw_atlantic_subtropical", "conc_A_model": "conc-A-c6bce5631d2b", "conc_B_items_km2": null, "conc_B_lo80": null, "conc_B_hi80": null, "conc_B_lo95": null, "conc_B_hi95": null, "conc_B_status": "unavailable", "conc_B_status_ru": "концентрация недоступна", "conc_B_reasons": "вне бассейна профиля: black_sea", "conc_B_model": "conc-B-c6bce5631d2b"}}, {"type": "Feature", "geometry": {"type": "Polygon", "coordinates": [[[30.00722165770453, 59.92242128981641], [30.00721353768239, 59.92233161983302], [30.00703491997513, 59.92233569612807], [30.0070186810454, 59.9221563561263], [30.007197297791617, 59.92215227986052], [30.007189177922978, 59.92206260987141], [30.00754641030086, 59.92205445664387], [30.007554531130527, 59.92214412660371], [30.007733147723226, 59.92214004961271], [30.00774939049714, 59.92231938949739], [30.007570772943392, 59.92232346651765], [30.007578893926592, 59.92241313647179], [30.00722165770453, 59.92242128981641]]]}, "properties": {"zone_id": "neva-2025-09-29-004", "aoi": "neva", "date": "2025-09-29", "scene_id": "S2A_MSIL2A_20250929T093151_R136_T36VUM_20250929T111219", "scene_datetime_utc": "2025-09-29T09:31:51.024000+00:00", "detection_status": "detected", "detection_status_ru": "обнаружено", "lon": 30.00738, "lat": 59.92224, "n_pixels": 4, "zone_area_km2": 0.0012, "cover_m2": 39.2, "p_mean": 0.983, "p_max": 0.996, "cover_m2_km2": 32666.7, "h3": "8811068ca5fffff", "valid_frac_scene": 0.996, "wind_ms": 4.8, "sea": "спокойное", "scene_reliable": true, "field_event_id": "S3:HE419_MarLitter_transect28", "field_profile": "B", "field_date": "2014-04-11", "field_distance_km": 1412.1, "field_date_gap_days": 4189, "field_conc_items_km2": 43.1, "conc_A_items_km2": null, "conc_A_lo80": null, "conc_A_hi80": null, "conc_A_lo95": null, "conc_A_hi95": null, "conc_A_status": "unavailable", "conc_A_status_ru": "концентрация недоступна", "conc_A_reasons": "вне бассейна профиля: nw_atlantic_subtropical", "conc_A_model": "conc-A-c6bce5631d2b", "conc_B_items_km2": null, "conc_B_lo80": null, "conc_B_hi80": null, "conc_B_lo95": null, "conc_B_hi95": null, "conc_B_status": "unavailable", "conc_B_status_ru": "концентрация недоступна", "conc_B_reasons": "вне бассейна профиля: black_sea", "conc_B_model": "conc-B-c6bce5631d2b"}}, {"type": "Feature", "geometry": {"type": "Polygon", "coordinates": [[[29.806749175344073, 59.91588214433254], [29.806741598176174, 59.915792458319316], [29.80656298385604, 59.91579626284262], [29.806555407216536, 59.91570657681394], [29.806734021056027, 59.915702772304286], [29.80672644398363, 59.915613086287465], [29.807091248591757, 59.915695162559665], [29.807098826673194, 59.91578484854737], [29.80692021244856, 59.91578865355423], [29.806927790097106, 59.91587833955379], [29.806749175344073, 59.91588214433254]]]}, "properties": {"zone_id": "neva-2025-09-29-005", "aoi": "neva", "date": "2025-09-29", "scene_id": "S2A_MSIL2A_20250929T093151_R136_T36VUM_20250929T111219", "scene_datetime_utc": "2025-09-29T09:31:51.024000+00:00", "detection_status": "detected", "detection_status_ru": "обнаружено", "lon": 29.80683, "lat": 59.91575, "n_pixels": 1, "zone_area_km2": 0.0005, "cover_m2": 3.1, "p_mean": 0.757, "p_max": 0.757, "cover_m2_km2": 6200.0, "h3": "8811068e0dfffff", "valid_frac_scene": 0.996, "wind_ms": 4.8, "sea": "спокойное", "scene_reliable": true, "field_event_id": "S3:HE419_MarLitter_transect28", "field_profile": "B", "field_date": "2014-04-11", "field_distance_km": 1401.0, "field_date_gap_days": 4189, "field_conc_items_km2": 43.1, "conc_A_items_km2": null, "conc_A_lo80": null, "conc_A_hi80": null, "conc_A_lo95": null, "conc_A_hi95": null, "conc_A_status": "unavailable", "conc_A_status_ru": "концентрация недоступна", "conc_A_reasons": "вне бассейна профиля: nw_atlantic_subtropical", "conc_A_model": "conc-A-c6bce5631d2b", "conc_B_items_km2": null, "conc_B_lo80": null, "conc_B_hi80": null, "conc_B_lo95": null, "conc_B_hi95": null, "conc_B_status": "unavailable", "conc_B_status_ru": "концентрация недоступна", "conc_B_reasons": "вне бассейна профиля: black_sea", "conc_B_model": "conc-B-c6bce5631d2b"}}, {"type": "Feature", "geometry": {"type": "Polygon", "coordinates": [[[29.819924385335156, 59.91299524965389], [29.819916773510894, 59.912905564615], [29.8197381767169, 59.91290938687353], [29.81973056542113, 59.91281970181909], [29.819909161734596, 59.9128158795743], [29.819901550006254, 59.912726194531814], [29.82026635421763, 59.91280823435951], [29.820273966954982, 59.912897919372746], [29.820095370256922, 59.91290174211476], [29.820102982561714, 59.912991427139886], [29.819924385335156, 59.91299524965389]]]}, "properties": {"zone_id": "neva-2025-09-29-006", "aoi": "neva", "date": "2025-09-29", "scene_id": "S2A_MSIL2A_20250929T093151_R136_T36VUM_20250929T111219", "scene_datetime_utc": "2025-09-29T09:31:51.024000+00:00", "detection_status": "detected", "detection_status_ru": "обнаружено", "lon": 29.82, "lat": 59.91286, "n_pixels": 1, "zone_area_km2": 0.0005, "cover_m2": 5.5, "p_mean": 0.851, "p_max": 0.851, "cover_m2_km2": 11000.0, "h3": "8811068e05fffff", "valid_frac_scene": 0.996, "wind_ms": 4.8, "sea": "спокойное", "scene_reliable": true, "field_event_id": "S3:HE419_MarLitter_transect28", "field_profile": "B", "field_date": "2014-04-11", "field_distance_km": 1401.7, "field_date_gap_days": 4189, "field_conc_items_km2": 43.1, "conc_A_items_km2": null, "conc_A_lo80": null, "conc_A_hi80": null, "conc_A_lo95": null, "conc_A_hi95": null, "conc_A_status": "unavailable", "conc_A_status_ru": "концентрация недоступна", "conc_A_reasons": "вне бассейна профиля: nw_atlantic_subtropical", "conc_A_model": "conc-A-c6bce5631d2b", "conc_B_items_km2": null, "conc_B_lo80": null, "conc_B_hi80": null, "conc_B_lo95": null, "conc_B_hi95": null, "conc_B_status": "unavailable", "conc_B_status_ru": "концентрация недоступна", "conc_B_reasons": "вне бассейна профиля: black_sea", "conc_B_model": "conc-B-c6bce5631d2b"}}, {"type": "Feature", "geometry": {"type": "Polygon", "coordinates": [[[29.821348984315215, 59.91080839985608], [29.821341369317842, 59.91071871489714], [29.821162784487353, 59.91072253900185], [29.82115517001841, 59.910632854027384], [29.821333754368457, 59.91062902993643], [29.821326139467047, 59.910539344973856], [29.8216909229246, 59.91062138102931], [29.821698538834884, 59.91071106596258], [29.82151995410036, 59.91071489055073], [29.821527569578176, 59.91080457549591], [29.821348984315215, 59.91080839985608]]]}, "properties": {"zone_id": "neva-2025-09-29-007", "aoi": "neva", "date": "2025-09-29", "scene_id": "S2A_MSIL2A_20250929T093151_R136_T36VUM_20250929T111219", "scene_datetime_utc": "2025-09-29T09:31:51.024000+00:00", "detection_status": "detected", "detection_status_ru": "обнаружено", "lon": 29.82143, "lat": 59.91067, "n_pixels": 1, "zone_area_km2": 0.0005, "cover_m2": 5.1, "p_mean": 0.906, "p_max": 0.906, "cover_m2_km2": 10200.0, "h3": "8811068e29fffff", "valid_frac_scene": 0.996, "wind_ms": 4.8, "sea": "спокойное", "scene_reliable": true, "field_event_id": "S3:HE419_MarLitter_transect28", "field_profile": "B", "field_date": "2014-04-11", "field_distance_km": 1401.7, "field_date_gap_days": 4189, "field_conc_items_km2": 43.1, "conc_A_items_km2": null, "conc_A_lo80": null, "conc_A_hi80": null, "conc_A_lo95": null, "conc_A_hi95": null, "conc_A_status": "unavailable", "conc_A_status_ru": "концентрация недоступна", "conc_A_reasons": "вне бассейна профиля: nw_atlantic_subtropical", "conc_A_model": "conc-A-c6bce5631d2b", "conc_B_items_km2": null, "conc_B_lo80": null, "conc_B_hi80": null, "conc_B_lo95": null, "conc_B_hi95": null, "conc_B_status": "unavailable", "conc_B_status_ru": "концентрация недоступна", "conc_B_reasons": "вне бассейна профиля: black_sea", "conc_B_model": "conc-B-c6bce5631d2b"}}, {"type": "Feature", "geometry": {"type": "Polygon", "coordinates": [[[30.093185692941397, 59.869121707792075], [30.09317735888679, 59.86903204425023], [30.092999041319025, 59.86903623473539], [30.09299070779543, 59.868946571176565], [30.093169024884624, 59.86894238070645], [30.093160690934887, 59.86885271716073], [30.092982374324272, 59.86885690761583], [30.092974040905542, 59.868767244053124], [30.093152357037592, 59.86876305361306], [30.093144023192725, 59.86867339006349], [30.093508989144386, 59.86875467200945], [30.093517323998825, 59.86884433552706], [30.09333900749308, 59.86884852646448], [30.09334734192138, 59.86893818999517], [30.093525658905698, 59.86893399904272], [30.09353399386502, 59.869023662556444], [30.093185692941397, 59.869121707792075]]]}, "properties": {"zone_id": "neva-2025-09-29-008", "aoi": "neva", "date": "2025-09-29", "scene_id": "S2A_MSIL2A_20250929T093151_R136_T36VUM_20250929T111219", "scene_datetime_utc": "2025-09-29T09:31:51.024000+00:00", "detection_status": "detected", "detection_status_ru": "обнаружено", "lon": 30.09325, "lat": 59.8689, "n_pixels": 2, "zone_area_km2": 0.0009, "cover_m2": 5.5, "p_mean": 0.863, "p_max": 0.992, "cover_m2_km2": 6111.1, "h3": "881106170dfffff", "valid_frac_scene": 0.996, "wind_ms": 4.8, "sea": "спокойное", "scene_reliable": true, "field_event_id": "S3:HE419_MarLitter_transect28", "field_profile": "B", "field_date": "2014-04-11", "field_distance_km": 1415.4, "field_date_gap_days": 4189, "field_conc_items_km2": 43.1, "conc_A_items_km2": null, "conc_A_lo80": null, "conc_A_hi80": null, "conc_A_lo95": null, "conc_A_hi95": null, "conc_A_status": "unavailable", "conc_A_status_ru": "концентрация недоступна", "conc_A_reasons": "вне бассейна профиля: nw_atlantic_subtropical", "conc_A_model": "conc-A-c6bce5631d2b", "conc_B_items_km2": null, "conc_B_lo80": null, "conc_B_hi80": null, "conc_B_lo95": null, "conc_B_hi95": null, "conc_B_status": "unavailable", "conc_B_status_ru": "концентрация недоступна", "conc_B_reasons": "вне бассейна профиля: black_sea", "conc_B_model": "conc-B-c6bce5631d2b"}}, {"type": "Feature", "geometry": {"type": "Polygon", "coordinates": [[[30.102408006173363, 59.86836549286454], [30.10239964754884, 59.86827583009372], [30.10222133558294, 59.868280033029244], [30.102212977489536, 59.86819037024141], [30.102391288976904, 59.868186167320964], [30.10238293045755, 59.868096504546266], [30.1025612414138, 59.86809230139972], [30.102552882468515, 59.868002638638146], [30.10291786316853, 59.868083894383176], [30.102926223123465, 59.868173557112655], [30.102747911793873, 59.86817776075659], [30.10275627132287, 59.8682674234992], [30.102408006173363, 59.86836549286454]]]}, "properties": {"zone_id": "neva-2025-09-29-009", "aoi": "neva", "date": "2025-09-29", "scene_id": "S2A_MSIL2A_20250929T093151_R136_T36VUM_20250929T111219", "scene_datetime_utc": "2025-09-29T09:31:51.024000+00:00", "detection_status": "detected", "detection_status_ru": "обнаружено", "lon": 30.10257, "lat": 59.86818, "n_pixels": 2, "zone_area_km2": 0.0008, "cover_m2": 9.4, "p_mean": 0.959, "p_max": 0.973, "cover_m2_km2": 11750.0, "h3": "8811061705fffff", "valid_frac_scene": 0.996, "wind_ms": 4.8, "sea": "спокойное", "scene_reliable": true, "field_event_id": "S3:HE419_MarLitter_transect28", "field_profile": "B", "field_date": "2014-04-11", "field_distance_km": 1415.9, "field_date_gap_days": 4189, "field_conc_items_km2": 43.1, "conc_A_items_km2": null, "conc_A_lo80": null, "conc_A_hi80": null, "conc_A_lo95": null, "conc_A_hi95": null, "conc_A_status": "unavailable", "conc_A_status_ru": "концентрация недоступна", "conc_A_reasons": "вне бассейна профиля: nw_atlantic_subtropical", "conc_A_model": "conc-A-c6bce5631d2b", "conc_B_items_km2": null, "conc_B_lo80": null, "conc_B_hi80": null, "conc_B_lo95": null, "conc_B_hi95": null, "conc_B_status": "unavailable", "conc_B_status_ru": "концентрация недоступна", "conc_B_reasons": "вне бассейна профиля: black_sea", "conc_B_model": "conc-B-c6bce5631d2b"}}, {"type": "Feature", "geometry": {"type": "Polygon", "coordinates": [[[30.108378477032794, 59.867236164111155], [30.10837010271786, 59.86714650183197], [30.108191797805173, 59.86715071280076], [30.108183424021405, 59.86706105050451], [30.108361728455613, 59.867056839550834], [30.108353354246045, 59.86696717726775], [30.108718337165964, 59.86704841692002], [30.108726712385184, 59.867138079170964], [30.108548407577867, 59.86714229062204], [30.108556782371288, 59.867231952886115], [30.108378477032794, 59.867236164111155]]]}, "properties": {"zone_id": "neva-2025-09-29-010", "aoi": "neva", "date": "2025-09-29", "scene_id": "S2A_MSIL2A_20250929T093151_R136_T36VUM_20250929T111219", "scene_datetime_utc": "2025-09-29T09:31:51.024000+00:00", "detection_status": "detected", "detection_status_ru": "обнаружено", "lon": 30.10846, "lat": 59.8671, "n_pixels": 1, "zone_area_km2": 0.0005, "cover_m2": 3.9, "p_mean": 0.996, "p_max": 0.996, "cover_m2_km2": 7800.0, "h3": "8811061705fffff", "valid_frac_scene": 0.996, "wind_ms": 4.8, "sea": "спокойное", "scene_reliable": true, "field_event_id": "S3:HE419_MarLitter_transect28", "field_profile": "B", "field_date": "2014-04-11", "field_distance_km": 1416.2, "field_date_gap_days": 4189, "field_conc_items_km2": 43.1, "conc_A_items_km2": null, "conc_A_lo80": null, "conc_A_hi80": null, "conc_A_lo95": null, "conc_A_hi95": null, "conc_A_status": "unavailable", "conc_A_status_ru": "концентрация недоступна", "conc_A_reasons": "вне бассейна профиля: nw_atlantic_subtropical", "conc_A_model": "conc-A-c6bce5631d2b", "conc_B_items_km2": null, "conc_B_lo80": null, "conc_B_hi80": null, "conc_B_lo95": null, "conc_B_hi95": null, "conc_B_status": "unavailable", "conc_B_status_ru": "концентрация недоступна", "conc_B_reasons": "вне бассейна профиля: black_sea", "conc_B_model": "conc-B-c6bce5631d2b"}}, {"type": "Feature", "geometry": {"type": "Polygon", "coordinates": [[[30.12821218519518, 59.86721554892017], [30.12820375750589, 59.86712588833229], [30.1280254560673, 59.86713012614342], [30.128008601804666, 59.86695080493141], [30.128186902286366, 59.86694656715066], [30.12817847475613, 59.866856906556926], [30.128543503090718, 59.86693809086577], [30.12856036022402, 59.867117411986605], [30.12821218519518, 59.86721554892017]]]}, "properties": {"zone_id": "neva-2025-09-29-011", "aoi": "neva", "date": "2025-09-29", "scene_id": "S2A_MSIL2A_20250929T093151_R136_T36VUM_20250929T111219", "scene_datetime_utc": "2025-09-29T09:31:51.024000+00:00", "detection_status": "detected", "detection_status_ru": "обнаружено", "lon": 30.12828, "lat": 59.86703, "n_pixels": 2, "zone_area_km2": 0.0008, "cover_m2": 7.5, "p_mean": 0.773, "p_max": 0.792, "cover_m2_km2": 9375.0, "h3": "881106173dfffff", "valid_frac_scene": 0.996, "wind_ms": 4.8, "sea": "спокойное", "scene_reliable": true, "field_event_id": "S3:HE419_MarLitter_transect28", "field_profile": "B", "field_date": "2014-04-11", "field_distance_km": 1417.2, "field_date_gap_days": 4189, "field_conc_items_km2": 43.1, "conc_A_items_km2": null, "conc_A_lo80": null, "conc_A_hi80": null, "conc_A_lo95": null, "conc_A_hi95": null, "conc_A_status": "unavailable", "conc_A_status_ru": "концентрация недоступна", "conc_A_reasons": "вне бассейна профиля: nw_atlantic_subtropical", "conc_A_model": "conc-A-c6bce5631d2b", "conc_B_items_km2": null, "conc_B_lo80": null, "conc_B_hi80": null, "conc_B_lo95": null, "conc_B_hi95": null, "conc_B_status": "unavailable", "conc_B_status_ru": "концентрация недоступна", "conc_B_reasons": "вне бассейна профиля: black_sea", "conc_B_model": "conc-B-c6bce5631d2b"}}]}