{"type": "FeatureCollection", "features": [{"type": "Feature", "geometry": {"type": "Polygon", "coordinates": [[[29.87369196966425, 60.06080360635296], [29.873684166546006, 60.06071392752264], [29.87331759150179, 60.06063205001855], [29.87330978945321, 60.06054237115643], [29.873489174980108, 60.06053847062803], [29.873481372495444, 60.060448791778114], [29.873840142430204, 60.06044099001992], [29.873847945885785, 60.060530668841736], [29.87402733126456, 60.060526767583845], [29.87404293929477, 60.06070612519385], [29.87369196966425, 60.06080360635296]]]}, "properties": {"zone_id": "neva-2026-07-11-001", "aoi": "neva", "date": "2026-07-11", "scene_id": "S2C_MSIL2A_20260711T092031_R093_T36VUM_20260711T125414", "scene_datetime_utc": "2026-07-11T09:20:31.025000+00:00", "detection_status": "detected", "detection_status_ru": "обнаружено", "lon": 29.8737, "lat": 60.06061, "n_pixels": 3, "zone_area_km2": 0.001, "cover_m2": 12.9, "p_mean": 0.776, "p_max": 0.984, "cover_m2_km2": 12900.0, "h3": "88110684abfffff", "valid_frac_scene": 0.747, "wind_ms": 5.8, "sea": "спокойное", "scene_reliable": true, "field_event_id": "S3:HE419_MarLitter_transect28", "field_profile": "B", "field_date": "2014-04-11", "field_distance_km": 1408.5, "field_date_gap_days": 4474, "field_conc_items_km2": 43.1, "conc_A_items_km2": null, "conc_A_lo80": null, "conc_A_hi80": null, "conc_A_lo95": null, "conc_A_hi95": null, "conc_A_status": "unavailable", "conc_A_status_ru": "концентрация недоступна", "conc_A_reasons": "вне бассейна профиля: nw_atlantic_subtropical", "conc_A_model": "conc-A-c6bce5631d2b", "conc_B_items_km2": null, "conc_B_lo80": null, "conc_B_hi80": null, "conc_B_lo95": null, "conc_B_hi95": null, "conc_B_status": "unavailable", "conc_B_status_ru": "концентрация недоступна", "conc_B_reasons": "вне бассейна профиля: black_sea", "conc_B_model": "conc-B-c6bce5631d2b"}}, {"type": "Feature", "geometry": {"type": "Polygon", "coordinates": [[[29.643254974243877, 60.02662268224948], [29.64324780626158, 60.02653298556506], [29.64306857034919, 60.02653657257238], [29.64305423548989, 60.026357179172464], [29.64323347043294, 60.02635359219095], [29.6432263025866, 60.0262638955013], [29.643591940183086, 60.026346417499134], [29.643606277950393, 60.026525810821596], [29.643254974243877, 60.02662268224948]]]}, "properties": {"zone_id": "neva-2026-07-11-002", "aoi": "neva", "date": "2026-07-11", "scene_id": "S2C_MSIL2A_20260711T092031_R093_T36VUM_20260711T125414", "scene_datetime_utc": "2026-07-11T09:20:31.025000+00:00", "detection_status": "detected", "detection_status_ru": "обнаружено", "lon": 29.64333, "lat": 60.02644, "n_pixels": 2, "zone_area_km2": 0.0008, "cover_m2": 4.7, "p_mean": 0.773, "p_max": 0.918, "cover_m2_km2": 5875.0, "h3": "8811069597fffff", "valid_frac_scene": 0.747, "wind_ms": 5.8, "sea": "спокойное", "scene_reliable": true, "field_event_id": "S3:HE419_MarLitter_transect28", "field_profile": "B", "field_date": "2014-04-11", "field_distance_km": 1395.2, "field_date_gap_days": 4474, "field_conc_items_km2": 43.1, "conc_A_items_km2": null, "conc_A_lo80": null, "conc_A_hi80": null, "conc_A_lo95": null, "conc_A_hi95": null, "conc_A_status": "unavailable", "conc_A_status_ru": "концентрация недоступна", "conc_A_reasons": "вне бассейна профиля: nw_atlantic_subtropical", "conc_A_model": "conc-A-c6bce5631d2b", "conc_B_items_km2": null, "conc_B_lo80": null, "conc_B_hi80": null, "conc_B_lo95": null, "conc_B_hi95": null, "conc_B_status": "unavailable", "conc_B_status_ru": "концентрация недоступна", "conc_B_reasons": "вне бассейна профиля: black_sea", "conc_B_model": "conc-B-c6bce5631d2b"}}, {"type": "Feature", "geometry": {"type": "Polygon", "coordinates": [[[29.725737929849814, 59.98837982919304], [29.725730549728244, 59.988290138042466], [29.725551532709794, 59.98829383550037], [29.72553677357293, 59.988114453167235], [29.725715789624903, 59.9881107557359], [29.72570840964315, 59.98802106457999], [29.72606644064082, 59.98801366901638], [29.726073821589036, 59.98810336014571], [29.726252837501182, 59.98809966198682], [29.726267600503913, 59.98827904421358], [29.726088583625298, 59.988282742399065], [29.726095964713352, 59.98837243352306], [29.725737929849814, 59.98837982919304]]]}, "properties": {"zone_id": "neva-2026-07-11-003", "aoi": "neva", "date": "2026-07-11", "scene_id": "S2C_MSIL2A_20260711T092031_R093_T36VUM_20260711T125414", "scene_datetime_utc": "2026-07-11T09:20:31.025000+00:00", "detection_status": "detected", "detection_status_ru": "обнаружено", "lon": 29.7259, "lat": 59.9882, "n_pixels": 4, "zone_area_km2": 0.0012, "cover_m2": 21.2, "p_mean": 0.889, "p_max": 0.996, "cover_m2_km2": 17666.7, "h3": "881106872bfffff", "valid_frac_scene": 0.747, "wind_ms": 5.8, "sea": "спокойное", "scene_reliable": true, "field_event_id": "S3:HE419_MarLitter_transect28", "field_profile": "B", "field_date": "2014-04-11", "field_distance_km": 1398.6, "field_date_gap_days": 4474, "field_conc_items_km2": 43.1, "conc_A_items_km2": null, "conc_A_lo80": null, "conc_A_hi80": null, "conc_A_lo95": null, "conc_A_hi95": null, "conc_A_status": "unavailable", "conc_A_status_ru": "концентрация недоступна", "conc_A_reasons": "вне бассейна профиля: nw_atlantic_subtropical", "conc_A_model": "conc-A-c6bce5631d2b", "conc_B_items_km2": null, "conc_B_lo80": null, "conc_B_hi80": null, "conc_B_lo95": null, "conc_B_hi95": null, "conc_B_status": "unavailable", "conc_B_status_ru": "концентрация недоступна", "conc_B_reasons": "вне бассейна профиля: black_sea", "conc_B_model": "conc-B-c6bce5631d2b"}}, {"type": "Feature", "geometry": {"type": "Polygon", "coordinates": [[[30.155299269325585, 59.983209168575236], [30.155290729009128, 59.9831195119029], [30.1551118088498, 59.98312379131108], [30.155094729343226, 59.98294447792977], [30.15527364853793, 59.98294019855238], [30.155265108383183, 59.98285054187415], [30.155631486765614, 59.982931639070834], [30.15564856916606, 59.98311095235985], [30.155299269325585, 59.983209168575236]]]}, "properties": {"zone_id": "neva-2026-07-11-004", "aoi": "neva", "date": "2026-07-11", "scene_id": "S2C_MSIL2A_20260711T092031_R093_T36VUM_20260711T125414", "scene_datetime_utc": "2026-07-11T09:20:31.025000+00:00", "detection_status": "detected", "detection_status_ru": "обнаружено", "lon": 30.15537, "lat": 59.98303, "n_pixels": 2, "zone_area_km2": 0.0008, "cover_m2": 8.2, "p_mean": 0.769, "p_max": 0.965, "cover_m2_km2": 10250.0, "h3": "88110616d7fffff", "valid_frac_scene": 0.747, "wind_ms": 5.8, "sea": "спокойное", "scene_reliable": true, "field_event_id": "S3:HE419_MarLitter_transect28", "field_profile": "B", "field_date": "2014-04-11", "field_distance_km": 1421.7, "field_date_gap_days": 4474, "field_conc_items_km2": 43.1, "conc_A_items_km2": null, "conc_A_lo80": null, "conc_A_hi80": null, "conc_A_lo95": null, "conc_A_hi95": null, "conc_A_status": "unavailable", "conc_A_status_ru": "концентрация недоступна", "conc_A_reasons": "вне бассейна профиля: nw_atlantic_subtropical", "conc_A_model": "conc-A-c6bce5631d2b", "conc_B_items_km2": null, "conc_B_lo80": null, "conc_B_hi80": null, "conc_B_lo95": null, "conc_B_hi95": null, "conc_B_status": "unavailable", "conc_B_status_ru": "концентрация недоступна", "conc_B_reasons": "вне бассейна профиля: black_sea", "conc_B_model": "conc-B-c6bce5631d2b"}}, {"type": "Feature", "geometry": {"type": "Polygon", "coordinates": [[[29.881557897222375, 59.98201424117947], [29.881550097551614, 59.98192456189134], [29.881371138744225, 59.98192847030546], [29.88134774147568, 59.98165943238785], [29.881697856188136, 59.9815619361201], [29.881705656144682, 59.98165161540155], [29.88188461340532, 59.981647706544834], [29.881892413893862, 59.9817373858104], [29.882071371588008, 59.98173347669723], [29.88207917260855, 59.981823155946884], [29.881900214431653, 59.98182706507411], [29.881908015018688, 59.98191674433597], [29.881557897222375, 59.98201424117947]]]}, "properties": {"zone_id": "neva-2026-07-11-005", "aoi": "neva", "date": "2026-07-11", "scene_id": "S2C_MSIL2A_20260711T092031_R093_T36VUM_20260711T125414", "scene_datetime_utc": "2026-07-11T09:20:31.025000+00:00", "detection_status": "detected", "detection_status_ru": "обнаружено", "lon": 29.88167, "lat": 59.98179, "n_pixels": 4, "zone_area_km2": 0.0012, "cover_m2": 24.3, "p_mean": 0.922, "p_max": 0.996, "cover_m2_km2": 20250.0, "h3": "8811068ed1fffff", "valid_frac_scene": 0.747, "wind_ms": 5.8, "sea": "спокойное", "scene_reliable": true, "field_event_id": "S3:HE419_MarLitter_transect28", "field_profile": "B", "field_date": "2014-04-11", "field_distance_km": 1406.8, "field_date_gap_days": 4474, "field_conc_items_km2": 43.1, "conc_A_items_km2": null, "conc_A_lo80": null, "conc_A_hi80": null, "conc_A_lo95": null, "conc_A_hi95": null, "conc_A_status": "unavailable", "conc_A_status_ru": "концентрация недоступна", "conc_A_reasons": "вне бассейна профиля: nw_atlantic_subtropical", "conc_A_model": "conc-A-c6bce5631d2b", "conc_B_items_km2": null, "conc_B_lo80": null, "conc_B_hi80": null, "conc_B_lo95": null, "conc_B_hi95": null, "conc_B_status": "unavailable", "conc_B_status_ru": "концентрация недоступна", "conc_B_reasons": "вне бассейна профиля: black_sea", "conc_B_model": "conc-B-c6bce5631d2b"}}, {"type": "Feature", "geometry": {"type": "Polygon", "coordinates": [[[29.70713542861974, 59.97798159416021], [29.707128101894618, 59.97789190148512], [29.706949138248593, 59.97789557334762], [29.706941812052637, 59.97780588065752], [29.70712077521575, 59.97780220880822], [29.707113448583144, 59.97771251612959], [29.7074787014032, 59.97779486438234], [29.707486029047896, 59.97788455703283], [29.707307065494387, 59.9778882293802], [29.707314392702425, 59.9779779220421], [29.70713542861974, 59.97798159416021]]]}, "properties": {"zone_id": "neva-2026-07-11-006", "aoi": "neva", "date": "2026-07-11", "scene_id": "S2C_MSIL2A_20260711T092031_R093_T36VUM_20260711T125414", "scene_datetime_utc": "2026-07-11T09:20:31.025000+00:00", "detection_status": "detected", "detection_status_ru": "обнаружено", "lon": 29.70721, "lat": 59.97785, "n_pixels": 1, "zone_area_km2": 0.0005, "cover_m2": 6.3, "p_mean": 0.941, "p_max": 0.941, "cover_m2_km2": 12600.0, "h3": "8811068729fffff", "valid_frac_scene": 0.747, "wind_ms": 5.8, "sea": "спокойное", "scene_reliable": true, "field_event_id": "S3:HE419_MarLitter_transect28", "field_profile": "B", "field_date": "2014-04-11", "field_distance_km": 1397.3, "field_date_gap_days": 4474, "field_conc_items_km2": 43.1, "conc_A_items_km2": null, "conc_A_lo80": null, "conc_A_hi80": null, "conc_A_lo95": null, "conc_A_hi95": null, "conc_A_status": "unavailable", "conc_A_status_ru": "концентрация недоступна", "conc_A_reasons": "вне бассейна профиля: nw_atlantic_subtropical", "conc_A_model": "conc-A-c6bce5631d2b", "conc_B_items_km2": null, "conc_B_lo80": null, "conc_B_hi80": null, "conc_B_lo95": null, "conc_B_hi95": null, "conc_B_status": "unavailable", "conc_B_status_ru": "концентрация недоступна", "conc_B_reasons": "вне бассейна профиля: black_sea", "conc_B_model": "conc-B-c6bce5631d2b"}}, {"type": "Feature", "geometry": {"type": "Polygon", "coordinates": [[[29.99562818624785, 59.97246479766605], [29.995620081207367, 59.972375127415816], [29.9954411922098, 59.972379190031006], [29.9954330877027, 59.97228951976429], [29.995611976218026, 59.97228545716369], [29.995603871279844, 59.97219578690967], [29.995782759261783, 59.97219172408145], [29.995774653892507, 59.97210205384014], [29.996132428738466, 59.97209392748622], [29.996140535072204, 59.97218359769831], [29.996319422900683, 59.97217953414341], [29.996327529767807, 59.97226920433901], [29.9961486414571, 59.97227326790852], [29.996156747893153, 59.97236293811684], [29.99579897015378, 59.97237106455839], [29.99580707567651, 59.972460734794], [29.99562818624785, 59.97246479766605]]]}, "properties": {"zone_id": "neva-2026-07-11-007", "aoi": "neva", "date": "2026-07-11", "scene_id": "S2C_MSIL2A_20260711T092031_R093_T36VUM_20260711T125414", "scene_datetime_utc": "2026-07-11T09:20:31.025000+00:00", "detection_status": "detected", "detection_status_ru": "обнаружено", "lon": 29.99588, "lat": 59.97226, "n_pixels": 3, "zone_area_km2": 0.0011, "cover_m2": 24.3, "p_mean": 0.973, "p_max": 1.0, "cover_m2_km2": 22090.9, "h3": "881106bb25fffff", "valid_frac_scene": 0.747, "wind_ms": 5.8, "sea": "спокойное", "scene_reliable": true, "field_event_id": "S3:HE419_MarLitter_transect28", "field_profile": "B", "field_date": "2014-04-11", "field_distance_km": 1412.8, "field_date_gap_days": 4474, "field_conc_items_km2": 43.1, "conc_A_items_km2": null, "conc_A_lo80": null, "conc_A_hi80": null, "conc_A_lo95": null, "conc_A_hi95": null, "conc_A_status": "unavailable", "conc_A_status_ru": "концентрация недоступна", "conc_A_reasons": "вне бассейна профиля: nw_atlantic_subtropical", "conc_A_model": "conc-A-c6bce5631d2b", "conc_B_items_km2": null, "conc_B_lo80": null, "conc_B_hi80": null, "conc_B_lo95": null, "conc_B_hi95": null, "conc_B_status": "unavailable", "conc_B_status_ru": "концентрация недоступна", "conc_B_reasons": "вне бассейна профиля: black_sea", "conc_B_model": "conc-B-c6bce5631d2b"}}, {"type": "Feature", "geometry": {"type": "Polygon", "coordinates": [[[30.13652470949631, 59.97242436734848], [30.13651622362859, 59.972334708913266], [30.136337358419357, 59.972338962427344], [30.13632038780851, 59.97215964552049], [30.136499252053788, 59.972155392036974], [30.136490766346704, 59.97206573359591], [30.136856980383698, 59.97214688434351], [30.136873953886425, 59.972326201158644], [30.13652470949631, 59.97242436734848]]]}, "properties": {"zone_id": "neva-2026-07-11-008", "aoi": "neva", "date": "2026-07-11", "scene_id": "S2C_MSIL2A_20260711T092031_R093_T36VUM_20260711T125414", "scene_datetime_utc": "2026-07-11T09:20:31.025000+00:00", "detection_status": "detected", "detection_status_ru": "обнаружено", "lon": 30.1366, "lat": 59.97224, "n_pixels": 2, "zone_area_km2": 0.0008, "cover_m2": 9.0, "p_mean": 0.745, "p_max": 0.816, "cover_m2_km2": 11250.0, "h3": "88110616c3fffff", "valid_frac_scene": 0.747, "wind_ms": 5.8, "sea": "спокойное", "scene_reliable": true, "field_event_id": "S3:HE419_MarLitter_transect28", "field_profile": "B", "field_date": "2014-04-11", "field_distance_km": 1420.4, "field_date_gap_days": 4474, "field_conc_items_km2": 43.1, "conc_A_items_km2": null, "conc_A_lo80": null, "conc_A_hi80": null, "conc_A_lo95": null, "conc_A_hi95": null, "conc_A_status": "unavailable", "conc_A_status_ru": "концентрация недоступна", "conc_A_reasons": "вне бассейна профиля: nw_atlantic_subtropical", "conc_A_model": "conc-A-c6bce5631d2b", "conc_B_items_km2": null, "conc_B_lo80": null, "conc_B_hi80": null, "conc_B_lo95": null, "conc_B_hi95": null, "conc_B_status": "unavailable", "conc_B_status_ru": "концентрация недоступна", "conc_B_reasons": "вне бассейна профиля: black_sea", "conc_B_model": "conc-B-c6bce5631d2b"}}, {"type": "Feature", "geometry": {"type": "Polygon", "coordinates": [[[30.01917579932775, 59.97120905771649], [30.01916763104766, 59.97111938938604], [30.018988752685413, 59.971123483856545], [30.01897241724418, 59.97094414716047], [30.019151294642125, 59.9709400527194], [30.019143126516667, 59.970850384383255], [30.01950904928337, 59.97093186311065], [30.01951721842467, 59.971021531415474], [30.019696096150117, 59.97101743623307], [30.019704265825126, 59.97110710452131], [30.019525387617527, 59.971111199718415], [30.019533556861926, 59.97120086801944], [30.01917579932775, 59.97120905771649]]]}, "properties": {"zone_id": "neva-2026-07-11-009", "aoi": "neva", "date": "2026-07-11", "scene_id": "S2C_MSIL2A_20260711T092031_R093_T36VUM_20260711T125414", "scene_datetime_utc": "2026-07-11T09:20:31.025000+00:00", "detection_status": "detected", "detection_status_ru": "обнаружено", "lon": 30.01931, "lat": 59.97104, "n_pixels": 3, "zone_area_km2": 0.001, "cover_m2": 9.8, "p_mean": 0.937, "p_max": 0.996, "cover_m2_km2": 9800.0, "h3": "8811068c93fffff", "valid_frac_scene": 0.747, "wind_ms": 5.8, "sea": "спокойное", "scene_reliable": true, "field_event_id": "S3:HE419_MarLitter_transect28", "field_profile": "B", "field_date": "2014-04-11", "field_distance_km": 1414.0, "field_date_gap_days": 4474, "field_conc_items_km2": 43.1, "conc_A_items_km2": null, "conc_A_lo80": null, "conc_A_hi80": null, "conc_A_lo95": null, "conc_A_hi95": null, "conc_A_status": "unavailable", "conc_A_status_ru": "концентрация недоступна", "conc_A_reasons": "вне бассейна профиля: nw_atlantic_subtropical", "conc_A_model": "conc-A-c6bce5631d2b", "conc_B_items_km2": null, "conc_B_lo80": null, "conc_B_hi80": null, "conc_B_lo95": null, "conc_B_hi95": null, "conc_B_status": "unavailable", "conc_B_status_ru": "концентрация недоступна", "conc_B_reasons": "вне бассейна профиля: black_sea", "conc_B_model": "conc-B-c6bce5631d2b"}}, {"type": "Feature", "geometry": {"type": "Polygon", "coordinates": [[[30.123094162822845, 59.970676304000925], [30.12308571384968, 59.970586644392135], [30.122906855772076, 59.97059087963671], [30.122898407334166, 59.97050122001078], [30.12307726492981, 59.970496984781406], [30.123068816063263, 59.97040732516872], [30.12342653013074, 59.970398854013986], [30.123434979961175, 59.970488513596244], [30.12361383739688, 59.970484277640445], [30.123622287762586, 59.97057393720551], [30.123443429844933, 59.97057817317653], [30.123451879782014, 59.97066783275489], [30.123094162822845, 59.970676304000925]]]}, "properties": {"zone_id": "neva-2026-07-11-010", "aoi": "neva", "date": "2026-07-11", "scene_id": "S2C_MSIL2A_20260711T092031_R093_T36VUM_20260711T125414", "scene_datetime_utc": "2026-07-11T09:20:31.025000+00:00", "detection_status": "detected", "detection_status_ru": "обнаружено", "lon": 30.12326, "lat": 59.97054, "n_pixels": 2, "zone_area_km2": 0.0008, "cover_m2": 8.6, "p_mean": 0.978, "p_max": 0.992, "cover_m2_km2": 10750.0, "h3": "88110616c1fffff", "valid_frac_scene": 0.747, "wind_ms": 5.8, "sea": "спокойное", "scene_reliable": true, "field_event_id": "S3:HE419_MarLitter_transect28", "field_profile": "B", "field_date": "2014-04-11", "field_distance_km": 1419.6, "field_date_gap_days": 4474, "field_conc_items_km2": 43.1, "conc_A_items_km2": null, "conc_A_lo80": null, "conc_A_hi80": null, "conc_A_lo95": null, "conc_A_hi95": null, "conc_A_status": "unavailable", "conc_A_status_ru": "концентрация недоступна", "conc_A_reasons": "вне бассейна профиля: nw_atlantic_subtropical", "conc_A_model": "conc-A-c6bce5631d2b", "conc_B_items_km2": null, "conc_B_lo80": null, "conc_B_hi80": null, "conc_B_lo95": null, "conc_B_hi95": null, "conc_B_status": "unavailable", "conc_B_status_ru": "концентрация недоступна", "conc_B_reasons": "вне бассейна профиля: black_sea", "conc_B_model": "conc-B-c6bce5631d2b"}}, {"type": "Feature", "geometry": {"type": "Polygon", "coordinates": [[[30.124686980891305, 59.9704588568208], [30.12467852768726, 59.970369197345114], [30.124499671053456, 59.970373434738505], [30.124482765769265, 59.97019411575086], [30.124661621439195, 59.97018987838791], [30.124653168395167, 59.970100218906396], [30.125019332619033, 59.970181402935616], [30.125036240794852, 59.970360721831916], [30.124686980891305, 59.9704588568208]]]}, "properties": {"zone_id": "neva-2026-07-11-011", "aoi": "neva", "date": "2026-07-11", "scene_id": "S2C_MSIL2A_20260711T092031_R093_T36VUM_20260711T125414", "scene_datetime_utc": "2026-07-11T09:20:31.025000+00:00", "detection_status": "detected", "detection_status_ru": "обнаружено", "lon": 30.12476, "lat": 59.97028, "n_pixels": 2, "zone_area_km2": 0.0008, "cover_m2": 12.5, "p_mean": 0.963, "p_max": 0.969, "cover_m2_km2": 15625.0, "h3": "88110616c1fffff", "valid_frac_scene": 0.747, "wind_ms": 5.8, "sea": "спокойное", "scene_reliable": true, "field_event_id": "S3:HE419_MarLitter_transect28", "field_profile": "B", "field_date": "2014-04-11", "field_distance_km": 1419.7, "field_date_gap_days": 4474, "field_conc_items_km2": 43.1, "conc_A_items_km2": null, "conc_A_lo80": null, "conc_A_hi80": null, "conc_A_lo95": null, "conc_A_hi95": null, "conc_A_status": "unavailable", "conc_A_status_ru": "концентрация недоступна", "conc_A_reasons": "вне бассейна профиля: nw_atlantic_subtropical", "conc_A_model": "conc-A-c6bce5631d2b", "conc_B_items_km2": null, "conc_B_lo80": null, "conc_B_hi80": null, "conc_B_lo95": null, "conc_B_hi95": null, "conc_B_status": "unavailable", "conc_B_status_ru": "концентрация недоступна", "conc_B_reasons": "вне бассейна профиля: black_sea", "conc_B_model": "conc-B-c6bce5631d2b"}}, {"type": "Feature", "geometry": {"type": "Polygon", "coordinates": [[[30.126927526250647, 59.96950715561007], [30.126919067315157, 59.96941749631292], [30.12674021619417, 59.969421736701705], [30.126723299447114, 59.96924241807109], [30.1269021496043, 59.96923817771279], [30.126893690828933, 59.9691485184098], [30.127251390019403, 59.9691400369973], [30.127259849758563, 59.96922969626981], [30.127438699755636, 59.96922545518512], [30.127455620357885, 59.96940477369381], [30.127276769397024, 59.96940901480898], [30.12728522929632, 59.96949867407565], [30.126927526250647, 59.96950715561007]]]}, "properties": {"zone_id": "neva-2026-07-11-012", "aoi": "neva", "date": "2026-07-11", "scene_id": "S2C_MSIL2A_20260711T092031_R093_T36VUM_20260711T125414", "scene_datetime_utc": "2026-07-11T09:20:31.025000+00:00", "detection_status": "detected", "detection_status_ru": "обнаружено", "lon": 30.12709, "lat": 59.96932, "n_pixels": 4, "zone_area_km2": 0.0012, "cover_m2": 18.8, "p_mean": 0.953, "p_max": 1.0, "cover_m2_km2": 15666.7, "h3": "88110616c1fffff", "valid_frac_scene": 0.747, "wind_ms": 5.8, "sea": "спокойное", "scene_reliable": true, "field_event_id": "S3:HE419_MarLitter_transect28", "field_profile": "B", "field_date": "2014-04-11", "field_distance_km": 1419.8, "field_date_gap_days": 4474, "field_conc_items_km2": 43.1, "conc_A_items_km2": null, "conc_A_lo80": null, "conc_A_hi80": null, "conc_A_lo95": null, "conc_A_hi95": null, "conc_A_status": "unavailable", "conc_A_status_ru": "концентрация недоступна", "conc_A_reasons": "вне бассейна профиля: nw_atlantic_subtropical", "conc_A_model": "conc-A-c6bce5631d2b", "conc_B_items_km2": null, "conc_B_lo80": null, "conc_B_hi80": null, "conc_B_lo95": null, "conc_B_hi95": null, "conc_B_status": "unavailable", "conc_B_status_ru": "концентрация недоступна", "conc_B_reasons": "вне бассейна профиля: black_sea", "conc_B_model": "conc-B-c6bce5631d2b"}}, {"type": "Feature", "geometry": {"type": "Polygon", "coordinates": [[[29.76946746492544, 59.96662521262386], [29.76945997305541, 59.966535524462145], [29.769281079977578, 59.96653928038363], [29.769258606098443, 59.96627021584725], [29.769608897148963, 59.96617301568763], [29.769616389312286, 59.966262703843014], [29.769795280848285, 59.96625894747744], [29.76980277354131, 59.96634863561754], [29.769981665512443, 59.966344878996175], [29.769996652005194, 59.96652425524396], [29.769817759069223, 59.96652801189232], [29.769825251904106, 59.96661770002702], [29.76946746492544, 59.96662521262386]]]}, "properties": {"zone_id": "neva-2026-07-11-013", "aoi": "neva", "date": "2026-07-11", "scene_id": "S2C_MSIL2A_20260711T092031_R093_T36VUM_20260711T125414", "scene_datetime_utc": "2026-07-11T09:20:31.025000+00:00", "detection_status": "detected", "detection_status_ru": "обнаружено", "lon": 29.76961, "lat": 59.96642, "n_pixels": 5, "zone_area_km2": 0.0014, "cover_m2": 27.1, "p_mean": 0.902, "p_max": 0.996, "cover_m2_km2": 19357.1, "h3": "8811068545fffff", "valid_frac_scene": 0.747, "wind_ms": 5.8, "sea": "спокойное", "scene_reliable": true, "field_event_id": "S3:HE419_MarLitter_transect28", "field_profile": "B", "field_date": "2014-04-11", "field_distance_km": 1400.4, "field_date_gap_days": 4474, "field_conc_items_km2": 43.1, "conc_A_items_km2": null, "conc_A_lo80": null, "conc_A_hi80": null, "conc_A_lo95": null, "conc_A_hi95": null, "conc_A_status": "unavailable", "conc_A_status_ru": "концентрация недоступна", "conc_A_reasons": "вне бассейна профиля: nw_atlantic_subtropical", "conc_A_model": "conc-A-c6bce5631d2b", "conc_B_items_km2": null, "conc_B_lo80": null, "conc_B_hi80": null, "conc_B_lo95": null, "conc_B_hi95": null, "conc_B_status": "unavailable", "conc_B_status_ru": "концентрация недоступна", "conc_B_reasons": "вне бассейна профиля: black_sea", "conc_B_model": "conc-B-c6bce5631d2b"}}, {"type": "Feature", "geometry": {"type": "Polygon", "coordinates": [[[29.990768405290133, 59.96628528733461], [29.990760315397893, 59.966195616601986], [29.990581458923838, 59.96619967238321], [29.99057336956468, 59.9661100016341], [29.990752225556694, 59.96610594586746], [29.99074413576655, 59.96601627513107], [29.9911099373876, 59.96609783360764], [29.991118028192872, 59.96618750431302], [29.99093917182091, 59.96619156057859], [29.990947262195192, 59.96628123129663], [29.990768405290133, 59.96628528733461]]]}, "properties": {"zone_id": "neva-2026-07-11-014", "aoi": "neva", "date": "2026-07-11", "scene_id": "S2C_MSIL2A_20260711T092031_R093_T36VUM_20260711T125414", "scene_datetime_utc": "2026-07-11T09:20:31.025000+00:00", "detection_status": "detected", "detection_status_ru": "обнаружено", "lon": 29.99085, "lat": 59.96615, "n_pixels": 1, "zone_area_km2": 0.0005, "cover_m2": 3.1, "p_mean": 0.996, "p_max": 0.996, "cover_m2_km2": 6200.0, "h3": "8811068c99fffff", "valid_frac_scene": 0.747, "wind_ms": 5.8, "sea": "спокойное", "scene_reliable": true, "field_event_id": "S3:HE419_MarLitter_transect28", "field_profile": "B", "field_date": "2014-04-11", "field_distance_km": 1412.3, "field_date_gap_days": 4474, "field_conc_items_km2": 43.1, "conc_A_items_km2": null, "conc_A_lo80": null, "conc_A_hi80": null, "conc_A_lo95": null, "conc_A_hi95": null, "conc_A_status": "unavailable", "conc_A_status_ru": "концентрация недоступна", "conc_A_reasons": "вне бассейна профиля: nw_atlantic_subtropical", "conc_A_model": "conc-A-c6bce5631d2b", "conc_B_items_km2": null, "conc_B_lo80": null, "conc_B_hi80": null, "conc_B_lo95": null, "conc_B_hi95": null, "conc_B_status": "unavailable", "conc_B_status_ru": "концентрация недоступна", "conc_B_reasons": "вне бассейна профиля: black_sea", "conc_B_model": "conc-B-c6bce5631d2b"}}, {"type": "Feature", "geometry": {"type": "Polygon", "coordinates": [[[29.833929942037294, 59.96390824075973], [29.83392227676381, 59.963818557500936], [29.83374340818544, 59.963822400674395], [29.833728078748024, 59.9636430341237], [29.833906946361942, 59.963639190977894], [29.833899281233563, 59.96354950771362], [29.834264681444665, 59.96363150395952], [29.834272347585856, 59.96372118719431], [29.834451215536877, 59.96371734330798], [29.834458882208672, 59.963807026527164], [29.834280013775427, 59.96381087042731], [29.834287680013375, 59.963900553658476], [29.833929942037294, 59.96390824075973]]]}, "properties": {"zone_id": "neva-2026-07-11-015", "aoi": "neva", "date": "2026-07-11", "scene_id": "S2C_MSIL2A_20260711T092031_R093_T36VUM_20260711T125414", "scene_datetime_utc": "2026-07-11T09:20:31.025000+00:00", "detection_status": "detected", "detection_status_ru": "обнаружено", "lon": 29.83406, "lat": 59.96374, "n_pixels": 3, "zone_area_km2": 0.001, "cover_m2": 26.7, "p_mean": 0.993, "p_max": 0.996, "cover_m2_km2": 26700.0, "h3": "8811068523fffff", "valid_frac_scene": 0.747, "wind_ms": 5.8, "sea": "спокойное", "scene_reliable": true, "field_event_id": "S3:HE419_MarLitter_transect28", "field_profile": "B", "field_date": "2014-04-11", "field_distance_km": 1403.8, "field_date_gap_days": 4474, "field_conc_items_km2": 43.1, "conc_A_items_km2": null, "conc_A_lo80": null, "conc_A_hi80": null, "conc_A_lo95": null, "conc_A_hi95": null, "conc_A_status": "unavailable", "conc_A_status_ru": "концентрация недоступна", "conc_A_reasons": "вне бассейна профиля: nw_atlantic_subtropical", "conc_A_model": "conc-A-c6bce5631d2b", "conc_B_items_km2": null, "conc_B_lo80": null, "conc_B_hi80": null, "conc_B_lo95": null, "conc_B_hi95": null, "conc_B_status": "unavailable", "conc_B_status_ru": "концентрация недоступна", "conc_B_reasons": "вне бассейна профиля: black_sea", "conc_B_model": "conc-B-c6bce5631d2b"}}, {"type": "Feature", "geometry": {"type": "Polygon", "coordinates": [[[29.889594036592705, 59.96108311860869], [29.889586221772213, 59.96099343966842], [29.889407377109343, 59.96099735815862], [29.88939174858036, 59.96081800024442], [29.889570592279156, 59.9608140817824], [29.889562777606585, 59.96072440283664], [29.889920463892206, 59.96071656521424], [29.889928279528835, 59.96080624413184], [29.89010712307971, 59.960802324943295], [29.890122755464976, 59.96098168274482], [29.889943910950034, 59.96098560196154], [29.889951726734605, 59.9610752808736], [29.889594036592705, 59.96108311860869]]]}, "properties": {"zone_id": "neva-2026-07-11-016", "aoi": "neva", "date": "2026-07-11", "scene_id": "S2C_MSIL2A_20260711T092031_R093_T36VUM_20260711T125414", "scene_datetime_utc": "2026-07-11T09:20:31.025000+00:00", "detection_status": "detected", "detection_status_ru": "обнаружено", "lon": 29.88976, "lat": 59.9609, "n_pixels": 4, "zone_area_km2": 0.0012, "cover_m2": 21.6, "p_mean": 0.922, "p_max": 0.98, "cover_m2_km2": 18000.0, "h3": "8811068e8dfffff", "valid_frac_scene": 0.747, "wind_ms": 5.8, "sea": "спокойное", "scene_reliable": true, "field_event_id": "S3:HE419_MarLitter_transect28", "field_profile": "B", "field_date": "2014-04-11", "field_distance_km": 1406.7, "field_date_gap_days": 4474, "field_conc_items_km2": 43.1, "conc_A_items_km2": null, "conc_A_lo80": null, "conc_A_hi80": null, "conc_A_lo95": null, "conc_A_hi95": null, "conc_A_status": "unavailable", "conc_A_status_ru": "концентрация недоступна", "conc_A_reasons": "вне бассейна профиля: nw_atlantic_subtropical", "conc_A_model": "conc-A-c6bce5631d2b", "conc_B_items_km2": null, "conc_B_lo80": null, "conc_B_hi80": null, "conc_B_lo95": null, "conc_B_hi95": null, "conc_B_status": "unavailable", "conc_B_status_ru": "концентрация недоступна", "conc_B_reasons": "вне бассейна профиля: black_sea", "conc_B_model": "conc-B-c6bce5631d2b"}}, {"type": "Feature", "geometry": {"type": "Polygon", "coordinates": [[[30.04903487064459, 59.960637954855756], [30.049026625164743, 59.96054828885856], [30.048847808723128, 59.96055242335149], [30.04883956377704, 59.96046275733754], [30.049018379736918, 59.96045862285948], [30.0490101343611, 59.96036895685847], [30.048831318882964, 59.960373091321664], [30.0488230740409, 59.96028342530387], [30.049001889037296, 59.960279290855524], [30.048993643765517, 59.9601896248507], [30.04935951887405, 59.96027102123257], [30.049367765161325, 59.96036068720578], [30.049188949787222, 59.96036482215317], [30.04919719564478, 59.96045448813932], [30.04937601150062, 59.960450353177094], [30.049384257891933, 59.96054001914648], [30.04903487064459, 59.960637954855756]]]}, "properties": {"zone_id": "neva-2026-07-11-017", "aoi": "neva", "date": "2026-07-11", "scene_id": "S2C_MSIL2A_20260711T092031_R093_T36VUM_20260711T125414", "scene_datetime_utc": "2026-07-11T09:20:31.025000+00:00", "detection_status": "detected", "detection_status_ru": "обнаружено", "lon": 30.0491, "lat": 59.96041, "n_pixels": 2, "zone_area_km2": 0.0009, "cover_m2": 13.7, "p_mean": 0.945, "p_max": 0.992, "cover_m2_km2": 15222.2, "h3": "881106b965fffff", "valid_frac_scene": 0.747, "wind_ms": 5.8, "sea": "спокойное", "scene_reliable": true, "field_event_id": "S3:HE419_MarLitter_transect28", "field_profile": "B", "field_date": "2014-04-11", "field_distance_km": 1415.3, "field_date_gap_days": 4474, "field_conc_items_km2": 43.1, "conc_A_items_km2": null, "conc_A_lo80": null, "conc_A_hi80": null, "conc_A_lo95": null, "conc_A_hi95": null, "conc_A_status": "unavailable", "conc_A_status_ru": "концентрация недоступна", "conc_A_reasons": "вне бассейна профиля: nw_atlantic_subtropical", "conc_A_model": "conc-A-c6bce5631d2b", "conc_B_items_km2": null, "conc_B_lo80": null, "conc_B_hi80": null, "conc_B_lo95": null, "conc_B_hi95": null, "conc_B_status": "unavailable", "conc_B_status_ru": "концентрация недоступна", "conc_B_reasons": "вне бассейна профиля: black_sea", "conc_B_model": "conc-B-c6bce5631d2b"}}, {"type": "Feature", "geometry": {"type": "Polygon", "coordinates": [[[30.12892582184225, 59.96029404273775], [30.12891736064281, 59.960204383485525], [30.128738559513785, 59.96020862619309], [30.1287300988493, 59.9601189669237], [30.12890889949674, 59.96011472423136], [30.128900438404035, 59.96002506497523], [30.129266500631502, 59.96010623812057], [30.12927496274074, 59.960195897344235], [30.12909616171847, 59.9602001405359], [30.129104623399495, 59.96028979977287], [30.12892582184225, 59.96029404273775]]]}, "properties": {"zone_id": "neva-2026-07-11-018", "aoi": "neva", "date": "2026-07-11", "scene_id": "S2C_MSIL2A_20260711T092031_R093_T36VUM_20260711T125414", "scene_datetime_utc": "2026-07-11T09:20:31.025000+00:00", "detection_status": "detected", "detection_status_ru": "обнаружено", "lon": 30.129, "lat": 59.96016, "n_pixels": 1, "zone_area_km2": 0.0005, "cover_m2": 4.7, "p_mean": 0.945, "p_max": 0.945, "cover_m2_km2": 9400.0, "h3": "88110616c5fffff", "valid_frac_scene": 0.747, "wind_ms": 5.8, "sea": "спокойное", "scene_reliable": true, "field_event_id": "S3:HE419_MarLitter_transect28", "field_profile": "B", "field_date": "2014-04-11", "field_distance_km": 1419.6, "field_date_gap_days": 4474, "field_conc_items_km2": 43.1, "conc_A_items_km2": null, "conc_A_lo80": null, "conc_A_hi80": null, "conc_A_lo95": null, "conc_A_hi95": null, "conc_A_status": "unavailable", "conc_A_status_ru": "концентрация недоступна", "conc_A_reasons": "вне бассейна профиля: nw_atlantic_subtropical", "conc_A_model": "conc-A-c6bce5631d2b", "conc_B_items_km2": null, "conc_B_lo80": null, "conc_B_hi80": null, "conc_B_lo95": null, "conc_B_hi95": null, "conc_B_status": "unavailable", "conc_B_status_ru": "концентрация недоступна", "conc_B_reasons": "вне бассейна профиля: black_sea", "conc_B_model": "conc-B-c6bce5631d2b"}}, {"type": "Feature", "geometry": {"type": "Polygon", "coordinates": [[[30.015732654330964, 59.95897766196086], [30.015724499371114, 59.95888799317887], [30.015545686366877, 59.958892082487054], [30.015529377564995, 59.95871274488804], [30.015708189605743, 59.95870865560926], [30.015700034800222, 59.958618986821556], [30.01623646916859, 59.95860671757678], [30.01624462541933, 59.9586963863204], [30.016423437254286, 59.95869229607326], [30.016431594038217, 59.95878196480023], [30.016082125225257, 59.958879813836276], [30.016090281148603, 59.95896948258888], [30.015732654330964, 59.95897766196086]]]}, "properties": {"zone_id": "neva-2026-07-11-019", "aoi": "neva", "date": "2026-07-11", "scene_id": "S2C_MSIL2A_20260711T092031_R093_T36VUM_20260711T125414", "scene_datetime_utc": "2026-07-11T09:20:31.025000+00:00", "detection_status": "detected", "detection_status_ru": "обнаружено", "lon": 30.01595, "lat": 59.95878, "n_pixels": 5, "zone_area_km2": 0.0014, "cover_m2": 69.4, "p_mean": 0.968, "p_max": 0.992, "cover_m2_km2": 49571.4, "h3": "8811068c95fffff", "valid_frac_scene": 0.747, "wind_ms": 5.8, "sea": "спокойное", "scene_reliable": true, "field_event_id": "S3:HE419_MarLitter_transect28", "field_profile": "B", "field_date": "2014-04-11", "field_distance_km": 1413.5, "field_date_gap_days": 4474, "field_conc_items_km2": 43.1, "conc_A_items_km2": null, "conc_A_lo80": null, "conc_A_hi80": null, "conc_A_lo95": null, "conc_A_hi95": null, "conc_A_status": "unavailable", "conc_A_status_ru": "концентрация недоступна", "conc_A_reasons": "вне бассейна профиля: nw_atlantic_subtropical", "conc_A_model": "conc-A-c6bce5631d2b", "conc_B_items_km2": null, "conc_B_lo80": null, "conc_B_hi80": null, "conc_B_lo95": null, "conc_B_hi95": null, "conc_B_status": "unavailable", "conc_B_status_ru": "концентрация недоступна", "conc_B_reasons": "вне бассейна профиля: black_sea", "conc_B_model": "conc-B-c6bce5631d2b"}}, {"type": "Feature", "geometry": {"type": "Polygon", "coordinates": [[[30.11190785529539, 59.958450283107474], [30.111899440694433, 59.95836062237761], [30.111720646601757, 59.9583648419542], [30.11169540456201, 59.95809585970751], [30.111874197210028, 59.95809164017643], [30.111865782821372, 59.958001979438805], [30.11223178234684, 59.958083200388124], [30.112257028720546, 59.95835218249835], [30.11190785529539, 59.958450283107474]]]}, "properties": {"zone_id": "neva-2026-07-11-020", "aoi": "neva", "date": "2026-07-11", "scene_id": "S2C_MSIL2A_20260711T092031_R093_T36VUM_20260711T125414", "scene_datetime_utc": "2026-07-11T09:20:31.025000+00:00", "detection_status": "detected", "detection_status_ru": "обнаружено", "lon": 30.11198, "lat": 59.95822, "n_pixels": 3, "zone_area_km2": 0.0011, "cover_m2": 22.4, "p_mean": 0.99, "p_max": 0.996, "cover_m2_km2": 20363.6, "h3": "88110616cdfffff", "valid_frac_scene": 0.747, "wind_ms": 5.8, "sea": "спокойное", "scene_reliable": true, "field_event_id": "S3:HE419_MarLitter_transect28", "field_profile": "B", "field_date": "2014-04-11", "field_distance_km": 1418.7, "field_date_gap_days": 4474, "field_conc_items_km2": 43.1, "conc_A_items_km2": null, "conc_A_lo80": null, "conc_A_hi80": null, "conc_A_lo95": null, "conc_A_hi95": null, "conc_A_status": "unavailable", "conc_A_status_ru": "концентрация недоступна", "conc_A_reasons": "вне бассейна профиля: nw_atlantic_subtropical", "conc_A_model": "conc-A-c6bce5631d2b", "conc_B_items_km2": null, "conc_B_lo80": null, "conc_B_hi80": null, "conc_B_lo95": null, "conc_B_hi95": null, "conc_B_status": "unavailable", "conc_B_status_ru": "концентрация недоступна", "conc_B_reasons": "вне бассейна профиля: black_sea", "conc_B_model": "conc-B-c6bce5631d2b"}}, {"type": "Feature", "geometry": {"type": "Polygon", "coordinates": [[[30.05170890405829, 59.954645550053606], [30.05170065334275, 59.95455588419753], [30.051521869625876, 59.95456002206665], [30.051497119236085, 59.95429102444228], [30.051846432739676, 59.95419308270236], [30.05185468372859, 59.954282748551236], [30.052033465896777, 59.954278610242675], [30.052041717419257, 59.954368276074774], [30.052220500016936, 59.95436413750932], [30.052237004181098, 59.954543469138045], [30.052058220620356, 59.954547607733225], [30.052066472298975, 59.95463727355956], [30.05170890405829, 59.954645550053606]]]}, "properties": {"zone_id": "neva-2026-07-11-021", "aoi": "neva", "date": "2026-07-11", "scene_id": "S2C_MSIL2A_20260711T092031_R093_T36VUM_20260711T125414", "scene_datetime_utc": "2026-07-11T09:20:31.025000+00:00", "detection_status": "detected", "detection_status_ru": "обнаружено", "lon": 30.05185, "lat": 59.95444, "n_pixels": 5, "zone_area_km2": 0.0014, "cover_m2": 62.0, "p_mean": 0.911, "p_max": 1.0, "cover_m2_km2": 44285.7, "h3": "881106b965fffff", "valid_frac_scene": 0.747, "wind_ms": 5.8, "sea": "спокойное", "scene_reliable": true, "field_event_id": "S3:HE419_MarLitter_transect28", "field_profile": "B", "field_date": "2014-04-11", "field_distance_km": 1415.3, "field_date_gap_days": 4474, "field_conc_items_km2": 43.1, "conc_A_items_km2": null, "conc_A_lo80": null, "conc_A_hi80": null, "conc_A_lo95": null, "conc_A_hi95": null, "conc_A_status": "unavailable", "conc_A_status_ru": "концентрация недоступна", "conc_A_reasons": "вне бассейна профиля: nw_atlantic_subtropical", "conc_A_model": "conc-A-c6bce5631d2b", "conc_B_items_km2": null, "conc_B_lo80": null, "conc_B_hi80": null, "conc_B_lo95": null, "conc_B_hi95": null, "conc_B_status": "unavailable", "conc_B_status_ru": "концентрация недоступна", "conc_B_reasons": "вне бассейна профиля: black_sea", "conc_B_model": "conc-B-c6bce5631d2b"}}, {"type": "Feature", "geometry": {"type": "Polygon", "coordinates": [[[30.020144098370263, 59.95429406867847], [30.020135933030584, 59.95420440019658], [30.019770194554837, 59.95412292162934], [30.019762030281314, 59.9540332531142], [30.019940816419272, 59.95402915829162], [30.019932651715674, 59.95393948978926], [30.020290222873953, 59.95393129944744], [30.02029838854069, 59.95402096792037], [30.020477174524153, 59.95401687237169], [30.020493506975306, 59.954196209282365], [30.020144098370263, 59.95429406867847]]]}, "properties": {"zone_id": "neva-2026-07-11-022", "aoi": "neva", "date": "2026-07-11", "scene_id": "S2C_MSIL2A_20260711T092031_R093_T36VUM_20260711T125414", "scene_datetime_utc": "2026-07-11T09:20:31.025000+00:00", "detection_status": "detected", "detection_status_ru": "обнаружено", "lon": 30.02016, "lat": 59.9541, "n_pixels": 3, "zone_area_km2": 0.001, "cover_m2": 17.6, "p_mean": 0.952, "p_max": 0.996, "cover_m2_km2": 17600.0, "h3": "8811068cbbfffff", "valid_frac_scene": 0.747, "wind_ms": 5.8, "sea": "спокойное", "scene_reliable": true, "field_event_id": "S3:HE419_MarLitter_transect28", "field_profile": "B", "field_date": "2014-04-11", "field_distance_km": 1413.6, "field_date_gap_days": 4474, "field_conc_items_km2": 43.1, "conc_A_items_km2": null, "conc_A_lo80": null, "conc_A_hi80": null, "conc_A_lo95": null, "conc_A_hi95": null, "conc_A_status": "unavailable", "conc_A_status_ru": "концентрация недоступна", "conc_A_reasons": "вне бассейна профиля: nw_atlantic_subtropical", "conc_A_model": "conc-A-c6bce5631d2b", "conc_B_items_km2": null, "conc_B_lo80": null, "conc_B_hi80": null, "conc_B_lo95": null, "conc_B_hi95": null, "conc_B_status": "unavailable", "conc_B_status_ru": "концентрация недоступна", "conc_B_reasons": "вне бассейна профиля: black_sea", "conc_B_model": "conc-B-c6bce5631d2b"}}, {"type": "Feature", "geometry": {"type": "Polygon", "coordinates": [[[29.982387938654583, 59.95281726876156], [29.98237987577966, 59.95272759716005], [29.98201424331679, 59.952646013055606], [29.982006181506765, 59.95255634142129], [29.982184965869997, 59.952552297807344], [29.98217690362923, 59.95246262618565], [29.98253447123996, 59.95245453826071], [29.98254253444391, 59.952544209853336], [29.982721318654576, 59.952540165513284], [29.98273744617823, 59.95271950866383], [29.982387938654583, 59.95281726876156]]]}, "properties": {"zone_id": "neva-2026-07-11-023", "aoi": "neva", "date": "2026-07-11", "scene_id": "S2C_MSIL2A_20260711T092031_R093_T36VUM_20260711T125414", "scene_datetime_utc": "2026-07-11T09:20:31.025000+00:00", "detection_status": "detected", "detection_status_ru": "обнаружено", "lon": 29.9824, "lat": 59.95262, "n_pixels": 3, "zone_area_km2": 0.001, "cover_m2": 14.1, "p_mean": 0.983, "p_max": 1.0, "cover_m2_km2": 14100.0, "h3": "8811068c8bfffff", "valid_frac_scene": 0.747, "wind_ms": 5.8, "sea": "спокойное", "scene_reliable": true, "field_event_id": "S3:HE419_MarLitter_transect28", "field_profile": "B", "field_date": "2014-04-11", "field_distance_km": 1411.5, "field_date_gap_days": 4474, "field_conc_items_km2": 43.1, "conc_A_items_km2": null, "conc_A_lo80": null, "conc_A_hi80": null, "conc_A_lo95": null, "conc_A_hi95": null, "conc_A_status": "unavailable", "conc_A_status_ru": "концентрация недоступна", "conc_A_reasons": "вне бассейна профиля: nw_atlantic_subtropical", "conc_A_model": "conc-A-c6bce5631d2b", "conc_B_items_km2": null, "conc_B_lo80": null, "conc_B_hi80": null, "conc_B_lo95": null, "conc_B_hi95": null, "conc_B_status": "unavailable", "conc_B_status_ru": "концентрация недоступна", "conc_B_reasons": "вне бассейна профиля: black_sea", "conc_B_model": "conc-B-c6bce5631d2b"}}, {"type": "Feature", "geometry": {"type": "Polygon", "coordinates": [[[30.124734322470715, 59.95194660764492], [30.12472587543107, 59.95185694792001], [30.124359915582435, 59.9517757612767], [30.124351469611945, 59.951686101517474], [30.124530225588398, 59.951681865111894], [30.124521779189873, 59.95159220536594], [30.12505804535572, 59.95157949474318], [30.125066493198165, 59.95166915444348], [30.125245248961534, 59.95166491707008], [30.12526214576887, 59.9518442364344], [30.125083389042878, 59.951848473838226], [30.12509183704515, 59.95193813353269], [30.124734322470715, 59.95194660764492]]]}, "properties": {"zone_id": "neva-2026-07-11-024", "aoi": "neva", "date": "2026-07-11", "scene_id": "S2C_MSIL2A_20260711T092031_R093_T36VUM_20260711T125414", "scene_datetime_utc": "2026-07-11T09:20:31.025000+00:00", "detection_status": "detected", "detection_status_ru": "обнаружено", "lon": 30.12484, "lat": 59.95176, "n_pixels": 5, "zone_area_km2": 0.0014, "cover_m2": 36.5, "p_mean": 0.882, "p_max": 0.996, "cover_m2_km2": 26071.4, "h3": "88110616e9fffff", "valid_frac_scene": 0.747, "wind_ms": 5.8, "sea": "спокойное", "scene_reliable": true, "field_event_id": "S3:HE419_MarLitter_transect28", "field_profile": "B", "field_date": "2014-04-11", "field_distance_km": 1419.2, "field_date_gap_days": 4474, "field_conc_items_km2": 43.1, "conc_A_items_km2": null, "conc_A_lo80": null, "conc_A_hi80": null, "conc_A_lo95": null, "conc_A_hi95": null, "conc_A_status": "unavailable", "conc_A_status_ru": "концентрация недоступна", "conc_A_reasons": "вне бассейна профиля: nw_atlantic_subtropical", "conc_A_model": "conc-A-c6bce5631d2b", "conc_B_items_km2": null, "conc_B_lo80": null, "conc_B_hi80": null, "conc_B_lo95": null, "conc_B_hi95": null, "conc_B_status": "unavailable", "conc_B_status_ru": "концентрация недоступна", "conc_B_reasons": "вне бассейна профиля: black_sea", "conc_B_model": "conc-B-c6bce5631d2b"}}, {"type": "Feature", "geometry": {"type": "Polygon", "coordinates": [[[30.134931878774054, 59.951794375036066], [30.134923404246848, 59.95170471618204], [30.134565895541684, 59.95171321690916], [30.134557422030497, 59.95162355802264], [30.13437866807904, 59.95162780800801], [30.134370195102584, 59.95153814910426], [30.134548948572746, 59.95153389913416], [30.134540475168436, 59.9514442402437], [30.1348979809859, 59.95143573960819], [30.134906455352773, 59.95152539846809], [30.135085208662627, 59.95152114777214], [30.13509368356423, 59.9516108066148], [30.135272437301914, 59.95160655566163], [30.135280912738246, 59.95169621448709], [30.13510215851927, 59.95170046545555], [30.135110633527763, 59.951790124294284], [30.134931878774054, 59.951794375036066]]]}, "properties": {"zone_id": "neva-2026-07-11-025", "aoi": "neva", "date": "2026-07-11", "scene_id": "S2C_MSIL2A_20260711T092031_R093_T36VUM_20260711T125414", "scene_datetime_utc": "2026-07-11T09:20:31.025000+00:00", "detection_status": "detected", "detection_status_ru": "обнаружено", "lon": 30.13482, "lat": 59.9516, "n_pixels": 3, "zone_area_km2": 0.0011, "cover_m2": 17.3, "p_mean": 0.712, "p_max": 0.965, "cover_m2_km2": 15727.3, "h3": "88110616e9fffff", "valid_frac_scene": 0.747, "wind_ms": 5.8, "sea": "спокойное", "scene_reliable": true, "field_event_id": "S3:HE419_MarLitter_transect28", "field_profile": "B", "field_date": "2014-04-11", "field_distance_km": 1419.7, "field_date_gap_days": 4474, "field_conc_items_km2": 43.1, "conc_A_items_km2": null, "conc_A_lo80": null, "conc_A_hi80": null, "conc_A_lo95": null, "conc_A_hi95": null, "conc_A_status": "unavailable", "conc_A_status_ru": "концентрация недоступна", "conc_A_reasons": "вне бассейна профиля: nw_atlantic_subtropical", "conc_A_model": "conc-A-c6bce5631d2b", "conc_B_items_km2": null, "conc_B_lo80": null, "conc_B_hi80": null, "conc_B_lo95": null, "conc_B_hi95": null, "conc_B_status": "unavailable", "conc_B_status_ru": "концентрация недоступна", "conc_B_reasons": "вне бассейна профиля: black_sea", "conc_B_model": "conc-B-c6bce5631d2b"}}, {"type": "Feature", "geometry": {"type": "Polygon", "coordinates": [[[29.995878316842905, 59.95143317811478], [29.995870217980745, 59.95134350759726], [29.995691442357373, 59.951347569702236], [29.995683344027814, 59.95125789916825], [29.99586211916966, 59.95125383707785], [29.995854020409666, 59.95116416655659], [29.99621156957708, 59.95115604167894], [29.99621966930012, 59.95124571217102], [29.996398444288722, 59.951241649354586], [29.99640654454438, 59.951331319830196], [29.996227769074256, 59.95133538266125], [29.99623586889947, 59.951425053149556], [29.995878316842905, 59.95143317811478]]]}, "properties": {"zone_id": "neva-2026-07-11-026", "aoi": "neva", "date": "2026-07-11", "scene_id": "S2C_MSIL2A_20260711T092031_R093_T36VUM_20260711T125414", "scene_datetime_utc": "2026-07-11T09:20:31.025000+00:00", "detection_status": "detected", "detection_status_ru": "обнаружено", "lon": 29.99604, "lat": 59.95129, "n_pixels": 2, "zone_area_km2": 0.0008, "cover_m2": 9.0, "p_mean": 0.973, "p_max": 0.996, "cover_m2_km2": 11250.0, "h3": "8811068c83fffff", "valid_frac_scene": 0.747, "wind_ms": 5.8, "sea": "спокойное", "scene_reliable": true, "field_event_id": "S3:HE419_MarLitter_transect28", "field_profile": "B", "field_date": "2014-04-11", "field_distance_km": 1412.2, "field_date_gap_days": 4474, "field_conc_items_km2": 43.1, "conc_A_items_km2": null, "conc_A_lo80": null, "conc_A_hi80": null, "conc_A_lo95": null, "conc_A_hi95": null, "conc_A_status": "unavailable", "conc_A_status_ru": "концентрация недоступна", "conc_A_reasons": "вне бассейна профиля: nw_atlantic_subtropical", "conc_A_model": "conc-A-c6bce5631d2b", "conc_B_items_km2": null, "conc_B_lo80": null, "conc_B_hi80": null, "conc_B_lo95": null, "conc_B_hi95": null, "conc_B_status": "unavailable", "conc_B_status_ru": "концентрация недоступна", "conc_B_reasons": "вне бассейна профиля: black_sea", "conc_B_model": "conc-B-c6bce5631d2b"}}, {"type": "Feature", "geometry": {"type": "Polygon", "coordinates": [[[29.949660061097163, 59.94942025559298], [29.949652087712778, 59.949330581289914], [29.94947331543616, 59.949334580701446], [29.94945736978132, 59.9491552320609], [29.949636141094864, 59.9491512326781], [29.949628167861334, 59.9490615583694], [29.94998570937449, 59.94905355890644], [29.949993683571076, 59.94914323318638], [29.950172454733742, 59.9491392330775], [29.95018042946216, 59.94922890734122], [29.95000165781796, 59.94923290746448], [29.950009632115133, 59.94932258174072], [29.949660061097163, 59.94942025559298]]]}, "properties": {"zone_id": "neva-2026-07-11-027", "aoi": "neva", "date": "2026-07-11", "scene_id": "S2C_MSIL2A_20260711T092031_R093_T36VUM_20260711T125414", "scene_datetime_utc": "2026-07-11T09:20:31.025000+00:00", "detection_status": "detected", "detection_status_ru": "обнаружено", "lon": 29.94979, "lat": 59.94922, "n_pixels": 3, "zone_area_km2": 0.001, "cover_m2": 11.8, "p_mean": 0.842, "p_max": 0.992, "cover_m2_km2": 11800.0, "h3": "8811068cc1fffff", "valid_frac_scene": 0.747, "wind_ms": 5.8, "sea": "спокойное", "scene_reliable": true, "field_event_id": "S3:HE419_MarLitter_transect28", "field_profile": "B", "field_date": "2014-04-11", "field_distance_km": 1409.7, "field_date_gap_days": 4474, "field_conc_items_km2": 43.1, "conc_A_items_km2": null, "conc_A_lo80": null, "conc_A_hi80": null, "conc_A_lo95": null, "conc_A_hi95": null, "conc_A_status": "unavailable", "conc_A_status_ru": "концентрация недоступна", "conc_A_reasons": "вне бассейна профиля: nw_atlantic_subtropical", "conc_A_model": "conc-A-c6bce5631d2b", "conc_B_items_km2": null, "conc_B_lo80": null, "conc_B_hi80": null, "conc_B_lo95": null, "conc_B_hi95": null, "conc_B_status": "unavailable", "conc_B_status_ru": "концентрация недоступна", "conc_B_reasons": "вне бассейна профиля: black_sea", "conc_B_model": "conc-B-c6bce5631d2b"}}, {"type": "Feature", "geometry": {"type": "Polygon", "coordinates": [[[30.022074245048238, 59.945983125013846], [30.022066077225354, 59.945893456577686], [30.021887335240645, 59.945897553947916], [30.02187916795056, 59.94580788549511], [30.022057909453977, 59.945803788139614], [30.022049741734104, 59.94571411969962], [30.022228482704726, 59.945710022116884], [30.022220314555074, 59.94562035368975], [30.022585964491455, 59.94570182622555], [30.022602302870457, 59.945881163015294], [30.02242356104027, 59.94588526111139], [30.022431729825747, 59.94597492951811], [30.022074245048238, 59.945983125013846]]]}, "properties": {"zone_id": "neva-2026-07-11-028", "aoi": "neva", "date": "2026-07-11", "scene_id": "S2C_MSIL2A_20260711T092031_R093_T36VUM_20260711T125414", "scene_datetime_utc": "2026-07-11T09:20:31.025000+00:00", "detection_status": "detected", "detection_status_ru": "обнаружено", "lon": 30.02227, "lat": 59.94581, "n_pixels": 3, "zone_area_km2": 0.001, "cover_m2": 15.3, "p_mean": 0.984, "p_max": 0.996, "cover_m2_km2": 15300.0, "h3": "8811068cb1fffff", "valid_frac_scene": 0.747, "wind_ms": 5.8, "sea": "спокойное", "scene_reliable": true, "field_event_id": "S3:HE419_MarLitter_transect28", "field_profile": "B", "field_date": "2014-04-11", "field_distance_km": 1413.5, "field_date_gap_days": 4474, "field_conc_items_km2": 43.1, "conc_A_items_km2": null, "conc_A_lo80": null, "conc_A_hi80": null, "conc_A_lo95": null, "conc_A_hi95": null, "conc_A_status": "unavailable", "conc_A_status_ru": "концентрация недоступна", "conc_A_reasons": "вне бассейна профиля: nw_atlantic_subtropical", "conc_A_model": "conc-A-c6bce5631d2b", "conc_B_items_km2": null, "conc_B_lo80": null, "conc_B_hi80": null, "conc_B_lo95": null, "conc_B_hi95": null, "conc_B_status": "unavailable", "conc_B_status_ru": "концентрация недоступна", "conc_B_reasons": "вне бассейна профиля: black_sea", "conc_B_model": "conc-B-c6bce5631d2b"}}, {"type": "Feature", "geometry": {"type": "Polygon", "coordinates": [[[30.00287546465968, 59.94561314290681], [30.002867348798873, 59.945523472883664], [30.002688605652484, 59.945527544232036], [30.00266425982108, 59.94525853410741], [30.0030136270374, 59.94516072124035], [30.003021743174802, 59.94525039125642], [30.003200484774894, 59.94524631946802], [30.003208601444783, 59.94533598946757], [30.003387343475, 59.94533191742256], [30.003395460677392, 59.94542158740561], [30.00321671816586, 59.94542565946525], [30.00322483493812, 59.945515329461024], [30.00287546465968, 59.94561314290681]]]}, "properties": {"zone_id": "neva-2026-07-11-029", "aoi": "neva", "date": "2026-07-11", "scene_id": "S2C_MSIL2A_20260711T092031_R093_T36VUM_20260711T125414", "scene_datetime_utc": "2026-07-11T09:20:31.025000+00:00", "detection_status": "detected", "detection_status_ru": "обнаружено", "lon": 30.00299, "lat": 59.94539, "n_pixels": 4, "zone_area_km2": 0.0012, "cover_m2": 28.2, "p_mean": 0.901, "p_max": 1.0, "cover_m2_km2": 23500.0, "h3": "8811068c87fffff", "valid_frac_scene": 0.747, "wind_ms": 5.8, "sea": "спокойное", "scene_reliable": true, "field_event_id": "S3:HE419_MarLitter_transect28", "field_profile": "B", "field_date": "2014-04-11", "field_distance_km": 1412.4, "field_date_gap_days": 4474, "field_conc_items_km2": 43.1, "conc_A_items_km2": null, "conc_A_lo80": null, "conc_A_hi80": null, "conc_A_lo95": null, "conc_A_hi95": null, "conc_A_status": "unavailable", "conc_A_status_ru": "концентрация недоступна", "conc_A_reasons": "вне бассейна профиля: nw_atlantic_subtropical", "conc_A_model": "conc-A-c6bce5631d2b", "conc_B_items_km2": null, "conc_B_lo80": null, "conc_B_hi80": null, "conc_B_lo95": null, "conc_B_hi95": null, "conc_B_status": "unavailable", "conc_B_status_ru": "концентрация недоступна", "conc_B_reasons": "вне бассейна профиля: black_sea", "conc_B_model": "conc-B-c6bce5631d2b"}}, {"type": "Feature", "geometry": {"type": "Polygon", "coordinates": [[[30.023268243606346, 59.94532675817266], [30.023260072775074, 59.94523708982622], [30.02289442639607, 59.9451556191282], [30.022886256630372, 59.94506595074851], [30.023064993974486, 59.94506185205905], [30.02305682377905, 59.94497218369217], [30.02359303405847, 59.94495988621631], [30.02360120569771, 59.94504955453898], [30.023779942835727, 59.94504545488174], [30.023788115007758, 59.94513512318782], [30.02360937738847, 59.94513922285979], [30.023617549130766, 59.945228891178694], [30.023268243606346, 59.94532675817266]]]}, "properties": {"zone_id": "neva-2026-07-11-030", "aoi": "neva", "date": "2026-07-11", "scene_id": "S2C_MSIL2A_20260711T092031_R093_T36VUM_20260711T125414", "scene_datetime_utc": "2026-07-11T09:20:31.025000+00:00", "detection_status": "detected", "detection_status_ru": "обнаружено", "lon": 30.02334, "lat": 59.94512, "n_pixels": 4, "zone_area_km2": 0.0012, "cover_m2": 20.8, "p_mean": 0.957, "p_max": 0.98, "cover_m2_km2": 17333.3, "h3": "8811068cb1fffff", "valid_frac_scene": 0.747, "wind_ms": 5.8, "sea": "спокойное", "scene_reliable": true, "field_event_id": "S3:HE419_MarLitter_transect28", "field_profile": "B", "field_date": "2014-04-11", "field_distance_km": 1413.5, "field_date_gap_days": 4474, "field_conc_items_km2": 43.1, "conc_A_items_km2": null, "conc_A_lo80": null, "conc_A_hi80": null, "conc_A_lo95": null, "conc_A_hi95": null, "conc_A_status": "unavailable", "conc_A_status_ru": "концентрация недоступна", "conc_A_reasons": "вне бассейна профиля: nw_atlantic_subtropical", "conc_A_model": "conc-A-c6bce5631d2b", "conc_B_items_km2": null, "conc_B_lo80": null, "conc_B_hi80": null, "conc_B_lo95": null, "conc_B_hi95": null, "conc_B_status": "unavailable", "conc_B_status_ru": "концентрация недоступна", "conc_B_reasons": "вне бассейна профиля: black_sea", "conc_B_model": "conc-B-c6bce5631d2b"}}, {"type": "Feature", "geometry": {"type": "Polygon", "coordinates": [[[30.020757732515914, 59.94529445326061], [30.020749568473992, 59.94520478470621], [30.02057082997912, 59.94520888026504], [30.02055450301226, 59.94502954312114], [30.02073324054458, 59.94502544759172], [30.0207250766571, 59.944935779031624], [30.021082550604778, 59.94492758727641], [30.021090715454797, 59.945017255807095], [30.02126945283267, 59.94501315955183], [30.021285783649706, 59.94519249657805], [30.02110704530929, 59.94519659286272], [30.021115210313766, 59.945286261387686], [30.020757732515914, 59.94529445326061]]]}, "properties": {"zone_id": "neva-2026-07-11-031", "aoi": "neva", "date": "2026-07-11", "scene_id": "S2C_MSIL2A_20260711T092031_R093_T36VUM_20260711T125414", "scene_datetime_utc": "2026-07-11T09:20:31.025000+00:00", "detection_status": "detected", "detection_status_ru": "обнаружено", "lon": 30.02092, "lat": 59.94511, "n_pixels": 4, "zone_area_km2": 0.0012, "cover_m2": 29.0, "p_mean": 0.982, "p_max": 0.996, "cover_m2_km2": 24166.7, "h3": "8811068cbdfffff", "valid_frac_scene": 0.747, "wind_ms": 5.8, "sea": "спокойное", "scene_reliable": true, "field_event_id": "S3:HE419_MarLitter_transect28", "field_profile": "B", "field_date": "2014-04-11", "field_distance_km": 1413.4, "field_date_gap_days": 4474, "field_conc_items_km2": 43.1, "conc_A_items_km2": null, "conc_A_lo80": null, "conc_A_hi80": null, "conc_A_lo95": null, "conc_A_hi95": null, "conc_A_status": "unavailable", "conc_A_status_ru": "концентрация недоступна", "conc_A_reasons": "вне бассейна профиля: nw_atlantic_subtropical", "conc_A_model": "conc-A-c6bce5631d2b", "conc_B_items_km2": null, "conc_B_lo80": null, "conc_B_hi80": null, "conc_B_lo95": null, "conc_B_hi95": null, "conc_B_status": "unavailable", "conc_B_status_ru": "концентрация недоступна", "conc_B_reasons": "вне бассейна профиля: black_sea", "conc_B_model": "conc-B-c6bce5631d2b"}}, {"type": "Feature", "geometry": {"type": "Polygon", "coordinates": [[[29.995847746734473, 59.945144052576616], [29.995839650002875, 59.94505438197054], [29.99566090823216, 59.94505844378007], [29.995644715884758, 59.94487910253304], [29.995823456692847, 59.94487504075269], [29.99581536011442, 59.94478537014092], [29.996172840614822, 59.94477724588352], [29.996180938155863, 59.94486691646611], [29.996359678810784, 59.94486285395986], [29.996375875008674, 59.94504219509019], [29.99619713339113, 59.945046257625606], [29.996205231085362, 59.945135928202504], [29.995847746734473, 59.945144052576616]]]}, "properties": {"zone_id": "neva-2026-07-11-032", "aoi": "neva", "date": "2026-07-11", "scene_id": "S2C_MSIL2A_20260711T092031_R093_T36VUM_20260711T125414", "scene_datetime_utc": "2026-07-11T09:20:31.025000+00:00", "detection_status": "detected", "detection_status_ru": "обнаружено", "lon": 29.99601, "lat": 59.94496, "n_pixels": 4, "zone_area_km2": 0.0012, "cover_m2": 22.7, "p_mean": 0.901, "p_max": 0.992, "cover_m2_km2": 18916.7, "h3": "8811068c81fffff", "valid_frac_scene": 0.747, "wind_ms": 5.8, "sea": "спокойное", "scene_reliable": true, "field_event_id": "S3:HE419_MarLitter_transect28", "field_profile": "B", "field_date": "2014-04-11", "field_distance_km": 1412.1, "field_date_gap_days": 4474, "field_conc_items_km2": 43.1, "conc_A_items_km2": null, "conc_A_lo80": null, "conc_A_hi80": null, "conc_A_lo95": null, "conc_A_hi95": null, "conc_A_status": "unavailable", "conc_A_status_ru": "концентрация недоступна", "conc_A_reasons": "вне бассейна профиля: nw_atlantic_subtropical", "conc_A_model": "conc-A-c6bce5631d2b", "conc_B_items_km2": null, "conc_B_lo80": null, "conc_B_hi80": null, "conc_B_lo95": null, "conc_B_hi95": null, "conc_B_status": "unavailable", "conc_B_status_ru": "концентрация недоступна", "conc_B_reasons": "вне бассейна профиля: black_sea", "conc_B_model": "conc-B-c6bce5631d2b"}}, {"type": "Feature", "geometry": {"type": "Polygon", "coordinates": [[[29.959847533915198, 59.94514855379405], [29.959839534391186, 59.94505888025582], [29.95966078675178, 59.94506289329815], [29.95964478881785, 59.94488354618725], [29.959823535494507, 59.94487953317374], [29.959815536121834, 59.94478985962989], [29.960173028361066, 59.9447818329058], [29.960181028696475, 59.944871506420824], [29.96035977522179, 59.94486749268139], [29.96036777608902, 59.944957166180096], [29.96018902908234, 59.94496117993395], [29.960197029518653, 59.94505085344523], [29.959847533915198, 59.94514855379405]]]}, "properties": {"zone_id": "neva-2026-07-11-033", "aoi": "neva", "date": "2026-07-11", "scene_id": "S2C_MSIL2A_20260711T092031_R093_T36VUM_20260711T125414", "scene_datetime_utc": "2026-07-11T09:20:31.025000+00:00", "detection_status": "detected", "detection_status_ru": "обнаружено", "lon": 29.95998, "lat": 59.94495, "n_pixels": 3, "zone_area_km2": 0.001, "cover_m2": 33.7, "p_mean": 0.966, "p_max": 0.969, "cover_m2_km2": 33700.0, "h3": "8811068cc1fffff", "valid_frac_scene": 0.747, "wind_ms": 5.8, "sea": "спокойное", "scene_reliable": true, "field_event_id": "S3:HE419_MarLitter_transect28", "field_profile": "B", "field_date": "2014-04-11", "field_distance_km": 1410.1, "field_date_gap_days": 4474, "field_conc_items_km2": 43.1, "conc_A_items_km2": null, "conc_A_lo80": null, "conc_A_hi80": null, "conc_A_lo95": null, "conc_A_hi95": null, "conc_A_status": "unavailable", "conc_A_status_ru": "концентрация недоступна", "conc_A_reasons": "вне бассейна профиля: nw_atlantic_subtropical", "conc_A_model": "conc-A-c6bce5631d2b", "conc_B_items_km2": null, "conc_B_lo80": null, "conc_B_hi80": null, "conc_B_lo95": null, "conc_B_hi95": null, "conc_B_status": "unavailable", "conc_B_status_ru": "концентрация недоступна", "conc_B_reasons": "вне бассейна профиля: black_sea", "conc_B_model": "conc-B-c6bce5631d2b"}}, {"type": "Feature", "geometry": {"type": "Polygon", "coordinates": [[[30.0080183590065, 59.94504662011339], [30.008010229443958, 59.94495695050527], [30.00783149018945, 59.94496102879729], [30.00782336115946, 59.94487135917262], [30.008002099932675, 59.944867280895245], [30.007993970472665, 59.94477761128333], [30.00817270871333, 59.94477353277865], [30.008164578823298, 59.944683863179506], [30.008530185040865, 59.944765375043396], [30.008546446899878, 59.94494471417742], [30.008367707799174, 59.94494879319532], [30.008375838324294, 59.94503846277415], [30.0080183590065, 59.94504662011339]]]}, "properties": {"zone_id": "neva-2026-07-11-034", "aoi": "neva", "date": "2026-07-11", "scene_id": "S2C_MSIL2A_20260711T092031_R093_T36VUM_20260711T125414", "scene_datetime_utc": "2026-07-11T09:20:31.025000+00:00", "detection_status": "detected", "detection_status_ru": "обнаружено", "lon": 30.00821, "lat": 59.94488, "n_pixels": 3, "zone_area_km2": 0.001, "cover_m2": 20.0, "p_mean": 0.821, "p_max": 0.988, "cover_m2_km2": 20000.0, "h3": "8811068c87fffff", "valid_frac_scene": 0.747, "wind_ms": 5.8, "sea": "спокойное", "scene_reliable": true, "field_event_id": "S3:HE419_MarLitter_transect28", "field_profile": "B", "field_date": "2014-04-11", "field_distance_km": 1412.7, "field_date_gap_days": 4474, "field_conc_items_km2": 43.1, "conc_A_items_km2": null, "conc_A_lo80": null, "conc_A_hi80": null, "conc_A_lo95": null, "conc_A_hi95": null, "conc_A_status": "unavailable", "conc_A_status_ru": "концентрация недоступна", "conc_A_reasons": "вне бассейна профиля: nw_atlantic_subtropical", "conc_A_model": "conc-A-c6bce5631d2b", "conc_B_items_km2": null, "conc_B_lo80": null, "conc_B_hi80": null, "conc_B_lo95": null, "conc_B_hi95": null, "conc_B_status": "unavailable", "conc_B_status_ru": "концентрация недоступна", "conc_B_reasons": "вне бассейна профиля: black_sea", "conc_B_model": "conc-B-c6bce5631d2b"}}, {"type": "Feature", "geometry": {"type": "Polygon", "coordinates": [[[30.038444424147322, 59.94479812674686], [30.03843621251303, 59.944708459651274], [30.03825747961065, 59.94471257914779], [30.038232846462112, 59.94444357780513], [30.03841157792083, 59.94443945835301], [30.038403366493647, 59.94434979124976], [30.038769040682915, 59.944431218722954], [30.038785465617487, 59.94461055286452], [30.038964197883296, 59.944606432656975], [30.03897241090948, 59.944696099710086], [30.03879367816245, 59.94470021993243], [30.038801890759196, 59.94478988699842], [30.038444424147322, 59.94479812674686]]]}, "properties": {"zone_id": "neva-2026-07-11-035", "aoi": "neva", "date": "2026-07-11", "scene_id": "S2C_MSIL2A_20260711T092031_R093_T36VUM_20260711T125414", "scene_datetime_utc": "2026-07-11T09:20:31.025000+00:00", "detection_status": "detected", "detection_status_ru": "обнаружено", "lon": 30.03856, "lat": 59.94459, "n_pixels": 4, "zone_area_km2": 0.0013, "cover_m2": 26.3, "p_mean": 0.989, "p_max": 1.0, "cover_m2_km2": 20230.8, "h3": "8811068cb7fffff", "valid_frac_scene": 0.747, "wind_ms": 5.8, "sea": "спокойное", "scene_reliable": true, "field_event_id": "S3:HE419_MarLitter_transect28", "field_profile": "B", "field_date": "2014-04-11", "field_distance_km": 1414.3, "field_date_gap_days": 4474, "field_conc_items_km2": 43.1, "conc_A_items_km2": null, "conc_A_lo80": null, "conc_A_hi80": null, "conc_A_lo95": null, "conc_A_hi95": null, "conc_A_status": "unavailable", "conc_A_status_ru": "концентрация недоступна", "conc_A_reasons": "вне бассейна профиля: nw_atlantic_subtropical", "conc_A_model": "conc-A-c6bce5631d2b", "conc_B_items_km2": null, "conc_B_lo80": null, "conc_B_hi80": null, "conc_B_lo95": null, "conc_B_hi95": null, "conc_B_status": "unavailable", "conc_B_status_ru": "концентрация недоступна", "conc_B_reasons": "вне бассейна профиля: black_sea", "conc_B_model": "conc-B-c6bce5631d2b"}}, {"type": "Feature", "geometry": {"type": "Polygon", "coordinates": [[[30.00168131290424, 59.94429251559351], [30.001673200698715, 59.94420284545423], [30.001494464464788, 59.94420691513154], [30.00147824116974, 59.94402757481808], [30.00165697644112, 59.94402350517001], [30.00164886438906, 59.94393383502507], [30.00201444683043, 59.94401536514802], [30.002022559896194, 59.94410503526184], [30.00220129549538, 59.9441009648733], [30.002209409093563, 59.944190634970596], [30.00203067301311, 59.94419470537377], [30.00203878618119, 59.94428437548378], [30.00168131290424, 59.94429251559351]]]}, "properties": {"zone_id": "neva-2026-07-11-036", "aoi": "neva", "date": "2026-07-11", "scene_id": "S2C_MSIL2A_20260711T092031_R093_T36VUM_20260711T125414", "scene_datetime_utc": "2026-07-11T09:20:31.025000+00:00", "detection_status": "detected", "detection_status_ru": "обнаружено", "lon": 30.00182, "lat": 59.94412, "n_pixels": 3, "zone_area_km2": 0.001, "cover_m2": 19.6, "p_mean": 0.959, "p_max": 0.988, "cover_m2_km2": 19600.0, "h3": "8811068c87fffff", "valid_frac_scene": 0.747, "wind_ms": 5.8, "sea": "спокойное", "scene_reliable": true, "field_event_id": "S3:HE419_MarLitter_transect28", "field_profile": "B", "field_date": "2014-04-11", "field_distance_km": 1412.3, "field_date_gap_days": 4474, "field_conc_items_km2": 43.1, "conc_A_items_km2": null, "conc_A_lo80": null, "conc_A_hi80": null, "conc_A_lo95": null, "conc_A_hi95": null, "conc_A_status": "unavailable", "conc_A_status_ru": "концентрация недоступна", "conc_A_reasons": "вне бассейна профиля: nw_atlantic_subtropical", "conc_A_model": "conc-A-c6bce5631d2b", "conc_B_items_km2": null, "conc_B_lo80": null, "conc_B_hi80": null, "conc_B_lo95": null, "conc_B_hi95": null, "conc_B_status": "unavailable", "conc_B_status_ru": "концентрация недоступна", "conc_B_reasons": "вне бассейна профиля: black_sea", "conc_B_model": "conc-B-c6bce5631d2b"}}, {"type": "Feature", "geometry": {"type": "Polygon", "coordinates": [[[29.994320696084227, 59.944100491596366], [29.994312603815533, 59.94401082085091], [29.99413386741206, 59.94401488054971], [29.994117683990325, 59.94383553902396], [29.994296419431233, 59.943831479354294], [29.99428832731563, 59.94374180860315], [29.99464579708182, 59.94373368856713], [29.994653890159974, 59.943823359289134], [29.9948326254478, 59.943819298893615], [29.99484881271976, 59.94399864030272], [29.994670076469387, 59.94400270072739], [29.99467816970064, 59.94409237144371], [29.994320696084227, 59.944100491596366]]]}, "properties": {"zone_id": "neva-2026-07-11-037", "aoi": "neva", "date": "2026-07-11", "scene_id": "S2C_MSIL2A_20260711T092031_R093_T36VUM_20260711T125414", "scene_datetime_utc": "2026-07-11T09:20:31.025000+00:00", "detection_status": "detected", "detection_status_ru": "обнаружено", "lon": 29.99448, "lat": 59.94392, "n_pixels": 4, "zone_area_km2": 0.0012, "cover_m2": 25.9, "p_mean": 0.94, "p_max": 0.996, "cover_m2_km2": 21583.3, "h3": "8811068c81fffff", "valid_frac_scene": 0.747, "wind_ms": 5.8, "sea": "спокойное", "scene_reliable": true, "field_event_id": "S3:HE419_MarLitter_transect28", "field_profile": "B", "field_date": "2014-04-11", "field_distance_km": 1411.9, "field_date_gap_days": 4474, "field_conc_items_km2": 43.1, "conc_A_items_km2": null, "conc_A_lo80": null, "conc_A_hi80": null, "conc_A_lo95": null, "conc_A_hi95": null, "conc_A_status": "unavailable", "conc_A_status_ru": "концентрация недоступна", "conc_A_reasons": "вне бассейна профиля: nw_atlantic_subtropical", "conc_A_model": "conc-A-c6bce5631d2b", "conc_B_items_km2": null, "conc_B_lo80": null, "conc_B_hi80": null, "conc_B_lo95": null, "conc_B_hi95": null, "conc_B_status": "unavailable", "conc_B_status_ru": "концентрация недоступна", "conc_B_reasons": "вне бассейна профиля: black_sea", "conc_B_model": "conc-B-c6bce5631d2b"}}, {"type": "Feature", "geometry": {"type": "Polygon", "coordinates": [[[29.974578942549954, 59.943648885990946], [29.974570903732065, 59.94355921362777], [29.974205391506924, 59.94347760686807], [29.974197353753013, 59.94338793447219], [29.974546787582536, 59.943290196527], [29.97455482624836, 59.94337986889581], [29.974733562419996, 59.94337583574468], [29.9747416016178, 59.943465508097105], [29.97492033822004, 59.94346147468953], [29.974928377949844, 59.9435511470256], [29.974749640866303, 59.943555180447675], [29.974757680165492, 59.94364485279635], [29.974578942549954, 59.943648885990946]]]}, "properties": {"zone_id": "neva-2026-07-11-038", "aoi": "neva", "date": "2026-07-11", "scene_id": "S2C_MSIL2A_20260711T092031_R093_T36VUM_20260711T125414", "scene_datetime_utc": "2026-07-11T09:20:31.025000+00:00", "detection_status": "detected", "detection_status_ru": "обнаружено", "lon": 29.97456, "lat": 59.94347, "n_pixels": 2, "zone_area_km2": 0.0008, "cover_m2": 12.9, "p_mean": 0.976, "p_max": 0.992, "cover_m2_km2": 16125.0, "h3": "8811068c8dfffff", "valid_frac_scene": 0.747, "wind_ms": 5.8, "sea": "спокойное", "scene_reliable": true, "field_event_id": "S3:HE419_MarLitter_transect28", "field_profile": "B", "field_date": "2014-04-11", "field_distance_km": 1410.9, "field_date_gap_days": 4474, "field_conc_items_km2": 43.1, "conc_A_items_km2": null, "conc_A_lo80": null, "conc_A_hi80": null, "conc_A_lo95": null, "conc_A_hi95": null, "conc_A_status": "unavailable", "conc_A_status_ru": "концентрация недоступна", "conc_A_reasons": "вне бассейна профиля: nw_atlantic_subtropical", "conc_A_model": "conc-A-c6bce5631d2b", "conc_B_items_km2": null, "conc_B_lo80": null, "conc_B_hi80": null, "conc_B_lo95": null, "conc_B_hi95": null, "conc_B_status": "unavailable", "conc_B_status_ru": "концентрация недоступна", "conc_B_reasons": "вне бассейна профиля: black_sea", "conc_B_model": "conc-B-c6bce5631d2b"}}, {"type": "Feature", "geometry": {"type": "Polygon", "coordinates": [[[29.96830705019863, 59.943610549623614], [29.968299028327767, 59.94352087675018], [29.968120290333182, 59.94352490119069], [29.96810424770583, 59.943345555409266], [29.9682829847378, 59.943341530997664], [29.96827496301869, 59.94325185811861], [29.968632435968264, 59.94324380859841], [29.968640458649975, 59.943333481448576], [29.968819195530184, 59.94332945631107], [29.96883524200799, 59.94350880197684], [29.96865650416517, 59.94351282714325], [29.96866452699865, 59.943602499987755], [29.96830705019863, 59.943610549623614]]]}, "properties": {"zone_id": "neva-2026-07-11-039", "aoi": "neva", "date": "2026-07-11", "scene_id": "S2C_MSIL2A_20260711T092031_R093_T36VUM_20260711T125414", "scene_datetime_utc": "2026-07-11T09:20:31.025000+00:00", "detection_status": "detected", "detection_status_ru": "обнаружено", "lon": 29.96847, "lat": 59.94343, "n_pixels": 4, "zone_area_km2": 0.0012, "cover_m2": 31.0, "p_mean": 0.992, "p_max": 1.0, "cover_m2_km2": 25833.3, "h3": "8811068cc7fffff", "valid_frac_scene": 0.747, "wind_ms": 5.8, "sea": "спокойное", "scene_reliable": true, "field_event_id": "S3:HE419_MarLitter_transect28", "field_profile": "B", "field_date": "2014-04-11", "field_distance_km": 1410.5, "field_date_gap_days": 4474, "field_conc_items_km2": 43.1, "conc_A_items_km2": null, "conc_A_lo80": null, "conc_A_hi80": null, "conc_A_lo95": null, "conc_A_hi95": null, "conc_A_status": "unavailable", "conc_A_status_ru": "концентрация недоступна", "conc_A_reasons": "вне бассейна профиля: nw_atlantic_subtropical", "conc_A_model": "conc-A-c6bce5631d2b", "conc_B_items_km2": null, "conc_B_lo80": null, "conc_B_hi80": null, "conc_B_lo95": null, "conc_B_hi95": null, "conc_B_status": "unavailable", "conc_B_status_ru": "концентрация недоступна", "conc_B_reasons": "вне бассейна профиля: black_sea", "conc_B_model": "conc-B-c6bce5631d2b"}}, {"type": "Feature", "geometry": {"type": "Polygon", "coordinates": [[[29.964334736144966, 59.94325066576385], [29.96432672511567, 59.94316099256321], [29.96396124164876, 59.94307935718003], [29.9639532316831, 59.942989683946756], [29.964131967471108, 59.9429856651725], [29.96412395707465, 59.94289599195176], [29.964660162691725, 59.942883934220525], [29.964668174532072, 59.94297360739793], [29.96484691011802, 59.94296958765582], [29.964854922490193, 59.9430592608169], [29.964676186422942, 59.943063280573455], [29.964684198364335, 59.94315295374712], [29.964334736144966, 59.94325066576385]]]}, "properties": {"zone_id": "neva-2026-07-11-040", "aoi": "neva", "date": "2026-07-11", "scene_id": "S2C_MSIL2A_20260711T092031_R093_T36VUM_20260711T125414", "scene_datetime_utc": "2026-07-11T09:20:31.025000+00:00", "detection_status": "detected", "detection_status_ru": "обнаружено", "lon": 29.96441, "lat": 59.94305, "n_pixels": 4, "zone_area_km2": 0.0012, "cover_m2": 27.5, "p_mean": 0.953, "p_max": 0.996, "cover_m2_km2": 22916.7, "h3": "8811068cc7fffff", "valid_frac_scene": 0.747, "wind_ms": 5.8, "sea": "спокойное", "scene_reliable": true, "field_event_id": "S3:HE419_MarLitter_transect28", "field_profile": "B", "field_date": "2014-04-11", "field_distance_km": 1410.3, "field_date_gap_days": 4474, "field_conc_items_km2": 43.1, "conc_A_items_km2": null, "conc_A_lo80": null, "conc_A_hi80": null, "conc_A_lo95": null, "conc_A_hi95": null, "conc_A_status": "unavailable", "conc_A_status_ru": "концентрация недоступна", "conc_A_reasons": "вне бассейна профиля: nw_atlantic_subtropical", "conc_A_model": "conc-A-c6bce5631d2b", "conc_B_items_km2": null, "conc_B_lo80": null, "conc_B_hi80": null, "conc_B_lo95": null, "conc_B_hi95": null, "conc_B_status": "unavailable", "conc_B_status_ru": "концентрация недоступна", "conc_B_reasons": "вне бассейна профиля: black_sea", "conc_B_model": "conc-B-c6bce5631d2b"}}, {"type": "Feature", "geometry": {"type": "Polygon", "coordinates": [[[29.99495470347147, 59.94318754336682], [29.99494660978803, 59.94309787266079], [29.99476787840134, 59.94310193318157], [29.994759785250185, 59.94301226245906], [29.994938516155624, 59.94300820195286], [29.99493042257426, 59.942918531243045], [29.995287883269544, 59.94291040953399], [29.995295977813402, 59.94300008021464], [29.995474708565737, 59.942996018982605], [29.995482803641885, 59.94308568964678], [29.99530407240831, 59.94308975089338], [29.995312167054248, 59.94317942157024], [29.99495470347147, 59.94318754336682]]]}, "properties": {"zone_id": "neva-2026-07-11-041", "aoi": "neva", "date": "2026-07-11", "scene_id": "S2C_MSIL2A_20260711T092031_R093_T36VUM_20260711T125414", "scene_datetime_utc": "2026-07-11T09:20:31.025000+00:00", "detection_status": "detected", "detection_status_ru": "обнаружено", "lon": 29.99512, "lat": 59.94305, "n_pixels": 2, "zone_area_km2": 0.0008, "cover_m2": 12.9, "p_mean": 0.98, "p_max": 1.0, "cover_m2_km2": 16125.0, "h3": "8811068c81fffff", "valid_frac_scene": 0.747, "wind_ms": 5.8, "sea": "спокойное", "scene_reliable": true, "field_event_id": "S3:HE419_MarLitter_transect28", "field_profile": "B", "field_date": "2014-04-11", "field_distance_km": 1412.0, "field_date_gap_days": 4474, "field_conc_items_km2": 43.1, "conc_A_items_km2": null, "conc_A_lo80": null, "conc_A_hi80": null, "conc_A_lo95": null, "conc_A_hi95": null, "conc_A_status": "unavailable", "conc_A_status_ru": "концентрация недоступна", "conc_A_reasons": "вне бассейна профиля: nw_atlantic_subtropical", "conc_A_model": "conc-A-c6bce5631d2b", "conc_B_items_km2": null, "conc_B_lo80": null, "conc_B_hi80": null, "conc_B_lo95": null, "conc_B_hi95": null, "conc_B_status": "unavailable", "conc_B_status_ru": "концентрация недоступна", "conc_B_reasons": "вне бассейна профиля: black_sea", "conc_B_model": "conc-B-c6bce5631d2b"}}, {"type": "Feature", "geometry": {"type": "Polygon", "coordinates": [[[29.96844567736894, 59.94315816061297], [29.968437655269703, 59.94306848774459], [29.968258919732218, 59.943072512354796], [29.968242876648084, 59.9428931665835], [29.96842161122298, 59.94288914200221], [29.96841358927549, 59.94279946912819], [29.968771057310956, 59.94279141926867], [29.96877908022102, 59.942881092113765], [29.968957814644153, 59.94287706680661], [29.968973861578622, 59.94305641246224], [29.96879512619291, 59.94306043779832], [29.96880314925474, 59.94315011063777], [29.96844567736894, 59.94315816061297]]]}, "properties": {"zone_id": "neva-2026-07-11-042", "aoi": "neva", "date": "2026-07-11", "scene_id": "S2C_MSIL2A_20260711T092031_R093_T36VUM_20260711T125414", "scene_datetime_utc": "2026-07-11T09:20:31.025000+00:00", "detection_status": "detected", "detection_status_ru": "обнаружено", "lon": 29.96861, "lat": 59.94297, "n_pixels": 4, "zone_area_km2": 0.0012, "cover_m2": 32.2, "p_mean": 0.924, "p_max": 0.992, "cover_m2_km2": 26833.3, "h3": "8811068cc7fffff", "valid_frac_scene": 0.747, "wind_ms": 5.8, "sea": "спокойное", "scene_reliable": true, "field_event_id": "S3:HE419_MarLitter_transect28", "field_profile": "B", "field_date": "2014-04-11", "field_distance_km": 1410.5, "field_date_gap_days": 4474, "field_conc_items_km2": 43.1, "conc_A_items_km2": null, "conc_A_lo80": null, "conc_A_hi80": null, "conc_A_lo95": null, "conc_A_hi95": null, "conc_A_status": "unavailable", "conc_A_status_ru": "концентрация недоступна", "conc_A_reasons": "вне бассейна профиля: nw_atlantic_subtropical", "conc_A_model": "conc-A-c6bce5631d2b", "conc_B_items_km2": null, "conc_B_lo80": null, "conc_B_hi80": null, "conc_B_lo95": null, "conc_B_hi95": null, "conc_B_status": "unavailable", "conc_B_status_ru": "концентрация недоступна", "conc_B_reasons": "вне бассейна профиля: black_sea", "conc_B_model": "conc-B-c6bce5631d2b"}}, {"type": "Feature", "geometry": {"type": "Polygon", "coordinates": [[[29.9458210466837, 59.942497586811804], [29.945813085884, 59.942407912104436], [29.945447654787472, 59.94232622499597], [29.94543969505078, 59.942236550256176], [29.94561842976809, 59.94223255659111], [29.94561046960029, 59.94214288186377], [29.945967937921697, 59.94213489383644], [29.945975899052108, 59.94222456853508], [29.94615463361882, 59.94222057414412], [29.94617055699286, 59.94239992350708], [29.9458210466837, 59.942497586811804]]]}, "properties": {"zone_id": "neva-2026-07-11-043", "aoi": "neva", "date": "2026-07-11", "scene_id": "S2C_MSIL2A_20260711T092031_R093_T36VUM_20260711T125414", "scene_datetime_utc": "2026-07-11T09:20:31.025000+00:00", "detection_status": "detected", "detection_status_ru": "обнаружено", "lon": 29.94583, "lat": 59.9423, "n_pixels": 3, "zone_area_km2": 0.001, "cover_m2": 40.0, "p_mean": 0.976, "p_max": 0.984, "cover_m2_km2": 40000.0, "h3": "8811068ccdfffff", "valid_frac_scene": 0.747, "wind_ms": 5.8, "sea": "спокойное", "scene_reliable": true, "field_event_id": "S3:HE419_MarLitter_transect28", "field_profile": "B", "field_date": "2014-04-11", "field_distance_km": 1409.3, "field_date_gap_days": 4474, "field_conc_items_km2": 43.1, "conc_A_items_km2": null, "conc_A_lo80": null, "conc_A_hi80": null, "conc_A_lo95": null, "conc_A_hi95": null, "conc_A_status": "unavailable", "conc_A_status_ru": "концентрация недоступна", "conc_A_reasons": "вне бассейна профиля: nw_atlantic_subtropical", "conc_A_model": "conc-A-c6bce5631d2b", "conc_B_items_km2": null, "conc_B_lo80": null, "conc_B_hi80": null, "conc_B_lo95": null, "conc_B_hi95": null, "conc_B_status": "unavailable", "conc_B_status_ru": "концентрация недоступна", "conc_B_reasons": "вне бассейна профиля: black_sea", "conc_B_model": "conc-B-c6bce5631d2b"}}, {"type": "Feature", "geometry": {"type": "Polygon", "coordinates": [[[29.99918751742431, 59.9424623254047], [29.999179412548724, 59.94237265503573], [29.999000685756318, 59.94237672126091], [29.998984477120878, 59.942197380488075], [29.99916320295086, 59.94219331429211], [29.999155098228584, 59.942103643917434], [29.99952065445751, 59.942185181174345], [29.999528760193314, 59.942274851517894], [29.999707486351188, 59.94227078458151], [29.999715592619317, 59.942360454908545], [29.99953686598023, 59.942364521859545], [29.999544971818256, 59.9424541921993], [29.99918751742431, 59.9424623254047]]]}, "properties": {"zone_id": "neva-2026-07-11-044", "aoi": "neva", "date": "2026-07-11", "scene_id": "S2C_MSIL2A_20260711T092031_R093_T36VUM_20260711T125414", "scene_datetime_utc": "2026-07-11T09:20:31.025000+00:00", "detection_status": "detected", "detection_status_ru": "обнаружено", "lon": 29.99932, "lat": 59.94229, "n_pixels": 3, "zone_area_km2": 0.001, "cover_m2": 23.5, "p_mean": 0.952, "p_max": 0.996, "cover_m2_km2": 23500.0, "h3": "8811068c87fffff", "valid_frac_scene": 0.747, "wind_ms": 5.8, "sea": "спокойное", "scene_reliable": true, "field_event_id": "S3:HE419_MarLitter_transect28", "field_profile": "B", "field_date": "2014-04-11", "field_distance_km": 1412.2, "field_date_gap_days": 4474, "field_conc_items_km2": 43.1, "conc_A_items_km2": null, "conc_A_lo80": null, "conc_A_hi80": null, "conc_A_lo95": null, "conc_A_hi95": null, "conc_A_status": "unavailable", "conc_A_status_ru": "концентрация недоступна", "conc_A_reasons": "вне бассейна профиля: nw_atlantic_subtropical", "conc_A_model": "conc-A-c6bce5631d2b", "conc_B_items_km2": null, "conc_B_lo80": null, "conc_B_hi80": null, "conc_B_lo95": null, "conc_B_hi95": null, "conc_B_status": "unavailable", "conc_B_status_ru": "концентрация недоступна", "conc_B_reasons": "вне бассейна профиля: black_sea", "conc_B_model": "conc-B-c6bce5631d2b"}}, {"type": "Feature", "geometry": {"type": "Polygon", "coordinates": [[[29.962979479170993, 59.94211304103097], [29.962971472167247, 59.94202336770486], [29.962606004532283, 59.941941728433626], [29.962589992702288, 59.941762381714355], [29.962768722105857, 59.94175836483582], [29.96276071578532, 59.94166869148779], [29.96311817347847, 59.941660657033765], [29.963126180761527, 59.94175033035292], [29.96330491001363, 59.94174631274854], [29.963328933609528, 59.94201533265148], [29.962979479170993, 59.94211304103097]]]}, "properties": {"zone_id": "neva-2026-07-11-045", "aoi": "neva", "date": "2026-07-11", "scene_id": "S2C_MSIL2A_20260711T092031_R093_T36VUM_20260711T125414", "scene_datetime_utc": "2026-07-11T09:20:31.025000+00:00", "detection_status": "detected", "detection_status_ru": "обнаружено", "lon": 29.96298, "lat": 59.94187, "n_pixels": 5, "zone_area_km2": 0.0014, "cover_m2": 31.8, "p_mean": 0.918, "p_max": 0.988, "cover_m2_km2": 22714.3, "h3": "8811068cc7fffff", "valid_frac_scene": 0.747, "wind_ms": 5.8, "sea": "спокойное", "scene_reliable": true, "field_event_id": "S3:HE419_MarLitter_transect28", "field_profile": "B", "field_date": "2014-04-11", "field_distance_km": 1410.2, "field_date_gap_days": 4474, "field_conc_items_km2": 43.1, "conc_A_items_km2": null, "conc_A_lo80": null, "conc_A_hi80": null, "conc_A_lo95": null, "conc_A_hi95": null, "conc_A_status": "unavailable", "conc_A_status_ru": "концентрация недоступна", "conc_A_reasons": "вне бассейна профиля: nw_atlantic_subtropical", "conc_A_model": "conc-A-c6bce5631d2b", "conc_B_items_km2": null, "conc_B_lo80": null, "conc_B_hi80": null, "conc_B_lo95": null, "conc_B_hi95": null, "conc_B_status": "unavailable", "conc_B_status_ru": "концентрация недоступна", "conc_B_reasons": "вне бассейна профиля: black_sea", "conc_B_model": "conc-B-c6bce5631d2b"}}, {"type": "Feature", "geometry": {"type": "Polygon", "coordinates": [[[29.94811620730395, 59.940110108329336], [29.948108241072024, 59.9400204337743], [29.947742830975084, 59.93993875284658], [29.947734865806066, 59.93984907825906], [29.947913587307575, 59.939845081579776], [29.94790562170756, 59.93975540700478], [29.94826306359746, 59.9397474129491], [29.94827103015992, 59.93983708749541], [29.948449751510747, 59.93983309009033], [29.948465685748804, 59.94001243914861], [29.94811620730395, 59.940110108329336]]]}, "properties": {"zone_id": "neva-2026-07-11-046", "aoi": "neva", "date": "2026-07-11", "scene_id": "S2C_MSIL2A_20260711T092031_R093_T36VUM_20260711T125414", "scene_datetime_utc": "2026-07-11T09:20:31.025000+00:00", "detection_status": "detected", "detection_status_ru": "обнаружено", "lon": 29.94813, "lat": 59.93992, "n_pixels": 3, "zone_area_km2": 0.001, "cover_m2": 30.2, "p_mean": 0.719, "p_max": 0.851, "cover_m2_km2": 30200.0, "h3": "8811068ccdfffff", "valid_frac_scene": 0.747, "wind_ms": 5.8, "sea": "спокойное", "scene_reliable": true, "field_event_id": "S3:HE419_MarLitter_transect28", "field_profile": "B", "field_date": "2014-04-11", "field_distance_km": 1409.3, "field_date_gap_days": 4474, "field_conc_items_km2": 43.1, "conc_A_items_km2": null, "conc_A_lo80": null, "conc_A_hi80": null, "conc_A_lo95": null, "conc_A_hi95": null, "conc_A_status": "unavailable", "conc_A_status_ru": "концентрация недоступна", "conc_A_reasons": "вне бассейна профиля: nw_atlantic_subtropical", "conc_A_model": "conc-A-c6bce5631d2b", "conc_B_items_km2": null, "conc_B_lo80": null, "conc_B_hi80": null, "conc_B_lo95": null, "conc_B_hi95": null, "conc_B_status": "unavailable", "conc_B_status_ru": "концентрация недоступна", "conc_B_reasons": "вне бассейна профиля: black_sea", "conc_B_model": "conc-B-c6bce5631d2b"}}, {"type": "Feature", "geometry": {"type": "Polygon", "coordinates": [[[29.94341372073337, 59.93958622623377], [29.943405767364588, 59.939496551292656], [29.943040374258164, 59.93941485719724], [29.943032421952108, 59.939325182223726], [29.94321114138986, 59.93932119193523], [29.94320318865274, 59.93923151697416], [29.94338190755914, 59.93922752645809], [29.943373954390946, 59.93913785150949], [29.9437393452215, 59.939219544700116], [29.94376320791423, 59.939488569448685], [29.94341372073337, 59.93958622623377]]]}, "properties": {"zone_id": "neva-2026-07-11-047", "aoi": "neva", "date": "2026-07-11", "scene_id": "S2C_MSIL2A_20260711T092031_R093_T36VUM_20260711T125414", "scene_datetime_utc": "2026-07-11T09:20:31.025000+00:00", "detection_status": "detected", "detection_status_ru": "обнаружено", "lon": 29.94344, "lat": 59.93936, "n_pixels": 4, "zone_area_km2": 0.0012, "cover_m2": 29.0, "p_mean": 0.956, "p_max": 0.98, "cover_m2_km2": 24166.7, "h3": "8811068ccdfffff", "valid_frac_scene": 0.747, "wind_ms": 5.8, "sea": "спокойное", "scene_reliable": true, "field_event_id": "S3:HE419_MarLitter_transect28", "field_profile": "B", "field_date": "2014-04-11", "field_distance_km": 1409.1, "field_date_gap_days": 4474, "field_conc_items_km2": 43.1, "conc_A_items_km2": null, "conc_A_lo80": null, "conc_A_hi80": null, "conc_A_lo95": null, "conc_A_hi95": null, "conc_A_status": "unavailable", "conc_A_status_ru": "концентрация недоступна", "conc_A_reasons": "вне бассейна профиля: nw_atlantic_subtropical", "conc_A_model": "conc-A-c6bce5631d2b", "conc_B_items_km2": null, "conc_B_lo80": null, "conc_B_hi80": null, "conc_B_lo95": null, "conc_B_hi95": null, "conc_B_status": "unavailable", "conc_B_status_ru": "концентрация недоступна", "conc_B_reasons": "вне бассейна профиля: black_sea", "conc_B_model": "conc-B-c6bce5631d2b"}}, {"type": "Feature", "geometry": {"type": "Polygon", "coordinates": [[[29.96774334207245, 59.93931027334055], [29.967735323110297, 59.93922060036246], [29.967556608164596, 59.93922462386726], [29.96754858973417, 59.939134950872884], [29.967727304198707, 59.93913092738254], [29.967719285337683, 59.93904125440072], [29.968076713152747, 59.93903320672316], [29.968084732976102, 59.93912287967607], [29.96826344728895, 59.939118855459974], [29.96827146764403, 59.93920852839654], [29.968092752850023, 59.939212552627126], [29.968100772774505, 59.939302225576284], [29.96774334207245, 59.93931027334055]]]}, "properties": {"zone_id": "neva-2026-07-11-048", "aoi": "neva", "date": "2026-07-11", "scene_id": "S2C_MSIL2A_20260711T092031_R093_T36VUM_20260711T125414", "scene_datetime_utc": "2026-07-11T09:20:31.025000+00:00", "detection_status": "detected", "detection_status_ru": "обнаружено", "lon": 29.96791, "lat": 59.93917, "n_pixels": 2, "zone_area_km2": 0.0008, "cover_m2": 15.7, "p_mean": 0.922, "p_max": 0.961, "cover_m2_km2": 19625.0, "h3": "8811068cebfffff", "valid_frac_scene": 0.747, "wind_ms": 5.8, "sea": "спокойное", "scene_reliable": true, "field_event_id": "S3:HE419_MarLitter_transect28", "field_profile": "B", "field_date": "2014-04-11", "field_distance_km": 1410.4, "field_date_gap_days": 4474, "field_conc_items_km2": 43.1, "conc_A_items_km2": null, "conc_A_lo80": null, "conc_A_hi80": null, "conc_A_lo95": null, "conc_A_hi95": null, "conc_A_status": "unavailable", "conc_A_status_ru": "концентрация недоступна", "conc_A_reasons": "вне бассейна профиля: nw_atlantic_subtropical", "conc_A_model": "conc-A-c6bce5631d2b", "conc_B_items_km2": null, "conc_B_lo80": null, "conc_B_hi80": null, "conc_B_lo95": null, "conc_B_hi95": null, "conc_B_status": "unavailable", "conc_B_status_ru": "концентрация недоступна", "conc_B_reasons": "вне бассейна профиля: black_sea", "conc_B_model": "conc-B-c6bce5631d2b"}}, {"type": "Feature", "geometry": {"type": "Polygon", "coordinates": [[[30.01102324681123, 59.93671133621114], [30.011015111861873, 59.93662166673625], [30.010649590049827, 59.9365401610363], [30.010641456165036, 59.93645049152831], [30.01082014916667, 59.93644640977549], [30.01081201485216, 59.93635674028029], [30.01116939973959, 59.93634857607837], [30.011177535016085, 59.93643824554427], [30.011356227863857, 59.936434163065826], [30.01136436367264, 59.93652383251518], [30.011543056950124, 59.93651974978023], [30.011551193291197, 59.93660941921301], [30.011372499532712, 59.93661350196264], [30.011380635444073, 59.9367031714082], [30.01102324681123, 59.93671133621114]]]}, "properties": {"zone_id": "neva-2026-07-11-049", "aoi": "neva", "date": "2026-07-11", "scene_id": "S2C_MSIL2A_20260711T092031_R093_T36VUM_20260711T125414", "scene_datetime_utc": "2026-07-11T09:20:31.025000+00:00", "detection_status": "detected", "detection_status_ru": "обнаружено", "lon": 30.0111, "lat": 59.93653, "n_pixels": 4, "zone_area_km2": 0.0012, "cover_m2": 23.9, "p_mean": 0.901, "p_max": 0.992, "cover_m2_km2": 19916.7, "h3": "8811068cabfffff", "valid_frac_scene": 0.747, "wind_ms": 5.8, "sea": "спокойное", "scene_reliable": true, "field_event_id": "S3:HE419_MarLitter_transect28", "field_profile": "B", "field_date": "2014-04-11", "field_distance_km": 1412.7, "field_date_gap_days": 4474, "field_conc_items_km2": 43.1, "conc_A_items_km2": null, "conc_A_lo80": null, "conc_A_hi80": null, "conc_A_lo95": null, "conc_A_hi95": null, "conc_A_status": "unavailable", "conc_A_status_ru": "концентрация недоступна", "conc_A_reasons": "вне бассейна профиля: nw_atlantic_subtropical", "conc_A_model": "conc-A-c6bce5631d2b", "conc_B_items_km2": null, "conc_B_lo80": null, "conc_B_hi80": null, "conc_B_lo95": null, "conc_B_hi95": null, "conc_B_status": "unavailable", "conc_B_status_ru": "концентрация недоступна", "conc_B_reasons": "вне бассейна профиля: black_sea", "conc_B_model": "conc-B-c6bce5631d2b"}}]}