{"type": "FeatureCollection", "features": [{"type": "Feature", "geometry": {"type": "Polygon", "coordinates": [[[44.695238578043565, 48.86766799120027], [44.69523912433239, 48.86757803423365], [44.69510276801724, 48.867577673756344], [44.69510386107558, 48.86739775982111], [44.69537711876724, 48.86730852363793], [44.69537657273094, 48.867398480609936], [44.695512928562685, 48.867398840762476], [44.6955118369708, 48.86757875470451], [44.695238578043565, 48.86766799120027]]]}, "properties": {"zone_id": "volgograd-2025-09-15-001", "aoi": "volgograd", "date": "2025-09-15", "scene_id": "S2B_MSIL2A_20250915T075609_R035_T38UMV_20250915T102058", "scene_datetime_utc": "2025-09-15T07:56:09.024000+00:00", "detection_status": "detected", "detection_status_ru": "обнаружено", "lon": 44.69531, "lat": 48.86749, "n_pixels": 2, "zone_area_km2": 0.0008, "cover_m2": 7.5, "p_mean": 0.931, "p_max": 0.984, "cover_m2_km2": 9375.0, "h3": "882d48a0b5fffff", "valid_frac_scene": 1.0, "wind_ms": 3.5, "sea": "спокойное", "scene_reliable": true, "field_event_id": "S4:DOORS3:T23", "field_profile": "B", "field_date": "2024-06-10", "field_distance_km": 765.8, "field_date_gap_days": 462, "field_conc_items_km2": 102.37, "conc_A_items_km2": null, "conc_A_lo80": null, "conc_A_hi80": null, "conc_A_lo95": null, "conc_A_hi95": null, "conc_A_status": "unavailable", "conc_A_status_ru": "концентрация недоступна", "conc_A_reasons": "вне бассейна профиля: nw_atlantic_subtropical", "conc_A_model": "conc-A-c6bce5631d2b", "conc_B_items_km2": null, "conc_B_lo80": null, "conc_B_hi80": null, "conc_B_lo95": null, "conc_B_hi95": null, "conc_B_status": "unavailable", "conc_B_status_ru": "концентрация недоступна", "conc_B_reasons": "вне бассейна профиля: black_sea", "conc_B_model": "conc-B-c6bce5631d2b"}}, {"type": "Feature", "geometry": {"type": "Polygon", "coordinates": [[[44.63475597286694, 48.76556840198345], [44.63475662522419, 48.7654784439713], [44.63462054637963, 48.76547801263646], [44.63462185157051, 48.76529809661058], [44.634894660395254, 48.7652090010964], [44.634894008290715, 48.765298959114176], [44.63503008665566, 48.76529939012497], [44.63502878292299, 48.76547930615898], [44.63475597286694, 48.76556840198345]]]}, "properties": {"zone_id": "volgograd-2025-09-15-002", "aoi": "volgograd", "date": "2025-09-15", "scene_id": "S2B_MSIL2A_20250915T075609_R035_T38UMV_20250915T102058", "scene_datetime_utc": "2025-09-15T07:56:09.024000+00:00", "detection_status": "detected", "detection_status_ru": "обнаружено", "lon": 44.63483, "lat": 48.76539, "n_pixels": 2, "zone_area_km2": 0.0008, "cover_m2": 42.4, "p_mean": 0.969, "p_max": 0.996, "cover_m2_km2": 53000.0, "h3": "882d48aac7fffff", "valid_frac_scene": 1.0, "wind_ms": 3.5, "sea": "спокойное", "scene_reliable": true, "field_event_id": "S4:DOORS3:T23", "field_profile": "B", "field_date": "2024-06-10", "field_distance_km": 753.6, "field_date_gap_days": 462, "field_conc_items_km2": 102.37, "conc_A_items_km2": null, "conc_A_lo80": null, "conc_A_hi80": null, "conc_A_lo95": null, "conc_A_hi95": null, "conc_A_status": "unavailable", "conc_A_status_ru": "концентрация недоступна", "conc_A_reasons": "вне бассейна профиля: nw_atlantic_subtropical", "conc_A_model": "conc-A-c6bce5631d2b", "conc_B_items_km2": null, "conc_B_lo80": null, "conc_B_hi80": null, "conc_B_lo95": null, "conc_B_hi95": null, "conc_B_status": "unavailable", "conc_B_status_ru": "концентрация недоступна", "conc_B_reasons": "вне бассейна профиля: black_sea", "conc_B_model": "conc-B-c6bce5631d2b"}}, {"type": "Feature", "geometry": {"type": "Polygon", "coordinates": [[[44.504935552813, 48.68222984397642], [44.50493643444962, 48.682139886188736], [44.50480058256376, 48.68213930231194], [44.504802346307734, 48.68195938673597], [44.505074930497834, 48.681870596528235], [44.50507404911619, 48.68196055432203], [44.50520990052695, 48.68196113787478], [44.505208138234416, 48.682141053461756], [44.504935552813, 48.68222984397642]]]}, "properties": {"zone_id": "volgograd-2025-09-15-003", "aoi": "volgograd", "date": "2025-09-15", "scene_id": "S2B_MSIL2A_20250915T075609_R035_T38UMV_20250915T102058", "scene_datetime_utc": "2025-09-15T07:56:09.024000+00:00", "detection_status": "detected", "detection_status_ru": "обнаружено", "lon": 44.50501, "lat": 48.68205, "n_pixels": 2, "zone_area_km2": 0.0008, "cover_m2": 6.7, "p_mean": 0.682, "p_max": 0.725, "cover_m2_km2": 8375.0, "h3": "882d48b9adfffff", "valid_frac_scene": 1.0, "wind_ms": 3.5, "sea": "спокойное", "scene_reliable": true, "field_event_id": "S4:DOORS3:T23", "field_profile": "B", "field_date": "2024-06-10", "field_distance_km": 741.7, "field_date_gap_days": 462, "field_conc_items_km2": 102.37, "conc_A_items_km2": null, "conc_A_lo80": null, "conc_A_hi80": null, "conc_A_lo95": null, "conc_A_hi95": null, "conc_A_status": "unavailable", "conc_A_status_ru": "концентрация недоступна", "conc_A_reasons": "вне бассейна профиля: nw_atlantic_subtropical", "conc_A_model": "conc-A-c6bce5631d2b", "conc_B_items_km2": null, "conc_B_lo80": null, "conc_B_hi80": null, "conc_B_lo95": null, "conc_B_hi95": null, "conc_B_status": "unavailable", "conc_B_status_ru": "концентрация недоступна", "conc_B_reasons": "вне бассейна профиля: black_sea", "conc_B_model": "conc-B-c6bce5631d2b"}}]}