{"type": "FeatureCollection", "features": [{"type": "Feature", "geometry": {"type": "Polygon", "coordinates": [[[37.66091026216699, 44.65627359163963], [37.66091233382953, 44.6561835915551], [37.66078624143613, 44.65618211281296], [37.660790385121956, 44.656002112648615], [37.66091647712549, 44.65600359138153], [37.66091854875892, 44.65591359129249], [37.66117073240523, 44.65591654833156], [37.66116866116167, 44.65600654842982], [37.661294753194305, 44.65600802674521], [37.661292682135965, 44.65609802684659], [37.6611665899084, 44.656096548526584], [37.66116451864543, 44.656186548621854], [37.66091026216699, 44.65627359163963]]]}, "properties": {"zone_id": "novorossiysk-2025-09-04-001", "aoi": "novorossiysk", "date": "2025-09-04", "scene_id": "S2B_MSIL2A_20250904T082559_R021_T37TCK_20250904T111317", "scene_datetime_utc": "2025-09-04T08:25:59.024000+00:00", "detection_status": "detected", "detection_status_ru": "обнаружено", "lon": 37.66102, "lat": 44.65608, "n_pixels": 3, "zone_area_km2": 0.001, "cover_m2": 20.8, "p_mean": 0.976, "p_max": 0.988, "cover_m2_km2": 20800.0, "h3": "882d728959fffff", "valid_frac_scene": 0.999, "wind_ms": 5.9, "sea": "спокойное", "scene_reliable": true, "field_event_id": "S4:DOORS3:T12", "field_profile": "B", "field_date": "2024-06-04", "field_distance_km": 251.8, "field_date_gap_days": 457, "field_conc_items_km2": 48.97, "conc_A_items_km2": null, "conc_A_lo80": null, "conc_A_hi80": null, "conc_A_lo95": null, "conc_A_hi95": null, "conc_A_status": "unavailable", "conc_A_status_ru": "концентрация недоступна", "conc_A_reasons": "вне бассейна профиля: nw_atlantic_subtropical", "conc_A_model": "conc-A-c6bce5631d2b", "conc_B_items_km2": 669.0, "conc_B_lo80": 142.8, "conc_B_hi80": 2247.3, "conc_B_lo95": 89.1, "conc_B_hi95": 4207.8, "conc_B_status": "research_estimate", "conc_B_status_ru": "исследовательская оценка", "conc_B_reasons": "ближайшее полевое измерение в 252 км (> 60 км); месяц 9 вне месяцев обучения [6]; log_dist_coast_km = 0.8 вне диапазона обучения [1.7; 5.0]", "conc_B_model": "conc-B-c6bce5631d2b"}}, {"type": "Feature", "geometry": {"type": "Polygon", "coordinates": [[[37.62854510042059, 44.65417899650969], [37.62854722198994, 44.65408899759686], [37.62842113582352, 44.6540874831781], [37.62842537932222, 44.65390748535738], [37.62867967223005, 44.65382051511475], [37.6286775508854, 44.65391051403683], [37.62880363668189, 44.653912028167824], [37.62879939435258, 44.6540920260169], [37.62854510042059, 44.65417899650969]]]}, "properties": {"zone_id": "novorossiysk-2025-09-04-002", "aoi": "novorossiysk", "date": "2025-09-04", "scene_id": "S2B_MSIL2A_20250904T082559_R021_T37TCK_20250904T111317", "scene_datetime_utc": "2025-09-04T08:25:59.024000+00:00", "detection_status": "detected", "detection_status_ru": "обнаружено", "lon": 37.62861, "lat": 44.654, "n_pixels": 2, "zone_area_km2": 0.0008, "cover_m2": 29.4, "p_mean": 0.863, "p_max": 0.875, "cover_m2_km2": 36750.0, "h3": "882d728b3dfffff", "valid_frac_scene": 0.999, "wind_ms": 5.9, "sea": "спокойное", "scene_reliable": true, "field_event_id": "S4:DOORS3:T12", "field_profile": "B", "field_date": "2024-06-04", "field_distance_km": 251.1, "field_date_gap_days": 457, "field_conc_items_km2": 48.97, "conc_A_items_km2": null, "conc_A_lo80": null, "conc_A_hi80": null, "conc_A_lo95": null, "conc_A_hi95": null, "conc_A_status": "unavailable", "conc_A_status_ru": "концентрация недоступна", "conc_A_reasons": "вне бассейна профиля: nw_atlantic_subtropical", "conc_A_model": "conc-A-c6bce5631d2b", "conc_B_items_km2": 901.4, "conc_B_lo80": 192.7, "conc_B_hi80": 3027.3, "conc_B_lo95": 120.4, "conc_B_hi95": 5668.0, "conc_B_status": "research_estimate", "conc_B_status_ru": "исследовательская оценка", "conc_B_reasons": "ближайшее полевое измерение в 251 км (> 60 км); месяц 9 вне месяцев обучения [6]; log_dist_coast_km = 0.0 вне диапазона обучения [1.7; 5.0]", "conc_B_model": "conc-B-c6bce5631d2b"}}, {"type": "Feature", "geometry": {"type": "Polygon", "coordinates": [[[37.97770285680924, 44.57222465209531], [37.97770443380582, 44.57213464040662], [37.977578508779985, 44.5721335130967], [37.97758008596335, 44.572043501410064], [37.97783351242171, 44.571955744188905], [37.97783193563406, 44.57204575588405], [37.97795786048049, 44.57204688291281], [37.97795628387963, 44.57213689461], [37.977830358839036, 44.57213576757771], [37.97782878203662, 44.57222577926992], [37.97770285680924, 44.57222465209531]]]}, "properties": {"zone_id": "novorossiysk-2025-09-04-003", "aoi": "novorossiysk", "date": "2025-09-04", "scene_id": "S2B_MSIL2A_20250904T082559_R021_T37TCK_20250904T111317", "scene_datetime_utc": "2025-09-04T08:25:59.024000+00:00", "detection_status": "detected", "detection_status_ru": "обнаружено", "lon": 37.97777, "lat": 44.57209, "n_pixels": 1, "zone_area_km2": 0.0005, "cover_m2": 9.4, "p_mean": 0.992, "p_max": 0.992, "cover_m2_km2": 18800.0, "h3": "882d721a83fffff", "valid_frac_scene": 0.999, "wind_ms": 5.9, "sea": "спокойное", "scene_reliable": true, "field_event_id": "S4:DOORS3:T13", "field_profile": "B", "field_date": "2024-06-04", "field_distance_km": 248.2, "field_date_gap_days": 457, "field_conc_items_km2": 263.57, "conc_A_items_km2": null, "conc_A_lo80": null, "conc_A_hi80": null, "conc_A_lo95": null, "conc_A_hi95": null, "conc_A_status": "unavailable", "conc_A_status_ru": "концентрация недоступна", "conc_A_reasons": "вне бассейна профиля: nw_atlantic_subtropical", "conc_A_model": "conc-A-c6bce5631d2b", "conc_B_items_km2": 901.4, "conc_B_lo80": 192.7, "conc_B_hi80": 3027.3, "conc_B_lo95": 120.4, "conc_B_hi95": 5668.0, "conc_B_status": "research_estimate", "conc_B_status_ru": "исследовательская оценка", "conc_B_reasons": "ближайшее полевое измерение в 248 км (> 60 км); месяц 9 вне месяцев обучения [6]; log_dist_coast_km = 0.0 вне диапазона обучения [1.7; 5.0]", "conc_B_model": "conc-B-c6bce5631d2b"}}]}