{"type": "FeatureCollection", "features": [{"type": "Feature", "geometry": {"type": "Polygon", "coordinates": [[[37.906806223944756, 44.64556872372083], [37.906807914609814, 44.64547871525267], [37.906557444247454, 44.64538629260113], [37.90655913528646, 44.645296284137565], [37.906685215597356, 44.64529749129432], [37.906686906433556, 44.645207482825505], [37.906939066689326, 44.64520989671402], [37.90693737624291, 44.64529990519038], [37.90706345657757, 44.64530111192966], [37.90706007605077, 44.64548112888547], [37.906806223944756, 44.64556872372083]]]}, "properties": {"zone_id": "novorossiysk-2025-07-08-001", "aoi": "novorossiysk", "date": "2025-07-08", "scene_id": "S2C_MSIL2A_20250708T081631_R121_T37TCK_20250708T120258", "scene_datetime_utc": "2025-07-08T08:16:31.025000+00:00", "detection_status": "detected", "detection_status_ru": "обнаружено", "lon": 37.90683, "lat": 44.64537, "n_pixels": 3, "zone_area_km2": 0.001, "cover_m2": 11.8, "p_mean": 0.905, "p_max": 1.0, "cover_m2_km2": 11800.0, "h3": "882d72102bfffff", "valid_frac_scene": 1.0, "wind_ms": 4.5, "sea": "спокойное", "scene_reliable": true, "field_event_id": "S4:DOORS3:T13", "field_profile": "B", "field_date": "2024-06-04", "field_distance_km": 255.0, "field_date_gap_days": 399, "field_conc_items_km2": 263.57, "conc_A_items_km2": null, "conc_A_lo80": null, "conc_A_hi80": null, "conc_A_lo95": null, "conc_A_hi95": null, "conc_A_status": "unavailable", "conc_A_status_ru": "концентрация недоступна", "conc_A_reasons": "вне бассейна профиля: nw_atlantic_subtropical", "conc_A_model": "conc-A-c6bce5631d2b", "conc_B_items_km2": 669.0, "conc_B_lo80": 142.8, "conc_B_hi80": 2247.4, "conc_B_lo95": 89.1, "conc_B_hi95": 4208.0, "conc_B_status": "research_estimate", "conc_B_status_ru": "исследовательская оценка", "conc_B_reasons": "ближайшее полевое измерение в 255 км (> 60 км); месяц 7 вне месяцев обучения [6]; log_dist_coast_km = 0.8 вне диапазона обучения [1.7; 5.0]", "conc_B_model": "conc-B-c6bce5631d2b"}}, {"type": "Feature", "geometry": {"type": "Polygon", "coordinates": [[[37.91059202435587, 44.64542485271533], [37.9105937091583, 44.64533484413141], [37.91046762860235, 44.645333641288566], [37.91046931359178, 44.64524363270692], [37.91059539395284, 44.645244835546016], [37.91059707873949, 44.645154826959136], [37.91072315891354, 44.64515602965533], [37.91072484349742, 44.64506602106323], [37.91097531928532, 44.64515843463022], [37.91097195087349, 44.645338451825005], [37.91084587029386, 44.64533724939964], [37.91084418588122, 44.64542725799106], [37.91059202435587, 44.64542485271533]]]}, "properties": {"zone_id": "novorossiysk-2025-07-08-002", "aoi": "novorossiysk", "date": "2025-07-08", "scene_id": "S2C_MSIL2A_20250708T081631_R121_T37TCK_20250708T120258", "scene_datetime_utc": "2025-07-08T08:16:31.025000+00:00", "detection_status": "detected", "detection_status_ru": "обнаружено", "lon": 37.91074, "lat": 44.64526, "n_pixels": 3, "zone_area_km2": 0.001, "cover_m2": 19.6, "p_mean": 0.996, "p_max": 1.0, "cover_m2_km2": 19600.0, "h3": "882d72103dfffff", "valid_frac_scene": 1.0, "wind_ms": 4.5, "sea": "спокойное", "scene_reliable": true, "field_event_id": "S4:DOORS3:T13", "field_profile": "B", "field_date": "2024-06-04", "field_distance_km": 255.1, "field_date_gap_days": 399, "field_conc_items_km2": 263.57, "conc_A_items_km2": null, "conc_A_lo80": null, "conc_A_hi80": null, "conc_A_lo95": null, "conc_A_hi95": null, "conc_A_status": "unavailable", "conc_A_status_ru": "концентрация недоступна", "conc_A_reasons": "вне бассейна профиля: nw_atlantic_subtropical", "conc_A_model": "conc-A-c6bce5631d2b", "conc_B_items_km2": 669.0, "conc_B_lo80": 142.8, "conc_B_hi80": 2247.4, "conc_B_lo95": 89.1, "conc_B_hi95": 4208.0, "conc_B_status": "research_estimate", "conc_B_status_ru": "исследовательская оценка", "conc_B_reasons": "ближайшее полевое измерение в 255 км (> 60 км); месяц 7 вне месяцев обучения [6]; log_dist_coast_km = 0.8 вне диапазона обучения [1.7; 5.0]", "conc_B_model": "conc-B-c6bce5631d2b"}}, {"type": "Feature", "geometry": {"type": "Polygon", "coordinates": [[[37.69749729591241, 44.616365719117155], [37.69749930818151, 44.61627571707385], [37.69737330032338, 44.61627427972969], [37.697375312777595, 44.61618427768937], [37.6975013204412, 44.61618571502903], [37.697503332691454, 44.616095712982734], [37.69775534765784, 44.61609858723615], [37.69775333579665, 44.61618858929142], [37.6978793434885, 44.61619002621413], [37.697877331812435, 44.61628002827239], [37.69775132392604, 44.61627859134519], [37.69774931204602, 44.616368593397475], [37.69749729591241, 44.616365719117155]]]}, "properties": {"zone_id": "novorossiysk-2025-07-08-003", "aoi": "novorossiysk", "date": "2025-07-08", "scene_id": "S2C_MSIL2A_20250708T081631_R121_T37TCK_20250708T120258", "scene_datetime_utc": "2025-07-08T08:16:31.025000+00:00", "detection_status": "detected", "detection_status_ru": "обнаружено", "lon": 37.69763, "lat": 44.61623, "n_pixels": 2, "zone_area_km2": 0.0008, "cover_m2": 12.2, "p_mean": 0.755, "p_max": 0.941, "cover_m2_km2": 15250.0, "h3": "882d728923fffff", "valid_frac_scene": 1.0, "wind_ms": 4.5, "sea": "спокойное", "scene_reliable": true, "field_event_id": "S4:DOORS3:T12", "field_profile": "B", "field_date": "2024-06-04", "field_distance_km": 248.1, "field_date_gap_days": 399, "field_conc_items_km2": 48.97, "conc_A_items_km2": null, "conc_A_lo80": null, "conc_A_hi80": null, "conc_A_lo95": null, "conc_A_hi95": null, "conc_A_status": "unavailable", "conc_A_status_ru": "концентрация недоступна", "conc_A_reasons": "вне бассейна профиля: nw_atlantic_subtropical", "conc_A_model": "conc-A-c6bce5631d2b", "conc_B_items_km2": 520.5, "conc_B_lo80": 111.0, "conc_B_hi80": 1749.2, "conc_B_lo95": 69.2, "conc_B_hi95": 3275.4, "conc_B_status": "research_estimate", "conc_B_status_ru": "исследовательская оценка", "conc_B_reasons": "ближайшее полевое измерение в 248 км (> 60 км); месяц 7 вне месяцев обучения [6]", "conc_B_model": "conc-B-c6bce5631d2b"}}, {"type": "Feature", "geometry": {"type": "Polygon", "coordinates": [[[37.87841566749706, 44.600641021799966], [37.87841739934985, 44.600551013484505], [37.87829141705274, 44.60054977609211], [37.878294881122876, 44.60036975946444], [37.87854857658152, 44.60028222577108], [37.87854684494748, 44.60037223409484], [37.878672826871934, 44.60037347120164], [37.87866936396839, 44.600553487852466], [37.87841566749706, 44.600641021799966]]]}, "properties": {"zone_id": "novorossiysk-2025-07-08-004", "aoi": "novorossiysk", "date": "2025-07-08", "scene_id": "S2C_MSIL2A_20250708T081631_R121_T37TCK_20250708T120258", "scene_datetime_utc": "2025-07-08T08:16:31.025000+00:00", "detection_status": "detected", "detection_status_ru": "обнаружено", "lon": 37.87848, "lat": 44.60046, "n_pixels": 2, "zone_area_km2": 0.0008, "cover_m2": 20.4, "p_mean": 0.925, "p_max": 0.984, "cover_m2_km2": 25500.0, "h3": "882d721147fffff", "valid_frac_scene": 1.0, "wind_ms": 4.5, "sea": "спокойное", "scene_reliable": true, "field_event_id": "S4:DOORS3:T13", "field_profile": "B", "field_date": "2024-06-04", "field_distance_km": 249.7, "field_date_gap_days": 399, "field_conc_items_km2": 263.57, "conc_A_items_km2": null, "conc_A_lo80": null, "conc_A_hi80": null, "conc_A_lo95": null, "conc_A_hi95": null, "conc_A_status": "unavailable", "conc_A_status_ru": "концентрация недоступна", "conc_A_reasons": "вне бассейна профиля: nw_atlantic_subtropical", "conc_A_model": "conc-A-c6bce5631d2b", "conc_B_items_km2": 540.9, "conc_B_lo80": 115.3, "conc_B_hi80": 1817.5, "conc_B_lo95": 71.9, "conc_B_hi95": 3403.2, "conc_B_status": "research_estimate", "conc_B_status_ru": "исследовательская оценка", "conc_B_reasons": "ближайшее полевое измерение в 250 км (> 60 км); месяц 7 вне месяцев обучения [6]", "conc_B_model": "conc-B-c6bce5631d2b"}}]}