{"type": "FeatureCollection", "features": [{"type": "Feature", "geometry": {"type": "Polygon", "coordinates": [[[29.56544712339007, 60.092749706939735], [29.565440147697302, 60.09266000561575], [29.56526054177109, 60.092663489382204], [29.56524659149223, 60.09248408670395], [29.56542619644434, 60.09248060296261], [29.565419220884138, 60.09239090163345], [29.56577842968166, 60.092383933445014], [29.565785406215966, 60.092473634749055], [29.565965011035487, 60.09247015027685], [29.565978965210785, 60.09264955285466], [29.565799359417156, 60.09265303735197], [29.565806336084048, 60.09274273865087], [29.56544712339007, 60.092749706939735]]]}, "properties": {"zone_id": "neva-2025-07-24-001", "aoi": "neva", "date": "2025-07-24", "scene_id": "S2B_MSIL2A_20250724T093039_R136_T36VUM_20250724T103330", "scene_datetime_utc": "2025-07-24T09:30:39.024000+00:00", "detection_status": "detected", "detection_status_ru": "обнаружено", "lon": 29.56561, "lat": 60.09257, "n_pixels": 4, "zone_area_km2": 0.0012, "cover_m2": 24.3, "p_mean": 0.852, "p_max": 0.969, "cover_m2_km2": 20250.0, "h3": "8811044b65fffff", "valid_frac_scene": 0.992, "wind_ms": 4.2, "sea": "спокойное", "scene_reliable": true, "field_event_id": "S3:HE419_MarLitter_transect28", "field_profile": "B", "field_date": "2014-04-11", "field_distance_km": 1392.9, "field_date_gap_days": 4122, "field_conc_items_km2": 43.1, "conc_A_items_km2": null, "conc_A_lo80": null, "conc_A_hi80": null, "conc_A_lo95": null, "conc_A_hi95": null, "conc_A_status": "unavailable", "conc_A_status_ru": "концентрация недоступна", "conc_A_reasons": "вне бассейна профиля: nw_atlantic_subtropical", "conc_A_model": "conc-A-c6bce5631d2b", "conc_B_items_km2": null, "conc_B_lo80": null, "conc_B_hi80": null, "conc_B_lo95": null, "conc_B_hi95": null, "conc_B_status": "unavailable", "conc_B_status_ru": "концентрация недоступна", "conc_B_reasons": "вне бассейна профиля: black_sea", "conc_B_model": "conc-B-c6bce5631d2b"}}, {"type": "Feature", "geometry": {"type": "Polygon", "coordinates": [[[29.91654483200665, 60.086100991092096], [29.916536904546025, 60.08601131600053], [29.916357387477206, 60.086015275912374], [29.91634946055304, 60.08592560080469], [29.916528977135602, 60.08592164090712], [29.91652104977537, 60.08583196581185], [29.916880081817396, 60.085824045315086], [29.916888010150135, 60.085913720381804], [29.917067526582102, 60.08590975975408], [29.917075455451297, 60.085999434804705], [29.916895938533077, 60.086003395446696], [29.916903866966216, 60.08609307050972], [29.91654483200665, 60.086100991092096]]]}, "properties": {"zone_id": "neva-2025-07-24-002", "aoi": "neva", "date": "2025-07-24", "scene_id": "S2B_MSIL2A_20250724T093039_R136_T36VUM_20250724T103330", "scene_datetime_utc": "2025-07-24T09:30:39.024000+00:00", "detection_status": "detected", "detection_status_ru": "обнаружено", "lon": 29.91671, "lat": 60.08596, "n_pixels": 2, "zone_area_km2": 0.0008, "cover_m2": 9.0, "p_mean": 0.865, "p_max": 0.969, "cover_m2_km2": 11250.0, "h3": "881106b165fffff", "valid_frac_scene": 0.992, "wind_ms": 4.2, "sea": "спокойное", "scene_reliable": true, "field_event_id": "S3:HE419_MarLitter_transect28", "field_profile": "B", "field_date": "2014-04-11", "field_distance_km": 1411.5, "field_date_gap_days": 4122, "field_conc_items_km2": 43.1, "conc_A_items_km2": null, "conc_A_lo80": null, "conc_A_hi80": null, "conc_A_lo95": null, "conc_A_hi95": null, "conc_A_status": "unavailable", "conc_A_status_ru": "концентрация недоступна", "conc_A_reasons": "вне бассейна профиля: nw_atlantic_subtropical", "conc_A_model": "conc-A-c6bce5631d2b", "conc_B_items_km2": null, "conc_B_lo80": null, "conc_B_hi80": null, "conc_B_lo95": null, "conc_B_hi95": null, "conc_B_status": "unavailable", "conc_B_status_ru": "концентрация недоступна", "conc_B_reasons": "вне бассейна профиля: black_sea", "conc_B_model": "conc-B-c6bce5631d2b"}}, {"type": "Feature", "geometry": {"type": "Polygon", "coordinates": [[[29.91201730205979, 60.08575153897195], [29.91200938700639, 60.085661863514716], [29.911829871114968, 60.08566581727079], [29.91182195659794, 60.08557614179745], [29.912001472003116, 60.085572188055636], [29.91199355704995, 60.08548251259473], [29.912360502663102, 60.08556427984185], [29.91236841863889, 60.08565395527243], [29.9121889028477, 60.08565790951526], [29.91219681838735, 60.08574758495825], [29.91201730205979, 60.08575153897195]]]}, "properties": {"zone_id": "neva-2025-07-24-003", "aoi": "neva", "date": "2025-07-24", "scene_id": "S2B_MSIL2A_20250724T093039_R136_T36VUM_20250724T103330", "scene_datetime_utc": "2025-07-24T09:30:39.024000+00:00", "detection_status": "detected", "detection_status_ru": "обнаружено", "lon": 29.9121, "lat": 60.08562, "n_pixels": 1, "zone_area_km2": 0.0005, "cover_m2": 9.4, "p_mean": 0.988, "p_max": 0.988, "cover_m2_km2": 18800.0, "h3": "881106b16dfffff", "valid_frac_scene": 0.992, "wind_ms": 4.2, "sea": "спокойное", "scene_reliable": true, "field_event_id": "S3:HE419_MarLitter_transect28", "field_profile": "B", "field_date": "2014-04-11", "field_distance_km": 1411.3, "field_date_gap_days": 4122, "field_conc_items_km2": 43.1, "conc_A_items_km2": null, "conc_A_lo80": null, "conc_A_hi80": null, "conc_A_lo95": null, "conc_A_hi95": null, "conc_A_status": "unavailable", "conc_A_status_ru": "концентрация недоступна", "conc_A_reasons": "вне бассейна профиля: nw_atlantic_subtropical", "conc_A_model": "conc-A-c6bce5631d2b", "conc_B_items_km2": null, "conc_B_lo80": null, "conc_B_hi80": null, "conc_B_lo95": null, "conc_B_hi95": null, "conc_B_status": "unavailable", "conc_B_status_ru": "концентрация недоступна", "conc_B_reasons": "вне бассейна профиля: black_sea", "conc_B_model": "conc-B-c6bce5631d2b"}}, {"type": "Feature", "geometry": {"type": "Polygon", "coordinates": [[[30.005179089838908, 60.079713142595615], [30.00517092378261, 60.079623474594726], [30.004991455799363, 60.07962755448628], [30.004966959398267, 60.07935855042819], [30.00514642592388, 60.07935447058072], [30.00513826007436, 60.079264802572254], [30.00549719199876, 60.0792566421769], [30.00550535882003, 60.07934631015598], [30.00568482519056, 60.07934222957871], [30.005701159959944, 60.079521565501764], [30.00535039171417, 60.07961939445991], [30.005358558256347, 60.07970906244608], [30.005179089838908, 60.079713142595615]]]}, "properties": {"zone_id": "neva-2025-07-24-004", "aoi": "neva", "date": "2025-07-24", "scene_id": "S2B_MSIL2A_20250724T093039_R136_T36VUM_20250724T103330", "scene_datetime_utc": "2025-07-24T09:30:39.024000+00:00", "detection_status": "detected", "detection_status_ru": "обнаружено", "lon": 30.00532, "lat": 60.07947, "n_pixels": 5, "zone_area_km2": 0.0014, "cover_m2": 75.7, "p_mean": 0.875, "p_max": 0.98, "cover_m2_km2": 54071.4, "h3": "881106baebfffff", "valid_frac_scene": 0.992, "wind_ms": 4.2, "sea": "спокойное", "scene_reliable": true, "field_event_id": "S3:HE419_MarLitter_transect28", "field_profile": "B", "field_date": "2014-04-11", "field_distance_km": 1416.1, "field_date_gap_days": 4122, "field_conc_items_km2": 43.1, "conc_A_items_km2": null, "conc_A_lo80": null, "conc_A_hi80": null, "conc_A_lo95": null, "conc_A_hi95": null, "conc_A_status": "unavailable", "conc_A_status_ru": "концентрация недоступна", "conc_A_reasons": "вне бассейна профиля: nw_atlantic_subtropical", "conc_A_model": "conc-A-c6bce5631d2b", "conc_B_items_km2": null, "conc_B_lo80": null, "conc_B_hi80": null, "conc_B_lo95": null, "conc_B_hi95": null, "conc_B_status": "unavailable", "conc_B_status_ru": "концентрация недоступна", "conc_B_reasons": "вне бассейна профиля: black_sea", "conc_B_model": "conc-B-c6bce5631d2b"}}, {"type": "Feature", "geometry": {"type": "Polygon", "coordinates": [[[29.988057966349373, 60.07533905426564], [29.98804984820635, 60.075249384801786], [29.987870401178753, 60.075253441294265], [29.987854166018394, 60.075074102331705], [29.988033612074474, 60.07507004586846], [29.98802549408561, 60.074980376398926], [29.988392504032483, 60.07506193221225], [29.9884087421074, 60.07524127108715], [29.988057966349373, 60.07533905426564]]]}, "properties": {"zone_id": "neva-2025-07-24-005", "aoi": "neva", "date": "2025-07-24", "scene_id": "S2B_MSIL2A_20250724T093039_R136_T36VUM_20250724T103330", "scene_datetime_utc": "2025-07-24T09:30:39.024000+00:00", "detection_status": "detected", "detection_status_ru": "обнаружено", "lon": 29.98813, "lat": 60.07516, "n_pixels": 2, "zone_area_km2": 0.0008, "cover_m2": 36.1, "p_mean": 0.675, "p_max": 0.788, "cover_m2_km2": 45125.0, "h3": "881106ba17fffff", "valid_frac_scene": 0.992, "wind_ms": 4.2, "sea": "спокойное", "scene_reliable": true, "field_event_id": "S3:HE419_MarLitter_transect28", "field_profile": "B", "field_date": "2014-04-11", "field_distance_km": 1415.1, "field_date_gap_days": 4122, "field_conc_items_km2": 43.1, "conc_A_items_km2": null, "conc_A_lo80": null, "conc_A_hi80": null, "conc_A_lo95": null, "conc_A_hi95": null, "conc_A_status": "unavailable", "conc_A_status_ru": "концентрация недоступна", "conc_A_reasons": "вне бассейна профиля: nw_atlantic_subtropical", "conc_A_model": "conc-A-c6bce5631d2b", "conc_B_items_km2": null, "conc_B_lo80": null, "conc_B_hi80": null, "conc_B_lo95": null, "conc_B_hi95": null, "conc_B_status": "unavailable", "conc_B_status_ru": "концентрация недоступна", "conc_B_reasons": "вне бассейна профиля: black_sea", "conc_B_model": "conc-B-c6bce5631d2b"}}, {"type": "Feature", "geometry": {"type": "Polygon", "coordinates": [[[29.994991284002154, 60.07446330956619], [29.99498314732667, 60.07437364065767], [29.99480370619121, 60.0743777065191], [29.994795570052947, 60.07428803759405], [29.994975010702696, 60.07428397174727], [29.994958737609227, 60.07410463392082], [29.99477929793091, 60.07410869973832], [29.994771161947142, 60.0740190308076], [29.99495060113975, 60.07401496500474], [29.994926192040285, 60.07374595824519], [29.995105629724282, 60.07374189224304], [29.99509749297509, 60.073652223334065], [29.995464504937765, 60.07373375950911], [29.995480780533455, 60.073913097262846], [29.99566021903434, 60.07390903050174], [29.99566835739515, 60.073998699361134], [29.99548891840856, 60.07400276613687], [29.99550519431329, 60.074182103879245], [29.995325754303767, 60.074186170441045], [29.9953420294431, 60.074365508205155], [29.994991284002154, 60.07446330956619]]]}, "properties": {"zone_id": "neva-2025-07-24-006", "aoi": "neva", "date": "2025-07-24", "scene_id": "S2B_MSIL2A_20250724T093039_R136_T36VUM_20250724T103330", "scene_datetime_utc": "2025-07-24T09:30:39.024000+00:00", "detection_status": "detected", "detection_status_ru": "обнаружено", "lon": 29.9952, "lat": 60.07402, "n_pixels": 8, "zone_area_km2": 0.0024, "cover_m2": 147.5, "p_mean": 0.765, "p_max": 0.992, "cover_m2_km2": 61458.3, "h3": "881106bae9fffff", "valid_frac_scene": 0.992, "wind_ms": 4.2, "sea": "спокойное", "scene_reliable": true, "field_event_id": "S3:HE419_MarLitter_transect28", "field_profile": "B", "field_date": "2014-04-11", "field_distance_km": 1415.4, "field_date_gap_days": 4122, "field_conc_items_km2": 43.1, "conc_A_items_km2": null, "conc_A_lo80": null, "conc_A_hi80": null, "conc_A_lo95": null, "conc_A_hi95": null, "conc_A_status": "unavailable", "conc_A_status_ru": "концентрация недоступна", "conc_A_reasons": "вне бассейна профиля: nw_atlantic_subtropical", "conc_A_model": "conc-A-c6bce5631d2b", "conc_B_items_km2": null, "conc_B_lo80": null, "conc_B_hi80": null, "conc_B_lo95": null, "conc_B_hi95": null, "conc_B_status": "unavailable", "conc_B_status_ru": "концентрация недоступна", "conc_B_reasons": "вне бассейна профиля: black_sea", "conc_B_model": "conc-B-c6bce5631d2b"}}, {"type": "Feature", "geometry": {"type": "Polygon", "coordinates": [[[29.9956276661062, 60.07355035504533], [29.995619528002937, 60.073460686176475], [29.995440091930533, 60.07346475286434], [29.995431954364463, 60.07337508397896], [29.99561138995118, 60.07337101730577], [29.995603251950932, 60.07328134843315], [29.995970260970086, 60.073362883229706], [29.99597839999322, 60.07345255207113], [29.995798964023834, 60.07345661924539], [29.995807102612787, 60.07354628809961], [29.9956276661062, 60.07355035504533]]]}, "properties": {"zone_id": "neva-2025-07-24-007", "aoi": "neva", "date": "2025-07-24", "scene_id": "S2B_MSIL2A_20250724T093039_R136_T36VUM_20250724T103330", "scene_datetime_utc": "2025-07-24T09:30:39.024000+00:00", "detection_status": "detected", "detection_status_ru": "обнаружено", "lon": 29.99571, "lat": 60.07341, "n_pixels": 1, "zone_area_km2": 0.0005, "cover_m2": 20.0, "p_mean": 0.882, "p_max": 0.882, "cover_m2_km2": 40000.0, "h3": "881106bae9fffff", "valid_frac_scene": 0.992, "wind_ms": 4.2, "sea": "спокойное", "scene_reliable": true, "field_event_id": "S3:HE419_MarLitter_transect28", "field_profile": "B", "field_date": "2014-04-11", "field_distance_km": 1415.4, "field_date_gap_days": 4122, "field_conc_items_km2": 43.1, "conc_A_items_km2": null, "conc_A_lo80": null, "conc_A_hi80": null, "conc_A_lo95": null, "conc_A_hi95": null, "conc_A_status": "unavailable", "conc_A_status_ru": "концентрация недоступна", "conc_A_reasons": "вне бассейна профиля: nw_atlantic_subtropical", "conc_A_model": "conc-A-c6bce5631d2b", "conc_B_items_km2": null, "conc_B_lo80": null, "conc_B_hi80": null, "conc_B_lo95": null, "conc_B_hi95": null, "conc_B_status": "unavailable", "conc_B_status_ru": "концентрация недоступна", "conc_B_reasons": "вне бассейна профиля: black_sea", "conc_B_model": "conc-B-c6bce5631d2b"}}, {"type": "Feature", "geometry": {"type": "Polygon", "coordinates": [[[29.99652484812399, 60.07353001788458], [29.99651670759228, 60.073440349088976], [29.996337271777442, 60.07344441699291], [29.99632099183997, 60.07326507936676], [29.996500426683433, 60.07326101149213], [29.996492286306296, 60.073171342690884], [29.996851154867304, 60.07316320624129], [29.996859296215796, 60.07325287501325], [29.997038730904695, 60.07324880640899], [29.997055014727636, 60.07342814391793], [29.99687557906738, 60.073432212551495], [29.99688372057046, 60.073521881317795], [29.99652484812399, 60.07353001788458]]]}, "properties": {"zone_id": "neva-2025-07-24-008", "aoi": "neva", "date": "2025-07-24", "scene_id": "S2B_MSIL2A_20250724T093039_R136_T36VUM_20250724T103330", "scene_datetime_utc": "2025-07-24T09:30:39.024000+00:00", "detection_status": "detected", "detection_status_ru": "обнаружено", "lon": 29.99669, "lat": 60.07335, "n_pixels": 4, "zone_area_km2": 0.0012, "cover_m2": 59.6, "p_mean": 0.838, "p_max": 0.902, "cover_m2_km2": 49666.7, "h3": "881106baedfffff", "valid_frac_scene": 0.992, "wind_ms": 4.2, "sea": "спокойное", "scene_reliable": true, "field_event_id": "S3:HE419_MarLitter_transect28", "field_profile": "B", "field_date": "2014-04-11", "field_distance_km": 1415.5, "field_date_gap_days": 4122, "field_conc_items_km2": 43.1, "conc_A_items_km2": null, "conc_A_lo80": null, "conc_A_hi80": null, "conc_A_lo95": null, "conc_A_hi95": null, "conc_A_status": "unavailable", "conc_A_status_ru": "концентрация недоступна", "conc_A_reasons": "вне бассейна профиля: nw_atlantic_subtropical", "conc_A_model": "conc-A-c6bce5631d2b", "conc_B_items_km2": null, "conc_B_lo80": null, "conc_B_hi80": null, "conc_B_lo95": null, "conc_B_hi95": null, "conc_B_status": "unavailable", "conc_B_status_ru": "концентрация недоступна", "conc_B_reasons": "вне бассейна профиля: black_sea", "conc_B_model": "conc-B-c6bce5631d2b"}}, {"type": "Feature", "geometry": {"type": "Polygon", "coordinates": [[[29.99805018141329, 60.072507040267965], [29.998042037077447, 60.07241737158346], [29.99786260706875, 60.07242144151507], [29.997854463270095, 60.072331772813996], [29.998033892793142, 60.07232770289704], [29.998025748560387, 60.07223803420876], [29.998392751684598, 60.07231956233353], [29.998400896940193, 60.07240923099064], [29.998221467034593, 60.07241330140864], [29.99822961185609, 60.0725029700785], [29.99805018141329, 60.072507040267965]]]}, "properties": {"zone_id": "neva-2025-07-24-009", "aoi": "neva", "date": "2025-07-24", "scene_id": "S2B_MSIL2A_20250724T093039_R136_T36VUM_20250724T103330", "scene_datetime_utc": "2025-07-24T09:30:39.024000+00:00", "detection_status": "detected", "detection_status_ru": "обнаружено", "lon": 29.99813, "lat": 60.07237, "n_pixels": 1, "zone_area_km2": 0.0005, "cover_m2": 19.2, "p_mean": 0.604, "p_max": 0.604, "cover_m2_km2": 38400.0, "h3": "881106baedfffff", "valid_frac_scene": 0.992, "wind_ms": 4.2, "sea": "спокойное", "scene_reliable": true, "field_event_id": "S3:HE419_MarLitter_transect28", "field_profile": "B", "field_date": "2014-04-11", "field_distance_km": 1415.5, "field_date_gap_days": 4122, "field_conc_items_km2": 43.1, "conc_A_items_km2": null, "conc_A_lo80": null, "conc_A_hi80": null, "conc_A_lo95": null, "conc_A_hi95": null, "conc_A_status": "unavailable", "conc_A_status_ru": "концентрация недоступна", "conc_A_reasons": "вне бассейна профиля: nw_atlantic_subtropical", "conc_A_model": "conc-A-c6bce5631d2b", "conc_B_items_km2": null, "conc_B_lo80": null, "conc_B_hi80": null, "conc_B_lo95": null, "conc_B_hi95": null, "conc_B_status": "unavailable", "conc_B_status_ru": "концентрация недоступна", "conc_B_reasons": "вне бассейна профиля: black_sea", "conc_B_model": "conc-B-c6bce5631d2b"}}, {"type": "Feature", "geometry": {"type": "Polygon", "coordinates": [[[29.999306193430236, 60.0724785438344], [29.999298045694854, 60.072388875252514], [29.99911861604704, 60.072392946886545], [29.99911046884887, 60.0723032782881], [29.999289898011032, 60.07229920666874], [29.99928175037878, 60.07220953808306], [29.999461179003738, 60.072205466235175], [29.999453030937413, 60.072115797662256], [29.999820036098946, 60.07219732180976], [29.999828185188118, 60.072286990351444], [29.999648756180658, 60.072291062700394], [29.99965690483577, 60.07238073125485], [29.999306193430236, 60.0724785438344]]]}, "properties": {"zone_id": "neva-2025-07-24-010", "aoi": "neva", "date": "2025-07-24", "scene_id": "S2B_MSIL2A_20250724T093039_R136_T36VUM_20250724T103330", "scene_datetime_utc": "2025-07-24T09:30:39.024000+00:00", "detection_status": "detected", "detection_status_ru": "обнаружено", "lon": 29.99947, "lat": 60.0723, "n_pixels": 2, "zone_area_km2": 0.0008, "cover_m2": 36.1, "p_mean": 0.71, "p_max": 0.757, "cover_m2_km2": 45125.0, "h3": "881106baedfffff", "valid_frac_scene": 0.992, "wind_ms": 4.2, "sea": "спокойное", "scene_reliable": true, "field_event_id": "S3:HE419_MarLitter_transect28", "field_profile": "B", "field_date": "2014-04-11", "field_distance_km": 1415.6, "field_date_gap_days": 4122, "field_conc_items_km2": 43.1, "conc_A_items_km2": null, "conc_A_lo80": null, "conc_A_hi80": null, "conc_A_lo95": null, "conc_A_hi95": null, "conc_A_status": "unavailable", "conc_A_status_ru": "концентрация недоступна", "conc_A_reasons": "вне бассейна профиля: nw_atlantic_subtropical", "conc_A_model": "conc-A-c6bce5631d2b", "conc_B_items_km2": null, "conc_B_lo80": null, "conc_B_hi80": null, "conc_B_lo95": null, "conc_B_hi95": null, "conc_B_status": "unavailable", "conc_B_status_ru": "концентрация недоступна", "conc_B_reasons": "вне бассейна профиля: black_sea", "conc_B_model": "conc-B-c6bce5631d2b"}}, {"type": "Feature", "geometry": {"type": "Polygon", "coordinates": [[[29.996590314818167, 60.072270586617485], [29.9965821745221, 60.072180917810066], [29.996402745558093, 60.0721849857521], [29.996394605799182, 60.072095316928134], [29.996574034277543, 60.07209124900074], [29.996565894084515, 60.07200158018955], [29.996932891079712, 60.07208311241639], [29.996941032295545, 60.07217278119639], [29.99676160343458, 60.072176849624846], [29.996769744216298, 60.07226651841762], [29.996590314818167, 60.072270586617485]]]}, "properties": {"zone_id": "neva-2025-07-24-011", "aoi": "neva", "date": "2025-07-24", "scene_id": "S2B_MSIL2A_20250724T093039_R136_T36VUM_20250724T103330", "scene_datetime_utc": "2025-07-24T09:30:39.024000+00:00", "detection_status": "detected", "detection_status_ru": "обнаружено", "lon": 29.99667, "lat": 60.07213, "n_pixels": 1, "zone_area_km2": 0.0005, "cover_m2": 15.3, "p_mean": 0.753, "p_max": 0.753, "cover_m2_km2": 30600.0, "h3": "881106baedfffff", "valid_frac_scene": 0.992, "wind_ms": 4.2, "sea": "спокойное", "scene_reliable": true, "field_event_id": "S3:HE419_MarLitter_transect28", "field_profile": "B", "field_date": "2014-04-11", "field_distance_km": 1415.4, "field_date_gap_days": 4122, "field_conc_items_km2": 43.1, "conc_A_items_km2": null, "conc_A_lo80": null, "conc_A_hi80": null, "conc_A_lo95": null, "conc_A_hi95": null, "conc_A_status": "unavailable", "conc_A_status_ru": "концентрация недоступна", "conc_A_reasons": "вне бассейна профиля: nw_atlantic_subtropical", "conc_A_model": "conc-A-c6bce5631d2b", "conc_B_items_km2": null, "conc_B_lo80": null, "conc_B_hi80": null, "conc_B_lo95": null, "conc_B_hi95": null, "conc_B_status": "unavailable", "conc_B_status_ru": "концентрация недоступна", "conc_B_reasons": "вне бассейна профиля: black_sea", "conc_B_model": "conc-B-c6bce5631d2b"}}, {"type": "Feature", "geometry": {"type": "Polygon", "coordinates": [[[29.99851516230781, 60.071687811137], [29.998507016978994, 60.071598142479424], [29.998327591495645, 60.07160221300871], [29.998319446704, 60.07151254433458], [29.998498871701727, 60.071508473819975], [29.99849072647601, 60.071418805158615], [29.99885772154253, 60.071500332061134], [29.998865867791032, 60.071590000691266], [29.99868644241079, 60.07159407170694], [29.99869458822523, 60.071683740349854], [29.99851516230781, 60.071687811137]]]}, "properties": {"zone_id": "neva-2025-07-24-012", "aoi": "neva", "date": "2025-07-24", "scene_id": "S2B_MSIL2A_20250724T093039_R136_T36VUM_20250724T103330", "scene_datetime_utc": "2025-07-24T09:30:39.024000+00:00", "detection_status": "detected", "detection_status_ru": "обнаружено", "lon": 29.99859, "lat": 60.07155, "n_pixels": 1, "zone_area_km2": 0.0005, "cover_m2": 16.5, "p_mean": 0.718, "p_max": 0.718, "cover_m2_km2": 33000.0, "h3": "881106baedfffff", "valid_frac_scene": 0.992, "wind_ms": 4.2, "sea": "спокойное", "scene_reliable": true, "field_event_id": "S3:HE419_MarLitter_transect28", "field_profile": "B", "field_date": "2014-04-11", "field_distance_km": 1415.5, "field_date_gap_days": 4122, "field_conc_items_km2": 43.1, "conc_A_items_km2": null, "conc_A_lo80": null, "conc_A_hi80": null, "conc_A_lo95": null, "conc_A_hi95": null, "conc_A_status": "unavailable", "conc_A_status_ru": "концентрация недоступна", "conc_A_reasons": "вне бассейна профиля: nw_atlantic_subtropical", "conc_A_model": "conc-A-c6bce5631d2b", "conc_B_items_km2": null, "conc_B_lo80": null, "conc_B_hi80": null, "conc_B_lo95": null, "conc_B_hi95": null, "conc_B_status": "unavailable", "conc_B_status_ru": "концентрация недоступна", "conc_B_reasons": "вне бассейна профиля: black_sea", "conc_B_model": "conc-B-c6bce5631d2b"}}, {"type": "Feature", "geometry": {"type": "Polygon", "coordinates": [[[29.6252522150257, 60.053124998927856], [29.625245088223622, 60.053035301308405], [29.625065706072622, 60.053038864837035], [29.625051453574972, 60.05285946956726], [29.625230834754763, 60.05285590606429], [29.625223708087976, 60.05276620843965], [29.625589596979072, 60.052848778328745], [29.62560385239034, 60.053028173521525], [29.6252522150257, 60.053124998927856]]]}, "properties": {"zone_id": "neva-2025-07-24-013", "aoi": "neva", "date": "2025-07-24", "scene_id": "S2B_MSIL2A_20250724T093039_R136_T36VUM_20250724T103330", "scene_datetime_utc": "2025-07-24T09:30:39.024000+00:00", "detection_status": "detected", "detection_status_ru": "обнаружено", "lon": 29.62533, "lat": 60.05294, "n_pixels": 2, "zone_area_km2": 0.0008, "cover_m2": 7.1, "p_mean": 0.892, "p_max": 0.925, "cover_m2_km2": 8875.0, "h3": "88110694a3fffff", "valid_frac_scene": 0.992, "wind_ms": 4.2, "sea": "спокойное", "scene_reliable": true, "field_event_id": "S3:HE419_MarLitter_transect28", "field_profile": "B", "field_date": "2014-04-11", "field_distance_km": 1395.0, "field_date_gap_days": 4122, "field_conc_items_km2": 43.1, "conc_A_items_km2": null, "conc_A_lo80": null, "conc_A_hi80": null, "conc_A_lo95": null, "conc_A_hi95": null, "conc_A_status": "unavailable", "conc_A_status_ru": "концентрация недоступна", "conc_A_reasons": "вне бассейна профиля: nw_atlantic_subtropical", "conc_A_model": "conc-A-c6bce5631d2b", "conc_B_items_km2": null, "conc_B_lo80": null, "conc_B_hi80": null, "conc_B_lo95": null, "conc_B_hi95": null, "conc_B_status": "unavailable", "conc_B_status_ru": "концентрация недоступна", "conc_B_reasons": "вне бассейна профиля: black_sea", "conc_B_model": "conc-B-c6bce5631d2b"}}, {"type": "Feature", "geometry": {"type": "Polygon", "coordinates": [[[29.572177530394878, 60.01293328886207], [29.572170558873786, 60.012843586920326], [29.571991386927188, 60.01284707706121], [29.571984415934477, 60.01275737510521], [29.572163587396755, 60.01275388497694], [29.572156615963795, 60.01266418303177], [29.572694128633326, 60.01265371122755], [29.572701101519215, 60.01274341313501], [29.57288027280523, 60.01273992203536], [29.5728872462195, 60.012829623928546], [29.572708074449178, 60.01283311504074], [29.57271504742322, 60.012922816944794], [29.572177530394878, 60.01293328886207]]]}, "properties": {"zone_id": "neva-2025-07-24-014", "aoi": "neva", "date": "2025-07-24", "scene_id": "S2B_MSIL2A_20250724T093039_R136_T36VUM_20250724T103330", "scene_datetime_utc": "2025-07-24T09:30:39.024000+00:00", "detection_status": "detected", "detection_status_ru": "обнаружено", "lon": 29.57244, "lat": 60.01279, "n_pixels": 3, "zone_area_km2": 0.0011, "cover_m2": 19.2, "p_mean": 0.844, "p_max": 0.988, "cover_m2_km2": 17454.5, "h3": "88110695c1fffff", "valid_frac_scene": 0.992, "wind_ms": 4.2, "sea": "спокойное", "scene_reliable": true, "field_event_id": "S3:HE419_MarLitter_transect28", "field_profile": "B", "field_date": "2014-04-11", "field_distance_km": 1391.0, "field_date_gap_days": 4122, "field_conc_items_km2": 43.1, "conc_A_items_km2": null, "conc_A_lo80": null, "conc_A_hi80": null, "conc_A_lo95": null, "conc_A_hi95": null, "conc_A_status": "unavailable", "conc_A_status_ru": "концентрация недоступна", "conc_A_reasons": "вне бассейна профиля: nw_atlantic_subtropical", "conc_A_model": "conc-A-c6bce5631d2b", "conc_B_items_km2": null, "conc_B_lo80": null, "conc_B_hi80": null, "conc_B_lo95": null, "conc_B_hi95": null, "conc_B_status": "unavailable", "conc_B_status_ru": "концентрация недоступна", "conc_B_reasons": "вне бассейна профиля: black_sea", "conc_B_model": "conc-B-c6bce5631d2b"}}, {"type": "Feature", "geometry": {"type": "Polygon", "coordinates": [[[30.060728983143857, 59.9883125700034], [30.060720696848172, 59.98822290536185], [30.06054173310164, 59.98822705683852], [30.060525161632533, 59.98804772751982], [30.06087480052125, 59.98794975975144], [30.06086651395217, 59.987860095117156], [30.060687552188572, 59.98786424677646], [30.06067926615446, 59.987774582125304], [30.060858227435407, 59.987770430480936], [30.06084994097095, 59.98768076584277], [30.061207862410605, 59.98767246185682], [30.061216149840345, 59.987762126465114], [30.061395110964337, 59.98775797409372], [30.06140339892904, 59.98784763868516], [30.061224437322405, 59.9878517910715], [30.061241012443496, 59.988031120278464], [30.061419975015436, 59.98802696786227], [30.06142826313712, 59.98811663244794], [30.06107862418429, 59.98821460168148], [30.061086911445305, 59.988304266293184], [30.060728983143857, 59.9883125700034]]]}, "properties": {"zone_id": "neva-2025-07-24-015", "aoi": "neva", "date": "2025-07-24", "scene_id": "S2B_MSIL2A_20250724T093039_R136_T36VUM_20250724T103330", "scene_datetime_utc": "2025-07-24T09:30:39.024000+00:00", "detection_status": "detected", "detection_status_ru": "обнаружено", "lon": 30.06097, "lat": 59.98803, "n_pixels": 7, "zone_area_km2": 0.0022, "cover_m2": 59.6, "p_mean": 0.927, "p_max": 0.996, "cover_m2_km2": 27090.9, "h3": "881106b909fffff", "valid_frac_scene": 0.992, "wind_ms": 4.2, "sea": "спокойное", "scene_reliable": true, "field_event_id": "S3:HE419_MarLitter_transect28", "field_profile": "B", "field_date": "2014-04-11", "field_distance_km": 1416.7, "field_date_gap_days": 4122, "field_conc_items_km2": 43.1, "conc_A_items_km2": null, "conc_A_lo80": null, "conc_A_hi80": null, "conc_A_lo95": null, "conc_A_hi95": null, "conc_A_status": "unavailable", "conc_A_status_ru": "концентрация недоступна", "conc_A_reasons": "вне бассейна профиля: nw_atlantic_subtropical", "conc_A_model": "conc-A-c6bce5631d2b", "conc_B_items_km2": null, "conc_B_lo80": null, "conc_B_hi80": null, "conc_B_lo95": null, "conc_B_hi95": null, "conc_B_status": "unavailable", "conc_B_status_ru": "концентрация недоступна", "conc_B_reasons": "вне бассейна профиля: black_sea", "conc_B_model": "conc-B-c6bce5631d2b"}}, {"type": "Feature", "geometry": {"type": "Polygon", "coordinates": [[[29.699636991584505, 59.9673540999222], [29.699629688261926, 59.967264406547145], [29.699450780836102, 59.96726806785968], [29.699443478042188, 59.96717837446971], [29.69962238498545, 59.967174713170365], [29.69961508175506, 59.967085019791774], [29.700151800860585, 59.967074034479204], [29.70015910553865, 59.96716372781829], [29.70033801229751, 59.967160065549606], [29.70034531750424, 59.96724975887377], [29.70016641026282, 59.96725342115562], [29.70017371503309, 59.96734311449115], [29.699636991584505, 59.9673540999222]]]}, "properties": {"zone_id": "neva-2025-07-24-016", "aoi": "neva", "date": "2025-07-24", "scene_id": "S2B_MSIL2A_20250724T093039_R136_T36VUM_20250724T103330", "scene_datetime_utc": "2025-07-24T09:30:39.024000+00:00", "detection_status": "detected", "detection_status_ru": "обнаружено", "lon": 29.69989, "lat": 59.96721, "n_pixels": 3, "zone_area_km2": 0.0011, "cover_m2": 9.8, "p_mean": 0.876, "p_max": 0.996, "cover_m2_km2": 8909.1, "h3": "88110680dbfffff", "valid_frac_scene": 0.992, "wind_ms": 4.2, "sea": "спокойное", "scene_reliable": true, "field_event_id": "S3:HE419_MarLitter_transect28", "field_profile": "B", "field_date": "2014-04-11", "field_distance_km": 1396.6, "field_date_gap_days": 4122, "field_conc_items_km2": 43.1, "conc_A_items_km2": null, "conc_A_lo80": null, "conc_A_hi80": null, "conc_A_lo95": null, "conc_A_hi95": null, "conc_A_status": "unavailable", "conc_A_status_ru": "концентрация недоступна", "conc_A_reasons": "вне бассейна профиля: nw_atlantic_subtropical", "conc_A_model": "conc-A-c6bce5631d2b", "conc_B_items_km2": null, "conc_B_lo80": null, "conc_B_hi80": null, "conc_B_lo95": null, "conc_B_hi95": null, "conc_B_status": "unavailable", "conc_B_status_ru": "концентрация недоступна", "conc_B_reasons": "вне бассейна профиля: black_sea", "conc_B_model": "conc-B-c6bce5631d2b"}}, {"type": "Feature", "geometry": {"type": "Polygon", "coordinates": [[[30.10074454854671, 59.965542542702806], [30.10073616170956, 59.96545288112156], [30.10055732751117, 59.965457085872025], [30.100548941208743, 59.965367424273744], [30.10072777492532, 59.96536321953838], [30.100719388193998, 59.96527355795324], [30.10108544219974, 59.96535480934135], [30.101093829947608, 59.96544447089431], [30.10091499585504, 59.96544867612899], [30.100923383174006, 59.965538337695136], [30.10074454854671, 59.965542542702806]]]}, "properties": {"zone_id": "neva-2025-07-24-017", "aoi": "neva", "date": "2025-07-24", "scene_id": "S2B_MSIL2A_20250724T093039_R136_T36VUM_20250724T103330", "scene_datetime_utc": "2025-07-24T09:30:39.024000+00:00", "detection_status": "detected", "detection_status_ru": "обнаружено", "lon": 30.10082, "lat": 59.96541, "n_pixels": 1, "zone_area_km2": 0.0005, "cover_m2": 3.9, "p_mean": 0.953, "p_max": 0.953, "cover_m2_km2": 7800.0, "h3": "881106b927fffff", "valid_frac_scene": 0.992, "wind_ms": 4.2, "sea": "спокойное", "scene_reliable": true, "field_event_id": "S3:HE419_MarLitter_transect28", "field_profile": "B", "field_date": "2014-04-11", "field_distance_km": 1418.3, "field_date_gap_days": 4122, "field_conc_items_km2": 43.1, "conc_A_items_km2": null, "conc_A_lo80": null, "conc_A_hi80": null, "conc_A_lo95": null, "conc_A_hi95": null, "conc_A_status": "unavailable", "conc_A_status_ru": "концентрация недоступна", "conc_A_reasons": "вне бассейна профиля: nw_atlantic_subtropical", "conc_A_model": "conc-A-c6bce5631d2b", "conc_B_items_km2": null, "conc_B_lo80": null, "conc_B_hi80": null, "conc_B_lo95": null, "conc_B_hi95": null, "conc_B_status": "unavailable", "conc_B_status_ru": "концентрация недоступна", "conc_B_reasons": "вне бассейна профиля: black_sea", "conc_B_model": "conc-B-c6bce5631d2b"}}, {"type": "Feature", "geometry": {"type": "Polygon", "coordinates": [[[29.578168450385615, 59.95621834008291], [29.578161478568486, 59.95612863778718], [29.5779826136821, 59.956132134082374], [29.57796867114456, 59.955952729460606], [29.5781475350662, 59.955949233190545], [29.57814056338105, 59.95585953088966], [29.5785052627775, 59.95594223992357], [29.578519208209276, 59.956121644469924], [29.578168450385615, 59.95621834008291]]]}, "properties": {"zone_id": "neva-2025-07-24-018", "aoi": "neva", "date": "2025-07-24", "scene_id": "S2B_MSIL2A_20250724T093039_R136_T36VUM_20250724T103330", "scene_datetime_utc": "2025-07-24T09:30:39.024000+00:00", "detection_status": "detected", "detection_status_ru": "обнаружено", "lon": 29.57824, "lat": 59.95604, "n_pixels": 2, "zone_area_km2": 0.0008, "cover_m2": 6.3, "p_mean": 0.873, "p_max": 0.922, "cover_m2_km2": 7875.0, "h3": "88110682c9fffff", "valid_frac_scene": 0.992, "wind_ms": 4.2, "sea": "спокойное", "scene_reliable": true, "field_event_id": "S3:HE419_MarLitter_transect28", "field_profile": "B", "field_date": "2014-04-11", "field_distance_km": 1389.8, "field_date_gap_days": 4122, "field_conc_items_km2": 43.1, "conc_A_items_km2": null, "conc_A_lo80": null, "conc_A_hi80": null, "conc_A_lo95": null, "conc_A_hi95": null, "conc_A_status": "unavailable", "conc_A_status_ru": "концентрация недоступна", "conc_A_reasons": "вне бассейна профиля: nw_atlantic_subtropical", "conc_A_model": "conc-A-c6bce5631d2b", "conc_B_items_km2": null, "conc_B_lo80": null, "conc_B_hi80": null, "conc_B_lo95": null, "conc_B_hi95": null, "conc_B_status": "unavailable", "conc_B_status_ru": "концентрация недоступна", "conc_B_reasons": "вне бассейна профиля: black_sea", "conc_B_model": "conc-B-c6bce5631d2b"}}, {"type": "Feature", "geometry": {"type": "Polygon", "coordinates": [[[30.15190431022045, 59.94563857779337], [30.151895791967462, 59.9455489203143], [30.15171707368666, 59.94555319352679], [30.151708555968426, 59.94546353603039], [30.15188727376817, 59.945459262833225], [30.151878755622597, 59.94536960535022], [30.152244709206546, 59.9454507157133], [30.152253228367922, 59.94554037316365], [30.15207451019455, 59.945544646859915], [30.152083028928587, 59.94563430432364], [30.15190431022045, 59.94563857779337]]]}, "properties": {"zone_id": "neva-2025-07-24-019", "aoi": "neva", "date": "2025-07-24", "scene_id": "S2B_MSIL2A_20250724T093039_R136_T36VUM_20250724T103330", "scene_datetime_utc": "2025-07-24T09:30:39.024000+00:00", "detection_status": "detected", "detection_status_ru": "обнаружено", "lon": 30.15198, "lat": 59.9455, "n_pixels": 1, "zone_area_km2": 0.0005, "cover_m2": 2.0, "p_mean": 0.651, "p_max": 0.651, "cover_m2_km2": 4000.0, "h3": "88110616e7fffff", "valid_frac_scene": 0.992, "wind_ms": 4.2, "sea": "спокойное", "scene_reliable": true, "field_event_id": "S3:HE419_MarLitter_transect28", "field_profile": "B", "field_date": "2014-04-11", "field_distance_km": 1420.5, "field_date_gap_days": 4122, "field_conc_items_km2": 43.1, "conc_A_items_km2": null, "conc_A_lo80": null, "conc_A_hi80": null, "conc_A_lo95": null, "conc_A_hi95": null, "conc_A_status": "unavailable", "conc_A_status_ru": "концентрация недоступна", "conc_A_reasons": "вне бассейна профиля: nw_atlantic_subtropical", "conc_A_model": "conc-A-c6bce5631d2b", "conc_B_items_km2": null, "conc_B_lo80": null, "conc_B_hi80": null, "conc_B_lo95": null, "conc_B_hi95": null, "conc_B_status": "unavailable", "conc_B_status_ru": "концентрация недоступна", "conc_B_reasons": "вне бассейна профиля: black_sea", "conc_B_model": "conc-B-c6bce5631d2b"}}, {"type": "Feature", "geometry": {"type": "Polygon", "coordinates": [[[30.205908837883793, 59.924296585656364], [30.205900181261114, 59.92420693258049], [30.205534337284234, 59.92412597009592], [30.205525681731096, 59.924036316984875], [30.205704274982523, 59.92403197182466], [30.205695619003702, 59.923942318727256], [30.206052804382498, 59.92393362771312], [30.206061461321756, 59.92402328077933], [30.206240054409555, 59.9240189348942], [30.206257369412153, 59.92419824098949], [30.205908837883793, 59.924296585656364]]]}, "properties": {"zone_id": "neva-2025-07-24-020", "aoi": "neva", "date": "2025-07-24", "scene_id": "S2B_MSIL2A_20250724T093039_R136_T36VUM_20250724T103330", "scene_datetime_utc": "2025-07-24T09:30:39.024000+00:00", "detection_status": "detected", "detection_status_ru": "обнаружено", "lon": 30.20592, "lat": 59.9241, "n_pixels": 3, "zone_area_km2": 0.001, "cover_m2": 23.1, "p_mean": 0.797, "p_max": 0.957, "cover_m2_km2": 23100.0, "h3": "8811061415fffff", "valid_frac_scene": 0.992, "wind_ms": 4.2, "sea": "спокойное", "scene_reliable": true, "field_event_id": "S3:HE419_MarLitter_transect28", "field_profile": "B", "field_date": "2014-04-11", "field_distance_km": 1422.9, "field_date_gap_days": 4122, "field_conc_items_km2": 43.1, "conc_A_items_km2": null, "conc_A_lo80": null, "conc_A_hi80": null, "conc_A_lo95": null, "conc_A_hi95": null, "conc_A_status": "unavailable", "conc_A_status_ru": "концентрация недоступна", "conc_A_reasons": "вне бассейна профиля: nw_atlantic_subtropical", "conc_A_model": "conc-A-c6bce5631d2b", "conc_B_items_km2": null, "conc_B_lo80": null, "conc_B_hi80": null, "conc_B_lo95": null, "conc_B_hi95": null, "conc_B_status": "unavailable", "conc_B_status_ru": "концентрация недоступна", "conc_B_reasons": "вне бассейна профиля: black_sea", "conc_B_model": "conc-B-c6bce5631d2b"}}, {"type": "Feature", "geometry": {"type": "Polygon", "coordinates": [[[30.218702752619148, 59.92146846031205], [30.21869406247435, 59.92137880832151], [30.21851548575086, 59.92138317095547], [30.218506796140915, 59.92129351894728], [30.218685372384297, 59.92128915632898], [30.218676682348992, 59.921199504334446], [30.219042524706804, 59.92128043036753], [30.219051215757073, 59.92137008232874], [30.21887263914309, 59.921374445445934], [30.218881329767996, 59.921464097420824], [30.218702752619148, 59.92146846031205]]]}, "properties": {"zone_id": "neva-2025-07-24-021", "aoi": "neva", "date": "2025-07-24", "scene_id": "S2B_MSIL2A_20250724T093039_R136_T36VUM_20250724T103330", "scene_datetime_utc": "2025-07-24T09:30:39.024000+00:00", "detection_status": "detected", "detection_status_ru": "обнаружено", "lon": 30.21878, "lat": 59.92133, "n_pixels": 1, "zone_area_km2": 0.0005, "cover_m2": 7.1, "p_mean": 0.722, "p_max": 0.722, "cover_m2_km2": 14200.0, "h3": "881106143bfffff", "valid_frac_scene": 0.992, "wind_ms": 4.2, "sea": "спокойное", "scene_reliable": true, "field_event_id": "S3:HE419_MarLitter_transect28", "field_profile": "B", "field_date": "2014-04-11", "field_distance_km": 1423.5, "field_date_gap_days": 4122, "field_conc_items_km2": 43.1, "conc_A_items_km2": null, "conc_A_lo80": null, "conc_A_hi80": null, "conc_A_lo95": null, "conc_A_hi95": null, "conc_A_status": "unavailable", "conc_A_status_ru": "концентрация недоступна", "conc_A_reasons": "вне бассейна профиля: nw_atlantic_subtropical", "conc_A_model": "conc-A-c6bce5631d2b", "conc_B_items_km2": null, "conc_B_lo80": null, "conc_B_hi80": null, "conc_B_lo95": null, "conc_B_hi95": null, "conc_B_status": "unavailable", "conc_B_status_ru": "концентрация недоступна", "conc_B_reasons": "вне бассейна профиля: black_sea", "conc_B_model": "conc-B-c6bce5631d2b"}}, {"type": "Feature", "geometry": {"type": "Polygon", "coordinates": [[[30.20287231727689, 59.918798891955205], [30.202863670755704, 59.91870923853796], [30.202685105603745, 59.91871357962175], [30.202667813684876, 59.91853427275015], [30.202846377876746, 59.91852993169753], [30.202837731518972, 59.9184402782743], [30.20319485877921, 59.91843159547545], [30.203203506097058, 59.91852124886749], [30.2033820701255, 59.91851690709011], [30.203399365884717, 59.91869621383703], [30.203220800896187, 59.918700555645614], [30.203229448377474, 59.91879020903168], [30.20287231727689, 59.918798891955205]]]}, "properties": {"zone_id": "neva-2025-07-24-022", "aoi": "neva", "date": "2025-07-24", "scene_id": "S2B_MSIL2A_20250724T093039_R136_T36VUM_20250724T103330", "scene_datetime_utc": "2025-07-24T09:30:39.024000+00:00", "detection_status": "detected", "detection_status_ru": "обнаружено", "lon": 30.20303, "lat": 59.91862, "n_pixels": 4, "zone_area_km2": 0.0012, "cover_m2": 34.5, "p_mean": 0.937, "p_max": 0.996, "cover_m2_km2": 28750.0, "h3": "8811061439fffff", "valid_frac_scene": 0.992, "wind_ms": 4.2, "sea": "спокойное", "scene_reliable": true, "field_event_id": "S3:HE419_MarLitter_transect28", "field_profile": "B", "field_date": "2014-04-11", "field_distance_km": 1422.6, "field_date_gap_days": 4122, "field_conc_items_km2": 43.1, "conc_A_items_km2": null, "conc_A_lo80": null, "conc_A_hi80": null, "conc_A_lo95": null, "conc_A_hi95": null, "conc_A_status": "unavailable", "conc_A_status_ru": "концентрация недоступна", "conc_A_reasons": "вне бассейна профиля: nw_atlantic_subtropical", "conc_A_model": "conc-A-c6bce5631d2b", "conc_B_items_km2": null, "conc_B_lo80": null, "conc_B_hi80": null, "conc_B_lo95": null, "conc_B_hi95": null, "conc_B_status": "unavailable", "conc_B_status_ru": "концентрация недоступна", "conc_B_reasons": "вне бассейна профиля: black_sea", "conc_B_model": "conc-B-c6bce5631d2b"}}, {"type": "Feature", "geometry": {"type": "MultiPolygon", "coordinates": [[[[30.20442750128114, 59.91822189149767], [30.20406172714925, 59.918140924296324], [30.204070376703807, 59.918230577616384], [30.203891814333403, 59.918234920313346], [30.20390911264594, 59.9184142269787], [30.204274889450446, 59.91849519457933], [30.204266239252377, 59.918405541280805], [30.20444480247385, 59.918401198069475], [30.20442750128114, 59.91822189149767]]], [[[30.20429219001007, 59.91867450117038], [30.204657970600405, 59.91875546767399], [30.204649319278758, 59.918665814412606], [30.204827883831346, 59.91866147067132], [30.204810580391488, 59.91848216417381], [30.20444480247385, 59.918401198069475], [30.204453453151956, 59.9184908513524], [30.204274889450446, 59.91849519457933], [30.20429219001007, 59.91867450117038]]]]}, "properties": {"zone_id": "neva-2025-07-24-023", "aoi": "neva", "date": "2025-07-24", "scene_id": "S2B_MSIL2A_20250724T093039_R136_T36VUM_20250724T103330", "scene_datetime_utc": "2025-07-24T09:30:39.024000+00:00", "detection_status": "detected", "detection_status_ru": "обнаружено", "lon": 30.20436, "lat": 59.91845, "n_pixels": 4, "zone_area_km2": 0.0016, "cover_m2": 35.7, "p_mean": 0.761, "p_max": 0.996, "cover_m2_km2": 22312.5, "h3": "8811061439fffff", "valid_frac_scene": 0.992, "wind_ms": 4.2, "sea": "спокойное", "scene_reliable": true, "field_event_id": "S3:HE419_MarLitter_transect28", "field_profile": "B", "field_date": "2014-04-11", "field_distance_km": 1422.7, "field_date_gap_days": 4122, "field_conc_items_km2": 43.1, "conc_A_items_km2": null, "conc_A_lo80": null, "conc_A_hi80": null, "conc_A_lo95": null, "conc_A_hi95": null, "conc_A_status": "unavailable", "conc_A_status_ru": "концентрация недоступна", "conc_A_reasons": "вне бассейна профиля: nw_atlantic_subtropical", "conc_A_model": "conc-A-c6bce5631d2b", "conc_B_items_km2": null, "conc_B_lo80": null, "conc_B_hi80": null, "conc_B_lo95": null, "conc_B_hi95": null, "conc_B_status": "unavailable", "conc_B_status_ru": "концентрация недоступна", "conc_B_reasons": "вне бассейна профиля: black_sea", "conc_B_model": "conc-B-c6bce5631d2b"}}, {"type": "Feature", "geometry": {"type": "Polygon", "coordinates": [[[30.20318621151584, 59.91834194208143], [30.20317756430694, 59.91825228868542], [30.20299900166412, 59.91825663017448], [30.202990354989737, 59.918166976760915], [30.20316891715252, 59.91816263528744], [30.203160270052578, 59.918072981887484], [30.203526041314664, 59.91815395161575], [30.203534689429134, 59.91824360498256], [30.203356126895283, 59.91824794695479], [30.203364774584205, 59.91833760033521], [30.20318621151584, 59.91834194208143]]]}, "properties": {"zone_id": "neva-2025-07-24-024", "aoi": "neva", "date": "2025-07-24", "scene_id": "S2B_MSIL2A_20250724T093039_R136_T36VUM_20250724T103330", "scene_datetime_utc": "2025-07-24T09:30:39.024000+00:00", "detection_status": "detected", "detection_status_ru": "обнаружено", "lon": 30.20326, "lat": 59.91821, "n_pixels": 1, "zone_area_km2": 0.0005, "cover_m2": 7.1, "p_mean": 0.592, "p_max": 0.592, "cover_m2_km2": 14200.0, "h3": "8811061439fffff", "valid_frac_scene": 0.992, "wind_ms": 4.2, "sea": "спокойное", "scene_reliable": true, "field_event_id": "S3:HE419_MarLitter_transect28", "field_profile": "B", "field_date": "2014-04-11", "field_distance_km": 1422.6, "field_date_gap_days": 4122, "field_conc_items_km2": 43.1, "conc_A_items_km2": null, "conc_A_lo80": null, "conc_A_hi80": null, "conc_A_lo95": null, "conc_A_hi95": null, "conc_A_status": "unavailable", "conc_A_status_ru": "концентрация недоступна", "conc_A_reasons": "вне бассейна профиля: nw_atlantic_subtropical", "conc_A_model": "conc-A-c6bce5631d2b", "conc_B_items_km2": null, "conc_B_lo80": null, "conc_B_hi80": null, "conc_B_lo95": null, "conc_B_hi95": null, "conc_B_status": "unavailable", "conc_B_status_ru": "концентрация недоступна", "conc_B_reasons": "вне бассейна профиля: black_sea", "conc_B_model": "conc-B-c6bce5631d2b"}}, {"type": "Feature", "geometry": {"type": "Polygon", "coordinates": [[[30.19833045142247, 59.918100462631635], [30.198321817392205, 59.91801080880725], [30.198143255199817, 59.9180151437112], [30.198125988262504, 59.917835836025354], [30.19830454949483, 59.91783150115252], [30.19829591562773, 59.91774184732217], [30.198661671796305, 59.9178228306821], [30.19867030667784, 59.91791248447932], [30.198848868227014, 59.917908148866175], [30.19885750364298, 59.91799780264588], [30.198678941613785, 59.91800213827458], [30.198687576604122, 59.918091792067855], [30.19833045142247, 59.918100462631635]]]}, "properties": {"zone_id": "neva-2025-07-24-025", "aoi": "neva", "date": "2025-07-24", "scene_id": "S2B_MSIL2A_20250724T093039_R136_T36VUM_20250724T103330", "scene_datetime_utc": "2025-07-24T09:30:39.024000+00:00", "detection_status": "detected", "detection_status_ru": "обнаружено", "lon": 30.19846, "lat": 59.91793, "n_pixels": 3, "zone_area_km2": 0.001, "cover_m2": 19.6, "p_mean": 0.903, "p_max": 0.984, "cover_m2_km2": 19600.0, "h3": "8811061439fffff", "valid_frac_scene": 0.992, "wind_ms": 4.2, "sea": "спокойное", "scene_reliable": true, "field_event_id": "S3:HE419_MarLitter_transect28", "field_profile": "B", "field_date": "2014-04-11", "field_distance_km": 1422.3, "field_date_gap_days": 4122, "field_conc_items_km2": 43.1, "conc_A_items_km2": null, "conc_A_lo80": null, "conc_A_hi80": null, "conc_A_lo95": null, "conc_A_hi95": null, "conc_A_status": "unavailable", "conc_A_status_ru": "концентрация недоступна", "conc_A_reasons": "вне бассейна профиля: nw_atlantic_subtropical", "conc_A_model": "conc-A-c6bce5631d2b", "conc_B_items_km2": null, "conc_B_lo80": null, "conc_B_hi80": null, "conc_B_lo95": null, "conc_B_hi95": null, "conc_B_status": "unavailable", "conc_B_status_ru": "концентрация недоступна", "conc_B_reasons": "вне бассейна профиля: black_sea", "conc_B_model": "conc-B-c6bce5631d2b"}}, {"type": "Feature", "geometry": {"type": "Polygon", "coordinates": [[[30.2001160751545, 59.9180571001493], [30.20010743632392, 59.917967446480546], [30.199750312972867, 59.91797612087857], [30.199741675156755, 59.91788646717669], [30.199563113879627, 59.91789080399775], [30.199545839370707, 59.917711496556954], [30.199724399687796, 59.91770715976701], [30.199715762034934, 59.91761750605921], [30.20007288154582, 59.91760883178574], [30.200081520158708, 59.91769848546241], [30.20026008031254, 59.91769414794773], [30.200268719459874, 59.91778380160684], [30.200447280039295, 59.91777946383502], [30.20046455945728, 59.917958771116176], [30.2001160751545, 59.9180571001493]]]}, "properties": {"zone_id": "neva-2025-07-24-026", "aoi": "neva", "date": "2025-07-24", "scene_id": "S2B_MSIL2A_20250724T093039_R136_T36VUM_20250724T103330", "scene_datetime_utc": "2025-07-24T09:30:39.024000+00:00", "detection_status": "detected", "detection_status_ru": "обнаружено", "lon": 30.2, "lat": 59.91782, "n_pixels": 6, "zone_area_km2": 0.0016, "cover_m2": 42.7, "p_mean": 0.842, "p_max": 0.992, "cover_m2_km2": 26687.5, "h3": "8811061439fffff", "valid_frac_scene": 0.992, "wind_ms": 4.2, "sea": "спокойное", "scene_reliable": true, "field_event_id": "S3:HE419_MarLitter_transect28", "field_profile": "B", "field_date": "2014-04-11", "field_distance_km": 1422.4, "field_date_gap_days": 4122, "field_conc_items_km2": 43.1, "conc_A_items_km2": null, "conc_A_lo80": null, "conc_A_hi80": null, "conc_A_lo95": null, "conc_A_hi95": null, "conc_A_status": "unavailable", "conc_A_status_ru": "концентрация недоступна", "conc_A_reasons": "вне бассейна профиля: nw_atlantic_subtropical", "conc_A_model": "conc-A-c6bce5631d2b", "conc_B_items_km2": null, "conc_B_lo80": null, "conc_B_hi80": null, "conc_B_lo95": null, "conc_B_hi95": null, "conc_B_status": "unavailable", "conc_B_status_ru": "концентрация недоступна", "conc_B_reasons": "вне бассейна профиля: black_sea", "conc_B_model": "conc-B-c6bce5631d2b"}}, {"type": "Feature", "geometry": {"type": "Polygon", "coordinates": [[[30.201823902726872, 59.917206831819854], [30.2018152595861, 59.917117178289], [30.201636702802222, 59.91712151788444], [30.201619417643993, 59.916942210785585], [30.20179797346788, 59.91693787122129], [30.20178933049045, 59.91684821768447], [30.202155084952313, 59.91692919136798], [30.20217237299049, 59.91710849837335], [30.201823902726872, 59.917206831819854]]]}, "properties": {"zone_id": "neva-2025-07-24-027", "aoi": "neva", "date": "2025-07-24", "scene_id": "S2B_MSIL2A_20250724T093039_R136_T36VUM_20250724T103330", "scene_datetime_utc": "2025-07-24T09:30:39.024000+00:00", "detection_status": "detected", "detection_status_ru": "обнаружено", "lon": 30.2019, "lat": 59.91703, "n_pixels": 2, "zone_area_km2": 0.0008, "cover_m2": 15.3, "p_mean": 0.861, "p_max": 0.867, "cover_m2_km2": 19125.0, "h3": "8811061439fffff", "valid_frac_scene": 0.992, "wind_ms": 4.2, "sea": "спокойное", "scene_reliable": true, "field_event_id": "S3:HE419_MarLitter_transect28", "field_profile": "B", "field_date": "2014-04-11", "field_distance_km": 1422.5, "field_date_gap_days": 4122, "field_conc_items_km2": 43.1, "conc_A_items_km2": null, "conc_A_lo80": null, "conc_A_hi80": null, "conc_A_lo95": null, "conc_A_hi95": null, "conc_A_status": "unavailable", "conc_A_status_ru": "концентрация недоступна", "conc_A_reasons": "вне бассейна профиля: nw_atlantic_subtropical", "conc_A_model": "conc-A-c6bce5631d2b", "conc_B_items_km2": null, "conc_B_lo80": null, "conc_B_hi80": null, "conc_B_lo95": null, "conc_B_hi95": null, "conc_B_status": "unavailable", "conc_B_status_ru": "концентрация недоступна", "conc_B_reasons": "вне бассейна профиля: black_sea", "conc_B_model": "conc-B-c6bce5631d2b"}}, {"type": "Feature", "geometry": {"type": "Polygon", "coordinates": [[[30.199865571161673, 59.91545714295042], [30.199856933909167, 59.91536748922417], [30.19967838618037, 59.91537182609253], [30.19966974946221, 59.9152821723487], [30.199848296711068, 59.915277835495914], [30.199839659567385, 59.91518818176571], [30.20020539104556, 59.915269161065666], [30.200214029203526, 59.91535881476278], [30.200035481583555, 59.91536315211425], [30.200044119315997, 59.91545280582495], [30.199865571161673, 59.91545714295042]]]}, "properties": {"zone_id": "neva-2025-07-24-028", "aoi": "neva", "date": "2025-07-24", "scene_id": "S2B_MSIL2A_20250724T093039_R136_T36VUM_20250724T103330", "scene_datetime_utc": "2025-07-24T09:30:39.024000+00:00", "detection_status": "detected", "detection_status_ru": "обнаружено", "lon": 30.19994, "lat": 59.91532, "n_pixels": 1, "zone_area_km2": 0.0005, "cover_m2": 3.9, "p_mean": 0.78, "p_max": 0.78, "cover_m2_km2": 7800.0, "h3": "8811061439fffff", "valid_frac_scene": 0.992, "wind_ms": 4.2, "sea": "спокойное", "scene_reliable": true, "field_event_id": "S3:HE419_MarLitter_transect28", "field_profile": "B", "field_date": "2014-04-11", "field_distance_km": 1422.4, "field_date_gap_days": 4122, "field_conc_items_km2": 43.1, "conc_A_items_km2": null, "conc_A_lo80": null, "conc_A_hi80": null, "conc_A_lo95": null, "conc_A_hi95": null, "conc_A_status": "unavailable", "conc_A_status_ru": "концентрация недоступна", "conc_A_reasons": "вне бассейна профиля: nw_atlantic_subtropical", "conc_A_model": "conc-A-c6bce5631d2b", "conc_B_items_km2": null, "conc_B_lo80": null, "conc_B_hi80": null, "conc_B_lo95": null, "conc_B_hi95": null, "conc_B_status": "unavailable", "conc_B_status_ru": "концентрация недоступна", "conc_B_reasons": "вне бассейна профиля: black_sea", "conc_B_model": "conc-B-c6bce5631d2b"}}, {"type": "Feature", "geometry": {"type": "Polygon", "coordinates": [[[29.92763340424977, 59.900762126964025], [29.927625505817822, 59.90067245022413], [29.927446991552486, 59.90067641787309], [29.927423297994917, 59.90040738759955], [29.927601810820466, 59.900403419993296], [29.92759391258751, 59.900313743245995], [29.927950937129516, 59.900305807337254], [29.927958836322325, 59.9003954840561], [29.92813734899862, 59.90039151572514], [29.92816104831534, 59.900660545827805], [29.927982534199252, 59.90066451420149], [29.92799043359107, 59.90075419091288], [29.92763340424977, 59.900762126964025]]]}, "properties": {"zone_id": "neva-2025-07-24-029", "aoi": "neva", "date": "2025-07-24", "scene_id": "S2B_MSIL2A_20250724T093039_R136_T36VUM_20250724T103330", "scene_datetime_utc": "2025-07-24T09:30:39.024000+00:00", "detection_status": "detected", "detection_status_ru": "обнаружено", "lon": 29.92779, "lat": 59.90053, "n_pixels": 6, "zone_area_km2": 0.0016, "cover_m2": 25.9, "p_mean": 0.899, "p_max": 0.996, "cover_m2_km2": 16187.5, "h3": "8811068c2bfffff", "valid_frac_scene": 0.992, "wind_ms": 4.2, "sea": "спокойное", "scene_reliable": true, "field_event_id": "S3:HE419_MarLitter_transect28", "field_profile": "B", "field_date": "2014-04-11", "field_distance_km": 1407.2, "field_date_gap_days": 4122, "field_conc_items_km2": 43.1, "conc_A_items_km2": null, "conc_A_lo80": null, "conc_A_hi80": null, "conc_A_lo95": null, "conc_A_hi95": null, "conc_A_status": "unavailable", "conc_A_status_ru": "концентрация недоступна", "conc_A_reasons": "вне бассейна профиля: nw_atlantic_subtropical", "conc_A_model": "conc-A-c6bce5631d2b", "conc_B_items_km2": null, "conc_B_lo80": null, "conc_B_hi80": null, "conc_B_lo95": null, "conc_B_hi95": null, "conc_B_status": "unavailable", "conc_B_status_ru": "концентрация недоступна", "conc_B_reasons": "вне бассейна профиля: black_sea", "conc_B_model": "conc-B-c6bce5631d2b"}}, {"type": "Feature", "geometry": {"type": "Polygon", "coordinates": [[[30.047487637556074, 59.89894203783948], [30.04747941667036, 59.89885237086863], [30.04730093166484, 59.89885650072905], [30.047292711310565, 59.898766833741476], [30.047471195836422, 59.89876270389586], [30.047462975054255, 59.898673036921195], [30.047819942991357, 59.89866477653515], [30.04782816473284, 59.89875444348019], [30.048006649103385, 59.8987503129101], [30.048014871376303, 59.89883997983842], [30.0478363865261, 59.8988441104233], [30.047844608371136, 59.898933777364526], [30.047487637556074, 59.89894203783948]]]}, "properties": {"zone_id": "neva-2025-07-24-030", "aoi": "neva", "date": "2025-07-24", "scene_id": "S2B_MSIL2A_20250724T093039_R136_T36VUM_20250724T103330", "scene_datetime_utc": "2025-07-24T09:30:39.024000+00:00", "detection_status": "detected", "detection_status_ru": "обнаружено", "lon": 30.04765, "lat": 59.8988, "n_pixels": 2, "zone_area_km2": 0.0008, "cover_m2": 13.7, "p_mean": 0.945, "p_max": 0.949, "cover_m2_km2": 17125.0, "h3": "8811068dbbfffff", "valid_frac_scene": 0.992, "wind_ms": 4.2, "sea": "спокойное", "scene_reliable": true, "field_event_id": "S3:HE419_MarLitter_transect28", "field_profile": "B", "field_date": "2014-04-11", "field_distance_km": 1413.7, "field_date_gap_days": 4122, "field_conc_items_km2": 43.1, "conc_A_items_km2": null, "conc_A_lo80": null, "conc_A_hi80": null, "conc_A_lo95": null, "conc_A_hi95": null, "conc_A_status": "unavailable", "conc_A_status_ru": "концентрация недоступна", "conc_A_reasons": "вне бассейна профиля: nw_atlantic_subtropical", "conc_A_model": "conc-A-c6bce5631d2b", "conc_B_items_km2": null, "conc_B_lo80": null, "conc_B_hi80": null, "conc_B_lo95": null, "conc_B_hi95": null, "conc_B_status": "unavailable", "conc_B_status_ru": "концентрация недоступна", "conc_B_reasons": "вне бассейна профиля: black_sea", "conc_B_model": "conc-B-c6bce5631d2b"}}, {"type": "Feature", "geometry": {"type": "Polygon", "coordinates": [[[30.126600573049963, 59.88810153382718], [30.12659214263046, 59.88801187338767], [30.12641372904897, 59.88801610989995], [30.12639686932746, 59.88783678898465], [30.12621845665122, 59.88784102522522], [30.126210027349206, 59.88775136474945], [30.12638843954631, 59.887747128524076], [30.12638000981822, 59.88765746806156], [30.126736833094935, 59.88764899491725], [30.126745263781313, 59.88773865534935], [30.126923675819214, 59.88773441839998], [30.12693210703781, 59.88782407881499], [30.127110519501784, 59.88781984160907], [30.127118951252598, 59.887909502006885], [30.12694053830948, 59.887913739228], [30.12694896963422, 59.88800339963908], [30.126600573049963, 59.88810153382718]]]}, "properties": {"zone_id": "neva-2025-07-24-031", "aoi": "neva", "date": "2025-07-24", "scene_id": "S2B_MSIL2A_20250724T093039_R136_T36VUM_20250724T103330", "scene_datetime_utc": "2025-07-24T09:30:39.024000+00:00", "detection_status": "detected", "detection_status_ru": "обнаружено", "lon": 30.12667, "lat": 59.88786, "n_pixels": 5, "zone_area_km2": 0.0014, "cover_m2": 36.1, "p_mean": 0.909, "p_max": 0.98, "cover_m2_km2": 25785.7, "h3": "8811061715fffff", "valid_frac_scene": 0.992, "wind_ms": 4.2, "sea": "спокойное", "scene_reliable": true, "field_event_id": "S3:HE419_MarLitter_transect28", "field_profile": "B", "field_date": "2014-04-11", "field_distance_km": 1417.7, "field_date_gap_days": 4122, "field_conc_items_km2": 43.1, "conc_A_items_km2": null, "conc_A_lo80": null, "conc_A_hi80": null, "conc_A_lo95": null, "conc_A_hi95": null, "conc_A_status": "unavailable", "conc_A_status_ru": "концентрация недоступна", "conc_A_reasons": "вне бассейна профиля: nw_atlantic_subtropical", "conc_A_model": "conc-A-c6bce5631d2b", "conc_B_items_km2": null, "conc_B_lo80": null, "conc_B_hi80": null, "conc_B_lo95": null, "conc_B_hi95": null, "conc_B_status": "unavailable", "conc_B_status_ru": "концентрация недоступна", "conc_B_reasons": "вне бассейна профиля: black_sea", "conc_B_model": "conc-B-c6bce5631d2b"}}, {"type": "Feature", "geometry": {"type": "Polygon", "coordinates": [[[30.084663398708553, 59.86779410812267], [30.084655088036598, 59.86770444384263], [30.084476776143514, 59.86770862273768], [30.08446015591355, 59.8675292941418], [30.08463846684955, 59.86752511527671], [30.084630156334452, 59.86743545099085], [30.084995088564686, 59.86751675682304], [30.085003400089153, 59.867606421076985], [30.085181711346827, 59.86760224147341], [30.085190023402134, 59.867691905710444], [30.085011711665913, 59.867696085329015], [30.085020023294962, 59.86778574957909], [30.084663398708553, 59.86779410812267]]]}, "properties": {"zone_id": "neva-2025-07-24-032", "aoi": "neva", "date": "2025-07-24", "scene_id": "S2B_MSIL2A_20250724T093039_R136_T36VUM_20250724T103330", "scene_datetime_utc": "2025-07-24T09:30:39.024000+00:00", "detection_status": "detected", "detection_status_ru": "обнаружено", "lon": 30.0848, "lat": 59.86763, "n_pixels": 3, "zone_area_km2": 0.001, "cover_m2": 3.9, "p_mean": 0.831, "p_max": 0.91, "cover_m2_km2": 3900.0, "h3": "881106176bfffff", "valid_frac_scene": 0.992, "wind_ms": 4.2, "sea": "спокойное", "scene_reliable": true, "field_event_id": "S3:HE419_MarLitter_transect28", "field_profile": "B", "field_date": "2014-04-11", "field_distance_km": 1414.9, "field_date_gap_days": 4122, "field_conc_items_km2": 43.1, "conc_A_items_km2": null, "conc_A_lo80": null, "conc_A_hi80": null, "conc_A_lo95": null, "conc_A_hi95": null, "conc_A_status": "unavailable", "conc_A_status_ru": "концентрация недоступна", "conc_A_reasons": "вне бассейна профиля: nw_atlantic_subtropical", "conc_A_model": "conc-A-c6bce5631d2b", "conc_B_items_km2": null, "conc_B_lo80": null, "conc_B_hi80": null, "conc_B_lo95": null, "conc_B_hi95": null, "conc_B_status": "unavailable", "conc_B_status_ru": "концентрация недоступна", "conc_B_reasons": "вне бассейна профиля: black_sea", "conc_B_model": "conc-B-c6bce5631d2b"}}, {"type": "Feature", "geometry": {"type": "Polygon", "coordinates": [[[30.089112868362893, 59.86759989308777], [30.08910454577971, 59.86751022918071], [30.088926235673213, 59.867514414089854], [30.088917913620925, 59.86742475016584], [30.089096223248884, 59.86742056527172], [30.08908790077042, 59.86733090136081], [30.0894445189122, 59.86732253087908], [30.089452842347722, 59.86741219475998], [30.08963115181859, 59.86740800914237], [30.089639475785003, 59.86749767300632], [30.0894611658356, 59.867501858638946], [30.08946948937586, 59.86759152251598], [30.089112868362893, 59.86759989308777]]]}, "properties": {"zone_id": "neva-2025-07-24-033", "aoi": "neva", "date": "2025-07-24", "scene_id": "S2B_MSIL2A_20250724T093039_R136_T36VUM_20250724T103330", "scene_datetime_utc": "2025-07-24T09:30:39.024000+00:00", "detection_status": "detected", "detection_status_ru": "обнаружено", "lon": 30.08928, "lat": 59.86746, "n_pixels": 2, "zone_area_km2": 0.0008, "cover_m2": 4.7, "p_mean": 0.771, "p_max": 0.863, "cover_m2_km2": 5875.0, "h3": "881106170dfffff", "valid_frac_scene": 0.992, "wind_ms": 4.2, "sea": "спокойное", "scene_reliable": true, "field_event_id": "S3:HE419_MarLitter_transect28", "field_profile": "B", "field_date": "2014-04-11", "field_distance_km": 1415.1, "field_date_gap_days": 4122, "field_conc_items_km2": 43.1, "conc_A_items_km2": null, "conc_A_lo80": null, "conc_A_hi80": null, "conc_A_lo95": null, "conc_A_hi95": null, "conc_A_status": "unavailable", "conc_A_status_ru": "концентрация недоступна", "conc_A_reasons": "вне бассейна профиля: nw_atlantic_subtropical", "conc_A_model": "conc-A-c6bce5631d2b", "conc_B_items_km2": null, "conc_B_lo80": null, "conc_B_hi80": null, "conc_B_lo95": null, "conc_B_hi95": null, "conc_B_status": "unavailable", "conc_B_status_ru": "концентрация недоступна", "conc_B_reasons": "вне бассейна профиля: black_sea", "conc_B_model": "conc-B-c6bce5631d2b"}}]}