{"type": "FeatureCollection", "features": [{"type": "Feature", "geometry": {"type": "Polygon", "coordinates": [[[29.67496438971153, 59.99471941832972], [29.674957145113762, 59.99462972351547], [29.674778086367223, 59.99463335237571], [29.674756354299074, 59.9943642678833], [29.675107223946974, 59.99426731519024], [29.67511446884522, 59.9943570099985], [29.675293526049646, 59.994353380692175], [29.675300771477183, 59.9944430754856], [29.67547982911937, 59.99443944592362], [29.6754870750762, 59.994529140702205], [29.67530801695049, 59.99453277027723], [29.67531526246956, 59.994622465067145], [29.67496438971153, 59.99471941832972]]]}, "properties": {"zone_id": "neva-2025-05-19-001", "aoi": "neva", "date": "2025-05-19", "scene_id": "S2A_MSIL2A_20250519T092041_R093_T36VUM_20250519T111012", "scene_datetime_utc": "2025-05-19T09:20:41.024000+00:00", "detection_status": "detected", "detection_status_ru": "обнаружено", "lon": 29.67508, "lat": 59.99449, "n_pixels": 4, "zone_area_km2": 0.0012, "cover_m2": 53.7, "p_mean": 0.87, "p_max": 0.984, "cover_m2_km2": 44750.0, "h3": "8811068741fffff", "valid_frac_scene": 1.0, "wind_ms": 4.7, "sea": "спокойное", "scene_reliable": true, "field_event_id": "S3:HE419_MarLitter_transect28", "field_profile": "B", "field_date": "2014-04-11", "field_distance_km": 1396.0, "field_date_gap_days": 4056, "field_conc_items_km2": 43.1, "conc_A_items_km2": null, "conc_A_lo80": null, "conc_A_hi80": null, "conc_A_lo95": null, "conc_A_hi95": null, "conc_A_status": "unavailable", "conc_A_status_ru": "концентрация недоступна", "conc_A_reasons": "вне бассейна профиля: nw_atlantic_subtropical", "conc_A_model": "conc-A-c6bce5631d2b", "conc_B_items_km2": null, "conc_B_lo80": null, "conc_B_hi80": null, "conc_B_lo95": null, "conc_B_hi95": null, "conc_B_status": "unavailable", "conc_B_status_ru": "концентрация недоступна", "conc_B_reasons": "вне бассейна профиля: black_sea", "conc_B_model": "conc-B-c6bce5631d2b"}}, {"type": "Feature", "geometry": {"type": "Polygon", "coordinates": [[[29.90135966390606, 59.941956144837064], [29.90135182332632, 59.941866466566836], [29.90117308352434, 59.941870400250785], [29.901165243475415, 59.94178072196458], [29.901343982796025, 59.94177678829475], [29.901336142315166, 59.94168711002084], [29.901514881104966, 59.94168317612316], [29.90150704019219, 59.941593497861525], [29.901864516660734, 59.9415856293685], [29.90187235853624, 59.941675307601884], [29.902051097177697, 59.941671372978256], [29.902066782039785, 59.941850729411186], [29.90188804243559, 59.94185466406308], [29.901895884459446, 59.9419443422909], [29.90135966390606, 59.941956144837064]]]}, "properties": {"zone_id": "neva-2025-05-19-002", "aoi": "neva", "date": "2025-05-19", "scene_id": "S2A_MSIL2A_20250519T092041_R093_T36VUM_20250519T111012", "scene_datetime_utc": "2025-05-19T09:20:41.024000+00:00", "detection_status": "detected", "detection_status_ru": "обнаружено", "lon": 29.90165, "lat": 59.94178, "n_pixels": 5, "zone_area_km2": 0.0014, "cover_m2": 69.4, "p_mean": 0.842, "p_max": 0.976, "cover_m2_km2": 49571.4, "h3": "8811068eadfffff", "valid_frac_scene": 1.0, "wind_ms": 4.7, "sea": "спокойное", "scene_reliable": true, "field_event_id": "S3:HE419_MarLitter_transect28", "field_profile": "B", "field_date": "2014-04-11", "field_distance_km": 1406.9, "field_date_gap_days": 4056, "field_conc_items_km2": 43.1, "conc_A_items_km2": null, "conc_A_lo80": null, "conc_A_hi80": null, "conc_A_lo95": null, "conc_A_hi95": null, "conc_A_status": "unavailable", "conc_A_status_ru": "концентрация недоступна", "conc_A_reasons": "вне бассейна профиля: nw_atlantic_subtropical", "conc_A_model": "conc-A-c6bce5631d2b", "conc_B_items_km2": null, "conc_B_lo80": null, "conc_B_hi80": null, "conc_B_lo95": null, "conc_B_hi95": null, "conc_B_status": "unavailable", "conc_B_status_ru": "концентрация недоступна", "conc_B_reasons": "вне бассейна профиля: black_sea", "conc_B_model": "conc-B-c6bce5631d2b"}}, {"type": "Feature", "geometry": {"type": "Polygon", "coordinates": [[[30.069327935958565, 59.92045006619003], [30.069319649053845, 59.92036040134072], [30.06914105221799, 59.92036456166223], [30.069132765845833, 59.92027489679608], [30.06931136220135, 59.920270736489506], [30.06930307540106, 59.92018107163635], [30.069660266994752, 59.92017275032804], [30.069668554755722, 59.92026241515132], [30.069847150954583, 59.920258254119716], [30.06985543924812, 59.920347918926126], [30.069676842568917, 59.92035207997269], [30.069685130434333, 59.92044174479211], [30.069327935958565, 59.92045006619003]]]}, "properties": {"zone_id": "neva-2025-05-19-003", "aoi": "neva", "date": "2025-05-19", "scene_id": "S2A_MSIL2A_20250519T092041_R093_T36VUM_20250519T111012", "scene_datetime_utc": "2025-05-19T09:20:41.024000+00:00", "detection_status": "detected", "detection_status_ru": "обнаружено", "lon": 30.06949, "lat": 59.92031, "n_pixels": 2, "zone_area_km2": 0.0008, "cover_m2": 30.6, "p_mean": 0.686, "p_max": 0.867, "cover_m2_km2": 38250.0, "h3": "881106166bfffff", "valid_frac_scene": 1.0, "wind_ms": 4.7, "sea": "спокойное", "scene_reliable": true, "field_event_id": "S3:HE419_MarLitter_transect28", "field_profile": "B", "field_date": "2014-04-11", "field_distance_km": 1415.4, "field_date_gap_days": 4056, "field_conc_items_km2": 43.1, "conc_A_items_km2": null, "conc_A_lo80": null, "conc_A_hi80": null, "conc_A_lo95": null, "conc_A_hi95": null, "conc_A_status": "unavailable", "conc_A_status_ru": "концентрация недоступна", "conc_A_reasons": "вне бассейна профиля: nw_atlantic_subtropical", "conc_A_model": "conc-A-c6bce5631d2b", "conc_B_items_km2": null, "conc_B_lo80": null, "conc_B_hi80": null, "conc_B_lo95": null, "conc_B_hi95": null, "conc_B_status": "unavailable", "conc_B_status_ru": "концентрация недоступна", "conc_B_reasons": "вне бассейна профиля: black_sea", "conc_B_model": "conc-B-c6bce5631d2b"}}, {"type": "Feature", "geometry": {"type": "Polygon", "coordinates": [[[30.1446109398287, 59.891356937473105], [30.14460245978669, 59.89126727862277], [30.144424031827597, 59.89127153965348], [30.144415552318204, 59.891181880785894], [30.144593979798064, 59.89117761977047], [30.14458549986282, 59.891087960916245], [30.144950834597626, 59.89116909701556], [30.14495931554471, 59.89125875583727], [30.144780887692395, 59.89126301735071], [30.14478936821363, 59.891352676185726], [30.1446109398287, 59.891356937473105]]]}, "properties": {"zone_id": "neva-2025-05-19-004", "aoi": "neva", "date": "2025-05-19", "scene_id": "S2A_MSIL2A_20250519T092041_R093_T36VUM_20250519T111012", "scene_datetime_utc": "2025-05-19T09:20:41.024000+00:00", "detection_status": "detected", "detection_status_ru": "обнаружено", "lon": 30.14469, "lat": 59.89122, "n_pixels": 1, "zone_area_km2": 0.0005, "cover_m2": 4.3, "p_mean": 0.753, "p_max": 0.753, "cover_m2_km2": 8600.0, "h3": "881106146dfffff", "valid_frac_scene": 1.0, "wind_ms": 4.7, "sea": "спокойное", "scene_reliable": true, "field_event_id": "S3:HE419_MarLitter_transect28", "field_profile": "B", "field_date": "2014-04-11", "field_distance_km": 1418.7, "field_date_gap_days": 4056, "field_conc_items_km2": 43.1, "conc_A_items_km2": null, "conc_A_lo80": null, "conc_A_hi80": null, "conc_A_lo95": null, "conc_A_hi95": null, "conc_A_status": "unavailable", "conc_A_status_ru": "концентрация недоступна", "conc_A_reasons": "вне бассейна профиля: nw_atlantic_subtropical", "conc_A_model": "conc-A-c6bce5631d2b", "conc_B_items_km2": null, "conc_B_lo80": null, "conc_B_hi80": null, "conc_B_lo95": null, "conc_B_hi95": null, "conc_B_status": "unavailable", "conc_B_status_ru": "концентрация недоступна", "conc_B_reasons": "вне бассейна профиля: black_sea", "conc_B_model": "conc-B-c6bce5631d2b"}}, {"type": "Feature", "geometry": {"type": "Polygon", "coordinates": [[[30.209960714360143, 59.88843203833342], [30.209952059289215, 59.88834238512193], [30.209773658309413, 59.88834673448744], [30.209756349288998, 59.88816742802725], [30.20993474931078, 59.88816307869294], [30.209926094403286, 59.888073425475476], [30.210291549190917, 59.88815437930049], [30.2103002051109, 59.88824403248478], [30.21047860544825, 59.888239682411005], [30.21048726190173, 59.88832933557769], [30.210308861085373, 59.88833368566706], [30.21031751711433, 59.88842333884735], [30.209960714360143, 59.88843203833342]]]}, "properties": {"zone_id": "neva-2025-05-19-005", "aoi": "neva", "date": "2025-05-19", "scene_id": "S2A_MSIL2A_20250519T092041_R093_T36VUM_20250519T111012", "scene_datetime_utc": "2025-05-19T09:20:41.024000+00:00", "detection_status": "detected", "detection_status_ru": "обнаружено", "lon": 30.21009, "lat": 59.88826, "n_pixels": 3, "zone_area_km2": 0.001, "cover_m2": 39.6, "p_mean": 0.99, "p_max": 0.996, "cover_m2_km2": 39600.0, "h3": "881106151bfffff", "valid_frac_scene": 1.0, "wind_ms": 4.7, "sea": "спокойное", "scene_reliable": true, "field_event_id": "S3:HE419_MarLitter_transect28", "field_profile": "B", "field_date": "2014-04-11", "field_distance_km": 1422.2, "field_date_gap_days": 4056, "field_conc_items_km2": 43.1, "conc_A_items_km2": null, "conc_A_lo80": null, "conc_A_hi80": null, "conc_A_lo95": null, "conc_A_hi95": null, "conc_A_status": "unavailable", "conc_A_status_ru": "концентрация недоступна", "conc_A_reasons": "вне бассейна профиля: nw_atlantic_subtropical", "conc_A_model": "conc-A-c6bce5631d2b", "conc_B_items_km2": null, "conc_B_lo80": null, "conc_B_hi80": null, "conc_B_lo95": null, "conc_B_hi95": null, "conc_B_status": "unavailable", "conc_B_status_ru": "концентрация недоступна", "conc_B_reasons": "вне бассейна профиля: black_sea", "conc_B_model": "conc-B-c6bce5631d2b"}}]}