{"type": "FeatureCollection", "features": [{"type": "Feature", "geometry": {"type": "Polygon", "coordinates": [[[49.424118862230245, 53.4423812575891], [49.42412218794975, 53.44229140402497], [49.42397169366806, 53.442289418293754], [49.42397501968694, 53.442199564734594], [49.42427933300009, 53.44211368242096], [49.42427600763366, 53.442203535994565], [49.424426501633874, 53.44220552134025], [49.424423176566826, 53.442295374918814], [49.42427268224934, 53.44229338956666], [49.42426935684712, 53.44238324313724], [49.424118862230245, 53.4423812575891]]]}, "properties": {"zone_id": "kuibyshev-2025-04-23-001", "aoi": "kuibyshev", "date": "2025-04-23", "scene_id": "S2C_MSIL2A_20250423T075631_R035_T39UUV_20250423T113814", "scene_datetime_utc": "2025-04-23T07:56:31.025000+00:00", "detection_status": "detected", "detection_status_ru": "обнаружено", "lon": 49.4242, "lat": 53.44225, "n_pixels": 1, "zone_area_km2": 0.0005, "cover_m2": 2.0, "p_mean": 0.702, "p_max": 0.702, "cover_m2_km2": 4000.0, "h3": "881081d087fffff", "valid_frac_scene": 0.997, "wind_ms": 3.8, "sea": "спокойное", "scene_reliable": true, "field_event_id": "S4:DOORS3:T23", "field_profile": "B", "field_date": "2024-06-10", "field_distance_km": 1365.0, "field_date_gap_days": 317, "field_conc_items_km2": 102.37, "conc_A_items_km2": null, "conc_A_lo80": null, "conc_A_hi80": null, "conc_A_lo95": null, "conc_A_hi95": null, "conc_A_status": "unavailable", "conc_A_status_ru": "концентрация недоступна", "conc_A_reasons": "вне бассейна профиля: nw_atlantic_subtropical", "conc_A_model": "conc-A-c6bce5631d2b", "conc_B_items_km2": null, "conc_B_lo80": null, "conc_B_hi80": null, "conc_B_lo95": null, "conc_B_hi95": null, "conc_B_status": "unavailable", "conc_B_status_ru": "концентрация недоступна", "conc_B_reasons": "вне бассейна профиля: black_sea", "conc_B_model": "conc-B-c6bce5631d2b"}}]}