{"type": "FeatureCollection", "features": [{"type": "Feature", "geometry": {"type": "Polygon", "coordinates": [[[39.75575630778273, 43.53836910339914], [39.75575518320432, 43.538279068846876], [39.755631421250555, 43.5382798868882], [39.755629172477605, 43.5380998177742], [39.75587557089658, 43.5380081470138], [39.75587669564348, 43.538098181567854], [39.756000457218605, 43.53809736326374], [39.75600270709625, 43.53827743236237], [39.75575630778273, 43.53836910339914]]]}, "properties": {"zone_id": "sochi-2025-12-04-001", "aoi": "sochi", "date": "2025-12-04", "scene_id": "S2A_MSIL2A_20251204T081341_R078_T37TEJ_20251204T100215", "scene_datetime_utc": "2025-12-04T08:13:41.024000+00:00", "detection_status": "detected", "detection_status_ru": "обнаружено", "lon": 39.75582, "lat": 43.53819, "n_pixels": 2, "zone_area_km2": 0.0008, "cover_m2": 7.8, "p_mean": 0.975, "p_max": 0.984, "cover_m2_km2": 9750.0, "h3": "882d568e21fffff", "valid_frac_scene": 1.0, "wind_ms": 2.0, "sea": "спокойное", "scene_reliable": true, "field_event_id": "S4:DOORS3:T17", "field_profile": "B", "field_date": "2024-06-04", "field_distance_km": 182.9, "field_date_gap_days": 548, "field_conc_items_km2": 89.61, "conc_A_items_km2": null, "conc_A_lo80": null, "conc_A_hi80": null, "conc_A_lo95": null, "conc_A_hi95": null, "conc_A_status": "unavailable", "conc_A_status_ru": "концентрация недоступна", "conc_A_reasons": "вне бассейна профиля: nw_atlantic_subtropical", "conc_A_model": "conc-A-c6bce5631d2b", "conc_B_items_km2": 591.0, "conc_B_lo80": 126.1, "conc_B_hi80": 1985.6, "conc_B_lo95": 78.7, "conc_B_hi95": 3718.0, "conc_B_status": "research_estimate", "conc_B_status_ru": "исследовательская оценка", "conc_B_reasons": "ближайшее полевое измерение в 183 км (> 60 км); месяц 12 вне месяцев обучения [6]; log_dist_coast_km = 1.2 вне диапазона обучения [1.7; 5.0]", "conc_B_model": "conc-B-c6bce5631d2b"}}, {"type": "Feature", "geometry": {"type": "Polygon", "coordinates": [[[39.87321288312409, 43.486658459389275], [39.873211586123325, 43.48656842664843], [39.8730879334033, 43.48656937093823], [39.873085339786975, 43.48638930544626], [39.87320899213978, 43.48638836116237], [39.873207695157014, 43.486298328417156], [39.87345499947742, 43.486296439454186], [39.8734562968274, 43.48638647219347], [39.8735799491622, 43.48638552750848], [39.87358254424738, 43.48656559297684], [39.873458891545354, 43.48656653766774], [39.87346018891334, 43.48665657040269], [39.87321288312409, 43.486658459389275]]]}, "properties": {"zone_id": "sochi-2025-12-04-002", "aoi": "sochi", "date": "2025-12-04", "scene_id": "S2A_MSIL2A_20251204T081341_R078_T37TEJ_20251204T100215", "scene_datetime_utc": "2025-12-04T08:13:41.024000+00:00", "detection_status": "detected", "detection_status_ru": "обнаружено", "lon": 39.87333, "lat": 43.48648, "n_pixels": 4, "zone_area_km2": 0.0012, "cover_m2": 19.6, "p_mean": 0.8, "p_max": 1.0, "cover_m2_km2": 16333.3, "h3": "882d568d8dfffff", "valid_frac_scene": 1.0, "wind_ms": 2.0, "sea": "спокойное", "scene_reliable": true, "field_event_id": "S4:DOORS3:T17", "field_profile": "B", "field_date": "2024-06-04", "field_distance_km": 184.4, "field_date_gap_days": 548, "field_conc_items_km2": 89.61, "conc_A_items_km2": null, "conc_A_lo80": null, "conc_A_hi80": null, "conc_A_lo95": null, "conc_A_hi95": null, "conc_A_status": "unavailable", "conc_A_status_ru": "концентрация недоступна", "conc_A_reasons": "вне бассейна профиля: nw_atlantic_subtropical", "conc_A_model": "conc-A-c6bce5631d2b", "conc_B_items_km2": 666.3, "conc_B_lo80": 142.3, "conc_B_hi80": 2238.5, "conc_B_lo95": 88.8, "conc_B_hi95": 4191.4, "conc_B_status": "research_estimate", "conc_B_status_ru": "исследовательская оценка", "conc_B_reasons": "ближайшее полевое измерение в 184 км (> 60 км); месяц 12 вне месяцев обучения [6]; log_dist_coast_km = 0.9 вне диапазона обучения [1.7; 5.0]", "conc_B_model": "conc-B-c6bce5631d2b"}}, {"type": "Feature", "geometry": {"type": "Polygon", "coordinates": [[[39.75811505889193, 43.46974108971987], [39.7581139335022, 43.469651054131866], [39.757990311733636, 43.46965187370139], [39.75798918653259, 43.46956183810936], [39.758112808117694, 43.46956101854239], [39.758111682738374, 43.4694709829515], [39.758358925526025, 43.46946934342179], [39.75836005127227, 43.46955937900757], [39.75848367284175, 43.46955855903971], [39.758484798776664, 43.46964859462148], [39.75836117702372, 43.46964941459191], [39.75836230278038, 43.4697394501748], [39.75811505889193, 43.46974108971987]]]}, "properties": {"zone_id": "sochi-2025-12-04-003", "aoi": "sochi", "date": "2025-12-04", "scene_id": "S2A_MSIL2A_20251204T081341_R078_T37TEJ_20251204T100215", "scene_datetime_utc": "2025-12-04T08:13:41.024000+00:00", "detection_status": "detected", "detection_status_ru": "обнаружено", "lon": 39.75824, "lat": 43.46961, "n_pixels": 2, "zone_area_km2": 0.0008, "cover_m2": 5.5, "p_mean": 0.71, "p_max": 0.722, "cover_m2_km2": 6875.0, "h3": "882d568f25fffff", "valid_frac_scene": 1.0, "wind_ms": 2.0, "sea": "спокойное", "scene_reliable": true, "field_event_id": "S4:DOORS3:T17", "field_profile": "B", "field_date": "2024-06-04", "field_distance_km": 177.0, "field_date_gap_days": 548, "field_conc_items_km2": 89.61, "conc_A_items_km2": null, "conc_A_lo80": null, "conc_A_hi80": null, "conc_A_lo95": null, "conc_A_hi95": null, "conc_A_status": "unavailable", "conc_A_status_ru": "концентрация недоступна", "conc_A_reasons": "вне бассейна профиля: nw_atlantic_subtropical", "conc_A_model": "conc-A-c6bce5631d2b", "conc_B_items_km2": 406.7, "conc_B_lo80": 86.5, "conc_B_hi80": 1367.2, "conc_B_lo95": 53.9, "conc_B_hi95": 2560.2, "conc_B_status": "research_estimate", "conc_B_status_ru": "исследовательская оценка", "conc_B_reasons": "ближайшее полевое измерение в 177 км (> 60 км); месяц 12 вне месяцев обучения [6]", "conc_B_model": "conc-B-c6bce5631d2b"}}, {"type": "Feature", "geometry": {"type": "Polygon", "coordinates": [[[39.81697055769871, 43.461051756057465], [39.81696934531387, 43.460961721605806], [39.816845742999334, 43.460962604662896], [39.81684453080348, 43.46087257020702], [39.81696813293463, 43.4608716871527], [39.816966920561015, 43.46078165269814], [39.81721533718013, 43.46086992064329], [39.817216549926115, 43.46095995509088], [39.8170929476228, 43.46096083841513], [39.81709416019102, 43.46105087286404], [39.81697055769871, 43.461051756057465]]]}, "properties": {"zone_id": "sochi-2025-12-04-004", "aoi": "sochi", "date": "2025-12-04", "scene_id": "S2A_MSIL2A_20251204T081341_R078_T37TEJ_20251204T100215", "scene_datetime_utc": "2025-12-04T08:13:41.024000+00:00", "detection_status": "detected", "detection_status_ru": "обнаружено", "lon": 39.81703, "lat": 43.46092, "n_pixels": 1, "zone_area_km2": 0.0005, "cover_m2": 2.7, "p_mean": 0.773, "p_max": 0.773, "cover_m2_km2": 5400.0, "h3": "882d568d05fffff", "valid_frac_scene": 1.0, "wind_ms": 2.0, "sea": "спокойное", "scene_reliable": true, "field_event_id": "S4:DOORS3:T17", "field_profile": "B", "field_date": "2024-06-04", "field_distance_km": 179.3, "field_date_gap_days": 548, "field_conc_items_km2": 89.61, "conc_A_items_km2": null, "conc_A_lo80": null, "conc_A_hi80": null, "conc_A_lo95": null, "conc_A_hi95": null, "conc_A_status": "unavailable", "conc_A_status_ru": "концентрация недоступна", "conc_A_reasons": "вне бассейна профиля: nw_atlantic_subtropical", "conc_A_model": "conc-A-c6bce5631d2b", "conc_B_items_km2": 464.8, "conc_B_lo80": 99.0, "conc_B_hi80": 1562.0, "conc_B_lo95": 61.7, "conc_B_hi95": 2925.0, "conc_B_status": "research_estimate", "conc_B_status_ru": "исследовательская оценка", "conc_B_reasons": "ближайшее полевое измерение в 179 км (> 60 км); месяц 12 вне месяцев обучения [6]", "conc_B_model": "conc-B-c6bce5631d2b"}}, {"type": "Feature", "geometry": {"type": "Polygon", "coordinates": [[[39.89299232364504, 43.41897333212534], [39.892991000397195, 43.41888329879473], [39.89286748615971, 43.41888426328194], [39.89286484004832, 43.4187041966103], [39.89311054437286, 43.41861223418263], [39.89311186778531, 43.41870226751458], [39.89323538164463, 43.41870130276664], [39.89323802885381, 43.41888136942018], [39.89299232364504, 43.41897333212534]]]}, "properties": {"zone_id": "sochi-2025-12-04-005", "aoi": "sochi", "date": "2025-12-04", "scene_id": "S2A_MSIL2A_20251204T081341_R078_T37TEJ_20251204T100215", "scene_datetime_utc": "2025-12-04T08:13:41.024000+00:00", "detection_status": "detected", "detection_status_ru": "обнаружено", "lon": 39.89305, "lat": 43.41879, "n_pixels": 2, "zone_area_km2": 0.0008, "cover_m2": 14.9, "p_mean": 0.988, "p_max": 0.992, "cover_m2_km2": 18625.0, "h3": "882d5612a1fffff", "valid_frac_scene": 1.0, "wind_ms": 2.0, "sea": "спокойное", "scene_reliable": true, "field_event_id": "S4:DOORS3:T17", "field_profile": "B", "field_date": "2024-06-04", "field_distance_km": 179.8, "field_date_gap_days": 548, "field_conc_items_km2": 89.61, "conc_A_items_km2": null, "conc_A_lo80": null, "conc_A_hi80": null, "conc_A_lo95": null, "conc_A_hi95": null, "conc_A_status": "unavailable", "conc_A_status_ru": "концентрация недоступна", "conc_A_reasons": "вне бассейна профиля: nw_atlantic_subtropical", "conc_A_model": "conc-A-c6bce5631d2b", "conc_B_items_km2": 567.4, "conc_B_lo80": 121.0, "conc_B_hi80": 1906.6, "conc_B_lo95": 75.5, "conc_B_hi95": 3570.0, "conc_B_status": "research_estimate", "conc_B_status_ru": "исследовательская оценка", "conc_B_reasons": "ближайшее полевое измерение в 180 км (> 60 км); месяц 12 вне месяцев обучения [6]; log_dist_coast_km = 1.3 вне диапазона обучения [1.7; 5.0]", "conc_B_model": "conc-B-c6bce5631d2b"}}, {"type": "Feature", "geometry": {"type": "Polygon", "coordinates": [[[39.889741394657776, 43.41629736262136], [39.88974007634995, 43.41620732916883], [39.88961656744229, 43.41620829009788], [39.8896139312108, 43.416028223182444], [39.88985962981579, 43.41593626774909], [39.889860948288266, 43.416026301202976], [39.88998445681785, 43.41602534001318], [39.88998709414698, 43.41620540691059], [39.889741394657776, 43.41629736262136]]]}, "properties": {"zone_id": "sochi-2025-12-04-006", "aoi": "sochi", "date": "2025-12-04", "scene_id": "S2A_MSIL2A_20251204T081341_R078_T37TEJ_20251204T100215", "scene_datetime_utc": "2025-12-04T08:13:41.024000+00:00", "detection_status": "detected", "detection_status_ru": "обнаружено", "lon": 39.8898, "lat": 43.41612, "n_pixels": 2, "zone_area_km2": 0.0008, "cover_m2": 9.8, "p_mean": 0.737, "p_max": 0.969, "cover_m2_km2": 12250.0, "h3": "882d5612a1fffff", "valid_frac_scene": 1.0, "wind_ms": 2.0, "sea": "спокойное", "scene_reliable": true, "field_event_id": "S4:DOORS3:T17", "field_profile": "B", "field_date": "2024-06-04", "field_distance_km": 179.4, "field_date_gap_days": 548, "field_conc_items_km2": 89.61, "conc_A_items_km2": null, "conc_A_lo80": null, "conc_A_hi80": null, "conc_A_lo95": null, "conc_A_hi95": null, "conc_A_status": "unavailable", "conc_A_status_ru": "концентрация недоступна", "conc_A_reasons": "вне бассейна профиля: nw_atlantic_subtropical", "conc_A_model": "conc-A-c6bce5631d2b", "conc_B_items_km2": 567.4, "conc_B_lo80": 121.0, "conc_B_hi80": 1906.6, "conc_B_lo95": 75.5, "conc_B_hi95": 3570.0, "conc_B_status": "research_estimate", "conc_B_status_ru": "исследовательская оценка", "conc_B_reasons": "ближайшее полевое измерение в 179 км (> 60 км); месяц 12 вне месяцев обучения [6]; log_dist_coast_km = 1.3 вне диапазона обучения [1.7; 5.0]", "conc_B_model": "conc-B-c6bce5631d2b"}}, {"type": "Feature", "geometry": {"type": "Polygon", "coordinates": [[[39.94463867636379, 43.39586731702337], [39.9446372777208, 43.3957772846316], [39.94451381221086, 43.395778304468315], [39.944511015309736, 43.39559823967403], [39.944756546785875, 43.39550616748711], [39.94475794559221, 43.395596199880075], [39.94488141072375, 43.3955951797832], [39.94488420872129, 43.39577524455835], [39.94463867636379, 43.39586731702337]]]}, "properties": {"zone_id": "sochi-2025-12-04-007", "aoi": "sochi", "date": "2025-12-04", "scene_id": "S2A_MSIL2A_20251204T081341_R078_T37TEJ_20251204T100215", "scene_datetime_utc": "2025-12-04T08:13:41.024000+00:00", "detection_status": "detected", "detection_status_ru": "обнаружено", "lon": 39.9447, "lat": 43.39569, "n_pixels": 2, "zone_area_km2": 0.0008, "cover_m2": 19.6, "p_mean": 0.745, "p_max": 0.929, "cover_m2_km2": 24500.0, "h3": "882d5610e3fffff", "valid_frac_scene": 1.0, "wind_ms": 2.0, "sea": "спокойное", "scene_reliable": true, "field_event_id": "S4:DOORS3:T23", "field_profile": "B", "field_date": "2024-06-10", "field_distance_km": 175.6, "field_date_gap_days": 542, "field_conc_items_km2": 102.37, "conc_A_items_km2": null, "conc_A_lo80": null, "conc_A_hi80": null, "conc_A_lo95": null, "conc_A_hi95": null, "conc_A_status": "unavailable", "conc_A_status_ru": "концентрация недоступна", "conc_A_reasons": "вне бассейна профиля: nw_atlantic_subtropical", "conc_A_model": "conc-A-c6bce5631d2b", "conc_B_items_km2": 666.3, "conc_B_lo80": 142.3, "conc_B_hi80": 2238.5, "conc_B_lo95": 88.8, "conc_B_hi95": 4191.4, "conc_B_status": "research_estimate", "conc_B_status_ru": "исследовательская оценка", "conc_B_reasons": "ближайшее полевое измерение в 176 км (> 60 км); месяц 12 вне месяцев обучения [6]; log_dist_coast_km = 0.9 вне диапазона обучения [1.7; 5.0]", "conc_B_model": "conc-B-c6bce5631d2b"}}]}