{"type": "FeatureCollection", "features": [{"type": "Feature", "geometry": {"type": "Polygon", "coordinates": [[[36.56145621585662, 45.210251729640646], [36.561460061180846, 45.21016179534753], [36.56133283137929, 45.21015907715821], [36.56133667688554, 45.21006914287189], [36.56146390648695, 45.210071861052725], [36.56146775177495, 45.20998192675626], [36.56159498119433, 45.20998464478703], [36.56159882626408, 45.20989471048039], [36.56185328475689, 45.20990014610017], [36.561849440087435, 45.20999008042374], [36.56197666956115, 45.209992798029695], [36.561968980568174, 45.21017266668877], [36.56184175069418, 45.210169949065865], [36.561837905970386, 45.2102598833844], [36.56145621585662, 45.210251729640646]]]}, "properties": {"zone_id": "kerch-2025-03-23-001", "aoi": "kerch", "date": "2025-03-23", "scene_id": "S2C_MSIL2A_20250323T082641_R021_T37TCK_20250323T140414", "scene_datetime_utc": "2025-03-23T08:26:41.025000+00:00", "detection_status": "detected", "detection_status_ru": "обнаружено", "lon": 36.56168, "lat": 45.21009, "n_pixels": 5, "zone_area_km2": 0.0014, "cover_m2": 28.6, "p_mean": 0.807, "p_max": 0.996, "cover_m2_km2": 20428.6, "h3": "882d76a143fffff", "valid_frac_scene": 0.962, "wind_ms": 7.0, "sea": "волнение", "scene_reliable": true, "field_event_id": "S4:DOORS3:T11", "field_profile": "B", "field_date": "2024-06-04", "field_distance_km": 302.3, "field_date_gap_days": 292, "field_conc_items_km2": 62.52, "conc_A_items_km2": null, "conc_A_lo80": null, "conc_A_hi80": null, "conc_A_lo95": null, "conc_A_hi95": null, "conc_A_status": "unavailable", "conc_A_status_ru": "концентрация недоступна", "conc_A_reasons": "вне бассейна профиля: nw_atlantic_subtropical", "conc_A_model": "conc-A-c6bce5631d2b", "conc_B_items_km2": 571.5, "conc_B_lo80": 121.9, "conc_B_hi80": 1920.3, "conc_B_lo95": 76.0, "conc_B_hi95": 3595.6, "conc_B_status": "research_estimate", "conc_B_status_ru": "исследовательская оценка", "conc_B_reasons": "ближайшее полевое измерение в 302 км (> 60 км); месяц 3 вне месяцев обучения [6]; log_dist_coast_km = 1.3 вне диапазона обучения [1.7; 5.0]", "conc_B_model": "conc-B-c6bce5631d2b"}}, {"type": "Feature", "geometry": {"type": "Polygon", "coordinates": [[[36.56122098431274, 45.209796621705834], [36.561224829946674, 45.20970668742128], [36.56109760118205, 45.20970396899113], [36.56110144699801, 45.209614034713375], [36.561228675562504, 45.209616753135045], [36.56123252116022, 45.20952681884713], [36.56148697794327, 45.20953225524872], [36.56148313274583, 45.20962218955358], [36.56161036136465, 45.20962490755044], [36.56160651634924, 45.20971484186211], [36.56147928753027, 45.20971212385676], [36.561475442296604, 45.209802058158274], [36.56122098431274, 45.209796621705834]]]}, "properties": {"zone_id": "kerch-2025-03-23-002", "aoi": "kerch", "date": "2025-03-23", "scene_id": "S2C_MSIL2A_20250323T082641_R021_T37TCK_20250323T140414", "scene_datetime_utc": "2025-03-23T08:26:41.025000+00:00", "detection_status": "detected", "detection_status_ru": "обнаружено", "lon": 36.56135, "lat": 45.20966, "n_pixels": 2, "zone_area_km2": 0.0008, "cover_m2": 11.4, "p_mean": 0.892, "p_max": 0.929, "cover_m2_km2": 14250.0, "h3": "882d76a143fffff", "valid_frac_scene": 0.962, "wind_ms": 7.0, "sea": "волнение", "scene_reliable": true, "field_event_id": "S4:DOORS3:T11", "field_profile": "B", "field_date": "2024-06-04", "field_distance_km": 302.2, "field_date_gap_days": 292, "field_conc_items_km2": 62.52, "conc_A_items_km2": null, "conc_A_lo80": null, "conc_A_hi80": null, "conc_A_lo95": null, "conc_A_hi95": null, "conc_A_status": "unavailable", "conc_A_status_ru": "концентрация недоступна", "conc_A_reasons": "вне бассейна профиля: nw_atlantic_subtropical", "conc_A_model": "conc-A-c6bce5631d2b", "conc_B_items_km2": 571.5, "conc_B_lo80": 121.9, "conc_B_hi80": 1920.3, "conc_B_lo95": 76.0, "conc_B_hi95": 3595.6, "conc_B_status": "research_estimate", "conc_B_status_ru": "исследовательская оценка", "conc_B_reasons": "ближайшее полевое измерение в 302 км (> 60 км); месяц 3 вне месяцев обучения [6]; log_dist_coast_km = 1.3 вне диапазона обучения [1.7; 5.0]", "conc_B_model": "conc-B-c6bce5631d2b"}}, {"type": "Feature", "geometry": {"type": "Polygon", "coordinates": [[[36.56020700033689, 45.20968493601524], [36.56021084755381, 45.209595001796835], [36.560083619134254, 45.20959228224236], [36.5600874665332, 45.20950234803075], [36.5603457699707, 45.2094178527509], [36.560341922990155, 45.209507786981156], [36.56046915124581, 45.20951050624396], [36.560465304447284, 45.209600440481], [36.56033807599149, 45.20959772120972], [36.560334228974696, 45.2096876554366], [36.56020700033689, 45.20968493601524]]]}, "properties": {"zone_id": "kerch-2025-03-23-003", "aoi": "kerch", "date": "2025-03-23", "scene_id": "S2C_MSIL2A_20250323T082641_R021_T37TCK_20250323T140414", "scene_datetime_utc": "2025-03-23T08:26:41.025000+00:00", "detection_status": "detected", "detection_status_ru": "обнаружено", "lon": 36.56028, "lat": 45.20955, "n_pixels": 1, "zone_area_km2": 0.0005, "cover_m2": 3.5, "p_mean": 0.867, "p_max": 0.867, "cover_m2_km2": 7000.0, "h3": "882d76a143fffff", "valid_frac_scene": 0.962, "wind_ms": 7.0, "sea": "волнение", "scene_reliable": true, "field_event_id": "S4:DOORS3:T11", "field_profile": "B", "field_date": "2024-06-04", "field_distance_km": 302.2, "field_date_gap_days": 292, "field_conc_items_km2": 62.52, "conc_A_items_km2": null, "conc_A_lo80": null, "conc_A_hi80": null, "conc_A_lo95": null, "conc_A_hi95": null, "conc_A_status": "unavailable", "conc_A_status_ru": "концентрация недоступна", "conc_A_reasons": "вне бассейна профиля: nw_atlantic_subtropical", "conc_A_model": "conc-A-c6bce5631d2b", "conc_B_items_km2": 571.5, "conc_B_lo80": 121.9, "conc_B_hi80": 1920.3, "conc_B_lo95": 76.0, "conc_B_hi95": 3595.6, "conc_B_status": "research_estimate", "conc_B_status_ru": "исследовательская оценка", "conc_B_reasons": "ближайшее полевое измерение в 302 км (> 60 км); месяц 3 вне месяцев обучения [6]; log_dist_coast_km = 1.3 вне диапазона обучения [1.7; 5.0]", "conc_B_model": "conc-B-c6bce5631d2b"}}, {"type": "Feature", "geometry": {"type": "Polygon", "coordinates": [[[36.56098191042949, 45.209431447606505], [36.560985756391254, 45.20934151333219], [36.5608585284634, 45.20933879465275], [36.560862374607176, 45.20924886038522], [36.56112067580613, 45.20916436329939], [36.56112452151341, 45.209074429011565], [36.561251748877105, 45.20907714738237], [36.56125559436614, 45.20898721308438], [36.56150620365881, 45.209082583699185], [36.56149851342692, 45.20926245232403], [36.56137128562675, 45.20925973421947], [36.561367440283504, 45.20934966852091], [36.56111298433723, 45.20934423187002], [36.5611091385756, 45.20943416615282], [36.56098191042949, 45.209431447606505]]]}, "properties": {"zone_id": "kerch-2025-03-23-004", "aoi": "kerch", "date": "2025-03-23", "scene_id": "S2C_MSIL2A_20250323T082641_R021_T37TCK_20250323T140414", "scene_datetime_utc": "2025-03-23T08:26:41.025000+00:00", "detection_status": "detected", "detection_status_ru": "обнаружено", "lon": 36.56121, "lat": 45.20921, "n_pixels": 4, "zone_area_km2": 0.0013, "cover_m2": 32.2, "p_mean": 0.815, "p_max": 0.98, "cover_m2_km2": 24769.2, "h3": "882d76a143fffff", "valid_frac_scene": 0.962, "wind_ms": 7.0, "sea": "волнение", "scene_reliable": true, "field_event_id": "S4:DOORS3:T11", "field_profile": "B", "field_date": "2024-06-04", "field_distance_km": 302.2, "field_date_gap_days": 292, "field_conc_items_km2": 62.52, "conc_A_items_km2": null, "conc_A_lo80": null, "conc_A_hi80": null, "conc_A_lo95": null, "conc_A_hi95": null, "conc_A_status": "unavailable", "conc_A_status_ru": "концентрация недоступна", "conc_A_reasons": "вне бассейна профиля: nw_atlantic_subtropical", "conc_A_model": "conc-A-c6bce5631d2b", "conc_B_items_km2": 571.5, "conc_B_lo80": 121.9, "conc_B_hi80": 1920.3, "conc_B_lo95": 76.0, "conc_B_hi95": 3595.6, "conc_B_status": "research_estimate", "conc_B_status_ru": "исследовательская оценка", "conc_B_reasons": "ближайшее полевое измерение в 302 км (> 60 км); месяц 3 вне месяцев обучения [6]; log_dist_coast_km = 1.3 вне диапазона обучения [1.7; 5.0]", "conc_B_model": "conc-B-c6bce5631d2b"}}, {"type": "Feature", "geometry": {"type": "Polygon", "coordinates": [[[36.5726237747805, 45.169262114887424], [36.572627597041446, 45.16917217920042], [36.57250045747259, 45.16916947535436], [36.57250427991526, 45.16907953967411], [36.572631419284384, 45.169082243511745], [36.57263524150934, 45.168992307821384], [36.57276238069675, 45.168995011509175], [36.57276620270399, 45.168905075808716], [36.57301665912555, 45.16900041846054], [36.57300901585597, 45.16918028989016], [36.57288187623314, 45.169177586468315], [36.57287805437164, 45.169267522172184], [36.5726237747805, 45.169262114887424]]]}, "properties": {"zone_id": "kerch-2025-03-23-005", "aoi": "kerch", "date": "2025-03-23", "scene_id": "S2C_MSIL2A_20250323T082641_R021_T37TCK_20250323T140414", "scene_datetime_utc": "2025-03-23T08:26:41.025000+00:00", "detection_status": "detected", "detection_status_ru": "обнаружено", "lon": 36.57278, "lat": 45.1691, "n_pixels": 3, "zone_area_km2": 0.001, "cover_m2": 37.6, "p_mean": 0.905, "p_max": 0.976, "cover_m2_km2": 37600.0, "h3": "882d76aa5bfffff", "valid_frac_scene": 0.962, "wind_ms": 7.0, "sea": "волнение", "scene_reliable": true, "field_event_id": "S4:DOORS3:T11", "field_profile": "B", "field_date": "2024-06-04", "field_distance_km": 297.7, "field_date_gap_days": 292, "field_conc_items_km2": 62.52, "conc_A_items_km2": null, "conc_A_lo80": null, "conc_A_hi80": null, "conc_A_lo95": null, "conc_A_hi95": null, "conc_A_status": "unavailable", "conc_A_status_ru": "концентрация недоступна", "conc_A_reasons": "вне бассейна профиля: nw_atlantic_subtropical", "conc_A_model": "conc-A-c6bce5631d2b", "conc_B_items_km2": 541.7, "conc_B_lo80": 115.5, "conc_B_hi80": 1820.2, "conc_B_lo95": 72.0, "conc_B_hi95": 3408.4, "conc_B_status": "research_estimate", "conc_B_status_ru": "исследовательская оценка", "conc_B_reasons": "ближайшее полевое измерение в 298 км (> 60 км); месяц 3 вне месяцев обучения [6]", "conc_B_model": "conc-B-c6bce5631d2b"}}, {"type": "Feature", "geometry": {"type": "Polygon", "coordinates": [[[36.60206019471352, 45.16223287100452], [36.60206396972475, 45.16214293325633], [36.601936843034494, 45.16214026250187], [36.601940618227616, 45.16205032476034], [36.602067744718205, 45.16205299550648], [36.6020715196939, 45.16196305775497], [36.60232577232907, 45.16196839880645], [36.60232199775271, 45.162058336574624], [36.60244912429661, 45.162061006896614], [36.602445349902155, 45.162150944671446], [36.60231822315858, 45.16214827434113], [36.602314448546686, 45.16223821210596], [36.60206019471352, 45.16223287100452]]]}, "properties": {"zone_id": "kerch-2025-03-23-006", "aoi": "kerch", "date": "2025-03-23", "scene_id": "S2C_MSIL2A_20250323T082641_R021_T37TCK_20250323T140414", "scene_datetime_utc": "2025-03-23T08:26:41.025000+00:00", "detection_status": "detected", "detection_status_ru": "обнаружено", "lon": 36.60219, "lat": 45.1621, "n_pixels": 2, "zone_area_km2": 0.0008, "cover_m2": 12.9, "p_mean": 0.82, "p_max": 0.973, "cover_m2_km2": 16125.0, "h3": "882d76aa11fffff", "valid_frac_scene": 0.962, "wind_ms": 7.0, "sea": "волнение", "scene_reliable": true, "field_event_id": "S4:DOORS3:T11", "field_profile": "B", "field_date": "2024-06-04", "field_distance_km": 296.9, "field_date_gap_days": 292, "field_conc_items_km2": 62.52, "conc_A_items_km2": null, "conc_A_lo80": null, "conc_A_hi80": null, "conc_A_lo95": null, "conc_A_hi95": null, "conc_A_status": "unavailable", "conc_A_status_ru": "концентрация недоступна", "conc_A_reasons": "вне бассейна профиля: nw_atlantic_subtropical", "conc_A_model": "conc-A-c6bce5631d2b", "conc_B_items_km2": 592.4, "conc_B_lo80": 126.4, "conc_B_hi80": 1990.3, "conc_B_lo95": 78.8, "conc_B_hi95": 3726.6, "conc_B_status": "research_estimate", "conc_B_status_ru": "исследовательская оценка", "conc_B_reasons": "ближайшее полевое измерение в 297 км (> 60 км); месяц 3 вне месяцев обучения [6]; log_dist_coast_km = 1.2 вне диапазона обучения [1.7; 5.0]", "conc_B_model": "conc-B-c6bce5631d2b"}}, {"type": "Feature", "geometry": {"type": "Polygon", "coordinates": [[[36.603724163092814, 45.16199776448086], [36.60372793545511, 45.161907826619434], [36.60360080913289, 45.161905157727894], [36.6036045816771, 45.161815219873134], [36.60386260606709, 45.16173061962509], [36.60385883393997, 45.16182055749818], [36.603985960098036, 45.16182322609863], [36.60398218815282, 45.16191316397837], [36.60385506179509, 45.16191049536958], [36.603851289632445, 45.162000433239335], [36.603724163092814, 45.16199776448086]]]}, "properties": {"zone_id": "kerch-2025-03-23-007", "aoi": "kerch", "date": "2025-03-23", "scene_id": "S2C_MSIL2A_20250323T082641_R021_T37TCK_20250323T140414", "scene_datetime_utc": "2025-03-23T08:26:41.025000+00:00", "detection_status": "detected", "detection_status_ru": "обнаружено", "lon": 36.60379, "lat": 45.16186, "n_pixels": 1, "zone_area_km2": 0.0005, "cover_m2": 7.5, "p_mean": 0.561, "p_max": 0.561, "cover_m2_km2": 15000.0, "h3": "882d76aa11fffff", "valid_frac_scene": 0.962, "wind_ms": 7.0, "sea": "волнение", "scene_reliable": true, "field_event_id": "S4:DOORS3:T11", "field_profile": "B", "field_date": "2024-06-04", "field_distance_km": 296.8, "field_date_gap_days": 292, "field_conc_items_km2": 62.52, "conc_A_items_km2": null, "conc_A_lo80": null, "conc_A_hi80": null, "conc_A_lo95": null, "conc_A_hi95": null, "conc_A_status": "unavailable", "conc_A_status_ru": "концентрация недоступна", "conc_A_reasons": "вне бассейна профиля: nw_atlantic_subtropical", "conc_A_model": "conc-A-c6bce5631d2b", "conc_B_items_km2": 592.4, "conc_B_lo80": 126.4, "conc_B_hi80": 1990.3, "conc_B_lo95": 78.8, "conc_B_hi95": 3726.6, "conc_B_status": "research_estimate", "conc_B_status_ru": "исследовательская оценка", "conc_B_reasons": "ближайшее полевое измерение в 297 км (> 60 км); месяц 3 вне месяцев обучения [6]; log_dist_coast_km = 1.2 вне диапазона обучения [1.7; 5.0]", "conc_B_model": "conc-B-c6bce5631d2b"}}, {"type": "Feature", "geometry": {"type": "Polygon", "coordinates": [[[36.61730934402117, 45.119974012691465], [36.61731308952004, 45.11988407327447], [36.61718605529277, 45.11988142142115], [36.617189800973236, 45.11979148201074], [36.61744761431131, 45.119706846131066], [36.61744386904693, 45.11979678555968], [36.617570903110206, 45.11979943712238], [36.61756715802743, 45.11988937655759], [36.61744012376492, 45.11988672498662], [36.6174363784653, 45.119976664411894], [36.61730934402117, 45.119974012691465]]]}, "properties": {"zone_id": "kerch-2025-03-23-008", "aoi": "kerch", "date": "2025-03-23", "scene_id": "S2C_MSIL2A_20250323T082641_R021_T37TCK_20250323T140414", "scene_datetime_utc": "2025-03-23T08:26:41.025000+00:00", "detection_status": "detected", "detection_status_ru": "обнаружено", "lon": 36.61738, "lat": 45.11984, "n_pixels": 1, "zone_area_km2": 0.0005, "cover_m2": 3.1, "p_mean": 0.91, "p_max": 0.91, "cover_m2_km2": 6200.0, "h3": "882d76a849fffff", "valid_frac_scene": 0.962, "wind_ms": 7.0, "sea": "волнение", "scene_reliable": true, "field_event_id": "S4:DOORS3:T11", "field_profile": "B", "field_date": "2024-06-04", "field_distance_km": 292.2, "field_date_gap_days": 292, "field_conc_items_km2": 62.52, "conc_A_items_km2": null, "conc_A_lo80": null, "conc_A_hi80": null, "conc_A_lo95": null, "conc_A_hi95": null, "conc_A_status": "unavailable", "conc_A_status_ru": "концентрация недоступна", "conc_A_reasons": "вне бассейна профиля: nw_atlantic_subtropical", "conc_A_model": "conc-A-c6bce5631d2b", "conc_B_items_km2": 592.4, "conc_B_lo80": 126.4, "conc_B_hi80": 1990.3, "conc_B_lo95": 78.8, "conc_B_hi95": 3726.6, "conc_B_status": "research_estimate", "conc_B_status_ru": "исследовательская оценка", "conc_B_reasons": "ближайшее полевое измерение в 292 км (> 60 км); месяц 3 вне месяцев обучения [6]; log_dist_coast_km = 1.2 вне диапазона обучения [1.7; 5.0]", "conc_B_model": "conc-B-c6bce5631d2b"}}, {"type": "Feature", "geometry": {"type": "Polygon", "coordinates": [[[36.576726462385004, 45.11452873855245], [36.5767302709183, 45.11443880172714], [36.576603252554484, 45.11443610498692], [36.576610869965634, 45.11425623134807], [36.576868714194966, 45.114171687814995], [36.57686490591457, 45.11426162465376], [36.57699192391592, 45.11426432109488], [36.576984307699675, 45.11444419478417], [36.576726462385004, 45.11452873855245]]]}, "properties": {"zone_id": "kerch-2025-03-23-009", "aoi": "kerch", "date": "2025-03-23", "scene_id": "S2C_MSIL2A_20250323T082641_R021_T37TCK_20250323T140414", "scene_datetime_utc": "2025-03-23T08:26:41.025000+00:00", "detection_status": "detected", "detection_status_ru": "обнаружено", "lon": 36.5768, "lat": 45.11435, "n_pixels": 2, "zone_area_km2": 0.0008, "cover_m2": 13.3, "p_mean": 0.945, "p_max": 0.961, "cover_m2_km2": 16625.0, "h3": "882d76ab5bfffff", "valid_frac_scene": 0.962, "wind_ms": 7.0, "sea": "волнение", "scene_reliable": true, "field_event_id": "S4:DOORS3:T11", "field_profile": "B", "field_date": "2024-06-04", "field_distance_km": 291.6, "field_date_gap_days": 292, "field_conc_items_km2": 62.52, "conc_A_items_km2": null, "conc_A_lo80": null, "conc_A_hi80": null, "conc_A_lo95": null, "conc_A_hi95": null, "conc_A_status": "unavailable", "conc_A_status_ru": "концентрация недоступна", "conc_A_reasons": "вне бассейна профиля: nw_atlantic_subtropical", "conc_A_model": "conc-A-c6bce5631d2b", "conc_B_items_km2": 497.8, "conc_B_lo80": 106.1, "conc_B_hi80": 1672.8, "conc_B_lo95": 66.1, "conc_B_hi95": 3132.3, "conc_B_status": "research_estimate", "conc_B_status_ru": "исследовательская оценка", "conc_B_reasons": "ближайшее полевое измерение в 292 км (> 60 км); месяц 3 вне месяцев обучения [6]", "conc_B_model": "conc-B-c6bce5631d2b"}}, {"type": "Feature", "geometry": {"type": "Polygon", "coordinates": [[[36.62737448968047, 45.113342333337975], [36.62737821850449, 45.11325239315902], [36.627251198062474, 45.11324975280247], [36.62725492706811, 45.11315981263009], [36.627512696161105, 45.11307515299502], [36.627508967571345, 45.11316509318556], [36.62763598784928, 45.11316773325156], [36.62763225944114, 45.11325767344865], [36.62750523896404, 45.11325503337441], [36.6275015103392, 45.1133449735616], [36.62737448968047, 45.113342333337975]]]}, "properties": {"zone_id": "kerch-2025-03-23-010", "aoi": "kerch", "date": "2025-03-23", "scene_id": "S2C_MSIL2A_20250323T082641_R021_T37TCK_20250323T140414", "scene_datetime_utc": "2025-03-23T08:26:41.025000+00:00", "detection_status": "detected", "detection_status_ru": "обнаружено", "lon": 36.62744, "lat": 45.11321, "n_pixels": 1, "zone_area_km2": 0.0005, "cover_m2": 4.7, "p_mean": 0.992, "p_max": 0.992, "cover_m2_km2": 9400.0, "h3": "882d76a841fffff", "valid_frac_scene": 0.962, "wind_ms": 7.0, "sea": "волнение", "scene_reliable": true, "field_event_id": "S4:DOORS3:T11", "field_profile": "B", "field_date": "2024-06-04", "field_distance_km": 291.4, "field_date_gap_days": 292, "field_conc_items_km2": 62.52, "conc_A_items_km2": null, "conc_A_lo80": null, "conc_A_hi80": null, "conc_A_lo95": null, "conc_A_hi95": null, "conc_A_status": "unavailable", "conc_A_status_ru": "концентрация недоступна", "conc_A_reasons": "вне бассейна профиля: nw_atlantic_subtropical", "conc_A_model": "conc-A-c6bce5631d2b", "conc_B_items_km2": 520.5, "conc_B_lo80": 111.0, "conc_B_hi80": 1749.2, "conc_B_lo95": 69.2, "conc_B_hi95": 3275.4, "conc_B_status": "research_estimate", "conc_B_status_ru": "исследовательская оценка", "conc_B_reasons": "ближайшее полевое измерение в 291 км (> 60 км); месяц 3 вне месяцев обучения [6]", "conc_B_model": "conc-B-c6bce5631d2b"}}, {"type": "Feature", "geometry": {"type": "Polygon", "coordinates": [[[36.993044295888566, 45.072197406528026], [36.993047445760624, 45.072107443710166], [36.992920485458214, 45.07210521167674], [36.9929236355144, 45.07201524886424], [36.99305059561787, 45.072017480890715], [36.9930537454603, 45.07192751806967], [36.99330766531383, 45.07193198168554], [36.99330451586926, 45.07202194452051], [36.993431476017186, 45.072024176123826], [36.99342832675675, 45.072114138964174], [36.993301366409895, 45.072111907353886], [36.9932982169357, 45.072201870185665], [36.993044295888566, 45.072197406528026]]]}, "properties": {"zone_id": "kerch-2025-03-23-011", "aoi": "kerch", "date": "2025-03-23", "scene_id": "S2C_MSIL2A_20250323T082641_R021_T37TCK_20250323T140414", "scene_datetime_utc": "2025-03-23T08:26:41.025000+00:00", "detection_status": "detected", "detection_status_ru": "обнаружено", "lon": 36.99318, "lat": 45.07206, "n_pixels": 2, "zone_area_km2": 0.0008, "cover_m2": 9.4, "p_mean": 0.871, "p_max": 0.89, "cover_m2_km2": 11750.0, "h3": "882d76226bfffff", "valid_frac_scene": 0.962, "wind_ms": 7.0, "sea": "волнение", "scene_reliable": true, "field_event_id": "S4:DOORS3:T11", "field_profile": "B", "field_date": "2024-06-04", "field_distance_km": 287.9, "field_date_gap_days": 292, "field_conc_items_km2": 62.52, "conc_A_items_km2": null, "conc_A_lo80": null, "conc_A_hi80": null, "conc_A_lo95": null, "conc_A_hi95": null, "conc_A_status": "unavailable", "conc_A_status_ru": "концентрация недоступна", "conc_A_reasons": "вне бассейна профиля: nw_atlantic_subtropical", "conc_A_model": "conc-A-c6bce5631d2b", "conc_B_items_km2": 670.1, "conc_B_lo80": 143.1, "conc_B_hi80": 2251.2, "conc_B_lo95": 89.3, "conc_B_hi95": 4215.1, "conc_B_status": "research_estimate", "conc_B_status_ru": "исследовательская оценка", "conc_B_reasons": "ближайшее полевое измерение в 288 км (> 60 км); месяц 3 вне месяцев обучения [6]; log_dist_coast_km = 0.8 вне диапазона обучения [1.7; 5.0]", "conc_B_model": "conc-B-c6bce5631d2b"}}, {"type": "Feature", "geometry": {"type": "Polygon", "coordinates": [[[36.99376726158562, 45.06968960413637], [36.9937704100483, 45.06959964123903], [36.993643455241646, 45.06959741010572], [36.9936497525204, 45.06941748432015], [36.99377670692923, 45.06941971543954], [36.99377985534749, 45.06932975253739], [36.99428137707524, 45.069518601435085], [36.994278229422996, 45.069608564361864], [36.99415127455711, 45.06960633379272], [36.99414812669116, 45.069696296710944], [36.99376726158562, 45.06968960413637]]]}, "properties": {"zone_id": "kerch-2025-03-23-012", "aoi": "kerch", "date": "2025-03-23", "scene_id": "S2C_MSIL2A_20250323T082641_R021_T37TCK_20250323T140414", "scene_datetime_utc": "2025-03-23T08:26:41.025000+00:00", "detection_status": "detected", "detection_status_ru": "обнаружено", "lon": 36.99393, "lat": 45.06953, "n_pixels": 4, "zone_area_km2": 0.0013, "cover_m2": 12.9, "p_mean": 0.656, "p_max": 0.757, "cover_m2_km2": 9923.1, "h3": "882d76226bfffff", "valid_frac_scene": 0.962, "wind_ms": 7.0, "sea": "волнение", "scene_reliable": true, "field_event_id": "S4:DOORS3:T11", "field_profile": "B", "field_date": "2024-06-04", "field_distance_km": 287.6, "field_date_gap_days": 292, "field_conc_items_km2": 62.52, "conc_A_items_km2": null, "conc_A_lo80": null, "conc_A_hi80": null, "conc_A_lo95": null, "conc_A_hi95": null, "conc_A_status": "unavailable", "conc_A_status_ru": "концентрация недоступна", "conc_A_reasons": "вне бассейна профиля: nw_atlantic_subtropical", "conc_A_model": "conc-A-c6bce5631d2b", "conc_B_items_km2": 901.4, "conc_B_lo80": 192.7, "conc_B_hi80": 3027.3, "conc_B_lo95": 120.4, "conc_B_hi95": 5668.0, "conc_B_status": "research_estimate", "conc_B_status_ru": "исследовательская оценка", "conc_B_reasons": "ближайшее полевое измерение в 288 км (> 60 км); месяц 3 вне месяцев обучения [6]; log_dist_coast_km = 0.0 вне диапазона обучения [1.7; 5.0]", "conc_B_model": "conc-B-c6bce5631d2b"}}, {"type": "Feature", "geometry": {"type": "Polygon", "coordinates": [[[37.02293677417415, 45.063717175956825], [37.02293987623245, 45.06362721136964], [37.02268909101127, 45.06353284969065], [37.022692193438104, 45.06344288511401], [37.0228191368644, 45.06344508372276], [37.02282223907778, 45.063355119137654], [37.02307302376075, 45.06344948051723], [37.02306992193049, 45.06353944511445], [37.02319686559942, 45.06354164330702], [37.02319376395342, 45.06363160790951], [37.023066820085646, 45.06362940971009], [37.023063718226204, 45.063719374304135], [37.02293677417415, 45.063717175956825]]]}, "properties": {"zone_id": "kerch-2025-03-23-013", "aoi": "kerch", "date": "2025-03-23", "scene_id": "S2C_MSIL2A_20250323T082641_R021_T37TCK_20250323T140414", "scene_datetime_utc": "2025-03-23T08:26:41.025000+00:00", "detection_status": "detected", "detection_status_ru": "обнаружено", "lon": 37.02294, "lat": 45.06354, "n_pixels": 2, "zone_area_km2": 0.0008, "cover_m2": 14.1, "p_mean": 0.831, "p_max": 0.933, "cover_m2_km2": 17625.0, "h3": "882d762229fffff", "valid_frac_scene": 0.962, "wind_ms": 7.0, "sea": "волнение", "scene_reliable": true, "field_event_id": "S4:DOORS3:T11", "field_profile": "B", "field_date": "2024-06-04", "field_distance_km": 287.2, "field_date_gap_days": 292, "field_conc_items_km2": 62.52, "conc_A_items_km2": null, "conc_A_lo80": null, "conc_A_hi80": null, "conc_A_lo95": null, "conc_A_hi95": null, "conc_A_status": "unavailable", "conc_A_status_ru": "концентрация недоступна", "conc_A_reasons": "вне бассейна профиля: nw_atlantic_subtropical", "conc_A_model": "conc-A-c6bce5631d2b", "conc_B_items_km2": 901.4, "conc_B_lo80": 192.7, "conc_B_hi80": 3027.3, "conc_B_lo95": 120.4, "conc_B_hi95": 5668.0, "conc_B_status": "research_estimate", "conc_B_status_ru": "исследовательская оценка", "conc_B_reasons": "ближайшее полевое измерение в 287 км (> 60 км); месяц 3 вне месяцев обучения [6]; log_dist_coast_km = 0.0 вне диапазона обучения [1.7; 5.0]", "conc_B_model": "conc-B-c6bce5631d2b"}}, {"type": "Feature", "geometry": {"type": "Polygon", "coordinates": [[[36.983092890557195, 45.06257010901552], [36.98309605497955, 45.062480146595234], [36.98296911676269, 45.06247790387145], [36.982975445960406, 45.06229797904009], [36.983232485792556, 45.06221250188662], [36.983229321613685, 45.06230246431869], [36.983356259462646, 45.062304706746495], [36.983349931457916, 45.06248463161981], [36.983092890557195, 45.06257010901552]]]}, "properties": {"zone_id": "kerch-2025-03-23-014", "aoi": "kerch", "date": "2025-03-23", "scene_id": "S2C_MSIL2A_20250323T082641_R021_T37TCK_20250323T140414", "scene_datetime_utc": "2025-03-23T08:26:41.025000+00:00", "detection_status": "detected", "detection_status_ru": "обнаружено", "lon": 36.98316, "lat": 45.06239, "n_pixels": 2, "zone_area_km2": 0.0008, "cover_m2": 12.2, "p_mean": 0.743, "p_max": 0.784, "cover_m2_km2": 15250.0, "h3": "882d763197fffff", "valid_frac_scene": 0.962, "wind_ms": 7.0, "sea": "волнение", "scene_reliable": true, "field_event_id": "S4:DOORS3:T11", "field_profile": "B", "field_date": "2024-06-04", "field_distance_km": 286.8, "field_date_gap_days": 292, "field_conc_items_km2": 62.52, "conc_A_items_km2": null, "conc_A_lo80": null, "conc_A_hi80": null, "conc_A_lo95": null, "conc_A_hi95": null, "conc_A_status": "unavailable", "conc_A_status_ru": "концентрация недоступна", "conc_A_reasons": "вне бассейна профиля: nw_atlantic_subtropical", "conc_A_model": "conc-A-c6bce5631d2b", "conc_B_items_km2": 592.4, "conc_B_lo80": 126.4, "conc_B_hi80": 1990.3, "conc_B_lo95": 78.8, "conc_B_hi95": 3726.6, "conc_B_status": "research_estimate", "conc_B_status_ru": "исследовательская оценка", "conc_B_reasons": "ближайшее полевое измерение в 287 км (> 60 км); месяц 3 вне месяцев обучения [6]; log_dist_coast_km = 1.2 вне диапазона обучения [1.7; 5.0]", "conc_B_model": "conc-B-c6bce5631d2b"}}, {"type": "Feature", "geometry": {"type": "Polygon", "coordinates": [[[37.01538866217888, 45.0616058048413], [37.01539177584654, 45.06151584063132], [37.015264837259686, 45.06151363384033], [37.01526795111153, 45.061423669635644], [37.01552494134175, 45.06133811884277], [37.01552182790222, 45.06142808306283], [37.01564876631952, 45.06143028956491], [37.01564565306418, 45.06152025379025], [37.015518714448035, 45.06151804728128], [37.01551560097922, 45.06160801149815], [37.01538866217888, 45.0616058048413]]]}, "properties": {"zone_id": "kerch-2025-03-23-015", "aoi": "kerch", "date": "2025-03-23", "scene_id": "S2C_MSIL2A_20250323T082641_R021_T37TCK_20250323T140414", "scene_datetime_utc": "2025-03-23T08:26:41.025000+00:00", "detection_status": "detected", "detection_status_ru": "обнаружено", "lon": 37.01546, "lat": 45.06147, "n_pixels": 1, "zone_area_km2": 0.0005, "cover_m2": 5.5, "p_mean": 0.561, "p_max": 0.561, "cover_m2_km2": 11000.0, "h3": "882d762229fffff", "valid_frac_scene": 0.962, "wind_ms": 7.0, "sea": "волнение", "scene_reliable": true, "field_event_id": "S4:DOORS3:T11", "field_profile": "B", "field_date": "2024-06-04", "field_distance_km": 286.9, "field_date_gap_days": 292, "field_conc_items_km2": 62.52, "conc_A_items_km2": null, "conc_A_lo80": null, "conc_A_hi80": null, "conc_A_lo95": null, "conc_A_hi95": null, "conc_A_status": "unavailable", "conc_A_status_ru": "концентрация недоступна", "conc_A_reasons": "вне бассейна профиля: nw_atlantic_subtropical", "conc_A_model": "conc-A-c6bce5631d2b", "conc_B_items_km2": 621.6, "conc_B_lo80": 132.7, "conc_B_hi80": 2088.3, "conc_B_lo95": 82.8, "conc_B_hi95": 3910.2, "conc_B_status": "research_estimate", "conc_B_status_ru": "исследовательская оценка", "conc_B_reasons": "ближайшее полевое измерение в 287 км (> 60 км); месяц 3 вне месяцев обучения [6]; log_dist_coast_km = 1.0 вне диапазона обучения [1.7; 5.0]", "conc_B_model": "conc-B-c6bce5631d2b"}}, {"type": "Feature", "geometry": {"type": "Polygon", "coordinates": [[[36.56736565309243, 45.02962245809029], [36.56736946503334, 45.02953252054703], [36.56724263548084, 45.029529817354515], [36.567250259705425, 45.02934994227983], [36.567377088861406, 45.02935264545549], [36.56738090074855, 45.0292627079072], [36.56763074722709, 45.029358051384634], [36.56762693571855, 45.02944798894811], [36.567753765126525, 45.029450691710025], [36.567749953798334, 45.02954062928024], [36.56762312419208, 45.02953792650989], [36.56761931264771, 45.02962786407], [36.56736565309243, 45.02962245809029]]]}, "properties": {"zone_id": "kerch-2025-03-23-016", "aoi": "kerch", "date": "2025-03-23", "scene_id": "S2C_MSIL2A_20250323T082641_R021_T37TCK_20250323T140414", "scene_datetime_utc": "2025-03-23T08:26:41.025000+00:00", "detection_status": "detected", "detection_status_ru": "обнаружено", "lon": 36.56748, "lat": 45.02946, "n_pixels": 3, "zone_area_km2": 0.001, "cover_m2": 28.2, "p_mean": 0.707, "p_max": 0.929, "cover_m2_km2": 28200.0, "h3": "882d7614c7fffff", "valid_frac_scene": 0.962, "wind_ms": 7.0, "sea": "волнение", "scene_reliable": true, "field_event_id": "S4:DOORS3:T11", "field_profile": "B", "field_date": "2024-06-04", "field_distance_km": 282.2, "field_date_gap_days": 292, "field_conc_items_km2": 62.52, "conc_A_items_km2": null, "conc_A_lo80": null, "conc_A_hi80": null, "conc_A_lo95": null, "conc_A_hi95": null, "conc_A_status": "unavailable", "conc_A_status_ru": "концентрация недоступна", "conc_A_reasons": "вне бассейна профиля: nw_atlantic_subtropical", "conc_A_model": "conc-A-c6bce5631d2b", "conc_B_items_km2": 355.2, "conc_B_lo80": 75.5, "conc_B_hi80": 1194.4, "conc_B_lo95": 46.9, "conc_B_hi95": 2236.8, "conc_B_status": "research_estimate", "conc_B_status_ru": "исследовательская оценка", "conc_B_reasons": "ближайшее полевое измерение в 282 км (> 60 км); месяц 3 вне месяцев обучения [6]", "conc_B_model": "conc-B-c6bce5631d2b"}}, {"type": "Feature", "geometry": {"type": "Polygon", "coordinates": [[[37.166964042996895, 45.01643024326382], [37.16696691441721, 45.01634027039374], [37.166840064474805, 45.016338233670396], [37.166845807671805, 45.016158287938254], [37.16697265721734, 45.016160324648894], [37.166975528597156, 45.016070351774125], [37.167229227331845, 45.016074424760234], [37.167226356348905, 45.016164397647714], [37.16735320593493, 45.016166433935894], [37.167350335136916, 45.01625640682817], [37.16722348535246, 45.01625437053364], [37.16722061434252, 45.016344343417984], [37.166964042996895, 45.01643024326382]]]}, "properties": {"zone_id": "kerch-2025-03-23-017", "aoi": "kerch", "date": "2025-03-23", "scene_id": "S2C_MSIL2A_20250323T082641_R021_T37TCK_20250323T140414", "scene_datetime_utc": "2025-03-23T08:26:41.025000+00:00", "detection_status": "detected", "detection_status_ru": "обнаружено", "lon": 37.16708, "lat": 45.01624, "n_pixels": 3, "zone_area_km2": 0.001, "cover_m2": 5.5, "p_mean": 0.804, "p_max": 0.929, "cover_m2_km2": 5500.0, "h3": "882d762181fffff", "valid_frac_scene": 0.962, "wind_ms": 7.0, "sea": "волнение", "scene_reliable": true, "field_event_id": "S4:DOORS3:T11", "field_profile": "B", "field_date": "2024-06-04", "field_distance_km": 283.3, "field_date_gap_days": 292, "field_conc_items_km2": 62.52, "conc_A_items_km2": null, "conc_A_lo80": null, "conc_A_hi80": null, "conc_A_lo95": null, "conc_A_hi95": null, "conc_A_status": "unavailable", "conc_A_status_ru": "концентрация недоступна", "conc_A_reasons": "вне бассейна профиля: nw_atlantic_subtropical", "conc_A_model": "conc-A-c6bce5631d2b", "conc_B_items_km2": 901.4, "conc_B_lo80": 192.7, "conc_B_hi80": 3027.3, "conc_B_lo95": 120.4, "conc_B_hi95": 5668.0, "conc_B_status": "research_estimate", "conc_B_status_ru": "исследовательская оценка", "conc_B_reasons": "ближайшее полевое измерение в 283 км (> 60 км); месяц 3 вне месяцев обучения [6]; log_dist_coast_km = 0.0 вне диапазона обучения [1.7; 5.0]", "conc_B_model": "conc-B-c6bce5631d2b"}}, {"type": "Feature", "geometry": {"type": "Polygon", "coordinates": [[[37.20288212800837, 45.00016770805175], [37.20288494158719, 45.00007773313404], [37.20275812500999, 45.00007573686631], [37.20276093877388, 44.999985761953255], [37.202887755152794, 44.99998775821478], [37.202890568705165, 44.99989778329394], [37.203271017326415, 44.9999037712153], [37.20326820436889, 44.99999374615482], [37.203395020800706, 44.99999574185333], [37.203392208028234, 45.00008571679749], [37.20326539139814, 45.00008372109276], [37.203262578414176, 45.00017369602916], [37.20288212800837, 45.00016770805175]]]}, "properties": {"zone_id": "kerch-2025-03-23-018", "aoi": "kerch", "date": "2025-03-23", "scene_id": "S2C_MSIL2A_20250323T082641_R021_T37TCK_20250323T140414", "scene_datetime_utc": "2025-03-23T08:26:41.025000+00:00", "detection_status": "detected", "detection_status_ru": "обнаружено", "lon": 37.20308, "lat": 45.00004, "n_pixels": 3, "zone_area_km2": 0.0011, "cover_m2": 18.8, "p_mean": 0.973, "p_max": 0.996, "cover_m2_km2": 17090.9, "h3": "882d762f4bfffff", "valid_frac_scene": 0.962, "wind_ms": 7.0, "sea": "волнение", "scene_reliable": true, "field_event_id": "S4:DOORS3:T11", "field_profile": "B", "field_date": "2024-06-04", "field_distance_km": 282.0, "field_date_gap_days": 292, "field_conc_items_km2": 62.52, "conc_A_items_km2": null, "conc_A_lo80": null, "conc_A_hi80": null, "conc_A_lo95": null, "conc_A_hi95": null, "conc_A_status": "unavailable", "conc_A_status_ru": "концентрация недоступна", "conc_A_reasons": "вне бассейна профиля: nw_atlantic_subtropical", "conc_A_model": "conc-A-c6bce5631d2b", "conc_B_items_km2": 901.4, "conc_B_lo80": 192.7, "conc_B_hi80": 3027.3, "conc_B_lo95": 120.4, "conc_B_hi95": 5668.0, "conc_B_status": "research_estimate", "conc_B_status_ru": "исследовательская оценка", "conc_B_reasons": "ближайшее полевое измерение в 282 км (> 60 км); месяц 3 вне месяцев обучения [6]; log_dist_coast_km = 0.0 вне диапазона обучения [1.7; 5.0]", "conc_B_model": "conc-B-c6bce5631d2b"}}, {"type": "Feature", "geometry": {"type": "Polygon", "coordinates": [[[37.20302301156753, 44.99971982954969], [37.203025824881955, 44.99962985461793], [37.20289900928294, 44.99962785852208], [37.202901822782415, 44.99953788359501], [37.20302863818315, 44.999539879684626], [37.20303145147112, 44.99944990474977], [37.2031582666868, 44.99945190069242], [37.20316107976328, 44.99936192574976], [37.203541524894824, 44.999367912714554], [37.203538712413184, 44.999457887675895], [37.20366552768175, 44.99945988305556], [37.203659903075376, 44.999639832985984], [37.20353308741025, 44.999637837593866], [37.20353027488895, 44.999727812550525], [37.20340345903877, 44.99972581701143], [37.20340627175835, 44.999635842061004], [37.20327945611966, 44.99963384638739], [37.2032766432018, 44.99972382133161], [37.20302301156753, 44.99971982954969]]]}, "properties": {"zone_id": "kerch-2025-03-23-019", "aoi": "kerch", "date": "2025-03-23", "scene_id": "S2C_MSIL2A_20250323T082641_R021_T37TCK_20250323T140414", "scene_datetime_utc": "2025-03-23T08:26:41.025000+00:00", "detection_status": "detected", "detection_status_ru": "обнаружено", "lon": 37.2033, "lat": 44.99954, "n_pixels": 6, "zone_area_km2": 0.0017, "cover_m2": 26.7, "p_mean": 0.873, "p_max": 0.996, "cover_m2_km2": 15705.9, "h3": "882d762f4bfffff", "valid_frac_scene": 0.962, "wind_ms": 7.0, "sea": "волнение", "scene_reliable": true, "field_event_id": "S4:DOORS3:T11", "field_profile": "B", "field_date": "2024-06-04", "field_distance_km": 281.9, "field_date_gap_days": 292, "field_conc_items_km2": 62.52, "conc_A_items_km2": null, "conc_A_lo80": null, "conc_A_hi80": null, "conc_A_lo95": null, "conc_A_hi95": null, "conc_A_status": "unavailable", "conc_A_status_ru": "концентрация недоступна", "conc_A_reasons": "вне бассейна профиля: nw_atlantic_subtropical", "conc_A_model": "conc-A-c6bce5631d2b", "conc_B_items_km2": 901.4, "conc_B_lo80": 192.7, "conc_B_hi80": 3027.3, "conc_B_lo95": 120.4, "conc_B_hi95": 5668.0, "conc_B_status": "research_estimate", "conc_B_status_ru": "исследовательская оценка", "conc_B_reasons": "ближайшее полевое измерение в 282 км (> 60 км); месяц 3 вне месяцев обучения [6]; log_dist_coast_km = 0.0 вне диапазона обучения [1.7; 5.0]", "conc_B_model": "conc-B-c6bce5631d2b"}}, {"type": "Feature", "geometry": {"type": "Polygon", "coordinates": [[[36.551171473309665, 44.99857968460362], [36.5511753064627, 44.99848974765504], [36.55104854694079, 44.99848702793695], [36.55105238027375, 44.9983970909952], [36.551309731858794, 44.99831259331344], [36.55130589893971, 44.99840253027384], [36.5514326582997, 44.99840524970232], [36.55142882556055, 44.99849518666954], [36.55130206600262, 44.99849246723257], [36.55129823304752, 44.998582404189605], [36.551171473309665, 44.99857968460362]]]}, "properties": {"zone_id": "kerch-2025-03-23-020", "aoi": "kerch", "date": "2025-03-23", "scene_id": "S2C_MSIL2A_20250323T082641_R021_T37TCK_20250323T140414", "scene_datetime_utc": "2025-03-23T08:26:41.025000+00:00", "detection_status": "detected", "detection_status_ru": "обнаружено", "lon": 36.55124, "lat": 44.99845, "n_pixels": 1, "zone_area_km2": 0.0005, "cover_m2": 2.7, "p_mean": 0.894, "p_max": 0.894, "cover_m2_km2": 5400.0, "h3": "882d761431fffff", "valid_frac_scene": 0.962, "wind_ms": 7.0, "sea": "волнение", "scene_reliable": true, "field_event_id": "S4:DOORS3:T11", "field_profile": "B", "field_date": "2024-06-04", "field_distance_km": 278.8, "field_date_gap_days": 292, "field_conc_items_km2": 62.52, "conc_A_items_km2": null, "conc_A_lo80": null, "conc_A_hi80": null, "conc_A_lo95": null, "conc_A_hi95": null, "conc_A_status": "unavailable", "conc_A_status_ru": "концентрация недоступна", "conc_A_reasons": "вне бассейна профиля: nw_atlantic_subtropical", "conc_A_model": "conc-A-c6bce5631d2b", "conc_B_items_km2": 353.2, "conc_B_lo80": 75.1, "conc_B_hi80": 1187.8, "conc_B_lo95": 46.7, "conc_B_hi95": 2224.3, "conc_B_status": "research_estimate", "conc_B_status_ru": "исследовательская оценка", "conc_B_reasons": "ближайшее полевое измерение в 279 км (> 60 км); месяц 3 вне месяцев обучения [6]", "conc_B_model": "conc-B-c6bce5631d2b"}}, {"type": "Feature", "geometry": {"type": "Polygon", "coordinates": [[[36.67400334910756, 44.998178262979366], [36.67400699004871, 44.99808831797191], [36.67388022006206, 44.998085734611195], [36.6738838611841, 44.99799578961014], [36.67414104148746, 44.99791101115603], [36.67413740077852, 44.99800095617485], [36.67426417060139, 44.998003539246305], [36.67426053007335, 44.99809348427153], [36.67413376005247, 44.998090901192015], [36.67413011930932, 44.998180846207525], [36.67400334910756, 44.998178262979366]]]}, "properties": {"zone_id": "kerch-2025-03-23-021", "aoi": "kerch", "date": "2025-03-23", "scene_id": "S2C_MSIL2A_20250323T082641_R021_T37TCK_20250323T140414", "scene_datetime_utc": "2025-03-23T08:26:41.025000+00:00", "detection_status": "detected", "detection_status_ru": "обнаружено", "lon": 36.67407, "lat": 44.99804, "n_pixels": 1, "zone_area_km2": 0.0005, "cover_m2": 3.1, "p_mean": 0.761, "p_max": 0.761, "cover_m2_km2": 6200.0, "h3": "882d760603fffff", "valid_frac_scene": 0.962, "wind_ms": 7.0, "sea": "волнение", "scene_reliable": true, "field_event_id": "S4:DOORS3:T11", "field_profile": "B", "field_date": "2024-06-04", "field_distance_km": 278.6, "field_date_gap_days": 292, "field_conc_items_km2": 62.52, "conc_A_items_km2": null, "conc_A_lo80": null, "conc_A_hi80": null, "conc_A_lo95": null, "conc_A_hi95": null, "conc_A_status": "unavailable", "conc_A_status_ru": "концентрация недоступна", "conc_A_reasons": "вне бассейна профиля: nw_atlantic_subtropical", "conc_A_model": "conc-A-c6bce5631d2b", "conc_B_items_km2": 351.5, "conc_B_lo80": 74.7, "conc_B_hi80": 1182.1, "conc_B_lo95": 46.4, "conc_B_hi95": 2213.8, "conc_B_status": "research_estimate", "conc_B_status_ru": "исследовательская оценка", "conc_B_reasons": "ближайшее полевое измерение в 279 км (> 60 км); месяц 3 вне месяцев обучения [6]", "conc_B_model": "conc-B-c6bce5631d2b"}}, {"type": "Feature", "geometry": {"type": "Polygon", "coordinates": [[[36.7057301741773, 44.99161883253831], [36.70573376466144, 44.99152888541453], [36.70560700629932, 44.99152633756011], [36.70561059696453, 44.99143639044262], [36.70586770356218, 44.99135153885996], [36.70586411330973, 44.99144148599499], [36.70599087150763, 44.99144403356032], [36.70598728143627, 44.99153398070163], [36.705860523040414, 44.99153143312836], [36.70585693275423, 44.99162138026011], [36.7057301741773, 44.99161883253831]]]}, "properties": {"zone_id": "kerch-2025-03-23-022", "aoi": "kerch", "date": "2025-03-23", "scene_id": "S2C_MSIL2A_20250323T082641_R021_T37TCK_20250323T140414", "scene_datetime_utc": "2025-03-23T08:26:41.025000+00:00", "detection_status": "detected", "detection_status_ru": "обнаружено", "lon": 36.7058, "lat": 44.99149, "n_pixels": 1, "zone_area_km2": 0.0005, "cover_m2": 3.1, "p_mean": 0.992, "p_max": 0.992, "cover_m2_km2": 6200.0, "h3": "882d760637fffff", "valid_frac_scene": 0.962, "wind_ms": 7.0, "sea": "волнение", "scene_reliable": true, "field_event_id": "S4:DOORS3:T11", "field_profile": "B", "field_date": "2024-06-04", "field_distance_km": 277.9, "field_date_gap_days": 292, "field_conc_items_km2": 62.52, "conc_A_items_km2": null, "conc_A_lo80": null, "conc_A_hi80": null, "conc_A_lo95": null, "conc_A_hi95": null, "conc_A_status": "unavailable", "conc_A_status_ru": "концентрация недоступна", "conc_A_reasons": "вне бассейна профиля: nw_atlantic_subtropical", "conc_A_model": "conc-A-c6bce5631d2b", "conc_B_items_km2": 338.6, "conc_B_lo80": 71.9, "conc_B_hi80": 1138.6, "conc_B_lo95": 44.7, "conc_B_hi95": 2132.3, "conc_B_status": "research_estimate", "conc_B_status_ru": "исследовательская оценка", "conc_B_reasons": "ближайшее полевое измерение в 278 км (> 60 км); месяц 3 вне месяцев обучения [6]", "conc_B_model": "conc-B-c6bce5631d2b"}}, {"type": "Feature", "geometry": {"type": "Polygon", "coordinates": [[[37.189893433238176, 44.965395045430625], [37.18989626371355, 44.96530507060631], [37.18976952467944, 44.965303061124175], [37.189772355339436, 44.965213086304566], [37.190028663276, 44.965127130281985], [37.19002583302513, 44.965217105115705], [37.190152571887936, 44.96521911431041], [37.19014974182169, 44.965309089148825], [37.190023002760974, 44.965307079947856], [37.190020172483514, 44.96539705477844], [37.189893433238176, 44.965395045430625]]]}, "properties": {"zone_id": "kerch-2025-03-23-023", "aoi": "kerch", "date": "2025-03-23", "scene_id": "S2C_MSIL2A_20250323T082641_R021_T37TCK_20250323T140414", "scene_datetime_utc": "2025-03-23T08:26:41.025000+00:00", "detection_status": "detected", "detection_status_ru": "обнаружено", "lon": 37.18996, "lat": 44.96526, "n_pixels": 1, "zone_area_km2": 0.0005, "cover_m2": 2.4, "p_mean": 0.553, "p_max": 0.553, "cover_m2_km2": 4800.0, "h3": "882d762a95fffff", "valid_frac_scene": 0.962, "wind_ms": 7.0, "sea": "волнение", "scene_reliable": true, "field_event_id": "S4:DOORS3:T11", "field_profile": "B", "field_date": "2024-06-04", "field_distance_km": 278.0, "field_date_gap_days": 292, "field_conc_items_km2": 62.52, "conc_A_items_km2": null, "conc_A_lo80": null, "conc_A_hi80": null, "conc_A_lo95": null, "conc_A_hi95": null, "conc_A_status": "unavailable", "conc_A_status_ru": "концентрация недоступна", "conc_A_reasons": "вне бассейна профиля: nw_atlantic_subtropical", "conc_A_model": "conc-A-c6bce5631d2b", "conc_B_items_km2": 512.0, "conc_B_lo80": 109.1, "conc_B_hi80": 1720.5, "conc_B_lo95": 68.0, "conc_B_hi95": 3221.6, "conc_B_status": "research_estimate", "conc_B_status_ru": "исследовательская оценка", "conc_B_reasons": "ближайшее полевое измерение в 278 км (> 60 км); месяц 3 вне месяцев обучения [6]", "conc_B_model": "conc-B-c6bce5631d2b"}}, {"type": "Feature", "geometry": {"type": "Polygon", "coordinates": [[[37.179421682224316, 44.895552905271934], [37.17942452214857, 44.89546292986505], [37.179297937354455, 44.89546091120547], [37.17930077746258, 44.89537093580332], [37.179427362059506, 44.89537295445659], [37.1794302019571, 44.89528297904656], [37.17968337079658, 44.89528701591981], [37.179680531293364, 44.895376991342424], [37.179807115930295, 44.89537900957499], [37.179804276610945, 44.89546898500234], [37.17967769177682, 44.895466966763465], [37.17967485224694, 44.89555694218297], [37.179421682224316, 44.895552905271934]]]}, "properties": {"zone_id": "kerch-2025-03-23-024", "aoi": "kerch", "date": "2025-03-23", "scene_id": "S2C_MSIL2A_20250323T082641_R021_T37TCK_20250323T140414", "scene_datetime_utc": "2025-03-23T08:26:41.025000+00:00", "detection_status": "detected", "detection_status_ru": "обнаружено", "lon": 37.17955, "lat": 44.89542, "n_pixels": 2, "zone_area_km2": 0.0008, "cover_m2": 20.8, "p_mean": 0.655, "p_max": 0.659, "cover_m2_km2": 26000.0, "h3": "882d762807fffff", "valid_frac_scene": 0.962, "wind_ms": 7.0, "sea": "волнение", "scene_reliable": true, "field_event_id": "S4:DOORS3:T11", "field_profile": "B", "field_date": "2024-06-04", "field_distance_km": 270.2, "field_date_gap_days": 292, "field_conc_items_km2": 62.52, "conc_A_items_km2": null, "conc_A_lo80": null, "conc_A_hi80": null, "conc_A_lo95": null, "conc_A_hi95": null, "conc_A_status": "unavailable", "conc_A_status_ru": "концентрация недоступна", "conc_A_reasons": "вне бассейна профиля: nw_atlantic_subtropical", "conc_A_model": "conc-A-c6bce5631d2b", "conc_B_items_km2": 377.5, "conc_B_lo80": 80.3, "conc_B_hi80": 1269.1, "conc_B_lo95": 49.9, "conc_B_hi95": 2376.6, "conc_B_status": "research_estimate", "conc_B_status_ru": "исследовательская оценка", "conc_B_reasons": "ближайшее полевое измерение в 270 км (> 60 км); месяц 3 вне месяцев обучения [6]", "conc_B_model": "conc-B-c6bce5631d2b"}}]}