{"type": "FeatureCollection", "features": [{"type": "Feature", "geometry": {"type": "Polygon", "coordinates": [[[44.68973749169478, 48.85316999706264], [44.68973804756078, 48.85308003991508], [44.68960173069206, 48.85307967301271], [44.689602842904236, 48.85289975871562], [44.689876031281116, 48.85281053520159], [44.689875475667584, 48.852900492354564], [44.69001179205338, 48.852900858932294], [44.69001068130649, 48.8530807732363], [44.68973749169478, 48.85316999706264]]]}, "properties": {"zone_id": "volgograd-2025-09-23-001", "aoi": "volgograd", "date": "2025-09-23", "scene_id": "S2C_MSIL2A_20250923T080701_R078_T38UMV_20250923T134018", "scene_datetime_utc": "2025-09-23T08:07:01.025000+00:00", "detection_status": "detected", "detection_status_ru": "обнаружено", "lon": 44.68981, "lat": 48.85299, "n_pixels": 2, "zone_area_km2": 0.0008, "cover_m2": 11.0, "p_mean": 0.778, "p_max": 0.816, "cover_m2_km2": 13750.0, "h3": "882d48a0a7fffff", "valid_frac_scene": 1.0, "wind_ms": 2.6, "sea": "спокойное", "scene_reliable": true, "field_event_id": "S4:DOORS3:T23", "field_profile": "B", "field_date": "2024-06-10", "field_distance_km": 764.1, "field_date_gap_days": 470, "field_conc_items_km2": 102.37, "conc_A_items_km2": null, "conc_A_lo80": null, "conc_A_hi80": null, "conc_A_lo95": null, "conc_A_hi95": null, "conc_A_status": "unavailable", "conc_A_status_ru": "концентрация недоступна", "conc_A_reasons": "вне бассейна профиля: nw_atlantic_subtropical", "conc_A_model": "conc-A-c6bce5631d2b", "conc_B_items_km2": null, "conc_B_lo80": null, "conc_B_hi80": null, "conc_B_lo95": null, "conc_B_hi95": null, "conc_B_status": "unavailable", "conc_B_status_ru": "концентрация недоступна", "conc_B_reasons": "вне бассейна профиля: black_sea", "conc_B_model": "conc-B-c6bce5631d2b"}}, {"type": "Feature", "geometry": {"type": "Polygon", "coordinates": [[[44.671645576791285, 48.84727257693717], [44.67164616494842, 48.84718261985561], [44.6715098643281, 48.84718223159804], [44.67151045272645, 48.84709227451628], [44.671646753102635, 48.84709266277264], [44.67164734125394, 48.84700270568825], [44.67191994152679, 48.84700348171513], [44.67192052918691, 48.84691352462688], [44.67205682908357, 48.846913912397405], [44.672056241667576, 48.847003869486876], [44.67219254181128, 48.8470042570975], [44.67219195463651, 48.847094214186775], [44.67205565424867, 48.84709382657494], [44.67205506682686, 48.84718378366157], [44.67178246557165, 48.84718300795206], [44.67178187765866, 48.84727296503485], [44.671645576791285, 48.84727257693717]]]}, "properties": {"zone_id": "volgograd-2025-09-23-002", "aoi": "volgograd", "date": "2025-09-23", "scene_id": "S2C_MSIL2A_20250923T080701_R078_T38UMV_20250923T134018", "scene_datetime_utc": "2025-09-23T08:07:01.025000+00:00", "detection_status": "detected", "detection_status_ru": "обнаружено", "lon": 44.67185, "lat": 48.84709, "n_pixels": 2, "zone_area_km2": 0.001, "cover_m2": 10.6, "p_mean": 0.625, "p_max": 0.643, "cover_m2_km2": 10600.0, "h3": "882d48a199fffff", "valid_frac_scene": 1.0, "wind_ms": 2.6, "sea": "спокойное", "scene_reliable": true, "field_event_id": "S4:DOORS3:T23", "field_profile": "B", "field_date": "2024-06-10", "field_distance_km": 763.0, "field_date_gap_days": 470, "field_conc_items_km2": 102.37, "conc_A_items_km2": null, "conc_A_lo80": null, "conc_A_hi80": null, "conc_A_lo95": null, "conc_A_hi95": null, "conc_A_status": "unavailable", "conc_A_status_ru": "концентрация недоступна", "conc_A_reasons": "вне бассейна профиля: nw_atlantic_subtropical", "conc_A_model": "conc-A-c6bce5631d2b", "conc_B_items_km2": null, "conc_B_lo80": null, "conc_B_hi80": null, "conc_B_lo95": null, "conc_B_hi95": null, "conc_B_status": "unavailable", "conc_B_status_ru": "концентрация недоступна", "conc_B_reasons": "вне бассейна профиля: black_sea", "conc_B_model": "conc-B-c6bce5631d2b"}}, {"type": "Feature", "geometry": {"type": "Polygon", "coordinates": [[[44.68220393360887, 48.83731673401818], [44.68220450265453, 48.837226776686876], [44.682068228904996, 48.83722640096759], [44.68206879819184, 48.837136443636055], [44.68220507169738, 48.83713681935417], [44.68220564073741, 48.837046862020046], [44.682478187268934, 48.837047612970686], [44.68247761871691, 48.837137570307185], [44.6826138922309, 48.837137945542075], [44.68261332392006, 48.83722790287833], [44.68247705016206, 48.837227527642256], [44.682476481604404, 48.83731748497591], [44.68220393360887, 48.83731673401818]]]}, "properties": {"zone_id": "volgograd-2025-09-23-003", "aoi": "volgograd", "date": "2025-09-23", "scene_id": "S2C_MSIL2A_20250923T080701_R078_T38UMV_20250923T134018", "scene_datetime_utc": "2025-09-23T08:07:01.025000+00:00", "detection_status": "detected", "detection_status_ru": "обнаружено", "lon": 44.68234, "lat": 48.83718, "n_pixels": 2, "zone_area_km2": 0.0008, "cover_m2": 12.2, "p_mean": 0.792, "p_max": 0.816, "cover_m2_km2": 15250.0, "h3": "882d48a191fffff", "valid_frac_scene": 1.0, "wind_ms": 2.6, "sea": "спокойное", "scene_reliable": true, "field_event_id": "S4:DOORS3:T23", "field_profile": "B", "field_date": "2024-06-10", "field_distance_km": 762.3, "field_date_gap_days": 470, "field_conc_items_km2": 102.37, "conc_A_items_km2": null, "conc_A_lo80": null, "conc_A_hi80": null, "conc_A_lo95": null, "conc_A_hi95": null, "conc_A_status": "unavailable", "conc_A_status_ru": "концентрация недоступна", "conc_A_reasons": "вне бассейна профиля: nw_atlantic_subtropical", "conc_A_model": "conc-A-c6bce5631d2b", "conc_B_items_km2": null, "conc_B_lo80": null, "conc_B_hi80": null, "conc_B_lo95": null, "conc_B_hi95": null, "conc_B_status": "unavailable", "conc_B_status_ru": "концентрация недоступна", "conc_B_reasons": "вне бассейна профиля: black_sea", "conc_B_model": "conc-B-c6bce5631d2b"}}, {"type": "Feature", "geometry": {"type": "Polygon", "coordinates": [[[44.68452341638951, 48.83687330985122], [44.684523981273145, 48.836783352492816], [44.684387708695844, 48.83678297951764], [44.68438827382067, 48.836693022159004], [44.68466138312412, 48.83660381058352], [44.68466081849009, 48.83669376794593], [44.68479709082898, 48.83669414059779], [44.68479652643614, 48.83678409795994], [44.68466025385324, 48.836783725306915], [44.6846596892136, 48.836873682666486], [44.68452341638951, 48.83687330985122]]]}, "properties": {"zone_id": "volgograd-2025-09-23-004", "aoi": "volgograd", "date": "2025-09-23", "scene_id": "S2C_MSIL2A_20250923T080701_R078_T38UMV_20250923T134018", "scene_datetime_utc": "2025-09-23T08:07:01.025000+00:00", "detection_status": "detected", "detection_status_ru": "обнаружено", "lon": 44.68459, "lat": 48.83674, "n_pixels": 1, "zone_area_km2": 0.0005, "cover_m2": 7.1, "p_mean": 0.792, "p_max": 0.792, "cover_m2_km2": 14200.0, "h3": "882d48a191fffff", "valid_frac_scene": 1.0, "wind_ms": 2.6, "sea": "спокойное", "scene_reliable": true, "field_event_id": "S4:DOORS3:T23", "field_profile": "B", "field_date": "2024-06-10", "field_distance_km": 762.3, "field_date_gap_days": 470, "field_conc_items_km2": 102.37, "conc_A_items_km2": null, "conc_A_lo80": null, "conc_A_hi80": null, "conc_A_lo95": null, "conc_A_hi95": null, "conc_A_status": "unavailable", "conc_A_status_ru": "концентрация недоступна", "conc_A_reasons": "вне бассейна профиля: nw_atlantic_subtropical", "conc_A_model": "conc-A-c6bce5631d2b", "conc_B_items_km2": null, "conc_B_lo80": null, "conc_B_hi80": null, "conc_B_lo95": null, "conc_B_hi95": null, "conc_B_status": "unavailable", "conc_B_status_ru": "концентрация недоступна", "conc_B_reasons": "вне бассейна профиля: black_sea", "conc_B_model": "conc-B-c6bce5631d2b"}}]}