{"type": "FeatureCollection", "features": [{"type": "Feature", "geometry": {"type": "Polygon", "coordinates": [[[39.71876469559667, 43.560577857309], [39.718763625230345, 43.56048782235842], [39.71863981679622, 43.560488600672585], [39.718638746619185, 43.56039856571812], [39.71876255486898, 43.56039778740638], [39.71876148451257, 43.5603077524529], [39.71900910062862, 43.56030619543209], [39.719010171353695, 43.5603962303807], [39.71913397958862, 43.560395451666786], [39.719135050502985, 43.56048548661152], [39.71901124208373, 43.560486265327874], [39.71901231281872, 43.560576300273596], [39.71876469559667, 43.560577857309]]]}, "properties": {"zone_id": "sochi-2026-08-22-001", "aoi": "sochi", "date": "2026-08-22", "scene_id": "S2C_MSIL2A_20260822T081601_R121_T37TEJ_20260822T120711", "scene_datetime_utc": "2026-08-22T08:16:01.025000+00:00", "detection_status": "detected", "detection_status_ru": "обнаружено", "lon": 39.71889, "lat": 43.56044, "n_pixels": 2, "zone_area_km2": 0.0008, "cover_m2": 9.4, "p_mean": 0.786, "p_max": 0.98, "cover_m2_km2": 11750.0, "h3": "882d568e47fffff", "valid_frac_scene": 1.0, "wind_ms": 4.7, "sea": "спокойное", "scene_reliable": true, "field_event_id": "S4:DOORS3:T17", "field_profile": "B", "field_date": "2024-06-04", "field_distance_km": 183.2, "field_date_gap_days": 809, "field_conc_items_km2": 89.61, "conc_A_items_km2": null, "conc_A_lo80": null, "conc_A_hi80": null, "conc_A_lo95": null, "conc_A_hi95": null, "conc_A_status": "unavailable", "conc_A_status_ru": "концентрация недоступна", "conc_A_reasons": "вне бассейна профиля: nw_atlantic_subtropical", "conc_A_model": "conc-A-c6bce5631d2b", "conc_B_items_km2": 901.4, "conc_B_lo80": 192.7, "conc_B_hi80": 3027.3, "conc_B_lo95": 120.4, "conc_B_hi95": 5668.0, "conc_B_status": "research_estimate", "conc_B_status_ru": "исследовательская оценка", "conc_B_reasons": "ближайшее полевое измерение в 183 км (> 60 км); месяц 8 вне месяцев обучения [6]; log_dist_coast_km = 0.0 вне диапазона обучения [1.7; 5.0]", "conc_B_model": "conc-B-c6bce5631d2b"}}, {"type": "Feature", "geometry": {"type": "Polygon", "coordinates": [[[39.753479544410006, 43.554321540827736], [39.75347842259501, 43.55423150648044], [39.75335462793512, 43.55423232229394], [39.75335350630959, 43.554142287942646], [39.753477300785214, 43.554141472131704], [39.753476178980605, 43.554051437781524], [39.75372376754773, 43.55404980576266], [39.75372488972087, 43.55413984010774], [39.75384868418091, 43.55413902389472], [39.753849806543506, 43.55422905823581], [39.75372601189921, 43.55422987445138], [39.75372713408274, 43.55431990879357], [39.753479544410006, 43.554321540827736]]]}, "properties": {"zone_id": "sochi-2026-08-22-002", "aoi": "sochi", "date": "2026-08-22", "scene_id": "S2C_MSIL2A_20260822T081601_R121_T37TEJ_20260822T120711", "scene_datetime_utc": "2026-08-22T08:16:01.025000+00:00", "detection_status": "detected", "detection_status_ru": "обнаружено", "lon": 39.7536, "lat": 43.55419, "n_pixels": 2, "zone_area_km2": 0.0008, "cover_m2": 13.7, "p_mean": 0.908, "p_max": 0.933, "cover_m2_km2": 17125.0, "h3": "882d568e07fffff", "valid_frac_scene": 1.0, "wind_ms": 4.7, "sea": "спокойное", "scene_reliable": true, "field_event_id": "S4:DOORS3:T17", "field_profile": "B", "field_date": "2024-06-04", "field_distance_km": 184.3, "field_date_gap_days": 809, "field_conc_items_km2": 89.61, "conc_A_items_km2": null, "conc_A_lo80": null, "conc_A_hi80": null, "conc_A_lo95": null, "conc_A_hi95": null, "conc_A_status": "unavailable", "conc_A_status_ru": "концентрация недоступна", "conc_A_reasons": "вне бассейна профиля: nw_atlantic_subtropical", "conc_A_model": "conc-A-c6bce5631d2b", "conc_B_items_km2": 901.4, "conc_B_lo80": 192.7, "conc_B_hi80": 3027.3, "conc_B_lo95": 120.4, "conc_B_hi95": 5668.0, "conc_B_status": "research_estimate", "conc_B_status_ru": "исследовательская оценка", "conc_B_reasons": "ближайшее полевое измерение в 184 км (> 60 км); месяц 8 вне месяцев обучения [6]; log_dist_coast_km = 0.0 вне диапазона обучения [1.7; 5.0]", "conc_B_model": "conc-B-c6bce5631d2b"}}, {"type": "Feature", "geometry": {"type": "Polygon", "coordinates": [[[39.71173284229783, 43.5522479673938], [39.711731782710636, 43.55215793217331], [39.71148314035025, 43.55206943797811], [39.71148208114139, 43.55197940274992], [39.711605872348635, 43.55197863230599], [39.71160481296042, 43.55188859707875], [39.711853454748415, 43.551977091016035], [39.711854514510044, 43.55206712623699], [39.711978305886824, 43.55206635538858], [39.71197936583762, 43.55215639060568], [39.71185557427658, 43.552157161456506], [39.71185663404803, 43.55224719667458], [39.71173284229783, 43.5522479673938]]]}, "properties": {"zone_id": "sochi-2026-08-22-003", "aoi": "sochi", "date": "2026-08-22", "scene_id": "S2C_MSIL2A_20260822T081601_R121_T37TEJ_20260822T120711", "scene_datetime_utc": "2026-08-22T08:16:01.025000+00:00", "detection_status": "detected", "detection_status_ru": "обнаружено", "lon": 39.71173, "lat": 43.55207, "n_pixels": 2, "zone_area_km2": 0.0008, "cover_m2": 12.9, "p_mean": 0.99, "p_max": 0.996, "cover_m2_km2": 16125.0, "h3": "882d568e45fffff", "valid_frac_scene": 1.0, "wind_ms": 4.7, "sea": "спокойное", "scene_reliable": true, "field_event_id": "S4:DOORS3:T17", "field_profile": "B", "field_date": "2024-06-04", "field_distance_km": 182.1, "field_date_gap_days": 809, "field_conc_items_km2": 89.61, "conc_A_items_km2": null, "conc_A_lo80": null, "conc_A_hi80": null, "conc_A_lo95": null, "conc_A_hi95": null, "conc_A_status": "unavailable", "conc_A_status_ru": "концентрация недоступна", "conc_A_reasons": "вне бассейна профиля: nw_atlantic_subtropical", "conc_A_model": "conc-A-c6bce5631d2b", "conc_B_items_km2": 591.0, "conc_B_lo80": 126.1, "conc_B_hi80": 1985.7, "conc_B_lo95": 78.7, "conc_B_hi95": 3718.1, "conc_B_status": "research_estimate", "conc_B_status_ru": "исследовательская оценка", "conc_B_reasons": "ближайшее полевое измерение в 182 км (> 60 км); месяц 8 вне месяцев обучения [6]; log_dist_coast_km = 1.2 вне диапазона обучения [1.7; 5.0]", "conc_B_model": "conc-B-c6bce5631d2b"}}, {"type": "Feature", "geometry": {"type": "Polygon", "coordinates": [[[39.720190836950614, 43.5451717348607], [39.720189765037006, 43.54508169969475], [39.72006598817588, 43.54508247933488], [39.72006384473192, 43.54490240899378], [39.72018762122467, 43.54490162935853], [39.72018654932594, 43.54481159418825], [39.72043410192817, 43.54481003452068], [39.72043517419527, 43.54490006968607], [39.72055895067313, 43.544899289648875], [39.72056109559058, 43.545079359970465], [39.72043731874435, 43.54508014001256], [39.72043839102634, 43.545170175173624], [39.720190836950614, 43.5451717348607]]]}, "properties": {"zone_id": "sochi-2026-08-22-004", "aoi": "sochi", "date": "2026-08-22", "scene_id": "S2C_MSIL2A_20260822T081601_R121_T37TEJ_20260822T120711", "scene_datetime_utc": "2026-08-22T08:16:01.025000+00:00", "detection_status": "detected", "detection_status_ru": "обнаружено", "lon": 39.72031, "lat": 43.54499, "n_pixels": 4, "zone_area_km2": 0.0012, "cover_m2": 21.2, "p_mean": 0.971, "p_max": 1.0, "cover_m2_km2": 17666.7, "h3": "882d568e61fffff", "valid_frac_scene": 1.0, "wind_ms": 4.7, "sea": "спокойное", "scene_reliable": true, "field_event_id": "S4:DOORS3:T17", "field_profile": "B", "field_date": "2024-06-04", "field_distance_km": 181.8, "field_date_gap_days": 809, "field_conc_items_km2": 89.61, "conc_A_items_km2": null, "conc_A_lo80": null, "conc_A_hi80": null, "conc_A_lo95": null, "conc_A_hi95": null, "conc_A_status": "unavailable", "conc_A_status_ru": "концентрация недоступна", "conc_A_reasons": "вне бассейна профиля: nw_atlantic_subtropical", "conc_A_model": "conc-A-c6bce5631d2b", "conc_B_items_km2": 621.6, "conc_B_lo80": 132.7, "conc_B_hi80": 2088.3, "conc_B_lo95": 82.8, "conc_B_hi95": 3910.2, "conc_B_status": "research_estimate", "conc_B_status_ru": "исследовательская оценка", "conc_B_reasons": "ближайшее полевое измерение в 182 км (> 60 км); месяц 8 вне месяцев обучения [6]; log_dist_coast_km = 1.0 вне диапазона обучения [1.7; 5.0]", "conc_B_model": "conc-B-c6bce5631d2b"}}, {"type": "Feature", "geometry": {"type": "Polygon", "coordinates": [[[39.78041041663604, 43.540184395421036], [39.78040925530056, 43.54009436141781], [39.78028549034898, 43.54009520617356], [39.78028432920301, 43.540005172166246], [39.780408093970465, 43.54000432741315], [39.78040693264574, 43.53991429340703], [39.780655623489245, 43.54000263750507], [39.7806567851876, 43.54009267150445], [39.78053302024677, 43.54009351652812], [39.78053418176638, 43.54018355052869], [39.78041041663604, 43.540184395421036]]]}, "properties": {"zone_id": "sochi-2026-08-22-005", "aoi": "sochi", "date": "2026-08-22", "scene_id": "S2C_MSIL2A_20260822T081601_R121_T37TEJ_20260822T120711", "scene_datetime_utc": "2026-08-22T08:16:01.025000+00:00", "detection_status": "detected", "detection_status_ru": "обнаружено", "lon": 39.78047, "lat": 43.54005, "n_pixels": 1, "zone_area_km2": 0.0005, "cover_m2": 9.4, "p_mean": 0.682, "p_max": 0.682, "cover_m2_km2": 18800.0, "h3": "882d568c4bfffff", "valid_frac_scene": 1.0, "wind_ms": 4.7, "sea": "спокойное", "scene_reliable": true, "field_event_id": "S4:DOORS3:T17", "field_profile": "B", "field_date": "2024-06-04", "field_distance_km": 184.3, "field_date_gap_days": 809, "field_conc_items_km2": 89.61, "conc_A_items_km2": null, "conc_A_lo80": null, "conc_A_hi80": null, "conc_A_lo95": null, "conc_A_hi95": null, "conc_A_status": "unavailable", "conc_A_status_ru": "концентрация недоступна", "conc_A_reasons": "вне бассейна профиля: nw_atlantic_subtropical", "conc_A_model": "conc-A-c6bce5631d2b", "conc_B_items_km2": 621.6, "conc_B_lo80": 132.7, "conc_B_hi80": 2088.3, "conc_B_lo95": 82.8, "conc_B_hi95": 3910.2, "conc_B_status": "research_estimate", "conc_B_status_ru": "исследовательская оценка", "conc_B_reasons": "ближайшее полевое измерение в 184 км (> 60 км); месяц 8 вне месяцев обучения [6]; log_dist_coast_km = 1.0 вне диапазона обучения [1.7; 5.0]", "conc_B_model": "conc-B-c6bce5631d2b"}}, {"type": "Feature", "geometry": {"type": "Polygon", "coordinates": [[[39.75433238295233, 43.52343151808221], [39.75433126107754, 43.52334148326429], [39.75420752962349, 43.5233422995424], [39.75420528625744, 43.52316222989708], [39.754451626381254, 43.52307056239744], [39.75445274842444, 43.523160597217164], [39.75457647950015, 43.52315978067638], [39.75457872397005, 43.52333985030639], [39.75433238295233, 43.52343151808221]]]}, "properties": {"zone_id": "sochi-2026-08-22-006", "aoi": "sochi", "date": "2026-08-22", "scene_id": "S2C_MSIL2A_20260822T081601_R121_T37TEJ_20260822T120711", "scene_datetime_utc": "2026-08-22T08:16:01.025000+00:00", "detection_status": "detected", "detection_status_ru": "обнаружено", "lon": 39.75439, "lat": 43.52325, "n_pixels": 2, "zone_area_km2": 0.0008, "cover_m2": 14.5, "p_mean": 0.888, "p_max": 0.945, "cover_m2_km2": 18125.0, "h3": "882d568f19fffff", "valid_frac_scene": 1.0, "wind_ms": 4.7, "sea": "спокойное", "scene_reliable": true, "field_event_id": "S4:DOORS3:T17", "field_profile": "B", "field_date": "2024-06-04", "field_distance_km": 181.5, "field_date_gap_days": 809, "field_conc_items_km2": 89.61, "conc_A_items_km2": null, "conc_A_lo80": null, "conc_A_hi80": null, "conc_A_lo95": null, "conc_A_hi95": null, "conc_A_status": "unavailable", "conc_A_status_ru": "концентрация недоступна", "conc_A_reasons": "вне бассейна профиля: nw_atlantic_subtropical", "conc_A_model": "conc-A-c6bce5631d2b", "conc_B_items_km2": 520.5, "conc_B_lo80": 111.0, "conc_B_hi80": 1749.2, "conc_B_lo95": 69.2, "conc_B_hi95": 3275.4, "conc_B_status": "research_estimate", "conc_B_status_ru": "исследовательская оценка", "conc_B_reasons": "ближайшее полевое измерение в 182 км (> 60 км); месяц 8 вне месяцев обучения [6]", "conc_B_model": "conc-B-c6bce5631d2b"}}, {"type": "Feature", "geometry": {"type": "Polygon", "coordinates": [[[39.83884630209852, 43.514378711970416], [39.8388450549336, 43.51428867885933], [39.83872134451847, 43.51428958644342], [39.838718850573684, 43.51410952021121], [39.838842560621075, 43.5141086126328], [39.83884131347347, 43.51401857951735], [39.839089980698525, 43.51410679707449], [39.83909122821965, 43.51419683018281], [39.839214938433585, 43.51419592220007], [39.83921618614436, 43.5142859553041], [39.83909247574655, 43.514286863289676], [39.83909372327922, 43.51437689639508], [39.83884630209852, 43.514378711970416]]]}, "properties": {"zone_id": "sochi-2026-08-22-007", "aoi": "sochi", "date": "2026-08-22", "scene_id": "S2C_MSIL2A_20260822T081601_R121_T37TEJ_20260822T120711", "scene_datetime_utc": "2026-08-22T08:16:01.025000+00:00", "detection_status": "detected", "detection_status_ru": "обнаружено", "lon": 39.83895, "lat": 43.51421, "n_pixels": 3, "zone_area_km2": 0.001, "cover_m2": 16.5, "p_mean": 0.765, "p_max": 0.933, "cover_m2_km2": 16500.0, "h3": "882d568c35fffff", "valid_frac_scene": 1.0, "wind_ms": 4.7, "sea": "спокойное", "scene_reliable": true, "field_event_id": "S4:DOORS3:T17", "field_profile": "B", "field_date": "2024-06-04", "field_distance_km": 185.0, "field_date_gap_days": 809, "field_conc_items_km2": 89.61, "conc_A_items_km2": null, "conc_A_lo80": null, "conc_A_hi80": null, "conc_A_lo95": null, "conc_A_hi95": null, "conc_A_status": "unavailable", "conc_A_status_ru": "концентрация недоступна", "conc_A_reasons": "вне бассейна профиля: nw_atlantic_subtropical", "conc_A_model": "conc-A-c6bce5631d2b", "conc_B_items_km2": 901.4, "conc_B_lo80": 192.7, "conc_B_hi80": 3027.3, "conc_B_lo95": 120.4, "conc_B_hi95": 5668.0, "conc_B_status": "research_estimate", "conc_B_status_ru": "исследовательская оценка", "conc_B_reasons": "ближайшее полевое измерение в 185 км (> 60 км); месяц 8 вне месяцев обучения [6]; log_dist_coast_km = 0.0 вне диапазона обучения [1.7; 5.0]", "conc_B_model": "conc-B-c6bce5631d2b"}}, {"type": "Feature", "geometry": {"type": "Polygon", "coordinates": [[[39.874259845247956, 43.473504217864], [39.87425854728819, 43.47341418494036], [39.87413492142573, 43.47341513013566], [39.87413362365545, 43.47332509720763], [39.874257249334434, 43.47332415201527], [39.87425595138668, 43.47323411908875], [39.87437957687618, 43.473233173765706], [39.874378278750946, 43.47314314084067], [39.874626827837155, 43.47323128271873], [39.87462942483956, 43.473411348552595], [39.87450579899511, 43.47341229414883], [39.87450709732184, 43.47350232706655], [39.874259845247956, 43.473504217864]]]}, "properties": {"zone_id": "sochi-2026-08-22-008", "aoi": "sochi", "date": "2026-08-22", "scene_id": "S2C_MSIL2A_20260822T081601_R121_T37TEJ_20260822T120711", "scene_datetime_utc": "2026-08-22T08:16:01.025000+00:00", "detection_status": "detected", "detection_status_ru": "обнаружено", "lon": 39.8744, "lat": 43.47334, "n_pixels": 3, "zone_area_km2": 0.001, "cover_m2": 33.3, "p_mean": 0.877, "p_max": 0.988, "cover_m2_km2": 33300.0, "h3": "882d568de7fffff", "valid_frac_scene": 1.0, "wind_ms": 4.7, "sea": "спокойное", "scene_reliable": true, "field_event_id": "S4:DOORS3:T17", "field_profile": "B", "field_date": "2024-06-04", "field_distance_km": 183.4, "field_date_gap_days": 809, "field_conc_items_km2": 89.61, "conc_A_items_km2": null, "conc_A_lo80": null, "conc_A_hi80": null, "conc_A_lo95": null, "conc_A_hi95": null, "conc_A_status": "unavailable", "conc_A_status_ru": "концентрация недоступна", "conc_A_reasons": "вне бассейна профиля: nw_atlantic_subtropical", "conc_A_model": "conc-A-c6bce5631d2b", "conc_B_items_km2": 666.4, "conc_B_lo80": 142.3, "conc_B_hi80": 2238.6, "conc_B_lo95": 88.8, "conc_B_hi95": 4191.6, "conc_B_status": "research_estimate", "conc_B_status_ru": "исследовательская оценка", "conc_B_reasons": "ближайшее полевое измерение в 183 км (> 60 км); месяц 8 вне месяцев обучения [6]; log_dist_coast_km = 0.9 вне диапазона обучения [1.7; 5.0]", "conc_B_model": "conc-B-c6bce5631d2b"}}, {"type": "Feature", "geometry": {"type": "Polygon", "coordinates": [[[39.865308653840565, 43.470060637199886], [39.865307369323446, 43.46997060400789], [39.86518375018612, 43.46997153946704], [39.8651824658584, 43.46988150627067], [39.865306084812275, 43.46988057081445], [39.865304800307044, 43.46979053761953], [39.86555332270219, 43.46987869950112], [39.86555460758027, 43.46996873268871], [39.865430988454825, 43.469969668415125], [39.8654322731554, 43.470059701604185], [39.865308653840565, 43.470060637199886]]]}, "properties": {"zone_id": "sochi-2026-08-22-009", "aoi": "sochi", "date": "2026-08-22", "scene_id": "S2C_MSIL2A_20260822T081601_R121_T37TEJ_20260822T120711", "scene_datetime_utc": "2026-08-22T08:16:01.025000+00:00", "detection_status": "detected", "detection_status_ru": "обнаружено", "lon": 39.86537, "lat": 43.46993, "n_pixels": 1, "zone_area_km2": 0.0005, "cover_m2": 5.9, "p_mean": 0.894, "p_max": 0.894, "cover_m2_km2": 11800.0, "h3": "882d568de5fffff", "valid_frac_scene": 1.0, "wind_ms": 4.7, "sea": "спокойное", "scene_reliable": true, "field_event_id": "S4:DOORS3:T17", "field_profile": "B", "field_date": "2024-06-04", "field_distance_km": 182.6, "field_date_gap_days": 809, "field_conc_items_km2": 89.61, "conc_A_items_km2": null, "conc_A_lo80": null, "conc_A_hi80": null, "conc_A_lo95": null, "conc_A_hi95": null, "conc_A_status": "unavailable", "conc_A_status_ru": "концентрация недоступна", "conc_A_reasons": "вне бассейна профиля: nw_atlantic_subtropical", "conc_A_model": "conc-A-c6bce5631d2b", "conc_B_items_km2": 567.5, "conc_B_lo80": 121.1, "conc_B_hi80": 1906.7, "conc_B_lo95": 75.5, "conc_B_hi95": 3570.1, "conc_B_status": "research_estimate", "conc_B_status_ru": "исследовательская оценка", "conc_B_reasons": "ближайшее полевое измерение в 183 км (> 60 км); месяц 8 вне месяцев обучения [6]; log_dist_coast_km = 1.3 вне диапазона обучения [1.7; 5.0]", "conc_B_model": "conc-B-c6bce5631d2b"}}, {"type": "Feature", "geometry": {"type": "Polygon", "coordinates": [[[39.892559108272536, 43.42311872147571], [39.892557785475226, 43.423028688199985], [39.89243426279595, 43.42302965229229], [39.89243294018776, 43.422939619012084], [39.89255646268403, 43.422938654922795], [39.89255513989895, 43.422848621644164], [39.89280350765821, 43.422936726344], [39.892804830815415, 43.42302675961516], [39.89268130814838, 43.423027723974265], [39.89268263112869, 43.42311775724699], [39.892559108272536, 43.42311872147571]]]}, "properties": {"zone_id": "sochi-2026-08-22-010", "aoi": "sochi", "date": "2026-08-22", "scene_id": "S2C_MSIL2A_20260822T081601_R121_T37TEJ_20260822T120711", "scene_datetime_utc": "2026-08-22T08:16:01.025000+00:00", "detection_status": "detected", "detection_status_ru": "обнаружено", "lon": 39.89262, "lat": 43.42298, "n_pixels": 1, "zone_area_km2": 0.0005, "cover_m2": 7.5, "p_mean": 0.973, "p_max": 0.973, "cover_m2_km2": 15000.0, "h3": "882d5612abfffff", "valid_frac_scene": 1.0, "wind_ms": 4.7, "sea": "спокойное", "scene_reliable": true, "field_event_id": "S4:DOORS3:T17", "field_profile": "B", "field_date": "2024-06-04", "field_distance_km": 180.2, "field_date_gap_days": 809, "field_conc_items_km2": 89.61, "conc_A_items_km2": null, "conc_A_lo80": null, "conc_A_hi80": null, "conc_A_lo95": null, "conc_A_hi95": null, "conc_A_status": "unavailable", "conc_A_status_ru": "концентрация недоступна", "conc_A_reasons": "вне бассейна профиля: nw_atlantic_subtropical", "conc_A_model": "conc-A-c6bce5631d2b", "conc_B_items_km2": 591.0, "conc_B_lo80": 126.1, "conc_B_hi80": 1985.7, "conc_B_lo95": 78.7, "conc_B_hi95": 3718.1, "conc_B_status": "research_estimate", "conc_B_status_ru": "исследовательская оценка", "conc_B_reasons": "ближайшее полевое измерение в 180 км (> 60 км); месяц 8 вне месяцев обучения [6]; log_dist_coast_km = 1.2 вне диапазона обучения [1.7; 5.0]", "conc_B_model": "conc-B-c6bce5631d2b"}}, {"type": "Feature", "geometry": {"type": "Polygon", "coordinates": [[[39.89156696122165, 43.42285633059908], [39.8915656399067, 43.42276629729488], [39.89144211772754, 43.42276726031092], [39.891439475481995, 43.42258719369213], [39.89168519762259, 43.42249523423315], [39.8916865191022, 43.4225852675387], [39.891810040903145, 43.422584304261875], [39.8918126842467, 43.422764370862595], [39.89156696122165, 43.42285633059908]]]}, "properties": {"zone_id": "sochi-2026-08-22-011", "aoi": "sochi", "date": "2026-08-22", "scene_id": "S2C_MSIL2A_20260822T081601_R121_T37TEJ_20260822T120711", "scene_datetime_utc": "2026-08-22T08:16:01.025000+00:00", "detection_status": "detected", "detection_status_ru": "обнаружено", "lon": 39.89163, "lat": 43.42268, "n_pixels": 2, "zone_area_km2": 0.0008, "cover_m2": 11.8, "p_mean": 0.9, "p_max": 0.949, "cover_m2_km2": 14750.0, "h3": "882d5612abfffff", "valid_frac_scene": 1.0, "wind_ms": 4.7, "sea": "спокойное", "scene_reliable": true, "field_event_id": "S4:DOORS3:T17", "field_profile": "B", "field_date": "2024-06-04", "field_distance_km": 180.1, "field_date_gap_days": 809, "field_conc_items_km2": 89.61, "conc_A_items_km2": null, "conc_A_lo80": null, "conc_A_hi80": null, "conc_A_lo95": null, "conc_A_hi95": null, "conc_A_status": "unavailable", "conc_A_status_ru": "концентрация недоступна", "conc_A_reasons": "вне бассейна профиля: nw_atlantic_subtropical", "conc_A_model": "conc-A-c6bce5631d2b", "conc_B_items_km2": 591.0, "conc_B_lo80": 126.1, "conc_B_hi80": 1985.7, "conc_B_lo95": 78.7, "conc_B_hi95": 3718.1, "conc_B_status": "research_estimate", "conc_B_status_ru": "исследовательская оценка", "conc_B_reasons": "ближайшее полевое измерение в 180 км (> 60 км); месяц 8 вне месяцев обучения [6]; log_dist_coast_km = 1.2 вне диапазона обучения [1.7; 5.0]", "conc_B_model": "conc-B-c6bce5631d2b"}}, {"type": "Feature", "geometry": {"type": "Polygon", "coordinates": [[[39.9245657049219, 43.39945304066841], [39.92456433582526, 43.39936300781779], [39.924440862327806, 43.39936400604952], [39.92443812451906, 43.399183940337664], [39.92468370151608, 43.3990919109015], [39.92468507077651, 43.39918194375337], [39.92480854389575, 43.39918094526129], [39.92481128280115, 43.39936101095443], [39.9245657049219, 43.39945304066841]]]}, "properties": {"zone_id": "sochi-2026-08-22-012", "aoi": "sochi", "date": "2026-08-22", "scene_id": "S2C_MSIL2A_20260822T081601_R121_T37TEJ_20260822T120711", "scene_datetime_utc": "2026-08-22T08:16:01.025000+00:00", "detection_status": "detected", "detection_status_ru": "обнаружено", "lon": 39.92462, "lat": 43.39927, "n_pixels": 2, "zone_area_km2": 0.0008, "cover_m2": 9.8, "p_mean": 0.745, "p_max": 0.867, "cover_m2_km2": 12250.0, "h3": "882d5610c5fffff", "valid_frac_scene": 1.0, "wind_ms": 4.7, "sea": "спокойное", "scene_reliable": true, "field_event_id": "S4:DOORS3:T23", "field_profile": "B", "field_date": "2024-06-10", "field_distance_km": 177.1, "field_date_gap_days": 803, "field_conc_items_km2": 102.37, "conc_A_items_km2": null, "conc_A_lo80": null, "conc_A_hi80": null, "conc_A_lo95": null, "conc_A_hi95": null, "conc_A_status": "unavailable", "conc_A_status_ru": "концентрация недоступна", "conc_A_reasons": "вне бассейна профиля: nw_atlantic_subtropical", "conc_A_model": "conc-A-c6bce5631d2b", "conc_B_items_km2": 666.4, "conc_B_lo80": 142.3, "conc_B_hi80": 2238.6, "conc_B_lo95": 88.8, "conc_B_hi95": 4191.6, "conc_B_status": "research_estimate", "conc_B_status_ru": "исследовательская оценка", "conc_B_reasons": "ближайшее полевое измерение в 177 км (> 60 км); месяц 8 вне месяцев обучения [6]; log_dist_coast_km = 0.9 вне диапазона обучения [1.7; 5.0]", "conc_B_model": "conc-B-c6bce5631d2b"}}, {"type": "Feature", "geometry": {"type": "Polygon", "coordinates": [[[39.92401571236283, 43.39576568422549], [39.924014344256626, 43.39567565130262], [39.923890878226985, 43.39567664887331], [39.92388951030984, 43.39558661594585], [39.924012976156746, 43.39558561837829], [39.924011608063196, 43.395495585452515], [39.92425990783158, 43.395583622843326], [39.924261276296946, 43.395673655761414], [39.924137810279944, 43.39567465359865], [39.92413917856889, 43.3957646865184], [39.92401571236283, 43.39576568422549]]]}, "properties": {"zone_id": "sochi-2026-08-22-013", "aoi": "sochi", "date": "2026-08-22", "scene_id": "S2C_MSIL2A_20260822T081601_R121_T37TEJ_20260822T120711", "scene_datetime_utc": "2026-08-22T08:16:01.025000+00:00", "detection_status": "detected", "detection_status_ru": "обнаружено", "lon": 39.92408, "lat": 43.39563, "n_pixels": 1, "zone_area_km2": 0.0005, "cover_m2": 10.6, "p_mean": 0.976, "p_max": 0.976, "cover_m2_km2": 21200.0, "h3": "882d5610e9fffff", "valid_frac_scene": 1.0, "wind_ms": 4.7, "sea": "спокойное", "scene_reliable": true, "field_event_id": "S4:DOORS3:T23", "field_profile": "B", "field_date": "2024-06-10", "field_distance_km": 176.8, "field_date_gap_days": 803, "field_conc_items_km2": 102.37, "conc_A_items_km2": null, "conc_A_lo80": null, "conc_A_hi80": null, "conc_A_lo95": null, "conc_A_hi95": null, "conc_A_status": "unavailable", "conc_A_status_ru": "концентрация недоступна", "conc_A_reasons": "вне бассейна профиля: nw_atlantic_subtropical", "conc_A_model": "conc-A-c6bce5631d2b", "conc_B_items_km2": 666.4, "conc_B_lo80": 142.3, "conc_B_hi80": 2238.6, "conc_B_lo95": 88.8, "conc_B_hi95": 4191.6, "conc_B_status": "research_estimate", "conc_B_status_ru": "исследовательская оценка", "conc_B_reasons": "ближайшее полевое измерение в 177 км (> 60 км); месяц 8 вне месяцев обучения [6]; log_dist_coast_km = 0.9 вне диапазона обучения [1.7; 5.0]", "conc_B_model": "conc-B-c6bce5631d2b"}}]}