{"type": "FeatureCollection", "features": [{"type": "Feature", "geometry": {"type": "Polygon", "coordinates": [[[36.66932645020479, 44.869354186180274], [36.66933008212153, 44.86926423943543], [36.66920359565445, 44.869261656651965], [36.669214491892454, 44.86899181643165], [36.66947109531556, 44.86890703505077], [36.66946746366364, 44.86899698181028], [36.6695939495748, 44.868999564289645], [36.66958668661319, 44.869179457819826], [36.66971317293471, 44.869182040175325], [36.66970954162502, 44.86927198694599], [36.66958305510682, 44.86926940458245], [36.669579423583414, 44.86935935134339], [36.66932645020479, 44.869354186180274]]]}, "properties": {"zone_id": "kerch-2025-06-01-001", "aoi": "kerch", "date": "2025-06-01", "scene_id": "S2C_MSIL2A_20250601T082621_R021_T37TCK_20250601T121713", "scene_datetime_utc": "2025-06-01T08:26:21.025000+00:00", "detection_status": "detected", "detection_status_ru": "обнаружено", "lon": 36.66943, "lat": 44.86915, "n_pixels": 4, "zone_area_km2": 0.0013, "cover_m2": 35.3, "p_mean": 0.823, "p_max": 0.902, "cover_m2_km2": 27153.8, "h3": "882d7600a9fffff", "valid_frac_scene": 0.993, "wind_ms": 4.4, "sea": "спокойное", "scene_reliable": false, "field_event_id": "S4:DOORS3:T11", "field_profile": "B", "field_date": "2024-06-04", "field_distance_km": 264.2, "field_date_gap_days": 362, "field_conc_items_km2": 62.52, "conc_A_items_km2": null, "conc_A_lo80": null, "conc_A_hi80": null, "conc_A_lo95": null, "conc_A_hi95": null, "conc_A_status": "unavailable", "conc_A_status_ru": "концентрация недоступна", "conc_A_reasons": "вне бассейна профиля: nw_atlantic_subtropical", "conc_A_model": "conc-A-c6bce5631d2b", "conc_B_items_km2": 273.3, "conc_B_lo80": 57.9, "conc_B_hi80": 919.7, "conc_B_lo95": 35.9, "conc_B_hi95": 1722.5, "conc_B_status": "research_estimate", "conc_B_status_ru": "исследовательская оценка", "conc_B_reasons": "ближайшее полевое измерение в 264 км (> 60 км)", "conc_B_model": "conc-B-c6bce5631d2b"}}, {"type": "Feature", "geometry": {"type": "Polygon", "coordinates": [[[36.82520913866934, 44.86468878631925], [36.82521252724148, 44.86459882985721], [36.82508603743068, 44.864596419923295], [36.82509281492067, 44.86441650700935], [36.82521930433807, 44.864418916928216], [36.82522269286251, 44.86432896046129], [36.825602160619965, 44.8643361893554], [36.82559877268564, 44.86442614584487], [36.82572526216662, 44.86442855520377], [36.8257218744131, 44.86451851169914], [36.82546550691079, 44.864603649305025], [36.82546211873206, 44.86469360578211], [36.82520913866934, 44.86468878631925]]]}, "properties": {"zone_id": "kerch-2025-06-01-002", "aoi": "kerch", "date": "2025-06-01", "scene_id": "S2C_MSIL2A_20250601T082621_R021_T37TCK_20250601T121713", "scene_datetime_utc": "2025-06-01T08:26:21.025000+00:00", "detection_status": "detected", "detection_status_ru": "обнаружено", "lon": 36.82538, "lat": 44.8645, "n_pixels": 5, "zone_area_km2": 0.0014, "cover_m2": 62.0, "p_mean": 0.769, "p_max": 0.957, "cover_m2_km2": 44285.7, "h3": "882d760eabfffff", "valid_frac_scene": 0.993, "wind_ms": 4.4, "sea": "спокойное", "scene_reliable": false, "field_event_id": "S4:DOORS3:T11", "field_profile": "B", "field_date": "2024-06-04", "field_distance_km": 264.0, "field_date_gap_days": 362, "field_conc_items_km2": 62.52, "conc_A_items_km2": null, "conc_A_lo80": null, "conc_A_hi80": null, "conc_A_lo95": null, "conc_A_hi95": null, "conc_A_status": "unavailable", "conc_A_status_ru": "концентрация недоступна", "conc_A_reasons": "вне бассейна профиля: nw_atlantic_subtropical", "conc_A_model": "conc-A-c6bce5631d2b", "conc_B_items_km2": 280.9, "conc_B_lo80": 59.5, "conc_B_hi80": 945.0, "conc_B_lo95": 36.9, "conc_B_hi95": 1769.9, "conc_B_status": "research_estimate", "conc_B_status_ru": "исследовательская оценка", "conc_B_reasons": "ближайшее полевое измерение в 264 км (> 60 км)", "conc_B_model": "conc-B-c6bce5631d2b"}}]}