{"type": "FeatureCollection", "features": [{"type": "Feature", "geometry": {"type": "Polygon", "coordinates": [[[40.39807250287979, 41.76023123206365], [40.39807054808602, 41.76014118848077], [40.39795028741894, 41.760142652040564], [40.39794637819412, 41.75996256486114], [40.39806663852516, 41.75996110131055], [40.3980646837581, 41.7598710577232], [40.39830324896325, 41.75977808667409], [40.398305204057436, 41.75986813025372], [40.39842546419374, 41.75986666633023], [40.398431330033794, 41.76013679704641], [40.398311069393436, 41.76013826098369], [40.398313024523254, 41.760228304557366], [40.39807250287979, 41.76023123206365]]]}, "properties": {"zone_id": "s4_rize-2024-06-15-001", "aoi": "s4_rize", "date": "2024-06-15", "scene_id": "S2B_MSIL2A_20240615T080609_R078_T37TFG_20240615T122003", "scene_datetime_utc": "2024-06-15T08:06:09.024000+00:00", "detection_status": "detected", "detection_status_ru": "обнаружено", "lon": 40.3982, "lat": 41.76002, "n_pixels": 5, "zone_area_km2": 0.0014, "cover_m2": 46.3, "p_mean": 0.715, "p_max": 0.965, "cover_m2_km2": 33071.4, "h3": "882c255b15fffff", "valid_frac_scene": 1.0, "wind_ms": 5.4, "sea": "спокойное", "scene_reliable": false, "field_event_id": "S4:DOORS3:T28", "field_profile": "B", "field_date": "2024-06-14", "field_distance_km": 8.1, "field_date_gap_days": 1, "field_conc_items_km2": 356.56, "conc_A_items_km2": null, "conc_A_lo80": null, "conc_A_hi80": null, "conc_A_lo95": null, "conc_A_hi95": null, "conc_A_status": "unavailable", "conc_A_status_ru": "концентрация недоступна", "conc_A_reasons": "вне бассейна профиля: nw_atlantic_subtropical", "conc_A_model": "conc-A-c6bce5631d2b", "conc_B_items_km2": 193.8, "conc_B_lo80": 40.8, "conc_B_hi80": 652.7, "conc_B_lo95": 25.2, "conc_B_hi95": 1222.7, "conc_B_status": "model_estimate", "conc_B_status_ru": "модельная оценка", "conc_B_reasons": "", "conc_B_model": "conc-B-c6bce5631d2b"}}]}