{"type": "FeatureCollection", "features": [{"type": "Feature", "geometry": {"type": "Polygon", "coordinates": [[[49.065120502322074, 53.68460165030346], [49.0651246216357, 53.68451181766565], [49.064973294223776, 53.684509372224746], [49.06498565299599, 53.68423987432585], [49.06529242481484, 53.68415493231656], [49.06528830591202, 53.68424476496864], [49.06543963240345, 53.684247210003385], [49.065435513800026, 53.68433704266189], [49.06558684063541, 53.68433948751351], [49.0655786040051, 53.684519152841744], [49.06542727652635, 53.684516707974154], [49.0654231578561, 53.68460654062793], [49.065120502322074, 53.68460165030346]]]}, "properties": {"zone_id": "kuibyshev-2026-08-23-001", "aoi": "kuibyshev", "date": "2026-08-23", "scene_id": "S2C_MSIL2A_20260823T074611_R135_T39UUV_20260823T105002", "scene_datetime_utc": "2026-08-23T07:46:11.025000+00:00", "detection_status": "detected", "detection_status_ru": "обнаружено", "lon": 49.06527, "lat": 53.6844, "n_pixels": 5, "zone_area_km2": 0.0014, "cover_m2": 79.2, "p_mean": 0.799, "p_max": 0.988, "cover_m2_km2": 56571.4, "h3": "88108562bbfffff", "valid_frac_scene": 1.0, "wind_ms": 1.9, "sea": "спокойное", "scene_reliable": true, "field_event_id": "S4:DOORS3:T23", "field_profile": "B", "field_date": "2024-06-10", "field_distance_km": 1377.9, "field_date_gap_days": 804, "field_conc_items_km2": 102.37, "conc_A_items_km2": null, "conc_A_lo80": null, "conc_A_hi80": null, "conc_A_lo95": null, "conc_A_hi95": null, "conc_A_status": "unavailable", "conc_A_status_ru": "концентрация недоступна", "conc_A_reasons": "вне бассейна профиля: nw_atlantic_subtropical", "conc_A_model": "conc-A-c6bce5631d2b", "conc_B_items_km2": null, "conc_B_lo80": null, "conc_B_hi80": null, "conc_B_lo95": null, "conc_B_hi95": null, "conc_B_status": "unavailable", "conc_B_status_ru": "концентрация недоступна", "conc_B_reasons": "вне бассейна профиля: black_sea", "conc_B_model": "conc-B-c6bce5631d2b"}}, {"type": "Feature", "geometry": {"type": "Polygon", "coordinates": [[[49.07612064418351, 53.49958434446684], [49.07612471253379, 53.49949450845327], [49.07597404374773, 53.49949208261794], [49.07597811239422, 53.4994022466107], [49.07628351734031, 53.49931726205108], [49.076279449352, 53.4994070980757], [49.076430117863765, 53.49940952352347], [49.076426050171676, 53.49949935955443], [49.07627538134177, 53.49949693409876], [49.07627131330963, 53.499586770120246], [49.07612064418351, 53.49958434446684]]]}, "properties": {"zone_id": "kuibyshev-2026-08-23-002", "aoi": "kuibyshev", "date": "2026-08-23", "scene_id": "S2C_MSIL2A_20260823T074611_R135_T39UUV_20260823T105002", "scene_datetime_utc": "2026-08-23T07:46:11.025000+00:00", "detection_status": "detected", "detection_status_ru": "обнаружено", "lon": 49.0762, "lat": 53.49945, "n_pixels": 1, "zone_area_km2": 0.0005, "cover_m2": 3.9, "p_mean": 0.996, "p_max": 0.996, "cover_m2_km2": 7800.0, "h3": "8810856aadfffff", "valid_frac_scene": 1.0, "wind_ms": 1.9, "sea": "спокойное", "scene_reliable": true, "field_event_id": "S4:DOORS3:T23", "field_profile": "B", "field_date": "2024-06-10", "field_distance_km": 1359.9, "field_date_gap_days": 804, "field_conc_items_km2": 102.37, "conc_A_items_km2": null, "conc_A_lo80": null, "conc_A_hi80": null, "conc_A_lo95": null, "conc_A_hi95": null, "conc_A_status": "unavailable", "conc_A_status_ru": "концентрация недоступна", "conc_A_reasons": "вне бассейна профиля: nw_atlantic_subtropical", "conc_A_model": "conc-A-c6bce5631d2b", "conc_B_items_km2": null, "conc_B_lo80": null, "conc_B_hi80": null, "conc_B_lo95": null, "conc_B_hi95": null, "conc_B_status": "unavailable", "conc_B_status_ru": "концентрация недоступна", "conc_B_reasons": "вне бассейна профиля: black_sea", "conc_B_model": "conc-B-c6bce5631d2b"}}, {"type": "Feature", "geometry": {"type": "Polygon", "coordinates": [[[49.19900689226975, 53.49952175007234], [49.19901070083702, 53.499431907787006], [49.19886002175513, 53.499429636843054], [49.1988638306201, 53.499339794563575], [49.199168996375974, 53.49925449395099], [49.19916518816797, 53.499344336246814], [49.19931586697268, 53.49934660680364], [49.19931205906237, 53.49943644910532], [49.19916137993944, 53.499434178541094], [49.19915757169039, 53.49952402083383], [49.19900689226975, 53.49952175007234]]]}, "properties": {"zone_id": "kuibyshev-2026-08-23-003", "aoi": "kuibyshev", "date": "2026-08-23", "scene_id": "S2C_MSIL2A_20260823T074611_R135_T39UUV_20260823T105002", "scene_datetime_utc": "2026-08-23T07:46:11.025000+00:00", "detection_status": "detected", "detection_status_ru": "обнаружено", "lon": 49.19909, "lat": 53.49939, "n_pixels": 1, "zone_area_km2": 0.0005, "cover_m2": 8.2, "p_mean": 0.804, "p_max": 0.804, "cover_m2_km2": 16400.0, "h3": "8810856897fffff", "valid_frac_scene": 1.0, "wind_ms": 1.9, "sea": "спокойное", "scene_reliable": true, "field_event_id": "S4:DOORS3:T23", "field_profile": "B", "field_date": "2024-06-10", "field_distance_km": 1363.7, "field_date_gap_days": 804, "field_conc_items_km2": 102.37, "conc_A_items_km2": null, "conc_A_lo80": null, "conc_A_hi80": null, "conc_A_lo95": null, "conc_A_hi95": null, "conc_A_status": "unavailable", "conc_A_status_ru": "концентрация недоступна", "conc_A_reasons": "вне бассейна профиля: nw_atlantic_subtropical", "conc_A_model": "conc-A-c6bce5631d2b", "conc_B_items_km2": null, "conc_B_lo80": null, "conc_B_hi80": null, "conc_B_lo95": null, "conc_B_hi95": null, "conc_B_status": "unavailable", "conc_B_status_ru": "концентрация недоступна", "conc_B_reasons": "вне бассейна профиля: black_sea", "conc_B_model": "conc-B-c6bce5631d2b"}}, {"type": "Feature", "geometry": {"type": "Polygon", "coordinates": [[[49.19479551176433, 53.49927840750953], [49.194799329200634, 53.499188565428575], [49.194648651330475, 53.49918628918337], [49.19465246906442, 53.49909644710828], [49.19495764126584, 53.499011157302554], [49.194953824188886, 53.49910099939402], [49.19510450178197, 53.49910327525208], [49.19510068500266, 53.499193117349435], [49.194950007091364, 53.49919084148394], [49.19494618997328, 53.4992806835723], [49.19479551176433, 53.49927840750953]]]}, "properties": {"zone_id": "kuibyshev-2026-08-23-004", "aoi": "kuibyshev", "date": "2026-08-23", "scene_id": "S2C_MSIL2A_20260823T074611_R135_T39UUV_20260823T105002", "scene_datetime_utc": "2026-08-23T07:46:11.025000+00:00", "detection_status": "detected", "detection_status_ru": "обнаружено", "lon": 49.19488, "lat": 53.49914, "n_pixels": 1, "zone_area_km2": 0.0005, "cover_m2": 9.0, "p_mean": 0.569, "p_max": 0.569, "cover_m2_km2": 18000.0, "h3": "8810856895fffff", "valid_frac_scene": 1.0, "wind_ms": 1.9, "sea": "спокойное", "scene_reliable": true, "field_event_id": "S4:DOORS3:T23", "field_profile": "B", "field_date": "2024-06-10", "field_distance_km": 1363.5, "field_date_gap_days": 804, "field_conc_items_km2": 102.37, "conc_A_items_km2": null, "conc_A_lo80": null, "conc_A_hi80": null, "conc_A_lo95": null, "conc_A_hi95": null, "conc_A_status": "unavailable", "conc_A_status_ru": "концентрация недоступна", "conc_A_reasons": "вне бассейна профиля: nw_atlantic_subtropical", "conc_A_model": "conc-A-c6bce5631d2b", "conc_B_items_km2": null, "conc_B_lo80": null, "conc_B_hi80": null, "conc_B_lo95": null, "conc_B_hi95": null, "conc_B_status": "unavailable", "conc_B_status_ru": "концентрация недоступна", "conc_B_reasons": "вне бассейна профиля: black_sea", "conc_B_model": "conc-B-c6bce5631d2b"}}, {"type": "Feature", "geometry": {"type": "Polygon", "coordinates": [[[49.189224261718394, 53.499104217910265], [49.18922809090792, 53.49901437610267], [49.18907741411824, 53.49901209284016], [49.18908124360533, 53.49892225103846], [49.189386425398965, 53.49883697554059], [49.18938259656891, 53.498926817358736], [49.18953327308165, 53.49892910023408], [49.18952944454917, 53.49901894205811], [49.18937876771823, 53.49901665917532], [49.18937493884692, 53.49910650099035], [49.189224261718394, 53.499104217910265]]]}, "properties": {"zone_id": "kuibyshev-2026-08-23-005", "aoi": "kuibyshev", "date": "2026-08-23", "scene_id": "S2C_MSIL2A_20260823T074611_R135_T39UUV_20260823T105002", "scene_datetime_utc": "2026-08-23T07:46:11.025000+00:00", "detection_status": "detected", "detection_status_ru": "обнаружено", "lon": 49.18931, "lat": 53.49897, "n_pixels": 1, "zone_area_km2": 0.0005, "cover_m2": 4.7, "p_mean": 0.592, "p_max": 0.592, "cover_m2_km2": 9400.0, "h3": "8810856895fffff", "valid_frac_scene": 1.0, "wind_ms": 1.9, "sea": "спокойное", "scene_reliable": true, "field_event_id": "S4:DOORS3:T23", "field_profile": "B", "field_date": "2024-06-10", "field_distance_km": 1363.3, "field_date_gap_days": 804, "field_conc_items_km2": 102.37, "conc_A_items_km2": null, "conc_A_lo80": null, "conc_A_hi80": null, "conc_A_lo95": null, "conc_A_hi95": null, "conc_A_status": "unavailable", "conc_A_status_ru": "концентрация недоступна", "conc_A_reasons": "вне бассейна профиля: nw_atlantic_subtropical", "conc_A_model": "conc-A-c6bce5631d2b", "conc_B_items_km2": null, "conc_B_lo80": null, "conc_B_hi80": null, "conc_B_lo95": null, "conc_B_hi95": null, "conc_B_status": "unavailable", "conc_B_status_ru": "концентрация недоступна", "conc_B_reasons": "вне бассейна профиля: black_sea", "conc_B_model": "conc-B-c6bce5631d2b"}}, {"type": "Feature", "geometry": {"type": "Polygon", "coordinates": [[[49.21995894344612, 53.49605990040357], [49.21996270724542, 53.49597005703801], [49.21981203871236, 53.49596781260275], [49.219815802809556, 53.495877969242954], [49.22012090270018, 53.49579261453301], [49.22011713925961, 53.49588245790899], [49.22026780751506, 53.495884701957245], [49.22026404437238, 53.49597454533898], [49.22011337579876, 53.495972301283416], [49.220109612317636, 53.4960621446563], [49.21995894344612, 53.49605990040357]]]}, "properties": {"zone_id": "kuibyshev-2026-08-23-006", "aoi": "kuibyshev", "date": "2026-08-23", "scene_id": "S2C_MSIL2A_20260823T074611_R135_T39UUV_20260823T105002", "scene_datetime_utc": "2026-08-23T07:46:11.025000+00:00", "detection_status": "detected", "detection_status_ru": "обнаружено", "lon": 49.22004, "lat": 53.49593, "n_pixels": 1, "zone_area_km2": 0.0005, "cover_m2": 10.6, "p_mean": 0.561, "p_max": 0.561, "cover_m2_km2": 21200.0, "h3": "8810856d6dfffff", "valid_frac_scene": 1.0, "wind_ms": 1.9, "sea": "спокойное", "scene_reliable": true, "field_event_id": "S4:DOORS3:T23", "field_profile": "B", "field_date": "2024-06-10", "field_distance_km": 1364.0, "field_date_gap_days": 804, "field_conc_items_km2": 102.37, "conc_A_items_km2": null, "conc_A_lo80": null, "conc_A_hi80": null, "conc_A_lo95": null, "conc_A_hi95": null, "conc_A_status": "unavailable", "conc_A_status_ru": "концентрация недоступна", "conc_A_reasons": "вне бассейна профиля: nw_atlantic_subtropical", "conc_A_model": "conc-A-c6bce5631d2b", "conc_B_items_km2": null, "conc_B_lo80": null, "conc_B_hi80": null, "conc_B_lo95": null, "conc_B_hi95": null, "conc_B_status": "unavailable", "conc_B_status_ru": "концентрация недоступна", "conc_B_reasons": "вне бассейна профиля: black_sea", "conc_B_model": "conc-B-c6bce5631d2b"}}, {"type": "Feature", "geometry": {"type": "Polygon", "coordinates": [[[49.056594138006744, 53.49135700901258], [49.05659824640121, 53.49126717390913], [49.05644760851091, 53.49126472372002], [49.0564517172012, 53.49117488862298], [49.05675710040023, 53.49108995368085], [49.056752992368, 53.491179788795435], [49.056903629984596, 53.49118223859703], [49.05689952224819, 53.49127207371802], [49.05674888431363, 53.49126962390845], [49.05674477623713, 53.4913594590199], [49.056594138006744, 53.49135700901258]]]}, "properties": {"zone_id": "kuibyshev-2026-08-23-007", "aoi": "kuibyshev", "date": "2026-08-23", "scene_id": "S2C_MSIL2A_20260823T074611_R135_T39UUV_20260823T105002", "scene_datetime_utc": "2026-08-23T07:46:11.025000+00:00", "detection_status": "detected", "detection_status_ru": "обнаружено", "lon": 49.05668, "lat": 53.49122, "n_pixels": 1, "zone_area_km2": 0.0005, "cover_m2": 9.8, "p_mean": 0.518, "p_max": 0.518, "cover_m2_km2": 19600.0, "h3": "8810856859fffff", "valid_frac_scene": 1.0, "wind_ms": 1.9, "sea": "спокойное", "scene_reliable": true, "field_event_id": "S4:DOORS3:T23", "field_profile": "B", "field_date": "2024-06-10", "field_distance_km": 1358.5, "field_date_gap_days": 804, "field_conc_items_km2": 102.37, "conc_A_items_km2": null, "conc_A_lo80": null, "conc_A_hi80": null, "conc_A_lo95": null, "conc_A_hi95": null, "conc_A_status": "unavailable", "conc_A_status_ru": "концентрация недоступна", "conc_A_reasons": "вне бассейна профиля: nw_atlantic_subtropical", "conc_A_model": "conc-A-c6bce5631d2b", "conc_B_items_km2": null, "conc_B_lo80": null, "conc_B_hi80": null, "conc_B_lo95": null, "conc_B_hi95": null, "conc_B_status": "unavailable", "conc_B_status_ru": "концентрация недоступна", "conc_B_reasons": "вне бассейна профиля: black_sea", "conc_B_model": "conc-B-c6bce5631d2b"}}, {"type": "Feature", "geometry": {"type": "Polygon", "coordinates": [[[49.05795809392026, 53.49119938189475], [49.05796219940881, 53.49110954671632], [49.05781156195532, 53.49110709825104], [49.05781566773972, 53.491017263079], [49.05812104715927, 53.49093232461425], [49.0581169420329, 53.491022159803805], [49.05826757921267, 53.49102460788157], [49.05826347438215, 53.49111444307756], [49.058112836884426, 53.49111199499181], [49.05810873171384, 53.49120183017823], [49.05795809392026, 53.49119938189475]]]}, "properties": {"zone_id": "kuibyshev-2026-08-23-008", "aoi": "kuibyshev", "date": "2026-08-23", "scene_id": "S2C_MSIL2A_20260823T074611_R135_T39UUV_20260823T105002", "scene_datetime_utc": "2026-08-23T07:46:11.025000+00:00", "detection_status": "detected", "detection_status_ru": "обнаружено", "lon": 49.05804, "lat": 53.49107, "n_pixels": 1, "zone_area_km2": 0.0005, "cover_m2": 9.8, "p_mean": 0.643, "p_max": 0.643, "cover_m2_km2": 19600.0, "h3": "8810856859fffff", "valid_frac_scene": 1.0, "wind_ms": 1.9, "sea": "спокойное", "scene_reliable": true, "field_event_id": "S4:DOORS3:T23", "field_profile": "B", "field_date": "2024-06-10", "field_distance_km": 1358.5, "field_date_gap_days": 804, "field_conc_items_km2": 102.37, "conc_A_items_km2": null, "conc_A_lo80": null, "conc_A_hi80": null, "conc_A_lo95": null, "conc_A_hi95": null, "conc_A_status": "unavailable", "conc_A_status_ru": "концентрация недоступна", "conc_A_reasons": "вне бассейна профиля: nw_atlantic_subtropical", "conc_A_model": "conc-A-c6bce5631d2b", "conc_B_items_km2": null, "conc_B_lo80": null, "conc_B_hi80": null, "conc_B_lo95": null, "conc_B_hi95": null, "conc_B_status": "unavailable", "conc_B_status_ru": "концентрация недоступна", "conc_B_reasons": "вне бассейна профиля: black_sea", "conc_B_model": "conc-B-c6bce5631d2b"}}, {"type": "Feature", "geometry": {"type": "Polygon", "coordinates": [[[49.133254664221525, 53.48610640294593], [49.133258609857634, 53.486016563761595], [49.13310798386047, 53.48601421034286], [49.133111929793245, 53.48592437116464], [49.13341712644868, 53.48583923860191], [49.13341318117299, 53.48592907779703], [49.13356380689474, 53.485931430828586], [49.13355986191573, 53.4860212700298], [49.13340923587605, 53.486018916990574], [49.13340529055786, 53.48610875618258], [49.133254664221525, 53.48610640294593]]]}, "properties": {"zone_id": "kuibyshev-2026-08-23-009", "aoi": "kuibyshev", "date": "2026-08-23", "scene_id": "S2C_MSIL2A_20260823T074611_R135_T39UUV_20260823T105002", "scene_datetime_utc": "2026-08-23T07:46:11.025000+00:00", "detection_status": "detected", "detection_status_ru": "обнаружено", "lon": 49.13334, "lat": 53.48597, "n_pixels": 1, "zone_area_km2": 0.0005, "cover_m2": 10.2, "p_mean": 0.51, "p_max": 0.51, "cover_m2_km2": 20400.0, "h3": "88108568c5fffff", "valid_frac_scene": 1.0, "wind_ms": 1.9, "sea": "спокойное", "scene_reliable": true, "field_event_id": "S4:DOORS3:T23", "field_profile": "B", "field_date": "2024-06-10", "field_distance_km": 1360.3, "field_date_gap_days": 804, "field_conc_items_km2": 102.37, "conc_A_items_km2": null, "conc_A_lo80": null, "conc_A_hi80": null, "conc_A_lo95": null, "conc_A_hi95": null, "conc_A_status": "unavailable", "conc_A_status_ru": "концентрация недоступна", "conc_A_reasons": "вне бассейна профиля: nw_atlantic_subtropical", "conc_A_model": "conc-A-c6bce5631d2b", "conc_B_items_km2": null, "conc_B_lo80": null, "conc_B_hi80": null, "conc_B_lo95": null, "conc_B_hi95": null, "conc_B_status": "unavailable", "conc_B_status_ru": "концентрация недоступна", "conc_B_reasons": "вне бассейна профиля: black_sea", "conc_B_model": "conc-B-c6bce5631d2b"}}, {"type": "Feature", "geometry": {"type": "Polygon", "coordinates": [[[49.163299601034836, 53.48495382587294], [49.16330348302545, 53.48486398514683], [49.163152858555314, 53.48486166962542], [49.163156740842936, 53.48477182890528], [49.16346187079918, 53.48468661900651], [49.1634579891683, 53.48477645974327], [49.16360861336234, 53.48477877487765], [49.16360473202847, 53.48486861562041], [49.16345410751651, 53.4848663004785], [49.16345022584381, 53.48495614121215], [49.163299601034836, 53.48495382587294]]]}, "properties": {"zone_id": "kuibyshev-2026-08-23-010", "aoi": "kuibyshev", "date": "2026-08-23", "scene_id": "S2C_MSIL2A_20260823T074611_R135_T39UUV_20260823T105002", "scene_datetime_utc": "2026-08-23T07:46:11.025000+00:00", "detection_status": "detected", "detection_status_ru": "обнаружено", "lon": 49.16338, "lat": 53.48482, "n_pixels": 1, "zone_area_km2": 0.0005, "cover_m2": 10.2, "p_mean": 0.529, "p_max": 0.529, "cover_m2_km2": 20400.0, "h3": "8810856885fffff", "valid_frac_scene": 1.0, "wind_ms": 1.9, "sea": "спокойное", "scene_reliable": true, "field_event_id": "S4:DOORS3:T23", "field_profile": "B", "field_date": "2024-06-10", "field_distance_km": 1361.1, "field_date_gap_days": 804, "field_conc_items_km2": 102.37, "conc_A_items_km2": null, "conc_A_lo80": null, "conc_A_hi80": null, "conc_A_lo95": null, "conc_A_hi95": null, "conc_A_status": "unavailable", "conc_A_status_ru": "концентрация недоступна", "conc_A_reasons": "вне бассейна профиля: nw_atlantic_subtropical", "conc_A_model": "conc-A-c6bce5631d2b", "conc_B_items_km2": null, "conc_B_lo80": null, "conc_B_hi80": null, "conc_B_lo95": null, "conc_B_hi95": null, "conc_B_status": "unavailable", "conc_B_status_ru": "концентрация недоступна", "conc_B_reasons": "вне бассейна профиля: black_sea", "conc_B_model": "conc-B-c6bce5631d2b"}}, {"type": "Feature", "geometry": {"type": "Polygon", "coordinates": [[[49.14691295513885, 53.48398159710668], [49.14691687161301, 53.48389175719418], [49.14676625197554, 53.48388942105115], [49.14677016874649, 53.48379958114473], [49.14707532352084, 53.48371441330261], [49.14707923961383, 53.48362457337783], [49.147229858339834, 53.48362690911854], [49.14723377409385, 53.483537069184614], [49.147531095855115, 53.48363158003076], [49.14752718071578, 53.483721419978366], [49.14722202676853, 53.48380658898175], [49.14721811095124, 53.48389642891102], [49.14691295513885, 53.48398159710668]]]}, "properties": {"zone_id": "kuibyshev-2026-08-23-011", "aoi": "kuibyshev", "date": "2026-08-23", "scene_id": "S2C_MSIL2A_20260823T074611_R135_T39UUV_20260823T105002", "scene_datetime_utc": "2026-08-23T07:46:11.025000+00:00", "detection_status": "detected", "detection_status_ru": "обнаружено", "lon": 49.14715, "lat": 53.48376, "n_pixels": 3, "zone_area_km2": 0.0011, "cover_m2": 27.5, "p_mean": 0.575, "p_max": 0.584, "cover_m2_km2": 25000.0, "h3": "88108568ebfffff", "valid_frac_scene": 1.0, "wind_ms": 1.9, "sea": "спокойное", "scene_reliable": true, "field_event_id": "S4:DOORS3:T23", "field_profile": "B", "field_date": "2024-06-10", "field_distance_km": 1360.5, "field_date_gap_days": 804, "field_conc_items_km2": 102.37, "conc_A_items_km2": null, "conc_A_lo80": null, "conc_A_hi80": null, "conc_A_lo95": null, "conc_A_hi95": null, "conc_A_status": "unavailable", "conc_A_status_ru": "концентрация недоступна", "conc_A_reasons": "вне бассейна профиля: nw_atlantic_subtropical", "conc_A_model": "conc-A-c6bce5631d2b", "conc_B_items_km2": null, "conc_B_lo80": null, "conc_B_hi80": null, "conc_B_lo95": null, "conc_B_hi95": null, "conc_B_status": "unavailable", "conc_B_status_ru": "концентрация недоступна", "conc_B_reasons": "вне бассейна профиля: black_sea", "conc_B_model": "conc-B-c6bce5631d2b"}}, {"type": "Feature", "geometry": {"type": "Polygon", "coordinates": [[[49.15717853033425, 53.48360096762089], [49.15718242506572, 53.483511127182865], [49.15688508211151, 53.483416640178355], [49.15688897743679, 53.483326799752376], [49.15719410913427, 53.48324160585948], [49.15719021446573, 53.48333144630218], [49.157340833011666, 53.48333376929246], [49.157336938640036, 53.48342360974116], [49.15748755752483, 53.48342593254929], [49.15748366345011, 53.483515773003994], [49.15733304424743, 53.48351345018831], [49.15732914983384, 53.48360329063389], [49.15717853033425, 53.48360096762089]]]}, "properties": {"zone_id": "kuibyshev-2026-08-23-012", "aoi": "kuibyshev", "date": "2026-08-23", "scene_id": "S2C_MSIL2A_20260823T074611_R135_T39UUV_20260823T105002", "scene_datetime_utc": "2026-08-23T07:46:11.025000+00:00", "detection_status": "detected", "detection_status_ru": "обнаружено", "lon": 49.15719, "lat": 53.48342, "n_pixels": 2, "zone_area_km2": 0.0008, "cover_m2": 19.6, "p_mean": 0.571, "p_max": 0.62, "cover_m2_km2": 24500.0, "h3": "881085688dfffff", "valid_frac_scene": 1.0, "wind_ms": 1.9, "sea": "спокойное", "scene_reliable": true, "field_event_id": "S4:DOORS3:T23", "field_profile": "B", "field_date": "2024-06-10", "field_distance_km": 1360.8, "field_date_gap_days": 804, "field_conc_items_km2": 102.37, "conc_A_items_km2": null, "conc_A_lo80": null, "conc_A_hi80": null, "conc_A_lo95": null, "conc_A_hi95": null, "conc_A_status": "unavailable", "conc_A_status_ru": "концентрация недоступна", "conc_A_reasons": "вне бассейна профиля: nw_atlantic_subtropical", "conc_A_model": "conc-A-c6bce5631d2b", "conc_B_items_km2": null, "conc_B_lo80": null, "conc_B_hi80": null, "conc_B_lo95": null, "conc_B_hi95": null, "conc_B_status": "unavailable", "conc_B_status_ru": "концентрация недоступна", "conc_B_reasons": "вне бассейна профиля: black_sea", "conc_B_model": "conc-B-c6bce5631d2b"}}, {"type": "Feature", "geometry": {"type": "Polygon", "coordinates": [[[49.1526950927648, 53.48272262704995], [49.15269899684362, 53.4826327868253], [49.15240167021879, 53.48253828878644], [49.152405574891276, 53.48244844857387], [49.1525561899042, 53.482450777567465], [49.152560094237806, 53.482360937345746], [49.15286132369101, 53.48236559474858], [49.152857419993154, 53.482455434985475], [49.15300803506916, 53.48245776340988], [49.153000228246086, 53.4826374438942], [49.1526950927648, 53.48272262704995]]]}, "properties": {"zone_id": "kuibyshev-2026-08-23-013", "aoi": "kuibyshev", "date": "2026-08-23", "scene_id": "S2C_MSIL2A_20260823T074611_R135_T39UUV_20260823T105002", "scene_datetime_utc": "2026-08-23T07:46:11.025000+00:00", "detection_status": "detected", "detection_status_ru": "обнаружено", "lon": 49.15273, "lat": 53.48253, "n_pixels": 3, "zone_area_km2": 0.001, "cover_m2": 27.1, "p_mean": 0.573, "p_max": 0.592, "cover_m2_km2": 27100.0, "h3": "881085688dfffff", "valid_frac_scene": 1.0, "wind_ms": 1.9, "sea": "спокойное", "scene_reliable": true, "field_event_id": "S4:DOORS3:T23", "field_profile": "B", "field_date": "2024-06-10", "field_distance_km": 1360.6, "field_date_gap_days": 804, "field_conc_items_km2": 102.37, "conc_A_items_km2": null, "conc_A_lo80": null, "conc_A_hi80": null, "conc_A_lo95": null, "conc_A_hi95": null, "conc_A_status": "unavailable", "conc_A_status_ru": "концентрация недоступна", "conc_A_reasons": "вне бассейна профиля: nw_atlantic_subtropical", "conc_A_model": "conc-A-c6bce5631d2b", "conc_B_items_km2": null, "conc_B_lo80": null, "conc_B_hi80": null, "conc_B_lo95": null, "conc_B_hi95": null, "conc_B_status": "unavailable", "conc_B_status_ru": "концентрация недоступна", "conc_B_reasons": "вне бассейна профиля: black_sea", "conc_B_model": "conc-B-c6bce5631d2b"}}, {"type": "Feature", "geometry": {"type": "Polygon", "coordinates": [[[49.13343219680743, 53.48206363810673], [49.13343614148727, 53.481973798852195], [49.133285529794726, 53.48197144577853], [49.133289474771175, 53.481881606530095], [49.13359464186134, 53.481796473207055], [49.13359069754183, 53.48188631247237], [49.133741308959024, 53.481888665158934], [49.13373736493611, 53.48197850443036], [49.13358675320107, 53.481976151736134], [49.13358280883907, 53.48206599099834], [49.13343219680743, 53.48206363810673]]]}, "properties": {"zone_id": "kuibyshev-2026-08-23-014", "aoi": "kuibyshev", "date": "2026-08-23", "scene_id": "S2C_MSIL2A_20260823T074611_R135_T39UUV_20260823T105002", "scene_datetime_utc": "2026-08-23T07:46:11.025000+00:00", "detection_status": "detected", "detection_status_ru": "обнаружено", "lon": 49.13351, "lat": 53.48193, "n_pixels": 1, "zone_area_km2": 0.0005, "cover_m2": 9.0, "p_mean": 0.69, "p_max": 0.69, "cover_m2_km2": 18000.0, "h3": "88108568ebfffff", "valid_frac_scene": 1.0, "wind_ms": 1.9, "sea": "спокойное", "scene_reliable": true, "field_event_id": "S4:DOORS3:T23", "field_profile": "B", "field_date": "2024-06-10", "field_distance_km": 1359.9, "field_date_gap_days": 804, "field_conc_items_km2": 102.37, "conc_A_items_km2": null, "conc_A_lo80": null, "conc_A_hi80": null, "conc_A_lo95": null, "conc_A_hi95": null, "conc_A_status": "unavailable", "conc_A_status_ru": "концентрация недоступна", "conc_A_reasons": "вне бассейна профиля: nw_atlantic_subtropical", "conc_A_model": "conc-A-c6bce5631d2b", "conc_B_items_km2": null, "conc_B_lo80": null, "conc_B_hi80": null, "conc_B_lo95": null, "conc_B_hi95": null, "conc_B_status": "unavailable", "conc_B_status_ru": "концентрация недоступна", "conc_B_reasons": "вне бассейна профиля: black_sea", "conc_B_model": "conc-B-c6bce5631d2b"}}, {"type": "Feature", "geometry": {"type": "Polygon", "coordinates": [[[49.161999239260396, 53.48016910541931], [49.16200312332124, 53.4800792646863], [49.16185251590749, 53.48007694766757], [49.16185640026524, 53.47998710694056], [49.16216149817918, 53.47990190002954], [49.162157614478, 53.47999174077321], [49.16230822161576, 53.47999405740496], [49.16230433821148, 53.48008389815462], [49.162153730755904, 53.480081581515314], [49.162149847012884, 53.48017142225587], [49.161999239260396, 53.48016910541931]]]}, "properties": {"zone_id": "kuibyshev-2026-08-23-015", "aoi": "kuibyshev", "date": "2026-08-23", "scene_id": "S2C_MSIL2A_20260823T074611_R135_T39UUV_20260823T105002", "scene_datetime_utc": "2026-08-23T07:46:11.025000+00:00", "detection_status": "detected", "detection_status_ru": "обнаружено", "lon": 49.16208, "lat": 53.48004, "n_pixels": 1, "zone_area_km2": 0.0005, "cover_m2": 9.0, "p_mean": 0.616, "p_max": 0.616, "cover_m2_km2": 18000.0, "h3": "8810856885fffff", "valid_frac_scene": 1.0, "wind_ms": 1.9, "sea": "спокойное", "scene_reliable": true, "field_event_id": "S4:DOORS3:T23", "field_profile": "B", "field_date": "2024-06-10", "field_distance_km": 1360.6, "field_date_gap_days": 804, "field_conc_items_km2": 102.37, "conc_A_items_km2": null, "conc_A_lo80": null, "conc_A_hi80": null, "conc_A_lo95": null, "conc_A_hi95": null, "conc_A_status": "unavailable", "conc_A_status_ru": "концентрация недоступна", "conc_A_reasons": "вне бассейна профиля: nw_atlantic_subtropical", "conc_A_model": "conc-A-c6bce5631d2b", "conc_B_items_km2": null, "conc_B_lo80": null, "conc_B_hi80": null, "conc_B_lo95": null, "conc_B_hi95": null, "conc_B_status": "unavailable", "conc_B_status_ru": "концентрация недоступна", "conc_B_reasons": "вне бассейна профиля: black_sea", "conc_B_model": "conc-B-c6bce5631d2b"}}, {"type": "Feature", "geometry": {"type": "Polygon", "coordinates": [[[49.16416982097077, 53.478764070262116], [49.16417370024771, 53.47867422939862], [49.16402309762628, 53.478671915156596], [49.16402697720012, 53.478582074299084], [49.164332060745615, 53.478496861704194], [49.16432818182827, 53.47858670257835], [49.16447878417368, 53.4785890164334], [49.16447490555324, 53.47867885731354], [49.16432430289003, 53.47867654345094], [49.164320423930896, 53.47876638432198], [49.16416982097077, 53.478764070262116]]]}, "properties": {"zone_id": "kuibyshev-2026-08-23-016", "aoi": "kuibyshev", "date": "2026-08-23", "scene_id": "S2C_MSIL2A_20260823T074611_R135_T39UUV_20260823T105002", "scene_datetime_utc": "2026-08-23T07:46:11.025000+00:00", "detection_status": "detected", "detection_status_ru": "обнаружено", "lon": 49.16425, "lat": 53.47863, "n_pixels": 1, "zone_area_km2": 0.0005, "cover_m2": 8.2, "p_mean": 0.576, "p_max": 0.576, "cover_m2_km2": 16400.0, "h3": "8810856885fffff", "valid_frac_scene": 1.0, "wind_ms": 1.9, "sea": "спокойное", "scene_reliable": true, "field_event_id": "S4:DOORS3:T23", "field_profile": "B", "field_date": "2024-06-10", "field_distance_km": 1360.5, "field_date_gap_days": 804, "field_conc_items_km2": 102.37, "conc_A_items_km2": null, "conc_A_lo80": null, "conc_A_hi80": null, "conc_A_lo95": null, "conc_A_hi95": null, "conc_A_status": "unavailable", "conc_A_status_ru": "концентрация недоступна", "conc_A_reasons": "вне бассейна профиля: nw_atlantic_subtropical", "conc_A_model": "conc-A-c6bce5631d2b", "conc_B_items_km2": null, "conc_B_lo80": null, "conc_B_hi80": null, "conc_B_lo95": null, "conc_B_hi95": null, "conc_B_status": "unavailable", "conc_B_status_ru": "концентрация недоступна", "conc_B_reasons": "вне бассейна профиля: black_sea", "conc_B_model": "conc-B-c6bce5631d2b"}}, {"type": "Feature", "geometry": {"type": "Polygon", "coordinates": [[[49.16360233352011, 53.47794624456969], [49.16360621388015, 53.47785640372237], [49.16345561420245, 53.47785408878939], [49.16345949485938, 53.47776424794807], [49.163610094219294, 53.477766562873505], [49.16361397453755, 53.477676722023055], [49.16391517268451, 53.47768135128972], [49.163911293001824, 53.477771192155245], [49.164061892424435, 53.47777350651157], [49.16405801303864, 53.47786334738306], [49.163907413298254, 53.477861033019195], [49.16390353357378, 53.47795087388159], [49.16360233352011, 53.47794624456969]]]}, "properties": {"zone_id": "kuibyshev-2026-08-23-017", "aoi": "kuibyshev", "date": "2026-08-23", "scene_id": "S2C_MSIL2A_20260823T074611_R135_T39UUV_20260823T105002", "scene_datetime_utc": "2026-08-23T07:46:11.025000+00:00", "detection_status": "detected", "detection_status_ru": "обнаружено", "lon": 49.16376, "lat": 53.47781, "n_pixels": 2, "zone_area_km2": 0.0008, "cover_m2": 15.7, "p_mean": 0.739, "p_max": 0.914, "cover_m2_km2": 19625.0, "h3": "8810856885fffff", "valid_frac_scene": 1.0, "wind_ms": 1.9, "sea": "спокойное", "scene_reliable": true, "field_event_id": "S4:DOORS3:T23", "field_profile": "B", "field_date": "2024-06-10", "field_distance_km": 1360.4, "field_date_gap_days": 804, "field_conc_items_km2": 102.37, "conc_A_items_km2": null, "conc_A_lo80": null, "conc_A_hi80": null, "conc_A_lo95": null, "conc_A_hi95": null, "conc_A_status": "unavailable", "conc_A_status_ru": "концентрация недоступна", "conc_A_reasons": "вне бассейна профиля: nw_atlantic_subtropical", "conc_A_model": "conc-A-c6bce5631d2b", "conc_B_items_km2": null, "conc_B_lo80": null, "conc_B_hi80": null, "conc_B_lo95": null, "conc_B_hi95": null, "conc_B_status": "unavailable", "conc_B_status_ru": "концентрация недоступна", "conc_B_reasons": "вне бассейна профиля: black_sea", "conc_B_model": "conc-B-c6bce5631d2b"}}, {"type": "Feature", "geometry": {"type": "Polygon", "coordinates": [[[49.164521447619826, 53.4776007666494], [49.164525325989594, 53.47751092575063], [49.16437472745766, 53.47750861198603], [49.16437860612432, 53.47741877109325], [49.16468368058376, 53.477333557508224], [49.16467980257353, 53.477423398417656], [49.164830400829466, 53.477425711795306], [49.16482652311614, 53.47751555271072], [49.16467592454243, 53.477513239325525], [49.16467204649044, 53.47760308023183], [49.164521447619826, 53.4776007666494]]]}, "properties": {"zone_id": "kuibyshev-2026-08-23-018", "aoi": "kuibyshev", "date": "2026-08-23", "scene_id": "S2C_MSIL2A_20260823T074611_R135_T39UUV_20260823T105002", "scene_datetime_utc": "2026-08-23T07:46:11.025000+00:00", "detection_status": "detected", "detection_status_ru": "обнаружено", "lon": 49.1646, "lat": 53.47747, "n_pixels": 1, "zone_area_km2": 0.0005, "cover_m2": 7.8, "p_mean": 0.51, "p_max": 0.51, "cover_m2_km2": 15600.0, "h3": "8810856885fffff", "valid_frac_scene": 1.0, "wind_ms": 1.9, "sea": "спокойное", "scene_reliable": true, "field_event_id": "S4:DOORS3:T23", "field_profile": "B", "field_date": "2024-06-10", "field_distance_km": 1360.4, "field_date_gap_days": 804, "field_conc_items_km2": 102.37, "conc_A_items_km2": null, "conc_A_lo80": null, "conc_A_hi80": null, "conc_A_lo95": null, "conc_A_hi95": null, "conc_A_status": "unavailable", "conc_A_status_ru": "концентрация недоступна", "conc_A_reasons": "вне бассейна профиля: nw_atlantic_subtropical", "conc_A_model": "conc-A-c6bce5631d2b", "conc_B_items_km2": null, "conc_B_lo80": null, "conc_B_hi80": null, "conc_B_lo95": null, "conc_B_hi95": null, "conc_B_status": "unavailable", "conc_B_status_ru": "концентрация недоступна", "conc_B_reasons": "вне бассейна профиля: black_sea", "conc_B_model": "conc-B-c6bce5631d2b"}}, {"type": "Feature", "geometry": {"type": "Polygon", "coordinates": [[[49.1510123766285, 53.47289742414916], [49.15101628286365, 53.47280758386113], [49.15086570212581, 53.47280525321374], [49.15086960865761, 53.47271541293176], [49.15117467539437, 53.472630233722974], [49.15117076951897, 53.4727200740217], [49.1513213499812, 53.47272240428218], [49.15131744440245, 53.47281224458693], [49.151166863622535, 53.47280991431887], [49.15116295770507, 53.472899754614474], [49.1510123766285, 53.47289742414916]]]}, "properties": {"zone_id": "kuibyshev-2026-08-23-019", "aoi": "kuibyshev", "date": "2026-08-23", "scene_id": "S2C_MSIL2A_20260823T074611_R135_T39UUV_20260823T105002", "scene_datetime_utc": "2026-08-23T07:46:11.025000+00:00", "detection_status": "detected", "detection_status_ru": "обнаружено", "lon": 49.15109, "lat": 53.47276, "n_pixels": 1, "zone_area_km2": 0.0005, "cover_m2": 7.1, "p_mean": 0.584, "p_max": 0.584, "cover_m2_km2": 14200.0, "h3": "88108568e3fffff", "valid_frac_scene": 1.0, "wind_ms": 1.9, "sea": "спокойное", "scene_reliable": true, "field_event_id": "S4:DOORS3:T23", "field_profile": "B", "field_date": "2024-06-10", "field_distance_km": 1359.6, "field_date_gap_days": 804, "field_conc_items_km2": 102.37, "conc_A_items_km2": null, "conc_A_lo80": null, "conc_A_hi80": null, "conc_A_lo95": null, "conc_A_hi95": null, "conc_A_status": "unavailable", "conc_A_status_ru": "концентрация недоступна", "conc_A_reasons": "вне бассейна профиля: nw_atlantic_subtropical", "conc_A_model": "conc-A-c6bce5631d2b", "conc_B_items_km2": null, "conc_B_lo80": null, "conc_B_hi80": null, "conc_B_lo95": null, "conc_B_hi95": null, "conc_B_status": "unavailable", "conc_B_status_ru": "концентрация недоступна", "conc_B_reasons": "вне бассейна профиля: black_sea", "conc_B_model": "conc-B-c6bce5631d2b"}}, {"type": "Feature", "geometry": {"type": "Polygon", "coordinates": [[[49.1530206579937, 53.47175978025625], [49.15302455982582, 53.47166993984934], [49.152873982944364, 53.4716676117662], [49.152877885073124, 53.47157777136533], [49.153182939694176, 53.471492586909164], [49.15317903822174, 53.47158242732678], [49.15332961482756, 53.47158475502302], [49.15332571365177, 53.47167459544665], [49.15317513672829, 53.471672267742825], [49.153171235213826, 53.471762108157314], [49.1530206579937, 53.47175978025625]]]}, "properties": {"zone_id": "kuibyshev-2026-08-23-020", "aoi": "kuibyshev", "date": "2026-08-23", "scene_id": "S2C_MSIL2A_20260823T074611_R135_T39UUV_20260823T105002", "scene_datetime_utc": "2026-08-23T07:46:11.025000+00:00", "detection_status": "detected", "detection_status_ru": "обнаружено", "lon": 49.1531, "lat": 53.47163, "n_pixels": 1, "zone_area_km2": 0.0005, "cover_m2": 6.7, "p_mean": 0.702, "p_max": 0.702, "cover_m2_km2": 13400.0, "h3": "88108568e7fffff", "valid_frac_scene": 1.0, "wind_ms": 1.9, "sea": "спокойное", "scene_reliable": true, "field_event_id": "S4:DOORS3:T23", "field_profile": "B", "field_date": "2024-06-10", "field_distance_km": 1359.5, "field_date_gap_days": 804, "field_conc_items_km2": 102.37, "conc_A_items_km2": null, "conc_A_lo80": null, "conc_A_hi80": null, "conc_A_lo95": null, "conc_A_hi95": null, "conc_A_status": "unavailable", "conc_A_status_ru": "концентрация недоступна", "conc_A_reasons": "вне бассейна профиля: nw_atlantic_subtropical", "conc_A_model": "conc-A-c6bce5631d2b", "conc_B_items_km2": null, "conc_B_lo80": null, "conc_B_hi80": null, "conc_B_lo95": null, "conc_B_hi95": null, "conc_B_status": "unavailable", "conc_B_status_ru": "концентрация недоступна", "conc_B_reasons": "вне бассейна профиля: black_sea", "conc_B_model": "conc-B-c6bce5631d2b"}}, {"type": "Feature", "geometry": {"type": "Polygon", "coordinates": [[[49.157391298521226, 53.47173737175926], [49.15739519112015, 53.47164753113109], [49.15724461394772, 53.4716452085556], [49.15724850684335, 53.47155536793343], [49.15739908369813, 53.47155769050135], [49.157402976255135, 53.47146784987007], [49.15770412939226, 53.47147249442181], [49.157700237470564, 53.47156233506822], [49.157850814388226, 53.47156465706717], [49.15784692276324, 53.4716544977196], [49.15769634552792, 53.47165217571309], [49.157692453564316, 53.47174201635639], [49.157391298521226, 53.47173737175926]]]}, "properties": {"zone_id": "kuibyshev-2026-08-23-021", "aoi": "kuibyshev", "date": "2026-08-23", "scene_id": "S2C_MSIL2A_20260823T074611_R135_T39UUV_20260823T105002", "scene_datetime_utc": "2026-08-23T07:46:11.025000+00:00", "detection_status": "detected", "detection_status_ru": "обнаружено", "lon": 49.15755, "lat": 53.4716, "n_pixels": 2, "zone_area_km2": 0.0008, "cover_m2": 15.7, "p_mean": 0.653, "p_max": 0.788, "cover_m2_km2": 19625.0, "h3": "88108568a9fffff", "valid_frac_scene": 1.0, "wind_ms": 1.9, "sea": "спокойное", "scene_reliable": true, "field_event_id": "S4:DOORS3:T23", "field_profile": "B", "field_date": "2024-06-10", "field_distance_km": 1359.6, "field_date_gap_days": 804, "field_conc_items_km2": 102.37, "conc_A_items_km2": null, "conc_A_lo80": null, "conc_A_hi80": null, "conc_A_lo95": null, "conc_A_hi95": null, "conc_A_status": "unavailable", "conc_A_status_ru": "концентрация недоступна", "conc_A_reasons": "вне бассейна профиля: nw_atlantic_subtropical", "conc_A_model": "conc-A-c6bce5631d2b", "conc_B_items_km2": null, "conc_B_lo80": null, "conc_B_hi80": null, "conc_B_lo95": null, "conc_B_hi95": null, "conc_B_status": "unavailable", "conc_B_status_ru": "концентрация недоступна", "conc_B_reasons": "вне бассейна профиля: black_sea", "conc_B_model": "conc-B-c6bce5631d2b"}}, {"type": "Feature", "geometry": {"type": "Polygon", "coordinates": [[[49.18030172696509, 53.46804302433556], [49.1803055706636, 53.46795318250203], [49.180155004639346, 53.467950888901946], [49.18015884863476, 53.46786104707434], [49.18030941434141, 53.46786334066696], [49.18031325799851, 53.46777349883033], [49.18061438883868, 53.467778085431725], [49.180610545816776, 53.46786792728329], [49.18076111158551, 53.46787022030699], [49.18075726886053, 53.46796006216448], [49.18060670277419, 53.4679577691333], [49.1806028597109, 53.468047610981785], [49.18030172696509, 53.46804302433556]]]}, "properties": {"zone_id": "kuibyshev-2026-08-23-022", "aoi": "kuibyshev", "date": "2026-08-23", "scene_id": "S2C_MSIL2A_20260823T074611_R135_T39UUV_20260823T105002", "scene_datetime_utc": "2026-08-23T07:46:11.025000+00:00", "detection_status": "detected", "detection_status_ru": "обнаружено", "lon": 49.18046, "lat": 53.46791, "n_pixels": 2, "zone_area_km2": 0.0008, "cover_m2": 14.9, "p_mean": 0.633, "p_max": 0.714, "cover_m2_km2": 18625.0, "h3": "88108568a1fffff", "valid_frac_scene": 1.0, "wind_ms": 1.9, "sea": "спокойное", "scene_reliable": true, "field_event_id": "S4:DOORS3:T23", "field_profile": "B", "field_date": "2024-06-10", "field_distance_km": 1360.0, "field_date_gap_days": 804, "field_conc_items_km2": 102.37, "conc_A_items_km2": null, "conc_A_lo80": null, "conc_A_hi80": null, "conc_A_lo95": null, "conc_A_hi95": null, "conc_A_status": "unavailable", "conc_A_status_ru": "концентрация недоступна", "conc_A_reasons": "вне бассейна профиля: nw_atlantic_subtropical", "conc_A_model": "conc-A-c6bce5631d2b", "conc_B_items_km2": null, "conc_B_lo80": null, "conc_B_hi80": null, "conc_B_lo95": null, "conc_B_hi95": null, "conc_B_status": "unavailable", "conc_B_status_ru": "концентрация недоступна", "conc_B_reasons": "вне бассейна профиля: black_sea", "conc_B_model": "conc-B-c6bce5631d2b"}}, {"type": "Feature", "geometry": {"type": "Polygon", "coordinates": [[[49.33885603351302, 53.46657717673555], [49.33885954221231, 53.46648732731876], [49.33870896870309, 53.46648523353745], [49.33871247770118, 53.46639538412596], [49.33901713244698, 53.466309722058625], [49.33901362410315, 53.46639957148527], [49.33916419733248, 53.46640166488041], [49.33916068928745, 53.46649151431236], [49.339010115740436, 53.46648942091039], [49.339006607358826, 53.466579270333995], [49.33885603351302, 53.46657717673555]]]}, "properties": {"zone_id": "kuibyshev-2026-08-23-023", "aoi": "kuibyshev", "date": "2026-08-23", "scene_id": "S2C_MSIL2A_20260823T074611_R135_T39UUV_20260823T105002", "scene_datetime_utc": "2026-08-23T07:46:11.025000+00:00", "detection_status": "detected", "detection_status_ru": "обнаружено", "lon": 49.33894, "lat": 53.46644, "n_pixels": 1, "zone_area_km2": 0.0005, "cover_m2": 11.8, "p_mean": 0.588, "p_max": 0.588, "cover_m2_km2": 23600.0, "h3": "881081d2a9fffff", "valid_frac_scene": 1.0, "wind_ms": 1.9, "sea": "спокойное", "scene_reliable": true, "field_event_id": "S4:DOORS3:T23", "field_profile": "B", "field_date": "2024-06-10", "field_distance_km": 1364.7, "field_date_gap_days": 804, "field_conc_items_km2": 102.37, "conc_A_items_km2": null, "conc_A_lo80": null, "conc_A_hi80": null, "conc_A_lo95": null, "conc_A_hi95": null, "conc_A_status": "unavailable", "conc_A_status_ru": "концентрация недоступна", "conc_A_reasons": "вне бассейна профиля: nw_atlantic_subtropical", "conc_A_model": "conc-A-c6bce5631d2b", "conc_B_items_km2": null, "conc_B_lo80": null, "conc_B_hi80": null, "conc_B_lo95": null, "conc_B_hi95": null, "conc_B_status": "unavailable", "conc_B_status_ru": "концентрация недоступна", "conc_B_reasons": "вне бассейна профиля: black_sea", "conc_B_model": "conc-B-c6bce5631d2b"}}, {"type": "Feature", "geometry": {"type": "Polygon", "coordinates": [[[49.19939495862591, 53.465455532146514], [49.1993987616491, 53.465365689326866], [49.19924820319363, 53.465363419858434], [49.199252006513916, 53.46527357704464], [49.19940256465181, 53.465275846505676], [49.19940636763405, 53.465186003682945], [49.19970748333615, 53.465190542021354], [49.199703680989046, 53.46528038485886], [49.19985423918838, 53.46528265375102], [49.19985043713839, 53.46537249659439], [49.19969987862148, 53.46537022769484], [49.199696076233444, 53.465460070529275], [49.19939495862591, 53.465455532146514]]]}, "properties": {"zone_id": "kuibyshev-2026-08-23-024", "aoi": "kuibyshev", "date": "2026-08-23", "scene_id": "S2C_MSIL2A_20260823T074611_R135_T39UUV_20260823T105002", "scene_datetime_utc": "2026-08-23T07:46:11.025000+00:00", "detection_status": "detected", "detection_status_ru": "обнаружено", "lon": 49.19955, "lat": 53.46532, "n_pixels": 2, "zone_area_km2": 0.0008, "cover_m2": 13.3, "p_mean": 0.667, "p_max": 0.765, "cover_m2_km2": 16625.0, "h3": "881081d249fffff", "valid_frac_scene": 1.0, "wind_ms": 1.9, "sea": "спокойное", "scene_reliable": true, "field_event_id": "S4:DOORS3:T23", "field_profile": "B", "field_date": "2024-06-10", "field_distance_km": 1360.3, "field_date_gap_days": 804, "field_conc_items_km2": 102.37, "conc_A_items_km2": null, "conc_A_lo80": null, "conc_A_hi80": null, "conc_A_lo95": null, "conc_A_hi95": null, "conc_A_status": "unavailable", "conc_A_status_ru": "концентрация недоступна", "conc_A_reasons": "вне бассейна профиля: nw_atlantic_subtropical", "conc_A_model": "conc-A-c6bce5631d2b", "conc_B_items_km2": null, "conc_B_lo80": null, "conc_B_hi80": null, "conc_B_lo95": null, "conc_B_hi95": null, "conc_B_status": "unavailable", "conc_B_status_ru": "концентрация недоступна", "conc_B_reasons": "вне бассейна профиля: black_sea", "conc_B_model": "conc-B-c6bce5631d2b"}}, {"type": "Feature", "geometry": {"type": "Polygon", "coordinates": [[[49.22862619401783, 53.46535315809931], [49.22862993530811, 53.46526331384766], [49.22847937481756, 53.465261081211615], [49.22848311640529, 53.4651712369657], [49.22863367657826, 53.46517346959446], [49.22863741782826, 53.465083625339744], [49.228938537599454, 53.46508809001383], [49.22893479698463, 53.4651779342831], [49.229085357218025, 53.46518016634296], [49.22908161690066, 53.46527001061797], [49.228931056349666, 53.465267778550825], [49.22892731569456, 53.465357622817024], [49.22862619401783, 53.46535315809931]]]}, "properties": {"zone_id": "kuibyshev-2026-08-23-025", "aoi": "kuibyshev", "date": "2026-08-23", "scene_id": "S2C_MSIL2A_20260823T074611_R135_T39UUV_20260823T105002", "scene_datetime_utc": "2026-08-23T07:46:11.025000+00:00", "detection_status": "detected", "detection_status_ru": "обнаружено", "lon": 49.22878, "lat": 53.46522, "n_pixels": 2, "zone_area_km2": 0.0008, "cover_m2": 19.6, "p_mean": 0.575, "p_max": 0.627, "cover_m2_km2": 24500.0, "h3": "881081d243fffff", "valid_frac_scene": 1.0, "wind_ms": 1.9, "sea": "спокойное", "scene_reliable": true, "field_event_id": "S4:DOORS3:T23", "field_profile": "B", "field_date": "2024-06-10", "field_distance_km": 1361.2, "field_date_gap_days": 804, "field_conc_items_km2": 102.37, "conc_A_items_km2": null, "conc_A_lo80": null, "conc_A_hi80": null, "conc_A_lo95": null, "conc_A_hi95": null, "conc_A_status": "unavailable", "conc_A_status_ru": "концентрация недоступна", "conc_A_reasons": "вне бассейна профиля: nw_atlantic_subtropical", "conc_A_model": "conc-A-c6bce5631d2b", "conc_B_items_km2": null, "conc_B_lo80": null, "conc_B_hi80": null, "conc_B_lo95": null, "conc_B_hi95": null, "conc_B_status": "unavailable", "conc_B_status_ru": "концентрация недоступна", "conc_B_reasons": "вне бассейна профиля: black_sea", "conc_B_model": "conc-B-c6bce5631d2b"}}, {"type": "Feature", "geometry": {"type": "Polygon", "coordinates": [[[49.32206985248836, 53.464364822842334], [49.32207339634804, 53.46427497415998], [49.321922831954176, 53.46427285928729], [49.32192992025154, 53.46409316193181], [49.322234591272625, 53.464007542766176], [49.322231047787824, 53.46409739145998], [49.32238161158459, 53.464099505939586], [49.32237452519302, 53.4642792033364], [49.32206985248836, 53.464364822842334]]]}, "properties": {"zone_id": "kuibyshev-2026-08-23-026", "aoi": "kuibyshev", "date": "2026-08-23", "scene_id": "S2C_MSIL2A_20260823T074611_R135_T39UUV_20260823T105002", "scene_datetime_utc": "2026-08-23T07:46:11.025000+00:00", "detection_status": "detected", "detection_status_ru": "обнаружено", "lon": 49.32215, "lat": 53.46419, "n_pixels": 2, "zone_area_km2": 0.0008, "cover_m2": 17.3, "p_mean": 0.918, "p_max": 0.969, "cover_m2_km2": 21625.0, "h3": "881081d2e7fffff", "valid_frac_scene": 1.0, "wind_ms": 1.9, "sea": "спокойное", "scene_reliable": true, "field_event_id": "S4:DOORS3:T23", "field_profile": "B", "field_date": "2024-06-10", "field_distance_km": 1364.0, "field_date_gap_days": 804, "field_conc_items_km2": 102.37, "conc_A_items_km2": null, "conc_A_lo80": null, "conc_A_hi80": null, "conc_A_lo95": null, "conc_A_hi95": null, "conc_A_status": "unavailable", "conc_A_status_ru": "концентрация недоступна", "conc_A_reasons": "вне бассейна профиля: nw_atlantic_subtropical", "conc_A_model": "conc-A-c6bce5631d2b", "conc_B_items_km2": null, "conc_B_lo80": null, "conc_B_hi80": null, "conc_B_lo95": null, "conc_B_hi95": null, "conc_B_status": "unavailable", "conc_B_status_ru": "концентрация недоступна", "conc_B_reasons": "вне бассейна профиля: black_sea", "conc_B_model": "conc-B-c6bce5631d2b"}}, {"type": "Feature", "geometry": {"type": "Polygon", "coordinates": [[[49.33864612243818, 53.46423690399432], [49.33864963128155, 53.46414705455169], [49.3384990660694, 53.464144960568426], [49.33850257521152, 53.4640551111311], [49.33880721350737, 53.46396944944183], [49.33880370501942, 53.464059298894306], [49.33895426995172, 53.46406139249144], [49.33895076176252, 53.46415124194924], [49.338800196512594, 53.4641491483453], [49.33879668798686, 53.464238997794745], [49.33864612243818, 53.46423690399432]]]}, "properties": {"zone_id": "kuibyshev-2026-08-23-027", "aoi": "kuibyshev", "date": "2026-08-23", "scene_id": "S2C_MSIL2A_20260823T074611_R135_T39UUV_20260823T105002", "scene_datetime_utc": "2026-08-23T07:46:11.025000+00:00", "detection_status": "detected", "detection_status_ru": "обнаружено", "lon": 49.33873, "lat": 53.4641, "n_pixels": 1, "zone_area_km2": 0.0005, "cover_m2": 12.5, "p_mean": 0.741, "p_max": 0.741, "cover_m2_km2": 25000.0, "h3": "881081d2a9fffff", "valid_frac_scene": 1.0, "wind_ms": 1.9, "sea": "спокойное", "scene_reliable": true, "field_event_id": "S4:DOORS3:T23", "field_profile": "B", "field_date": "2024-06-10", "field_distance_km": 1364.5, "field_date_gap_days": 804, "field_conc_items_km2": 102.37, "conc_A_items_km2": null, "conc_A_lo80": null, "conc_A_hi80": null, "conc_A_lo95": null, "conc_A_hi95": null, "conc_A_status": "unavailable", "conc_A_status_ru": "концентрация недоступна", "conc_A_reasons": "вне бассейна профиля: nw_atlantic_subtropical", "conc_A_model": "conc-A-c6bce5631d2b", "conc_B_items_km2": null, "conc_B_lo80": null, "conc_B_hi80": null, "conc_B_lo95": null, "conc_B_hi95": null, "conc_B_status": "unavailable", "conc_B_status_ru": "концентрация недоступна", "conc_B_reasons": "вне бассейна профиля: black_sea", "conc_B_model": "conc-B-c6bce5631d2b"}}, {"type": "Feature", "geometry": {"type": "Polygon", "coordinates": [[[49.351086588935196, 53.461982015241254], [49.351090071225016, 53.46189216520032], [49.35093951304524, 53.46189008695189], [49.350942995633915, 53.461800236916204], [49.35124759331172, 53.46171454315913], [49.35124411137701, 53.46180439320988], [49.35139466927667, 53.461806471072244], [49.35139118764082, 53.461896321128236], [49.35124062942354, 53.461894243259096], [49.35123714745133, 53.46198409330682], [49.351086588935196, 53.461982015241254]]]}, "properties": {"zone_id": "kuibyshev-2026-08-23-028", "aoi": "kuibyshev", "date": "2026-08-23", "scene_id": "S2C_MSIL2A_20260823T074611_R135_T39UUV_20260823T105002", "scene_datetime_utc": "2026-08-23T07:46:11.025000+00:00", "detection_status": "detected", "detection_status_ru": "обнаружено", "lon": 49.35117, "lat": 53.46185, "n_pixels": 1, "zone_area_km2": 0.0005, "cover_m2": 8.2, "p_mean": 0.678, "p_max": 0.678, "cover_m2_km2": 16400.0, "h3": "881081d2a1fffff", "valid_frac_scene": 1.0, "wind_ms": 1.9, "sea": "спокойное", "scene_reliable": true, "field_event_id": "S4:DOORS3:T23", "field_profile": "B", "field_date": "2024-06-10", "field_distance_km": 1364.7, "field_date_gap_days": 804, "field_conc_items_km2": 102.37, "conc_A_items_km2": null, "conc_A_lo80": null, "conc_A_hi80": null, "conc_A_lo95": null, "conc_A_hi95": null, "conc_A_status": "unavailable", "conc_A_status_ru": "концентрация недоступна", "conc_A_reasons": "вне бассейна профиля: nw_atlantic_subtropical", "conc_A_model": "conc-A-c6bce5631d2b", "conc_B_items_km2": null, "conc_B_lo80": null, "conc_B_hi80": null, "conc_B_lo95": null, "conc_B_hi95": null, "conc_B_status": "unavailable", "conc_B_status_ru": "концентрация недоступна", "conc_B_reasons": "вне бассейна профиля: black_sea", "conc_B_model": "conc-B-c6bce5631d2b"}}, {"type": "Feature", "geometry": {"type": "Polygon", "coordinates": [[[49.12791715136418, 53.4601313797742], [49.127921104534856, 53.46004154047044], [49.12777057094109, 53.46003918110744], [49.1277745244079, 53.45994934180981], [49.12807954379258, 53.45986422101631], [49.12807559098189, 53.45995406033088], [49.1282261243008, 53.45995641930705], [49.12822217178625, 53.46004625862772], [49.12807163814991, 53.460043899643864], [49.12806768529666, 53.46013373895531], [49.12791715136418, 53.4601313797742]]]}, "properties": {"zone_id": "kuibyshev-2026-08-23-029", "aoi": "kuibyshev", "date": "2026-08-23", "scene_id": "S2C_MSIL2A_20260823T074611_R135_T39UUV_20260823T105002", "scene_datetime_utc": "2026-08-23T07:46:11.025000+00:00", "detection_status": "detected", "detection_status_ru": "обнаружено", "lon": 49.128, "lat": 53.46, "n_pixels": 1, "zone_area_km2": 0.0005, "cover_m2": 4.3, "p_mean": 0.863, "p_max": 0.863, "cover_m2_km2": 8600.0, "h3": "8810856833fffff", "valid_frac_scene": 1.0, "wind_ms": 1.9, "sea": "спокойное", "scene_reliable": true, "field_event_id": "S4:DOORS3:T23", "field_profile": "B", "field_date": "2024-06-10", "field_distance_km": 1357.6, "field_date_gap_days": 804, "field_conc_items_km2": 102.37, "conc_A_items_km2": null, "conc_A_lo80": null, "conc_A_hi80": null, "conc_A_lo95": null, "conc_A_hi95": null, "conc_A_status": "unavailable", "conc_A_status_ru": "концентрация недоступна", "conc_A_reasons": "вне бассейна профиля: nw_atlantic_subtropical", "conc_A_model": "conc-A-c6bce5631d2b", "conc_B_items_km2": null, "conc_B_lo80": null, "conc_B_hi80": null, "conc_B_lo95": null, "conc_B_hi95": null, "conc_B_status": "unavailable", "conc_B_status_ru": "концентрация недоступна", "conc_B_reasons": "вне бассейна профиля: black_sea", "conc_B_model": "conc-B-c6bce5631d2b"}}, {"type": "Feature", "geometry": {"type": "Polygon", "coordinates": [[[49.13869158240237, 53.45832193353299], [49.13869551257023, 53.45823209365079], [49.1385449844527, 53.45822974791554], [49.13854891491679, 53.45813990803943], [49.13885390034637, 53.45805475941214], [49.13884997053822, 53.458144599305086], [49.139000498380675, 53.458146944653585], [49.13899656886876, 53.458236784552625], [49.13884604070892, 53.45823443919649], [49.138842110858455, 53.45832427908632], [49.13869158240237, 53.45832193353299]]]}, "properties": {"zone_id": "kuibyshev-2026-08-23-030", "aoi": "kuibyshev", "date": "2026-08-23", "scene_id": "S2C_MSIL2A_20260823T074611_R135_T39UUV_20260823T105002", "scene_datetime_utc": "2026-08-23T07:46:11.025000+00:00", "detection_status": "detected", "detection_status_ru": "обнаружено", "lon": 49.13877, "lat": 53.45819, "n_pixels": 1, "zone_area_km2": 0.0005, "cover_m2": 8.2, "p_mean": 0.722, "p_max": 0.722, "cover_m2_km2": 16400.0, "h3": "88108569d9fffff", "valid_frac_scene": 1.0, "wind_ms": 1.9, "sea": "спокойное", "scene_reliable": true, "field_event_id": "S4:DOORS3:T23", "field_profile": "B", "field_date": "2024-06-10", "field_distance_km": 1357.7, "field_date_gap_days": 804, "field_conc_items_km2": 102.37, "conc_A_items_km2": null, "conc_A_lo80": null, "conc_A_hi80": null, "conc_A_lo95": null, "conc_A_hi95": null, "conc_A_status": "unavailable", "conc_A_status_ru": "концентрация недоступна", "conc_A_reasons": "вне бассейна профиля: nw_atlantic_subtropical", "conc_A_model": "conc-A-c6bce5631d2b", "conc_B_items_km2": null, "conc_B_lo80": null, "conc_B_hi80": null, "conc_B_lo95": null, "conc_B_hi95": null, "conc_B_status": "unavailable", "conc_B_status_ru": "концентрация недоступна", "conc_B_reasons": "вне бассейна профиля: black_sea", "conc_B_model": "conc-B-c6bce5631d2b"}}, {"type": "Feature", "geometry": {"type": "MultiPolygon", "coordinates": [[[[49.1381209196965, 53.45759383056738], [49.13827144552884, 53.45759617681781], [49.13827930740915, 53.457416497072764], [49.13812878221158, 53.457414150837614], [49.138132713437365, 53.45732431097039], [49.137827731879916, 53.457409457798654], [49.13781986809533, 53.45758913749784], [49.13797039388533, 53.457591484127384], [49.13796646227867, 53.45768132398228], [49.13811698840722, 53.45768367042992], [49.1381209196965, 53.45759383056738]]], [[[49.138113057096774, 53.4577735102909], [49.13796253065084, 53.457771163835616], [49.13795859900184, 53.45786100368739], [49.13810912576516, 53.45786335015031], [49.13810519441239, 53.45795319000818], [49.138406248637295, 53.45795788238064], [49.1384101793553, 53.45786804250749], [49.138560706182105, 53.45787038840172], [49.13856463656156, 53.45778054851939], [49.13841411005214, 53.457778202632774], [49.13841804072782, 53.457688362756514], [49.13811698840722, 53.45768367042992], [49.138113057096774, 53.4577735102909]]]]}, "properties": {"zone_id": "kuibyshev-2026-08-23-031", "aoi": "kuibyshev", "date": "2026-08-23", "scene_id": "S2C_MSIL2A_20260823T074611_R135_T39UUV_20260823T105002", "scene_datetime_utc": "2026-08-23T07:46:11.025000+00:00", "detection_status": "detected", "detection_status_ru": "обнаружено", "lon": 49.13816, "lat": 53.45766, "n_pixels": 4, "zone_area_km2": 0.0016, "cover_m2": 22.4, "p_mean": 0.743, "p_max": 0.961, "cover_m2_km2": 14000.0, "h3": "88108569d9fffff", "valid_frac_scene": 1.0, "wind_ms": 1.9, "sea": "спокойное", "scene_reliable": true, "field_event_id": "S4:DOORS3:T23", "field_profile": "B", "field_date": "2024-06-10", "field_distance_km": 1357.7, "field_date_gap_days": 804, "field_conc_items_km2": 102.37, "conc_A_items_km2": null, "conc_A_lo80": null, "conc_A_hi80": null, "conc_A_lo95": null, "conc_A_hi95": null, "conc_A_status": "unavailable", "conc_A_status_ru": "концентрация недоступна", "conc_A_reasons": "вне бассейна профиля: nw_atlantic_subtropical", "conc_A_model": "conc-A-c6bce5631d2b", "conc_B_items_km2": null, "conc_B_lo80": null, "conc_B_hi80": null, "conc_B_lo95": null, "conc_B_hi95": null, "conc_B_status": "unavailable", "conc_B_status_ru": "концентрация недоступна", "conc_B_reasons": "вне бассейна профиля: black_sea", "conc_B_model": "conc-B-c6bce5631d2b"}}, {"type": "Feature", "geometry": {"type": "Polygon", "coordinates": [[[49.2643751063865, 53.4568879685866], [49.26437877106504, 53.45679812248931], [49.26422823764122, 53.456795935131716], [49.26423190261748, 53.45670608904001], [49.264536633171566, 53.4566206174439], [49.26453296884994, 53.45671046355138], [49.26468350199576, 53.45671265052268], [49.26467983797186, 53.45680249663576], [49.264529304508585, 53.456800309657325], [49.2645256401475, 53.45689015576174], [49.2643751063865, 53.4568879685866]]]}, "properties": {"zone_id": "kuibyshev-2026-08-23-032", "aoi": "kuibyshev", "date": "2026-08-23", "scene_id": "S2C_MSIL2A_20260823T074611_R135_T39UUV_20260823T105002", "scene_datetime_utc": "2026-08-23T07:46:11.025000+00:00", "detection_status": "detected", "detection_status_ru": "обнаружено", "lon": 49.26446, "lat": 53.45675, "n_pixels": 1, "zone_area_km2": 0.0005, "cover_m2": 9.8, "p_mean": 0.69, "p_max": 0.69, "cover_m2_km2": 19600.0, "h3": "881081d203fffff", "valid_frac_scene": 1.0, "wind_ms": 1.9, "sea": "спокойное", "scene_reliable": true, "field_event_id": "S4:DOORS3:T23", "field_profile": "B", "field_date": "2024-06-10", "field_distance_km": 1361.5, "field_date_gap_days": 804, "field_conc_items_km2": 102.37, "conc_A_items_km2": null, "conc_A_lo80": null, "conc_A_hi80": null, "conc_A_lo95": null, "conc_A_hi95": null, "conc_A_status": "unavailable", "conc_A_status_ru": "концентрация недоступна", "conc_A_reasons": "вне бассейна профиля: nw_atlantic_subtropical", "conc_A_model": "conc-A-c6bce5631d2b", "conc_B_items_km2": null, "conc_B_lo80": null, "conc_B_hi80": null, "conc_B_lo95": null, "conc_B_hi95": null, "conc_B_status": "unavailable", "conc_B_status_ru": "концентрация недоступна", "conc_B_reasons": "вне бассейна профиля: black_sea", "conc_B_model": "conc-B-c6bce5631d2b"}}, {"type": "Feature", "geometry": {"type": "Polygon", "coordinates": [[[49.17910258191186, 53.4538204737714], [49.179106426150106, 53.45373063178256], [49.17895591053489, 53.453728337088265], [49.17896744407747, 53.45345881113486], [49.17927231726272, 53.45337355828655], [49.179268473424585, 53.453463400289074], [49.179418988129186, 53.45346569458186], [49.17940745744262, 53.45373522060253], [49.17910258191186, 53.4538204737714]]]}, "properties": {"zone_id": "kuibyshev-2026-08-23-033", "aoi": "kuibyshev", "date": "2026-08-23", "scene_id": "S2C_MSIL2A_20260823T074611_R135_T39UUV_20260823T105002", "scene_datetime_utc": "2026-08-23T07:46:11.025000+00:00", "detection_status": "detected", "detection_status_ru": "обнаружено", "lon": 49.17919, "lat": 53.4536, "n_pixels": 3, "zone_area_km2": 0.0011, "cover_m2": 21.2, "p_mean": 0.838, "p_max": 0.894, "cover_m2_km2": 19272.7, "h3": "881085699bfffff", "valid_frac_scene": 1.0, "wind_ms": 1.9, "sea": "спокойное", "scene_reliable": true, "field_event_id": "S4:DOORS3:T23", "field_profile": "B", "field_date": "2024-06-10", "field_distance_km": 1358.5, "field_date_gap_days": 804, "field_conc_items_km2": 102.37, "conc_A_items_km2": null, "conc_A_lo80": null, "conc_A_hi80": null, "conc_A_lo95": null, "conc_A_hi95": null, "conc_A_status": "unavailable", "conc_A_status_ru": "концентрация недоступна", "conc_A_reasons": "вне бассейна профиля: nw_atlantic_subtropical", "conc_A_model": "conc-A-c6bce5631d2b", "conc_B_items_km2": null, "conc_B_lo80": null, "conc_B_hi80": null, "conc_B_lo95": null, "conc_B_hi95": null, "conc_B_status": "unavailable", "conc_B_status_ru": "концентрация недоступна", "conc_B_reasons": "вне бассейна профиля: black_sea", "conc_B_model": "conc-B-c6bce5631d2b"}}, {"type": "Feature", "geometry": {"type": "Polygon", "coordinates": [[[49.13630081152943, 53.451002656795374], [49.13630474569456, 53.45091281692447], [49.136154243661245, 53.450910468396906], [49.13615817812245, 53.450820628532085], [49.13630867983851, 53.45082297705202], [49.136312613961294, 53.45073313717799], [49.13646311538128, 53.45073548550076], [49.13645918157575, 53.450825325382425], [49.13676411828478, 53.450740181577764], [49.13676018511376, 53.45083002147472], [49.13691068691451, 53.450832369236615], [49.13690675403957, 53.45092220913968], [49.13675625192156, 53.45091986137014], [49.13675231870819, 53.45100970126399], [49.136601816294096, 53.45100735329729], [49.13660574982472, 53.4509175134111], [49.13630081152943, 53.451002656795374]]]}, "properties": {"zone_id": "kuibyshev-2026-08-23-034", "aoi": "kuibyshev", "date": "2026-08-23", "scene_id": "S2C_MSIL2A_20260823T074611_R135_T39UUV_20260823T105002", "scene_datetime_utc": "2026-08-23T07:46:11.025000+00:00", "detection_status": "detected", "detection_status_ru": "обнаружено", "lon": 49.13653, "lat": 53.45087, "n_pixels": 2, "zone_area_km2": 0.0009, "cover_m2": 11.0, "p_mean": 0.647, "p_max": 0.706, "cover_m2_km2": 12222.2, "h3": "88108569ddfffff", "valid_frac_scene": 1.0, "wind_ms": 1.9, "sea": "спокойное", "scene_reliable": true, "field_event_id": "S4:DOORS3:T23", "field_profile": "B", "field_date": "2024-06-10", "field_distance_km": 1357.0, "field_date_gap_days": 804, "field_conc_items_km2": 102.37, "conc_A_items_km2": null, "conc_A_lo80": null, "conc_A_hi80": null, "conc_A_lo95": null, "conc_A_hi95": null, "conc_A_status": "unavailable", "conc_A_status_ru": "концентрация недоступна", "conc_A_reasons": "вне бассейна профиля: nw_atlantic_subtropical", "conc_A_model": "conc-A-c6bce5631d2b", "conc_B_items_km2": null, "conc_B_lo80": null, "conc_B_hi80": null, "conc_B_lo95": null, "conc_B_hi95": null, "conc_B_status": "unavailable", "conc_B_status_ru": "концентрация недоступна", "conc_B_reasons": "вне бассейна профиля: black_sea", "conc_B_model": "conc-B-c6bce5631d2b"}}, {"type": "Feature", "geometry": {"type": "Polygon", "coordinates": [[[49.33803475440293, 53.44903557862049], [49.33803826259395, 53.44894572897572], [49.337887751190074, 53.44894363462866], [49.337891259679544, 53.448853784989204], [49.33819578970737, 53.448768123825495], [49.33819228187148, 53.448857973480116], [49.338342792995775, 53.44886006744125], [49.33833928545835, 53.44894991710117], [49.33818877401671, 53.44894782313322], [49.33818526614306, 53.44903767278482], [49.33803475440293, 53.44903557862049]]]}, "properties": {"zone_id": "kuibyshev-2026-08-23-035", "aoi": "kuibyshev", "date": "2026-08-23", "scene_id": "S2C_MSIL2A_20260823T074611_R135_T39UUV_20260823T105002", "scene_datetime_utc": "2026-08-23T07:46:11.025000+00:00", "detection_status": "detected", "detection_status_ru": "обнаружено", "lon": 49.33812, "lat": 53.4489, "n_pixels": 1, "zone_area_km2": 0.0005, "cover_m2": 5.1, "p_mean": 0.643, "p_max": 0.643, "cover_m2_km2": 10200.0, "h3": "881081d053fffff", "valid_frac_scene": 1.0, "wind_ms": 1.9, "sea": "спокойное", "scene_reliable": true, "field_event_id": "S4:DOORS3:T23", "field_profile": "B", "field_date": "2024-06-10", "field_distance_km": 1363.0, "field_date_gap_days": 804, "field_conc_items_km2": 102.37, "conc_A_items_km2": null, "conc_A_lo80": null, "conc_A_hi80": null, "conc_A_lo95": null, "conc_A_hi95": null, "conc_A_status": "unavailable", "conc_A_status_ru": "концентрация недоступна", "conc_A_reasons": "вне бассейна профиля: nw_atlantic_subtropical", "conc_A_model": "conc-A-c6bce5631d2b", "conc_B_items_km2": null, "conc_B_lo80": null, "conc_B_hi80": null, "conc_B_lo95": null, "conc_B_hi95": null, "conc_B_status": "unavailable", "conc_B_status_ru": "концентрация недоступна", "conc_B_reasons": "вне бассейна профиля: black_sea", "conc_B_model": "conc-B-c6bce5631d2b"}}, {"type": "Feature", "geometry": {"type": "Polygon", "coordinates": [[[49.312290401017314, 53.44885438594364], [49.312293963512204, 53.448764537477594], [49.31214345472807, 53.44876241070413], [49.312150580295, 53.4485827137813], [49.312455158733165, 53.4484971186334], [49.31245159661312, 53.448586967110955], [49.312602104800945, 53.448589093491464], [49.312594981138005, 53.44876879045586], [49.312290401017314, 53.44885438594364]]]}, "properties": {"zone_id": "kuibyshev-2026-08-23-036", "aoi": "kuibyshev", "date": "2026-08-23", "scene_id": "S2C_MSIL2A_20260823T074611_R135_T39UUV_20260823T105002", "scene_datetime_utc": "2026-08-23T07:46:11.025000+00:00", "detection_status": "detected", "detection_status_ru": "обнаружено", "lon": 49.31237, "lat": 53.44868, "n_pixels": 2, "zone_area_km2": 0.0008, "cover_m2": 6.7, "p_mean": 0.982, "p_max": 0.988, "cover_m2_km2": 8375.0, "h3": "881081d059fffff", "valid_frac_scene": 1.0, "wind_ms": 1.9, "sea": "спокойное", "scene_reliable": true, "field_event_id": "S4:DOORS3:T23", "field_profile": "B", "field_date": "2024-06-10", "field_distance_km": 1362.2, "field_date_gap_days": 804, "field_conc_items_km2": 102.37, "conc_A_items_km2": null, "conc_A_lo80": null, "conc_A_hi80": null, "conc_A_lo95": null, "conc_A_hi95": null, "conc_A_status": "unavailable", "conc_A_status_ru": "концентрация недоступна", "conc_A_reasons": "вне бассейна профиля: nw_atlantic_subtropical", "conc_A_model": "conc-A-c6bce5631d2b", "conc_B_items_km2": null, "conc_B_lo80": null, "conc_B_hi80": null, "conc_B_lo95": null, "conc_B_hi95": null, "conc_B_status": "unavailable", "conc_B_status_ru": "концентрация недоступна", "conc_B_reasons": "вне бассейна профиля: black_sea", "conc_B_model": "conc-B-c6bce5631d2b"}}, {"type": "Feature", "geometry": {"type": "Polygon", "coordinates": [[[49.305108136955965, 53.43634662460884], [49.30511171297761, 53.43625677628637], [49.304961248948494, 53.43625464080642], [49.30496482526799, 53.436164792489386], [49.305269328377356, 53.43607921491346], [49.305265752711286, 53.43616906324591], [49.3054162164618, 53.43617119834], [49.305412641093575, 53.43626104667789], [49.305262177025966, 53.43625891157685], [49.30525860132141, 53.43634875990628], [49.305108136955965, 53.43634662460884]]]}, "properties": {"zone_id": "kuibyshev-2026-08-23-037", "aoi": "kuibyshev", "date": "2026-08-23", "scene_id": "S2C_MSIL2A_20260823T074611_R135_T39UUV_20260823T105002", "scene_datetime_utc": "2026-08-23T07:46:11.025000+00:00", "detection_status": "detected", "detection_status_ru": "обнаружено", "lon": 49.30519, "lat": 53.43621, "n_pixels": 1, "zone_area_km2": 0.0005, "cover_m2": 6.7, "p_mean": 0.675, "p_max": 0.675, "cover_m2_km2": 13400.0, "h3": "881081d05dfffff", "valid_frac_scene": 1.0, "wind_ms": 1.9, "sea": "спокойное", "scene_reliable": true, "field_event_id": "S4:DOORS3:T23", "field_profile": "B", "field_date": "2024-06-10", "field_distance_km": 1360.7, "field_date_gap_days": 804, "field_conc_items_km2": 102.37, "conc_A_items_km2": null, "conc_A_lo80": null, "conc_A_hi80": null, "conc_A_lo95": null, "conc_A_hi95": null, "conc_A_status": "unavailable", "conc_A_status_ru": "концентрация недоступна", "conc_A_reasons": "вне бассейна профиля: nw_atlantic_subtropical", "conc_A_model": "conc-A-c6bce5631d2b", "conc_B_items_km2": null, "conc_B_lo80": null, "conc_B_hi80": null, "conc_B_lo95": null, "conc_B_hi95": null, "conc_B_status": "unavailable", "conc_B_status_ru": "концентрация недоступна", "conc_B_reasons": "вне бассейна профиля: black_sea", "conc_B_model": "conc-B-c6bce5631d2b"}}, {"type": "Feature", "geometry": {"type": "Polygon", "coordinates": [[[49.127399918514016, 53.43423165659758], [49.127403869047846, 53.43414181692858], [49.12725342703417, 53.43413945769452], [49.127257377863685, 53.43404961803164], [49.12756221145284, 53.433964496615175], [49.12755826127844, 53.434054336294984], [49.127708703017696, 53.43405669514257], [49.12770475313897, 53.43414653482851], [49.12755431108278, 53.43414417597324], [49.127550360865875, 53.43423401564992], [49.127399918514016, 53.43423165659758]]]}, "properties": {"zone_id": "kuibyshev-2026-08-23-038", "aoi": "kuibyshev", "date": "2026-08-23", "scene_id": "S2C_MSIL2A_20260823T074611_R135_T39UUV_20260823T105002", "scene_datetime_utc": "2026-08-23T07:46:11.025000+00:00", "detection_status": "detected", "detection_status_ru": "обнаружено", "lon": 49.12748, "lat": 53.4341, "n_pixels": 1, "zone_area_km2": 0.0005, "cover_m2": 11.4, "p_mean": 0.718, "p_max": 0.718, "cover_m2_km2": 22800.0, "h3": "88108569c1fffff", "valid_frac_scene": 1.0, "wind_ms": 1.9, "sea": "спокойное", "scene_reliable": true, "field_event_id": "S4:DOORS3:T23", "field_profile": "B", "field_date": "2024-06-10", "field_distance_km": 1355.0, "field_date_gap_days": 804, "field_conc_items_km2": 102.37, "conc_A_items_km2": null, "conc_A_lo80": null, "conc_A_hi80": null, "conc_A_lo95": null, "conc_A_hi95": null, "conc_A_status": "unavailable", "conc_A_status_ru": "концентрация недоступна", "conc_A_reasons": "вне бассейна профиля: nw_atlantic_subtropical", "conc_A_model": "conc-A-c6bce5631d2b", "conc_B_items_km2": null, "conc_B_lo80": null, "conc_B_hi80": null, "conc_B_lo95": null, "conc_B_hi95": null, "conc_B_status": "unavailable", "conc_B_status_ru": "концентрация недоступна", "conc_B_reasons": "вне бассейна профиля: black_sea", "conc_B_model": "conc-B-c6bce5631d2b"}}]}