{"type": "FeatureCollection", "features": [{"type": "Feature", "geometry": {"type": "Polygon", "coordinates": [[[36.584131174103014, 45.11981671017291], [36.58413497170533, 45.11972677293924], [36.584007940914546, 45.11972408418963], [36.5840117386982, 45.11963414696265], [36.58426959726658, 45.11954958705851], [36.584265799899214, 45.11963952430393], [36.58439283052652, 45.11964221276281], [36.58438903334049, 45.11973215001493], [36.58426200251398, 45.11972946154767], [36.58425820511087, 45.119819398789744], [36.584131174103014, 45.11981671017291]]]}, "properties": {"zone_id": "kerch-2025-05-14-001", "aoi": "kerch", "date": "2025-05-14", "scene_id": "S2A_MSIL2A_20250514T082751_R021_T37TCK_20250514T124005", "scene_datetime_utc": "2025-05-14T08:27:51.024000+00:00", "detection_status": "detected", "detection_status_ru": "обнаружено", "lon": 36.5842, "lat": 45.11968, "n_pixels": 1, "zone_area_km2": 0.0005, "cover_m2": 6.3, "p_mean": 0.671, "p_max": 0.671, "cover_m2_km2": 12600.0, "h3": "882d76aa2dfffff", "valid_frac_scene": 0.94, "wind_ms": 4.3, "sea": "спокойное", "scene_reliable": true, "field_event_id": "S4:DOORS3:T11", "field_profile": "B", "field_date": "2024-06-04", "field_distance_km": 292.2, "field_date_gap_days": 344, "field_conc_items_km2": 62.52, "conc_A_items_km2": null, "conc_A_lo80": null, "conc_A_hi80": null, "conc_A_lo95": null, "conc_A_hi95": null, "conc_A_status": "unavailable", "conc_A_status_ru": "концентрация недоступна", "conc_A_reasons": "вне бассейна профиля: nw_atlantic_subtropical", "conc_A_model": "conc-A-c6bce5631d2b", "conc_B_items_km2": 497.7, "conc_B_lo80": 106.1, "conc_B_hi80": 1672.5, "conc_B_lo95": 66.1, "conc_B_hi95": 3131.8, "conc_B_status": "research_estimate", "conc_B_status_ru": "исследовательская оценка", "conc_B_reasons": "ближайшее полевое измерение в 292 км (> 60 км); месяц 5 вне месяцев обучения [6]", "conc_B_model": "conc-B-c6bce5631d2b"}}, {"type": "Feature", "geometry": {"type": "Polygon", "coordinates": [[[36.61799772706146, 45.109546330583846], [36.61800147011841, 45.10945639095698], [36.61787445896055, 45.109453740345], [36.61787820219901, 45.10936380072474], [36.618005213157744, 45.10936645132845], [36.61800895617947, 45.109276511698255], [36.61826297775152, 45.10928181246575], [36.61825923512803, 45.10937175211248], [36.61838624613959, 45.1093744022928], [36.61838250369762, 45.109464341946136], [36.618255492486945, 45.109461691757545], [36.61825174982824, 45.10955163140094], [36.61799772706146, 45.109546330583846]]]}, "properties": {"zone_id": "kerch-2025-05-14-002", "aoi": "kerch", "date": "2025-05-14", "scene_id": "S2A_MSIL2A_20250514T082751_R021_T37TCK_20250514T124005", "scene_datetime_utc": "2025-05-14T08:27:51.024000+00:00", "detection_status": "detected", "detection_status_ru": "обнаружено", "lon": 36.61813, "lat": 45.10941, "n_pixels": 2, "zone_area_km2": 0.0008, "cover_m2": 11.8, "p_mean": 0.894, "p_max": 0.898, "cover_m2_km2": 14750.0, "h3": "882d76a84dfffff", "valid_frac_scene": 0.94, "wind_ms": 4.3, "sea": "спокойное", "scene_reliable": true, "field_event_id": "S4:DOORS3:T11", "field_profile": "B", "field_date": "2024-06-04", "field_distance_km": 291.0, "field_date_gap_days": 344, "field_conc_items_km2": 62.52, "conc_A_items_km2": null, "conc_A_lo80": null, "conc_A_hi80": null, "conc_A_lo95": null, "conc_A_hi95": null, "conc_A_status": "unavailable", "conc_A_status_ru": "концентрация недоступна", "conc_A_reasons": "вне бассейна профиля: nw_atlantic_subtropical", "conc_A_model": "conc-A-c6bce5631d2b", "conc_B_items_km2": 512.0, "conc_B_lo80": 109.1, "conc_B_hi80": 1720.6, "conc_B_lo95": 68.0, "conc_B_hi95": 3221.8, "conc_B_status": "research_estimate", "conc_B_status_ru": "исследовательская оценка", "conc_B_reasons": "ближайшее полевое измерение в 291 км (> 60 км); месяц 5 вне месяцев обучения [6]", "conc_B_model": "conc-B-c6bce5631d2b"}}, {"type": "Feature", "geometry": {"type": "Polygon", "coordinates": [[[36.61174908396101, 45.10392467447191], [36.61175283609624, 45.103834735165435], [36.61162583798223, 45.103832077861505], [36.611629590298875, 45.10374213856164], [36.611887338047275, 45.1036575136937], [36.61188358614641, 45.103747453011806], [36.61201058409666, 45.10375011002524], [36.612006832377205, 45.10384004934997], [36.61187983422789, 45.103837392328245], [36.61187608229173, 45.10392733164301], [36.61174908396101, 45.10392467447191]]]}, "properties": {"zone_id": "kerch-2025-05-14-003", "aoi": "kerch", "date": "2025-05-14", "scene_id": "S2A_MSIL2A_20250514T082751_R021_T37TCK_20250514T124005", "scene_datetime_utc": "2025-05-14T08:27:51.024000+00:00", "detection_status": "detected", "detection_status_ru": "обнаружено", "lon": 36.61182, "lat": 45.10379, "n_pixels": 1, "zone_area_km2": 0.0005, "cover_m2": 0.8, "p_mean": 0.69, "p_max": 0.69, "cover_m2_km2": 1600.0, "h3": "882d76ab13fffff", "valid_frac_scene": 0.94, "wind_ms": 4.3, "sea": "спокойное", "scene_reliable": true, "field_event_id": "S4:DOORS3:T11", "field_profile": "B", "field_date": "2024-06-04", "field_distance_km": 290.4, "field_date_gap_days": 344, "field_conc_items_km2": 62.52, "conc_A_items_km2": null, "conc_A_lo80": null, "conc_A_hi80": null, "conc_A_lo95": null, "conc_A_hi95": null, "conc_A_status": "unavailable", "conc_A_status_ru": "концентрация недоступна", "conc_A_reasons": "вне бассейна профиля: nw_atlantic_subtropical", "conc_A_model": "conc-A-c6bce5631d2b", "conc_B_items_km2": 491.4, "conc_B_lo80": 104.7, "conc_B_hi80": 1651.3, "conc_B_lo95": 65.2, "conc_B_hi95": 3092.1, "conc_B_status": "research_estimate", "conc_B_status_ru": "исследовательская оценка", "conc_B_reasons": "ближайшее полевое измерение в 290 км (> 60 км); месяц 5 вне месяцев обучения [6]", "conc_B_model": "conc-B-c6bce5631d2b"}}, {"type": "Feature", "geometry": {"type": "Polygon", "coordinates": [[[36.61270011031073, 45.0902618480616], [36.61270385916735, 45.0901719084768], [36.612576891247016, 45.09016925285524], [36.61258064028492, 45.09007931327706], [36.61283832436778, 45.089994684766175], [36.61283457574535, 45.09008462436259], [36.61296154350203, 45.0900872796938], [36.61295779506089, 45.09017721929683], [36.6128308271053, 45.09017456395733], [36.612827078447616, 45.090264503550415], [36.61270011031073, 45.0902618480616]]]}, "properties": {"zone_id": "kerch-2025-05-14-004", "aoi": "kerch", "date": "2025-05-14", "scene_id": "S2A_MSIL2A_20250514T082751_R021_T37TCK_20250514T124005", "scene_datetime_utc": "2025-05-14T08:27:51.024000+00:00", "detection_status": "detected", "detection_status_ru": "обнаружено", "lon": 36.61277, "lat": 45.09013, "n_pixels": 1, "zone_area_km2": 0.0005, "cover_m2": 5.5, "p_mean": 0.518, "p_max": 0.518, "cover_m2_km2": 11000.0, "h3": "882d76ab3bfffff", "valid_frac_scene": 0.94, "wind_ms": 4.3, "sea": "спокойное", "scene_reliable": true, "field_event_id": "S4:DOORS3:T11", "field_profile": "B", "field_date": "2024-06-04", "field_distance_km": 288.9, "field_date_gap_days": 344, "field_conc_items_km2": 62.52, "conc_A_items_km2": null, "conc_A_lo80": null, "conc_A_hi80": null, "conc_A_lo95": null, "conc_A_hi95": null, "conc_A_status": "unavailable", "conc_A_status_ru": "концентрация недоступна", "conc_A_reasons": "вне бассейна профиля: nw_atlantic_subtropical", "conc_A_model": "conc-A-c6bce5631d2b", "conc_B_items_km2": 459.0, "conc_B_lo80": 97.8, "conc_B_hi80": 1542.7, "conc_B_lo95": 60.9, "conc_B_hi95": 2888.7, "conc_B_status": "research_estimate", "conc_B_status_ru": "исследовательская оценка", "conc_B_reasons": "ближайшее полевое измерение в 289 км (> 60 км); месяц 5 вне месяцев обучения [6]", "conc_B_model": "conc-B-c6bce5631d2b"}}, {"type": "Feature", "geometry": {"type": "Polygon", "coordinates": [[[36.70962195800129, 45.07217375534278], [36.709625552474236, 45.07208380924746], [36.70949861582542, 45.07208126217395], [36.709502210480245, 45.071991316084926], [36.70962914693028, 45.07199386315049], [36.70963274136942, 45.07190391705186], [36.70988661392263, 45.071909010744186], [36.70988301988106, 45.071998956858685], [36.71000995638181, 45.072001503501326], [36.71000636252213, 45.07209144962212], [36.70987942582259, 45.072088902971544], [36.709875831747226, 45.07217884908276], [36.70962195800129, 45.07217375534278]]]}, "properties": {"zone_id": "kerch-2025-05-14-005", "aoi": "kerch", "date": "2025-05-14", "scene_id": "S2A_MSIL2A_20250514T082751_R021_T37TCK_20250514T124005", "scene_datetime_utc": "2025-05-14T08:27:51.024000+00:00", "detection_status": "detected", "detection_status_ru": "обнаружено", "lon": 36.70975, "lat": 45.07204, "n_pixels": 2, "zone_area_km2": 0.0008, "cover_m2": 6.3, "p_mean": 0.575, "p_max": 0.576, "cover_m2_km2": 7875.0, "h3": "882d76a9ebfffff", "valid_frac_scene": 0.94, "wind_ms": 4.3, "sea": "спокойное", "scene_reliable": true, "field_event_id": "S4:DOORS3:T11", "field_profile": "B", "field_date": "2024-06-04", "field_distance_km": 286.8, "field_date_gap_days": 344, "field_conc_items_km2": 62.52, "conc_A_items_km2": null, "conc_A_lo80": null, "conc_A_hi80": null, "conc_A_lo95": null, "conc_A_hi95": null, "conc_A_status": "unavailable", "conc_A_status_ru": "концентрация недоступна", "conc_A_reasons": "вне бассейна профиля: nw_atlantic_subtropical", "conc_A_model": "conc-A-c6bce5631d2b", "conc_B_items_km2": 462.7, "conc_B_lo80": 98.6, "conc_B_hi80": 1555.2, "conc_B_lo95": 61.4, "conc_B_hi95": 2912.2, "conc_B_status": "research_estimate", "conc_B_status_ru": "исследовательская оценка", "conc_B_reasons": "ближайшее полевое измерение в 287 км (> 60 км); месяц 5 вне месяцев обучения [6]", "conc_B_model": "conc-B-c6bce5631d2b"}}, {"type": "Feature", "geometry": {"type": "Polygon", "coordinates": [[[36.57318497320621, 45.05711199366673], [36.57318877967835, 45.05702205616971], [36.57306188882485, 45.05701935816053], [36.57306569547764, 45.05692942067025], [36.57332328304319, 45.05684487902214], [36.5733194768054, 45.05693481653092], [36.57344636749613, 45.05693751424997], [36.573442561439, 45.05702745176548], [36.573315670549725, 45.05702475403802], [36.57331186427615, 45.05711469154346], [36.57318497320621, 45.05711199366673]]]}, "properties": {"zone_id": "kerch-2025-05-14-006", "aoi": "kerch", "date": "2025-05-14", "scene_id": "S2A_MSIL2A_20250514T082751_R021_T37TCK_20250514T124005", "scene_datetime_utc": "2025-05-14T08:27:51.024000+00:00", "detection_status": "detected", "detection_status_ru": "обнаружено", "lon": 36.57325, "lat": 45.05698, "n_pixels": 1, "zone_area_km2": 0.0005, "cover_m2": 12.2, "p_mean": 0.753, "p_max": 0.753, "cover_m2_km2": 24400.0, "h3": "882d7614dbfffff", "valid_frac_scene": 0.94, "wind_ms": 4.3, "sea": "спокойное", "scene_reliable": true, "field_event_id": "S4:DOORS3:T11", "field_profile": "B", "field_date": "2024-06-04", "field_distance_km": 285.3, "field_date_gap_days": 344, "field_conc_items_km2": 62.52, "conc_A_items_km2": null, "conc_A_lo80": null, "conc_A_hi80": null, "conc_A_lo95": null, "conc_A_hi95": null, "conc_A_status": "unavailable", "conc_A_status_ru": "концентрация недоступна", "conc_A_reasons": "вне бассейна профиля: nw_atlantic_subtropical", "conc_A_model": "conc-A-c6bce5631d2b", "conc_B_items_km2": 377.5, "conc_B_lo80": 80.3, "conc_B_hi80": 1269.3, "conc_B_lo95": 49.9, "conc_B_hi95": 2377.0, "conc_B_status": "research_estimate", "conc_B_status_ru": "исследовательская оценка", "conc_B_reasons": "ближайшее полевое измерение в 285 км (> 60 км); месяц 5 вне месяцев обучения [6]", "conc_B_model": "conc-B-c6bce5631d2b"}}, {"type": "Feature", "geometry": {"type": "Polygon", "coordinates": [[[36.705874621425664, 45.045183001533765], [36.70587821839168, 45.04509305524764], [36.705751341780456, 45.045090505196164], [36.705754938928074, 45.04500055891634], [36.70601228850411, 45.04491571256518], [36.70600869177042, 45.04500565886255], [36.70613556821696, 45.0450082086244], [36.70613197166486, 45.045098154928084], [36.70600509501981, 45.04509560515829], [36.7060014982523, 45.045185551452356], [36.705874621425664, 45.045183001533765]]]}, "properties": {"zone_id": "kerch-2025-05-14-007", "aoi": "kerch", "date": "2025-05-14", "scene_id": "S2A_MSIL2A_20250514T082751_R021_T37TCK_20250514T124005", "scene_datetime_utc": "2025-05-14T08:27:51.024000+00:00", "detection_status": "detected", "detection_status_ru": "обнаружено", "lon": 36.70594, "lat": 45.04505, "n_pixels": 1, "zone_area_km2": 0.0005, "cover_m2": 1.2, "p_mean": 0.651, "p_max": 0.651, "cover_m2_km2": 2400.0, "h3": "882d76a937fffff", "valid_frac_scene": 0.94, "wind_ms": 4.3, "sea": "спокойное", "scene_reliable": true, "field_event_id": "S4:DOORS3:T11", "field_profile": "B", "field_date": "2024-06-04", "field_distance_km": 283.8, "field_date_gap_days": 344, "field_conc_items_km2": 62.52, "conc_A_items_km2": null, "conc_A_lo80": null, "conc_A_hi80": null, "conc_A_lo95": null, "conc_A_hi95": null, "conc_A_status": "unavailable", "conc_A_status_ru": "концентрация недоступна", "conc_A_reasons": "вне бассейна профиля: nw_atlantic_subtropical", "conc_A_model": "conc-A-c6bce5631d2b", "conc_B_items_km2": 394.8, "conc_B_lo80": 84.0, "conc_B_hi80": 1327.1, "conc_B_lo95": 52.2, "conc_B_hi95": 2485.3, "conc_B_status": "research_estimate", "conc_B_status_ru": "исследовательская оценка", "conc_B_reasons": "ближайшее полевое измерение в 284 км (> 60 км); месяц 5 вне месяцев обучения [6]", "conc_B_model": "conc-B-c6bce5631d2b"}}, {"type": "Feature", "geometry": {"type": "Polygon", "coordinates": [[[36.587210087929265, 45.03166401444411], [36.58721386906127, 45.03157407561296], [36.58708703313803, 45.031571394363915], [36.58709081445057, 45.03148145553944], [36.58734826681641, 45.03139687903724], [36.587344485918244, 45.031486817880094], [36.58747132167874, 45.031489498839306], [36.587467540961086, 45.031579437688855], [36.5873407050023, 45.03157675672128], [36.58733692406858, 45.03166669556078], [36.587210087929265, 45.03166401444411]]]}, "properties": {"zone_id": "kerch-2025-05-14-008", "aoi": "kerch", "date": "2025-05-14", "scene_id": "S2A_MSIL2A_20250514T082751_R021_T37TCK_20250514T124005", "scene_datetime_utc": "2025-05-14T08:27:51.024000+00:00", "detection_status": "detected", "detection_status_ru": "обнаружено", "lon": 36.58728, "lat": 45.03153, "n_pixels": 1, "zone_area_km2": 0.0005, "cover_m2": 5.1, "p_mean": 0.545, "p_max": 0.545, "cover_m2_km2": 10200.0, "h3": "882d76148bfffff", "valid_frac_scene": 0.94, "wind_ms": 4.3, "sea": "спокойное", "scene_reliable": true, "field_event_id": "S4:DOORS3:T11", "field_profile": "B", "field_date": "2024-06-04", "field_distance_km": 282.4, "field_date_gap_days": 344, "field_conc_items_km2": 62.52, "conc_A_items_km2": null, "conc_A_lo80": null, "conc_A_hi80": null, "conc_A_lo95": null, "conc_A_hi95": null, "conc_A_status": "unavailable", "conc_A_status_ru": "концентрация недоступна", "conc_A_reasons": "вне бассейна профиля: nw_atlantic_subtropical", "conc_A_model": "conc-A-c6bce5631d2b", "conc_B_items_km2": 365.1, "conc_B_lo80": 77.6, "conc_B_hi80": 1227.7, "conc_B_lo95": 48.3, "conc_B_hi95": 2299.1, "conc_B_status": "research_estimate", "conc_B_status_ru": "исследовательская оценка", "conc_B_reasons": "ближайшее полевое измерение в 282 км (> 60 км); месяц 5 вне месяцев обучения [6]", "conc_B_model": "conc-B-c6bce5631d2b"}}, {"type": "Feature", "geometry": {"type": "Polygon", "coordinates": [[[36.70819841608509, 45.015613505127554], [36.70820200570878, 45.015523558227656], [36.70807519420333, 45.01552101205753], [36.70807878400835, 45.01543106516393], [36.70833599603148, 45.015346210436476], [36.708332406639734, 45.01543615734761], [36.708459217980725, 45.01543870322841], [36.708455628770295, 45.01552865014582], [36.708328817231106, 45.01552610425708], [36.70832522780561, 45.01561605116492], [36.70819841608509, 45.015613505127554]]]}, "properties": {"zone_id": "kerch-2025-05-14-009", "aoi": "kerch", "date": "2025-05-14", "scene_id": "S2A_MSIL2A_20250514T082751_R021_T37TCK_20250514T124005", "scene_datetime_utc": "2025-05-14T08:27:51.024000+00:00", "detection_status": "detected", "detection_status_ru": "обнаружено", "lon": 36.70827, "lat": 45.01548, "n_pixels": 1, "zone_area_km2": 0.0005, "cover_m2": 4.3, "p_mean": 0.506, "p_max": 0.506, "cover_m2_km2": 8600.0, "h3": "882d7606e9fffff", "valid_frac_scene": 0.94, "wind_ms": 4.3, "sea": "спокойное", "scene_reliable": true, "field_event_id": "S4:DOORS3:T11", "field_profile": "B", "field_date": "2024-06-04", "field_distance_km": 280.5, "field_date_gap_days": 344, "field_conc_items_km2": 62.52, "conc_A_items_km2": null, "conc_A_lo80": null, "conc_A_hi80": null, "conc_A_lo95": null, "conc_A_hi95": null, "conc_A_status": "unavailable", "conc_A_status_ru": "концентрация недоступна", "conc_A_reasons": "вне бассейна профиля: nw_atlantic_subtropical", "conc_A_model": "conc-A-c6bce5631d2b", "conc_B_items_km2": 372.2, "conc_B_lo80": 79.1, "conc_B_hi80": 1251.4, "conc_B_lo95": 49.2, "conc_B_hi95": 2343.5, "conc_B_status": "research_estimate", "conc_B_status_ru": "исследовательская оценка", "conc_B_reasons": "ближайшее полевое измерение в 281 км (> 60 км); месяц 5 вне месяцев обучения [6]", "conc_B_model": "conc-B-c6bce5631d2b"}}, {"type": "Feature", "geometry": {"type": "Polygon", "coordinates": [[[36.67881739129369, 44.995215607475004], [36.678821024328315, 44.995125662113544], [36.67869426044086, 44.99512308422846], [36.67869789365637, 44.995033138873396], [36.67895505385492, 44.99494834911411], [36.67895142105242, 44.99503829448691], [36.679078184776046, 44.99504087208279], [36.67907455215444, 44.99513081746198], [36.67894778823284, 44.995128239858055], [36.678944155396195, 44.99521818522755], [36.67881739129369, 44.995215607475004]]]}, "properties": {"zone_id": "kerch-2025-05-14-010", "aoi": "kerch", "date": "2025-05-14", "scene_id": "S2A_MSIL2A_20250514T082751_R021_T37TCK_20250514T124005", "scene_datetime_utc": "2025-05-14T08:27:51.024000+00:00", "detection_status": "detected", "detection_status_ru": "обнаружено", "lon": 36.67889, "lat": 44.99508, "n_pixels": 1, "zone_area_km2": 0.0005, "cover_m2": 5.5, "p_mean": 0.737, "p_max": 0.737, "cover_m2_km2": 11000.0, "h3": "882d760607fffff", "valid_frac_scene": 0.94, "wind_ms": 4.3, "sea": "спокойное", "scene_reliable": true, "field_event_id": "S4:DOORS3:T11", "field_profile": "B", "field_date": "2024-06-04", "field_distance_km": 278.2, "field_date_gap_days": 344, "field_conc_items_km2": 62.52, "conc_A_items_km2": null, "conc_A_lo80": null, "conc_A_hi80": null, "conc_A_lo95": null, "conc_A_hi95": null, "conc_A_status": "unavailable", "conc_A_status_ru": "концентрация недоступна", "conc_A_reasons": "вне бассейна профиля: nw_atlantic_subtropical", "conc_A_model": "conc-A-c6bce5631d2b", "conc_B_items_km2": 338.1, "conc_B_lo80": 71.8, "conc_B_hi80": 1137.1, "conc_B_lo95": 44.6, "conc_B_hi95": 2129.5, "conc_B_status": "research_estimate", "conc_B_status_ru": "исследовательская оценка", "conc_B_reasons": "ближайшее полевое измерение в 278 км (> 60 км); месяц 5 вне месяцев обучения [6]", "conc_B_model": "conc-B-c6bce5631d2b"}}, {"type": "Feature", "geometry": {"type": "Polygon", "coordinates": [[[37.30542936562683, 44.86994631954822], [37.305432006692776, 44.86985633765387], [37.305305469484416, 44.86985445949946], [37.305308110734956, 44.869764477609415], [37.305563825614264, 44.86967825186308], [37.30556118477009, 44.86976823376638], [37.30568772180626, 44.86977011163466], [37.30568508114668, 44.86986009354227], [37.30555854391353, 44.86985821566813], [37.305555903044564, 44.869948197568355], [37.30542936562683, 44.86994631954822]]]}, "properties": {"zone_id": "kerch-2025-05-14-011", "aoi": "kerch", "date": "2025-05-14", "scene_id": "S2A_MSIL2A_20250514T082751_R021_T37TCK_20250514T124005", "scene_datetime_utc": "2025-05-14T08:27:51.024000+00:00", "detection_status": "detected", "detection_status_ru": "обнаружено", "lon": 37.3055, "lat": 44.86981, "n_pixels": 1, "zone_area_km2": 0.0005, "cover_m2": 1.2, "p_mean": 0.761, "p_max": 0.761, "cover_m2_km2": 2400.0, "h3": "882d72935bfffff", "valid_frac_scene": 0.94, "wind_ms": 4.3, "sea": "спокойное", "scene_reliable": true, "field_event_id": "S4:DOORS3:T11", "field_profile": "B", "field_date": "2024-06-04", "field_distance_km": 269.1, "field_date_gap_days": 344, "field_conc_items_km2": 62.52, "conc_A_items_km2": null, "conc_A_lo80": null, "conc_A_hi80": null, "conc_A_lo95": null, "conc_A_hi95": null, "conc_A_status": "unavailable", "conc_A_status_ru": "концентрация недоступна", "conc_A_reasons": "вне бассейна профиля: nw_atlantic_subtropical", "conc_A_model": "conc-A-c6bce5631d2b", "conc_B_items_km2": 669.7, "conc_B_lo80": 143.0, "conc_B_hi80": 2249.8, "conc_B_lo95": 89.2, "conc_B_hi95": 4212.5, "conc_B_status": "research_estimate", "conc_B_status_ru": "исследовательская оценка", "conc_B_reasons": "ближайшее полевое измерение в 269 км (> 60 км); месяц 5 вне месяцев обучения [6]; log_dist_coast_km = 0.8 вне диапазона обучения [1.7; 5.0]", "conc_B_model": "conc-B-c6bce5631d2b"}}, {"type": "Feature", "geometry": {"type": "Polygon", "coordinates": [[[37.303900688163466, 44.86596269107251], [37.30390333124429, 44.86587270918632], [37.30377680286353, 44.86587082946816], [37.303779446128885, 44.865780847586294], [37.304035145368005, 44.86569462497562], [37.30403250250893, 44.86578460687076], [37.304159030717564, 44.86578648630282], [37.30415638804303, 44.86587646820228], [37.30402985963746, 44.865874588764356], [37.304027216753575, 44.86596457065642], [37.303900688163466, 44.86596269107251]]]}, "properties": {"zone_id": "kerch-2025-05-14-012", "aoi": "kerch", "date": "2025-05-14", "scene_id": "S2A_MSIL2A_20250514T082751_R021_T37TCK_20250514T124005", "scene_datetime_utc": "2025-05-14T08:27:51.024000+00:00", "detection_status": "detected", "detection_status_ru": "обнаружено", "lon": 37.30397, "lat": 44.86583, "n_pixels": 1, "zone_area_km2": 0.0005, "cover_m2": 0.0, "p_mean": 0.945, "p_max": 0.945, "cover_m2_km2": 0.0, "h3": "882d729351fffff", "valid_frac_scene": 0.94, "wind_ms": 4.3, "sea": "спокойное", "scene_reliable": true, "field_event_id": "S4:DOORS3:T11", "field_profile": "B", "field_date": "2024-06-04", "field_distance_km": 268.6, "field_date_gap_days": 344, "field_conc_items_km2": 62.52, "conc_A_items_km2": null, "conc_A_lo80": null, "conc_A_hi80": null, "conc_A_lo95": null, "conc_A_hi95": null, "conc_A_status": "unavailable", "conc_A_status_ru": "концентрация недоступна", "conc_A_reasons": "вне бассейна профиля: nw_atlantic_subtropical", "conc_A_model": "conc-A-c6bce5631d2b", "conc_B_items_km2": 669.7, "conc_B_lo80": 143.0, "conc_B_hi80": 2249.8, "conc_B_lo95": 89.2, "conc_B_hi95": 4212.5, "conc_B_status": "research_estimate", "conc_B_status_ru": "исследовательская оценка", "conc_B_reasons": "ближайшее полевое измерение в 269 км (> 60 км); месяц 5 вне месяцев обучения [6]; log_dist_coast_km = 0.8 вне диапазона обучения [1.7; 5.0]", "conc_B_model": "conc-B-c6bce5631d2b"}}]}