{"type": "FeatureCollection", "features": [{"type": "Feature", "geometry": {"type": "Polygon", "coordinates": [[[36.721787621246655, 44.944950218100566], [36.721791180820794, 44.944860269230894], [36.721664523784035, 44.94485774124039], [36.721675202998576, 44.944587894645174], [36.72193207521377, 44.94450300155444], [36.72192851590397, 44.94459295043856], [36.72205517238174, 44.944595478124725], [36.72204805410694, 44.94477537590382], [36.72217471099637, 44.94477790346539], [36.72217115203138, 44.944867852360346], [36.72204449494447, 44.94486532479089], [36.722040935765285, 44.94495527367632], [36.721787621246655, 44.944950218100566]]]}, "properties": {"zone_id": "kerch-2024-12-18-001", "aoi": "kerch", "date": "2024-12-18", "scene_id": "S2B_MSIL2A_20241218T083259_R021_T37TCK_20241218T105741", "scene_datetime_utc": "2024-12-18T08:32:59.024000+00:00", "detection_status": "detected", "detection_status_ru": "обнаружено", "lon": 36.72189, "lat": 44.94475, "n_pixels": 4, "zone_area_km2": 0.0013, "cover_m2": 16.1, "p_mean": 0.996, "p_max": 1.0, "cover_m2_km2": 12384.6, "h3": "882d760465fffff", "valid_frac_scene": 0.585, "wind_ms": 11.8, "sea": "шторм", "scene_reliable": false, "field_event_id": "S4:DOORS3:T11", "field_profile": "B", "field_date": "2024-06-04", "field_distance_km": 272.7, "field_date_gap_days": 197, "field_conc_items_km2": 62.52, "conc_A_items_km2": null, "conc_A_lo80": null, "conc_A_hi80": null, "conc_A_lo95": null, "conc_A_hi95": null, "conc_A_status": "unavailable", "conc_A_status_ru": "концентрация недоступна", "conc_A_reasons": "вне бассейна профиля: nw_atlantic_subtropical", "conc_A_model": "conc-A-c6bce5631d2b", "conc_B_items_km2": 314.0, "conc_B_lo80": 66.6, "conc_B_hi80": 1055.9, "conc_B_lo95": 41.4, "conc_B_hi95": 1977.6, "conc_B_status": "research_estimate", "conc_B_status_ru": "исследовательская оценка", "conc_B_reasons": "ближайшее полевое измерение в 273 км (> 60 км); месяц 12 вне месяцев обучения [6]", "conc_B_model": "conc-B-c6bce5631d2b"}}, {"type": "Feature", "geometry": {"type": "Polygon", "coordinates": [[[36.67739763195734, 44.93928454854259], [36.67740126013441, 44.93919460238749], [36.67727461950243, 44.93919202542091], [36.67728187620023, 44.93901213312186], [36.67740851643743, 44.939014710072364], [36.67741214456339, 44.93892476391231], [36.67766542469411, 44.938929917376335], [36.67766179696294, 44.93901986355245], [36.677788437251245, 44.93902244008202], [36.67778118213258, 44.93920233244535], [36.677654541449485, 44.93919975589971], [36.67765091366721, 44.93928970207087], [36.67739763195734, 44.93928454854259]]]}, "properties": {"zone_id": "kerch-2024-12-18-002", "aoi": "kerch", "date": "2024-12-18", "scene_id": "S2B_MSIL2A_20241218T083259_R021_T37TCK_20241218T105741", "scene_datetime_utc": "2024-12-18T08:32:59.024000+00:00", "detection_status": "detected", "detection_status_ru": "обнаружено", "lon": 36.67753, "lat": 44.93911, "n_pixels": 4, "zone_area_km2": 0.0012, "cover_m2": 26.3, "p_mean": 0.968, "p_max": 0.996, "cover_m2_km2": 21916.7, "h3": "882d760707fffff", "valid_frac_scene": 0.585, "wind_ms": 11.8, "sea": "шторм", "scene_reliable": false, "field_event_id": "S4:DOORS3:T11", "field_profile": "B", "field_date": "2024-06-04", "field_distance_km": 272.0, "field_date_gap_days": 197, "field_conc_items_km2": 62.52, "conc_A_items_km2": null, "conc_A_lo80": null, "conc_A_hi80": null, "conc_A_lo95": null, "conc_A_hi95": null, "conc_A_status": "unavailable", "conc_A_status_ru": "концентрация недоступна", "conc_A_reasons": "вне бассейна профиля: nw_atlantic_subtropical", "conc_A_model": "conc-A-c6bce5631d2b", "conc_B_items_km2": 311.9, "conc_B_lo80": 66.2, "conc_B_hi80": 1049.0, "conc_B_lo95": 41.1, "conc_B_hi95": 1964.6, "conc_B_status": "research_estimate", "conc_B_status_ru": "исследовательская оценка", "conc_B_reasons": "ближайшее полевое измерение в 272 км (> 60 км); месяц 12 вне месяцев обучения [6]", "conc_B_model": "conc-B-c6bce5631d2b"}}, {"type": "Feature", "geometry": {"type": "Polygon", "coordinates": [[[36.67553242832788, 44.925833589453134], [36.675536057715384, 44.92574364320444], [36.675409446808395, 44.92574106477029], [36.675413076376124, 44.92565111852798], [36.67553968708585, 44.925653696954086], [36.67554331643929, 44.92556375070206], [36.67566992696881, 44.925566328979876], [36.67567355610795, 44.92547638271819], [36.6759267768236, 44.92548153883697], [36.675923148078965, 44.925571485114745], [36.6760497586596, 44.92557406297182], [36.67604250151373, 44.925753955538504], [36.67591589053858, 44.92575137766537], [36.67591226174283, 44.92584132393818], [36.67553242832788, 44.925833589453134]]]}, "properties": {"zone_id": "kerch-2024-12-18-003", "aoi": "kerch", "date": "2024-12-18", "scene_id": "S2B_MSIL2A_20241218T083259_R021_T37TCK_20241218T105741", "scene_datetime_utc": "2024-12-18T08:32:59.024000+00:00", "detection_status": "detected", "detection_status_ru": "обнаружено", "lon": 36.67575, "lat": 44.92567, "n_pixels": 5, "zone_area_km2": 0.0014, "cover_m2": 27.8, "p_mean": 0.995, "p_max": 1.0, "cover_m2_km2": 19857.1, "h3": "882d76072bfffff", "valid_frac_scene": 0.585, "wind_ms": 11.8, "sea": "шторм", "scene_reliable": false, "field_event_id": "S4:DOORS3:T11", "field_profile": "B", "field_date": "2024-06-04", "field_distance_km": 270.5, "field_date_gap_days": 197, "field_conc_items_km2": 62.52, "conc_A_items_km2": null, "conc_A_lo80": null, "conc_A_hi80": null, "conc_A_lo95": null, "conc_A_hi95": null, "conc_A_status": "unavailable", "conc_A_status_ru": "концентрация недоступна", "conc_A_reasons": "вне бассейна профиля: nw_atlantic_subtropical", "conc_A_model": "conc-A-c6bce5631d2b", "conc_B_items_km2": 301.0, "conc_B_lo80": 63.8, "conc_B_hi80": 1012.4, "conc_B_lo95": 39.6, "conc_B_hi95": 1896.1, "conc_B_status": "research_estimate", "conc_B_status_ru": "исследовательская оценка", "conc_B_reasons": "ближайшее полевое измерение в 271 км (> 60 км); месяц 12 вне месяцев обучения [6]", "conc_B_model": "conc-B-c6bce5631d2b"}}]}