{"type": "FeatureCollection", "features": [{"type": "Feature", "geometry": {"type": "Polygon", "coordinates": [[[39.70139281708072, 43.60003384107491], [39.70139177114396, 43.59994380640915], [39.70126788136799, 43.59994456645601], [39.70126683562078, 43.59985453178643], [39.70139072521204, 43.59985377174194], [39.70138967928497, 43.59976373707327], [39.70151356868668, 43.59976297689691], [39.70151252257974, 43.59967294222919], [39.70176030099921, 43.5996714214785], [39.7017592545277, 43.599581386814094], [39.70188314354546, 43.59958062623974], [39.70188419020167, 43.599670660901786], [39.702008079399285, 43.59966990019083], [39.70200912624505, 43.59975993484905], [39.70176239395676, 43.599851490803005], [39.70176344044282, 43.599941525463095], [39.70163955068138, 43.599942285912675], [39.701640596987566, 43.6000323205737], [39.70139281708072, 43.60003384107491]]]}, "properties": {"zone_id": "sochi-2026-05-09-001", "aoi": "sochi", "date": "2026-05-09", "scene_id": "S2B_MSIL2A_20260509T081559_R121_T37TEJ_20260509T122203", "scene_datetime_utc": "2026-05-09T08:15:59.024000+00:00", "detection_status": "detected", "detection_status_ru": "обнаружено", "lon": 39.70161, "lat": 43.59983, "n_pixels": 4, "zone_area_km2": 0.0015, "cover_m2": 22.0, "p_mean": 0.636, "p_max": 0.843, "cover_m2_km2": 14666.7, "h3": "882d568097fffff", "valid_frac_scene": 1.0, "wind_ms": 2.0, "sea": "спокойное", "scene_reliable": true, "field_event_id": "S4:DOORS3:T17", "field_profile": "B", "field_date": "2024-06-04", "field_distance_km": 185.9, "field_date_gap_days": 704, "field_conc_items_km2": 89.61, "conc_A_items_km2": null, "conc_A_lo80": null, "conc_A_hi80": null, "conc_A_lo95": null, "conc_A_hi95": null, "conc_A_status": "unavailable", "conc_A_status_ru": "концентрация недоступна", "conc_A_reasons": "вне бассейна профиля: nw_atlantic_subtropical", "conc_A_model": "conc-A-c6bce5631d2b", "conc_B_items_km2": 666.4, "conc_B_lo80": 142.3, "conc_B_hi80": 2238.6, "conc_B_lo95": 88.8, "conc_B_hi95": 4191.6, "conc_B_status": "research_estimate", "conc_B_status_ru": "исследовательская оценка", "conc_B_reasons": "ближайшее полевое измерение в 186 км (> 60 км); месяц 5 вне месяцев обучения [6]; log_dist_coast_km = 0.9 вне диапазона обучения [1.7; 5.0]", "conc_B_model": "conc-B-c6bce5631d2b"}}, {"type": "Feature", "geometry": {"type": "Polygon", "coordinates": [[[39.69978016014798, 43.599863641849204], [39.69977911662213, 43.59977360714968], [39.69965522715267, 43.59977436544661], [39.6996531404849, 43.599594296038546], [39.69977702958494, 43.59959353774634], [39.699775986073604, 43.599503503042506], [39.70002480777053, 43.59959202075922], [39.70002585165613, 43.59968205545687], [39.700149740926385, 43.59968129675956], [39.700150785001526, 43.599771331453404], [39.700026895546564, 43.599772090153074], [39.700027939441824, 43.59986212484784], [39.69978016014798, 43.599863641849204]]]}, "properties": {"zone_id": "sochi-2026-05-09-002", "aoi": "sochi", "date": "2026-05-09", "scene_id": "S2B_MSIL2A_20260509T081559_R121_T37TEJ_20260509T122203", "scene_datetime_utc": "2026-05-09T08:15:59.024000+00:00", "detection_status": "detected", "detection_status_ru": "обнаружено", "lon": 39.69988, "lat": 43.5997, "n_pixels": 3, "zone_area_km2": 0.001, "cover_m2": 24.3, "p_mean": 0.775, "p_max": 0.871, "cover_m2_km2": 24300.0, "h3": "882d568097fffff", "valid_frac_scene": 1.0, "wind_ms": 2.0, "sea": "спокойное", "scene_reliable": true, "field_event_id": "S4:DOORS3:T17", "field_profile": "B", "field_date": "2024-06-04", "field_distance_km": 185.8, "field_date_gap_days": 704, "field_conc_items_km2": 89.61, "conc_A_items_km2": null, "conc_A_lo80": null, "conc_A_hi80": null, "conc_A_lo95": null, "conc_A_hi95": null, "conc_A_status": "unavailable", "conc_A_status_ru": "концентрация недоступна", "conc_A_reasons": "вне бассейна профиля: nw_atlantic_subtropical", "conc_A_model": "conc-A-c6bce5631d2b", "conc_B_items_km2": 666.4, "conc_B_lo80": 142.3, "conc_B_hi80": 2238.6, "conc_B_lo95": 88.8, "conc_B_hi95": 4191.6, "conc_B_status": "research_estimate", "conc_B_status_ru": "исследовательская оценка", "conc_B_reasons": "ближайшее полевое измерение в 186 км (> 60 км); месяц 5 вне месяцев обучения [6]; log_dist_coast_km = 0.9 вне диапазона обучения [1.7; 5.0]", "conc_B_model": "conc-B-c6bce5631d2b"}}, {"type": "Feature", "geometry": {"type": "Polygon", "coordinates": [[[39.69579908755629, 43.59844728426613], [39.69579805001808, 43.598357249467895], [39.69567416334963, 43.598358003431294], [39.695673126000926, 43.59826796862927], [39.69579701248467, 43.59826721466822], [39.69579597495608, 43.59817717986711], [39.696044785437756, 43.59826570634341], [39.696045823340555, 43.59835574113836], [39.69592193668172, 43.59835649537025], [39.69592297440463, 43.59844653016612], [39.69579908755629, 43.59844728426613]]]}, "properties": {"zone_id": "sochi-2026-05-09-003", "aoi": "sochi", "date": "2026-05-09", "scene_id": "S2B_MSIL2A_20260509T081559_R121_T37TEJ_20260509T122203", "scene_datetime_utc": "2026-05-09T08:15:59.024000+00:00", "detection_status": "detected", "detection_status_ru": "обнаружено", "lon": 39.69586, "lat": 43.59831, "n_pixels": 1, "zone_area_km2": 0.0005, "cover_m2": 3.9, "p_mean": 0.82, "p_max": 0.82, "cover_m2_km2": 7800.0, "h3": "882d568095fffff", "valid_frac_scene": 1.0, "wind_ms": 2.0, "sea": "спокойное", "scene_reliable": true, "field_event_id": "S4:DOORS3:T17", "field_profile": "B", "field_date": "2024-06-04", "field_distance_km": 185.5, "field_date_gap_days": 704, "field_conc_items_km2": 89.61, "conc_A_items_km2": null, "conc_A_lo80": null, "conc_A_hi80": null, "conc_A_lo95": null, "conc_A_hi95": null, "conc_A_status": "unavailable", "conc_A_status_ru": "концентрация недоступна", "conc_A_reasons": "вне бассейна профиля: nw_atlantic_subtropical", "conc_A_model": "conc-A-c6bce5631d2b", "conc_B_items_km2": 666.4, "conc_B_lo80": 142.3, "conc_B_hi80": 2238.6, "conc_B_lo95": 88.8, "conc_B_hi95": 4191.6, "conc_B_status": "research_estimate", "conc_B_status_ru": "исследовательская оценка", "conc_B_reasons": "ближайшее полевое измерение в 186 км (> 60 км); месяц 5 вне месяцев обучения [6]; log_dist_coast_km = 0.9 вне диапазона обучения [1.7; 5.0]", "conc_B_model": "conc-B-c6bce5631d2b"}}, {"type": "Feature", "geometry": {"type": "Polygon", "coordinates": [[[39.73165344720869, 43.55131184191166], [39.731652358002, 43.55122180707143], [39.7314036909403, 43.55113335636633], [39.73140260211218, 43.55104332151827], [39.73152639086049, 43.551042529519464], [39.731525301853175, 43.55095249467242], [39.73177396834198, 43.5510409451198], [39.73177505772282, 43.551130979960455], [39.73189884664024, 43.55113018755713], [39.731899936210375, 43.55122022239384], [39.73177614710871, 43.551221014799644], [39.73177723649964, 43.55131104963741], [39.73165344720869, 43.55131184191166]]]}, "properties": {"zone_id": "sochi-2026-05-09-004", "aoi": "sochi", "date": "2026-05-09", "scene_id": "S2B_MSIL2A_20260509T081559_R121_T37TEJ_20260509T122203", "scene_datetime_utc": "2026-05-09T08:15:59.024000+00:00", "detection_status": "detected", "detection_status_ru": "обнаружено", "lon": 39.73165, "lat": 43.55113, "n_pixels": 2, "zone_area_km2": 0.0008, "cover_m2": 17.3, "p_mean": 0.886, "p_max": 0.988, "cover_m2_km2": 21625.0, "h3": "882d568e0dfffff", "valid_frac_scene": 1.0, "wind_ms": 2.0, "sea": "спокойное", "scene_reliable": true, "field_event_id": "S4:DOORS3:T17", "field_profile": "B", "field_date": "2024-06-04", "field_distance_km": 182.9, "field_date_gap_days": 704, "field_conc_items_km2": 89.61, "conc_A_items_km2": null, "conc_A_lo80": null, "conc_A_hi80": null, "conc_A_lo95": null, "conc_A_hi95": null, "conc_A_status": "unavailable", "conc_A_status_ru": "концентрация недоступна", "conc_A_reasons": "вне бассейна профиля: nw_atlantic_subtropical", "conc_A_model": "conc-A-c6bce5631d2b", "conc_B_items_km2": 591.0, "conc_B_lo80": 126.1, "conc_B_hi80": 1985.7, "conc_B_lo95": 78.7, "conc_B_hi95": 3718.1, "conc_B_status": "research_estimate", "conc_B_status_ru": "исследовательская оценка", "conc_B_reasons": "ближайшее полевое измерение в 183 км (> 60 км); месяц 5 вне месяцев обучения [6]; log_dist_coast_km = 1.2 вне диапазона обучения [1.7; 5.0]", "conc_B_model": "conc-B-c6bce5631d2b"}}, {"type": "Feature", "geometry": {"type": "Polygon", "coordinates": [[[39.681705072779735, 43.54621806778722], [39.68170405810754, 43.546128031896515], [39.68158027808654, 43.54612876988647], [39.68157926360325, 43.54603873399204], [39.681703043440045, 43.5460379960044], [39.681702028777245, 43.54594796011083], [39.68195060309954, 43.5460365196271], [39.68195161813543, 43.54612655551461], [39.68182783812384, 43.54612729377256], [39.68182885298023, 43.54621732966095], [39.681705072779735, 43.54621806778722]]]}, "properties": {"zone_id": "sochi-2026-05-09-005", "aoi": "sochi", "date": "2026-05-09", "scene_id": "S2B_MSIL2A_20260509T081559_R121_T37TEJ_20260509T122203", "scene_datetime_utc": "2026-05-09T08:15:59.024000+00:00", "detection_status": "detected", "detection_status_ru": "обнаружено", "lon": 39.68177, "lat": 43.54608, "n_pixels": 1, "zone_area_km2": 0.0005, "cover_m2": 3.9, "p_mean": 0.973, "p_max": 0.973, "cover_m2_km2": 7800.0, "h3": "882d56819dfffff", "valid_frac_scene": 1.0, "wind_ms": 2.0, "sea": "спокойное", "scene_reliable": true, "field_event_id": "S4:DOORS3:T17", "field_profile": "B", "field_date": "2024-06-04", "field_distance_km": 180.1, "field_date_gap_days": 704, "field_conc_items_km2": 89.61, "conc_A_items_km2": null, "conc_A_lo80": null, "conc_A_hi80": null, "conc_A_lo95": null, "conc_A_hi95": null, "conc_A_status": "unavailable", "conc_A_status_ru": "концентрация недоступна", "conc_A_reasons": "вне бассейна профиля: nw_atlantic_subtropical", "conc_A_model": "conc-A-c6bce5631d2b", "conc_B_items_km2": 464.8, "conc_B_lo80": 99.0, "conc_B_hi80": 1562.1, "conc_B_lo95": 61.7, "conc_B_hi95": 2925.1, "conc_B_status": "research_estimate", "conc_B_status_ru": "исследовательская оценка", "conc_B_reasons": "ближайшее полевое измерение в 180 км (> 60 км); месяц 5 вне месяцев обучения [6]", "conc_B_model": "conc-B-c6bce5631d2b"}}, {"type": "Feature", "geometry": {"type": "Polygon", "coordinates": [[[39.654102119752174, 43.53494398159855], [39.65410114654623, 43.53485394502304], [39.653977388891064, 43.53485465298442], [39.653975442860904, 43.53467457982465], [39.65422198405379, 43.534583127199156], [39.65422295743032, 43.53467316377677], [39.65434671470827, 43.534672455551934], [39.65434866184303, 43.53485252869842], [39.654102119752174, 43.53494398159855]]]}, "properties": {"zone_id": "sochi-2026-05-09-006", "aoi": "sochi", "date": "2026-05-09", "scene_id": "S2B_MSIL2A_20260509T081559_R121_T37TEJ_20260509T122203", "scene_datetime_utc": "2026-05-09T08:15:59.024000+00:00", "detection_status": "detected", "detection_status_ru": "обнаружено", "lon": 39.65416, "lat": 43.53476, "n_pixels": 2, "zone_area_km2": 0.0008, "cover_m2": 10.6, "p_mean": 0.759, "p_max": 0.914, "cover_m2_km2": 13250.0, "h3": "882d5681c7fffff", "valid_frac_scene": 1.0, "wind_ms": 2.0, "sea": "спокойное", "scene_reliable": true, "field_event_id": "S4:DOORS3:T17", "field_profile": "B", "field_date": "2024-06-04", "field_distance_km": 177.8, "field_date_gap_days": 704, "field_conc_items_km2": 89.61, "conc_A_items_km2": null, "conc_A_lo80": null, "conc_A_hi80": null, "conc_A_lo95": null, "conc_A_hi95": null, "conc_A_status": "unavailable", "conc_A_status_ru": "концентрация недоступна", "conc_A_reasons": "вне бассейна профиля: nw_atlantic_subtropical", "conc_A_model": "conc-A-c6bce5631d2b", "conc_B_items_km2": 402.4, "conc_B_lo80": 85.6, "conc_B_hi80": 1352.9, "conc_B_lo95": 53.3, "conc_B_hi95": 2533.4, "conc_B_status": "research_estimate", "conc_B_status_ru": "исследовательская оценка", "conc_B_reasons": "ближайшее полевое измерение в 178 км (> 60 км); месяц 5 вне месяцев обучения [6]", "conc_B_model": "conc-B-c6bce5631d2b"}}, {"type": "Feature", "geometry": {"type": "Polygon", "coordinates": [[[39.826876265325545, 43.471335499222796], [39.82687503780118, 43.4712454651574], [39.826751414838746, 43.47124635908919], [39.82675018750353, 43.47115632501956], [39.826873810282486, 43.47115543109056], [39.826872582769475, 43.47106539702227], [39.82712105582336, 43.47115364283165], [39.827122283709, 43.4712436768929], [39.82699866075793, 43.471244571091965], [39.82699988846577, 43.47133460515456], [39.826876265325545, 43.471335499222796]]]}, "properties": {"zone_id": "sochi-2026-05-09-007", "aoi": "sochi", "date": "2026-05-09", "scene_id": "S2B_MSIL2A_20260509T081559_R121_T37TEJ_20260509T122203", "scene_datetime_utc": "2026-05-09T08:15:59.024000+00:00", "detection_status": "detected", "detection_status_ru": "обнаружено", "lon": 39.82694, "lat": 43.4712, "n_pixels": 1, "zone_area_km2": 0.0005, "cover_m2": 2.4, "p_mean": 0.773, "p_max": 0.773, "cover_m2_km2": 4800.0, "h3": "882d568d03fffff", "valid_frac_scene": 1.0, "wind_ms": 2.0, "sea": "спокойное", "scene_reliable": true, "field_event_id": "S4:DOORS3:T17", "field_profile": "B", "field_date": "2024-06-04", "field_distance_km": 180.7, "field_date_gap_days": 704, "field_conc_items_km2": 89.61, "conc_A_items_km2": null, "conc_A_lo80": null, "conc_A_hi80": null, "conc_A_lo95": null, "conc_A_hi95": null, "conc_A_status": "unavailable", "conc_A_status_ru": "концентрация недоступна", "conc_A_reasons": "вне бассейна профиля: nw_atlantic_subtropical", "conc_A_model": "conc-A-c6bce5631d2b", "conc_B_items_km2": 464.8, "conc_B_lo80": 99.0, "conc_B_hi80": 1562.1, "conc_B_lo95": 61.7, "conc_B_hi95": 2925.1, "conc_B_status": "research_estimate", "conc_B_status_ru": "исследовательская оценка", "conc_B_reasons": "ближайшее полевое измерение в 181 км (> 60 км); месяц 5 вне месяцев обучения [6]", "conc_B_model": "conc-B-c6bce5631d2b"}}, {"type": "Feature", "geometry": {"type": "Polygon", "coordinates": [[[39.75637985983656, 43.46939240906428], [39.75637873703617, 43.46930237343466], [39.756255115928674, 43.469303191123075], [39.756252870710426, 43.46912311985436], [39.756498989218116, 43.4690314487227], [39.75650011218638, 43.4691214843541], [39.75662373291656, 43.46912066640353], [39.75662597923559, 43.46930073765691], [39.75637985983656, 43.46939240906428]]]}, "properties": {"zone_id": "sochi-2026-05-09-008", "aoi": "sochi", "date": "2026-05-09", "scene_id": "S2B_MSIL2A_20260509T081559_R121_T37TEJ_20260509T122203", "scene_datetime_utc": "2026-05-09T08:15:59.024000+00:00", "detection_status": "detected", "detection_status_ru": "обнаружено", "lon": 39.75644, "lat": 43.46921, "n_pixels": 2, "zone_area_km2": 0.0008, "cover_m2": 8.6, "p_mean": 0.988, "p_max": 0.992, "cover_m2_km2": 10750.0, "h3": "882d568f25fffff", "valid_frac_scene": 1.0, "wind_ms": 2.0, "sea": "спокойное", "scene_reliable": true, "field_event_id": "S4:DOORS3:T17", "field_profile": "B", "field_date": "2024-06-04", "field_distance_km": 176.9, "field_date_gap_days": 704, "field_conc_items_km2": 89.61, "conc_A_items_km2": null, "conc_A_lo80": null, "conc_A_hi80": null, "conc_A_lo95": null, "conc_A_hi95": null, "conc_A_status": "unavailable", "conc_A_status_ru": "концентрация недоступна", "conc_A_reasons": "вне бассейна профиля: nw_atlantic_subtropical", "conc_A_model": "conc-A-c6bce5631d2b", "conc_B_items_km2": 389.7, "conc_B_lo80": 82.9, "conc_B_hi80": 1310.1, "conc_B_lo95": 51.6, "conc_B_hi95": 2453.3, "conc_B_status": "research_estimate", "conc_B_status_ru": "исследовательская оценка", "conc_B_reasons": "ближайшее полевое измерение в 177 км (> 60 км); месяц 5 вне месяцев обучения [6]", "conc_B_model": "conc-B-c6bce5631d2b"}}, {"type": "Feature", "geometry": {"type": "Polygon", "coordinates": [[[39.792644383810085, 43.45356930401752], [39.792643207830096, 43.453479268909625], [39.79251962001709, 43.4534801255555], [39.79251844422585, 43.45339009044346], [39.79264203185554, 43.45338923380027], [39.79264085588644, 43.45329919868947], [39.792889207098625, 43.4533875201132], [39.79289038343979, 43.453477555217205], [39.79276679563766, 43.45347841213019], [39.79276797180096, 43.453568447235405], [39.792644383810085, 43.45356930401752]]]}, "properties": {"zone_id": "sochi-2026-05-09-009", "aoi": "sochi", "date": "2026-05-09", "scene_id": "S2B_MSIL2A_20260509T081559_R121_T37TEJ_20260509T122203", "scene_datetime_utc": "2026-05-09T08:15:59.024000+00:00", "detection_status": "detected", "detection_status_ru": "обнаружено", "lon": 39.7927, "lat": 43.45343, "n_pixels": 1, "zone_area_km2": 0.0005, "cover_m2": 5.9, "p_mean": 0.733, "p_max": 0.733, "cover_m2_km2": 11800.0, "h3": "882d568d61fffff", "valid_frac_scene": 1.0, "wind_ms": 2.0, "sea": "спокойное", "scene_reliable": true, "field_event_id": "S4:DOORS3:T17", "field_profile": "B", "field_date": "2024-06-04", "field_distance_km": 177.4, "field_date_gap_days": 704, "field_conc_items_km2": 89.61, "conc_A_items_km2": null, "conc_A_lo80": null, "conc_A_hi80": null, "conc_A_lo95": null, "conc_A_hi95": null, "conc_A_status": "unavailable", "conc_A_status_ru": "концентрация недоступна", "conc_A_reasons": "вне бассейна профиля: nw_atlantic_subtropical", "conc_A_model": "conc-A-c6bce5631d2b", "conc_B_items_km2": 402.4, "conc_B_lo80": 85.6, "conc_B_hi80": 1352.9, "conc_B_lo95": 53.3, "conc_B_hi95": 2533.4, "conc_B_status": "research_estimate", "conc_B_status_ru": "исследовательская оценка", "conc_B_reasons": "ближайшее полевое измерение в 177 км (> 60 км); месяц 5 вне месяцев обучения [6]", "conc_B_model": "conc-B-c6bce5631d2b"}}, {"type": "Feature", "geometry": {"type": "Polygon", "coordinates": [[[39.8794940288817, 43.41664676720475], [39.879492725740064, 43.41655673350865], [39.87936921578058, 43.41655768337662], [39.8793679128279, 43.41646764967608], [39.879491422604445, 43.41646669981107], [39.87949011947486, 43.41637666611205], [39.87973844213945, 43.41646479968096], [39.879739745640954, 43.41655483337258], [39.879616235693526, 43.4165557835073], [39.87961753901811, 43.41664581720044], [39.8794940288817, 43.41664676720475]]]}, "properties": {"zone_id": "sochi-2026-05-09-010", "aoi": "sochi", "date": "2026-05-09", "scene_id": "S2B_MSIL2A_20260509T081559_R121_T37TEJ_20260509T122203", "scene_datetime_utc": "2026-05-09T08:15:59.024000+00:00", "detection_status": "detected", "detection_status_ru": "обнаружено", "lon": 39.87955, "lat": 43.41651, "n_pixels": 1, "zone_area_km2": 0.0005, "cover_m2": 5.1, "p_mean": 0.655, "p_max": 0.655, "cover_m2_km2": 10200.0, "h3": "882d5612a9fffff", "valid_frac_scene": 1.0, "wind_ms": 2.0, "sea": "спокойное", "scene_reliable": true, "field_event_id": "S4:DOORS3:T17", "field_profile": "B", "field_date": "2024-06-04", "field_distance_km": 178.9, "field_date_gap_days": 704, "field_conc_items_km2": 89.61, "conc_A_items_km2": null, "conc_A_lo80": null, "conc_A_hi80": null, "conc_A_lo95": null, "conc_A_hi95": null, "conc_A_status": "unavailable", "conc_A_status_ru": "концентрация недоступна", "conc_A_reasons": "вне бассейна профиля: nw_atlantic_subtropical", "conc_A_model": "conc-A-c6bce5631d2b", "conc_B_items_km2": 539.0, "conc_B_lo80": 114.9, "conc_B_hi80": 1811.1, "conc_B_lo95": 71.7, "conc_B_hi95": 3391.3, "conc_B_status": "research_estimate", "conc_B_status_ru": "исследовательская оценка", "conc_B_reasons": "ближайшее полевое измерение в 179 км (> 60 км); месяц 5 вне месяцев обучения [6]", "conc_B_model": "conc-B-c6bce5631d2b"}}, {"type": "Feature", "geometry": {"type": "Polygon", "coordinates": [[[39.92827566059827, 43.40788710680048], [39.92827428560369, 43.40779707417759], [39.92815079510558, 43.40779807656931], [39.928149420300215, 43.40770804394182], [39.92827291061548, 43.40770704155324], [39.92827153563364, 43.40761700892741], [39.92851989122695, 43.40770503637607], [39.928521266580866, 43.407795068994155], [39.92839777609546, 43.40779607165254], [39.928399151272885, 43.40788610427229], [39.92827566059827, 43.40788710680048]]]}, "properties": {"zone_id": "sochi-2026-05-09-011", "aoi": "sochi", "date": "2026-05-09", "scene_id": "S2B_MSIL2A_20260509T081559_R121_T37TEJ_20260509T122203", "scene_datetime_utc": "2026-05-09T08:15:59.024000+00:00", "detection_status": "detected", "detection_status_ru": "обнаружено", "lon": 39.92834, "lat": 43.40775, "n_pixels": 1, "zone_area_km2": 0.0005, "cover_m2": 6.7, "p_mean": 0.635, "p_max": 0.635, "cover_m2_km2": 13400.0, "h3": "882d5610c7fffff", "valid_frac_scene": 1.0, "wind_ms": 2.0, "sea": "спокойное", "scene_reliable": true, "field_event_id": "S4:DOORS3:T23", "field_profile": "B", "field_date": "2024-06-10", "field_distance_km": 177.5, "field_date_gap_days": 698, "field_conc_items_km2": 102.37, "conc_A_items_km2": null, "conc_A_lo80": null, "conc_A_hi80": null, "conc_A_lo95": null, "conc_A_hi95": null, "conc_A_status": "unavailable", "conc_A_status_ru": "концентрация недоступна", "conc_A_reasons": "вне бассейна профиля: nw_atlantic_subtropical", "conc_A_model": "conc-A-c6bce5631d2b", "conc_B_items_km2": 901.4, "conc_B_lo80": 192.7, "conc_B_hi80": 3027.3, "conc_B_lo95": 120.4, "conc_B_hi95": 5668.0, "conc_B_status": "research_estimate", "conc_B_status_ru": "исследовательская оценка", "conc_B_reasons": "ближайшее полевое измерение в 177 км (> 60 км); месяц 5 вне месяцев обучения [6]; log_dist_coast_km = 0.0 вне диапазона обучения [1.7; 5.0]", "conc_B_model": "conc-B-c6bce5631d2b"}}, {"type": "Feature", "geometry": {"type": "Polygon", "coordinates": [[[39.912939779350765, 43.406479825643345], [39.91293842713673, 43.406389792610234], [39.91269009894562, 43.406301731048856], [39.912688747109776, 43.40621169800667], [39.91281223492173, 43.406210712339835], [39.9128108829093, 43.40612067929929], [39.912934370532156, 43.4061196935022], [39.912935722727426, 43.40620972653967], [39.913306186107015, 43.40620676833924], [39.91330753885707, 43.406296801366], [39.9134310268206, 43.406295815029445], [39.91343237975975, 43.40638584805168], [39.913308891613376, 43.4063868343913], [39.913310244375936, 43.40647686741515], [39.912939779350765, 43.406479825643345]]]}, "properties": {"zone_id": "sochi-2026-05-09-012", "aoi": "sochi", "date": "2026-05-09", "scene_id": "S2B_MSIL2A_20260509T081559_R121_T37TEJ_20260509T122203", "scene_datetime_utc": "2026-05-09T08:15:59.024000+00:00", "detection_status": "detected", "detection_status_ru": "обнаружено", "lon": 39.91306, "lat": 43.40632, "n_pixels": 4, "zone_area_km2": 0.0014, "cover_m2": 39.2, "p_mean": 0.765, "p_max": 0.863, "cover_m2_km2": 28000.0, "h3": "882d5610cdfffff", "valid_frac_scene": 1.0, "wind_ms": 2.0, "sea": "спокойное", "scene_reliable": true, "field_event_id": "S4:DOORS3:T23", "field_profile": "B", "field_date": "2024-06-10", "field_distance_km": 178.3, "field_date_gap_days": 698, "field_conc_items_km2": 102.37, "conc_A_items_km2": null, "conc_A_lo80": null, "conc_A_hi80": null, "conc_A_lo95": null, "conc_A_hi95": null, "conc_A_status": "unavailable", "conc_A_status_ru": "концентрация недоступна", "conc_A_reasons": "вне бассейна профиля: nw_atlantic_subtropical", "conc_A_model": "conc-A-c6bce5631d2b", "conc_B_items_km2": 666.4, "conc_B_lo80": 142.3, "conc_B_hi80": 2238.6, "conc_B_lo95": 88.8, "conc_B_hi95": 4191.6, "conc_B_status": "research_estimate", "conc_B_status_ru": "исследовательская оценка", "conc_B_reasons": "ближайшее полевое измерение в 178 км (> 60 км); месяц 5 вне месяцев обучения [6]; log_dist_coast_km = 0.9 вне диапазона обучения [1.7; 5.0]", "conc_B_model": "conc-B-c6bce5631d2b"}}, {"type": "Feature", "geometry": {"type": "Polygon", "coordinates": [[[39.91133038076602, 43.40622253154256], [39.91132903094769, 43.406132498465055], [39.91120554324364, 43.40613348252894], [39.911204193614395, 43.4060434494469], [39.91132768113561, 43.40604246538609], [39.91132633132977, 43.405952432305675], [39.91157465615931, 43.40604049686452], [39.91157600633707, 43.406130529937336], [39.911452518645504, 43.406131514267855], [39.91145386864667, 43.40622154734228], [39.91133038076602, 43.40622253154256]]]}, "properties": {"zone_id": "sochi-2026-05-09-013", "aoi": "sochi", "date": "2026-05-09", "scene_id": "S2B_MSIL2A_20260509T081559_R121_T37TEJ_20260509T122203", "scene_datetime_utc": "2026-05-09T08:15:59.024000+00:00", "detection_status": "detected", "detection_status_ru": "обнаружено", "lon": 39.91139, "lat": 43.40609, "n_pixels": 1, "zone_area_km2": 0.0005, "cover_m2": 11.4, "p_mean": 0.902, "p_max": 0.902, "cover_m2_km2": 22800.0, "h3": "882d5610cdfffff", "valid_frac_scene": 1.0, "wind_ms": 2.0, "sea": "спокойное", "scene_reliable": true, "field_event_id": "S4:DOORS3:T23", "field_profile": "B", "field_date": "2024-06-10", "field_distance_km": 178.4, "field_date_gap_days": 698, "field_conc_items_km2": 102.37, "conc_A_items_km2": null, "conc_A_lo80": null, "conc_A_hi80": null, "conc_A_lo95": null, "conc_A_hi95": null, "conc_A_status": "unavailable", "conc_A_status_ru": "концентрация недоступна", "conc_A_reasons": "вне бассейна профиля: nw_atlantic_subtropical", "conc_A_model": "conc-A-c6bce5631d2b", "conc_B_items_km2": 666.4, "conc_B_lo80": 142.3, "conc_B_hi80": 2238.6, "conc_B_lo95": 88.8, "conc_B_hi95": 4191.6, "conc_B_status": "research_estimate", "conc_B_status_ru": "исследовательская оценка", "conc_B_reasons": "ближайшее полевое измерение в 178 км (> 60 км); месяц 5 вне месяцев обучения [6]; log_dist_coast_km = 0.9 вне диапазона обучения [1.7; 5.0]", "conc_B_model": "conc-B-c6bce5631d2b"}}, {"type": "Feature", "geometry": {"type": "Polygon", "coordinates": [[[39.93618883831428, 43.40043900199977], [39.93618745195991, 43.40034896946188], [39.936063976867786, 43.400349980260806], [39.93606120454383, 43.40016991517433], [39.93630676747261, 43.400077860916745], [39.93630815399053, 43.40016789345585], [39.93643162870428, 43.40016688239667], [39.93643440212492, 43.40034694746417], [39.93618883831428, 43.40043900199977]]]}, "properties": {"zone_id": "sochi-2026-05-09-014", "aoi": "sochi", "date": "2026-05-09", "scene_id": "S2B_MSIL2A_20260509T081559_R121_T37TEJ_20260509T122203", "scene_datetime_utc": "2026-05-09T08:15:59.024000+00:00", "detection_status": "detected", "detection_status_ru": "обнаружено", "lon": 39.93625, "lat": 43.40026, "n_pixels": 2, "zone_area_km2": 0.0008, "cover_m2": 21.2, "p_mean": 0.924, "p_max": 0.941, "cover_m2_km2": 26500.0, "h3": "882d5610ebfffff", "valid_frac_scene": 1.0, "wind_ms": 2.0, "sea": "спокойное", "scene_reliable": true, "field_event_id": "S4:DOORS3:T23", "field_profile": "B", "field_date": "2024-06-10", "field_distance_km": 176.4, "field_date_gap_days": 698, "field_conc_items_km2": 102.37, "conc_A_items_km2": null, "conc_A_lo80": null, "conc_A_hi80": null, "conc_A_lo95": null, "conc_A_hi95": null, "conc_A_status": "unavailable", "conc_A_status_ru": "концентрация недоступна", "conc_A_reasons": "вне бассейна профиля: nw_atlantic_subtropical", "conc_A_model": "conc-A-c6bce5631d2b", "conc_B_items_km2": 621.6, "conc_B_lo80": 132.7, "conc_B_hi80": 2088.3, "conc_B_lo95": 82.8, "conc_B_hi95": 3910.2, "conc_B_status": "research_estimate", "conc_B_status_ru": "исследовательская оценка", "conc_B_reasons": "ближайшее полевое измерение в 176 км (> 60 км); месяц 5 вне месяцев обучения [6]; log_dist_coast_km = 1.0 вне диапазона обучения [1.7; 5.0]", "conc_B_model": "conc-B-c6bce5631d2b"}}, {"type": "Feature", "geometry": {"type": "Polygon", "coordinates": [[[39.886224398042074, 43.38688030486925], [39.88622308629238, 43.386790270866015], [39.88609963700944, 43.3867912274822], [39.88609701389357, 43.386611159465374], [39.88634259980857, 43.38651921210712], [39.88634391172273, 43.386609246111725], [39.886467360628224, 43.38660828923504], [39.886469984840076, 43.38678835723391], [39.886224398042074, 43.38688030486925]]]}, "properties": {"zone_id": "sochi-2026-05-09-015", "aoi": "sochi", "date": "2026-05-09", "scene_id": "S2B_MSIL2A_20260509T081559_R121_T37TEJ_20260509T122203", "scene_datetime_utc": "2026-05-09T08:15:59.024000+00:00", "detection_status": "detected", "detection_status_ru": "обнаружено", "lon": 39.88628, "lat": 43.3867, "n_pixels": 2, "zone_area_km2": 0.0008, "cover_m2": 6.3, "p_mean": 0.982, "p_max": 0.988, "cover_m2_km2": 7875.0, "h3": "882d56100bfffff", "valid_frac_scene": 1.0, "wind_ms": 2.0, "sea": "спокойное", "scene_reliable": true, "field_event_id": "S4:DOORS3:T17", "field_profile": "B", "field_date": "2024-06-04", "field_distance_km": 176.8, "field_date_gap_days": 704, "field_conc_items_km2": 89.61, "conc_A_items_km2": null, "conc_A_lo80": null, "conc_A_hi80": null, "conc_A_lo95": null, "conc_A_hi95": null, "conc_A_status": "unavailable", "conc_A_status_ru": "концентрация недоступна", "conc_A_reasons": "вне бассейна профиля: nw_atlantic_subtropical", "conc_A_model": "conc-A-c6bce5631d2b", "conc_B_items_km2": 464.8, "conc_B_lo80": 99.0, "conc_B_hi80": 1562.1, "conc_B_lo95": 61.7, "conc_B_hi95": 2925.1, "conc_B_status": "research_estimate", "conc_B_status_ru": "исследовательская оценка", "conc_B_reasons": "ближайшее полевое измерение в 177 км (> 60 км); месяц 5 вне месяцев обучения [6]", "conc_B_model": "conc-B-c6bce5631d2b"}}, {"type": "Feature", "geometry": {"type": "Polygon", "coordinates": [[[39.87582967868307, 43.359496847456086], [39.87582838355645, 43.359406812768455], [39.87570498945977, 43.359407757690825], [39.87570369452155, 43.35931772299879], [39.87582708843583, 43.35931677807936], [39.87582579332118, 43.359226743388845], [39.876073876246416, 43.359314887841215], [39.87607517173186, 43.35940492252438], [39.87595177764715, 43.35940586771297], [39.87595307295618, 43.35949590239763], [39.87582967868307, 43.359496847456086]]]}, "properties": {"zone_id": "sochi-2026-05-09-016", "aoi": "sochi", "date": "2026-05-09", "scene_id": "S2B_MSIL2A_20260509T081559_R121_T37TEJ_20260509T122203", "scene_datetime_utc": "2026-05-09T08:15:59.024000+00:00", "detection_status": "detected", "detection_status_ru": "обнаружено", "lon": 39.87589, "lat": 43.35936, "n_pixels": 1, "zone_area_km2": 0.0005, "cover_m2": 9.0, "p_mean": 0.992, "p_max": 0.992, "cover_m2_km2": 18000.0, "h3": "882d561067fffff", "valid_frac_scene": 1.0, "wind_ms": 2.0, "sea": "спокойное", "scene_reliable": true, "field_event_id": "S4:DOORS3:T17", "field_profile": "B", "field_date": "2024-06-04", "field_distance_km": 174.1, "field_date_gap_days": 704, "field_conc_items_km2": 89.61, "conc_A_items_km2": null, "conc_A_lo80": null, "conc_A_hi80": null, "conc_A_lo95": null, "conc_A_hi95": null, "conc_A_status": "unavailable", "conc_A_status_ru": "концентрация недоступна", "conc_A_reasons": "вне бассейна профиля: nw_atlantic_subtropical", "conc_A_model": "conc-A-c6bce5631d2b", "conc_B_items_km2": 433.8, "conc_B_lo80": 92.4, "conc_B_hi80": 1458.2, "conc_B_lo95": 57.5, "conc_B_hi95": 2730.5, "conc_B_status": "research_estimate", "conc_B_status_ru": "исследовательская оценка", "conc_B_reasons": "ближайшее полевое измерение в 174 км (> 60 км); месяц 5 вне месяцев обучения [6]", "conc_B_model": "conc-B-c6bce5631d2b"}}, {"type": "Feature", "geometry": {"type": "Polygon", "coordinates": [[[39.850035117567124, 43.35933130231106], [39.85003386058846, 43.35924126700914], [39.84991046598903, 43.35924218409938], [39.8499092091986, 43.35915214879316], [39.85003260361561, 43.35915123170577], [39.850031346648564, 43.35906119640096], [39.850279392432206, 43.359149397131695], [39.850280649769886, 43.35923943242933], [39.850157255182076, 43.359240349785786], [39.85015851234315, 43.35933038508483], [39.850035117567124, 43.35933130231106]]]}, "properties": {"zone_id": "sochi-2026-05-09-017", "aoi": "sochi", "date": "2026-05-09", "scene_id": "S2B_MSIL2A_20260509T081559_R121_T37TEJ_20260509T122203", "scene_datetime_utc": "2026-05-09T08:15:59.024000+00:00", "detection_status": "detected", "detection_status_ru": "обнаружено", "lon": 39.85009, "lat": 43.3592, "n_pixels": 1, "zone_area_km2": 0.0005, "cover_m2": 6.3, "p_mean": 0.58, "p_max": 0.58, "cover_m2_km2": 12600.0, "h3": "882d56106dfffff", "valid_frac_scene": 1.0, "wind_ms": 2.0, "sea": "спокойное", "scene_reliable": true, "field_event_id": "S4:DOORS3:T17", "field_profile": "B", "field_date": "2024-06-04", "field_distance_km": 172.6, "field_date_gap_days": 704, "field_conc_items_km2": 89.61, "conc_A_items_km2": null, "conc_A_lo80": null, "conc_A_hi80": null, "conc_A_lo95": null, "conc_A_hi95": null, "conc_A_status": "unavailable", "conc_A_status_ru": "концентрация недоступна", "conc_A_reasons": "вне бассейна профиля: nw_atlantic_subtropical", "conc_A_model": "conc-A-c6bce5631d2b", "conc_B_items_km2": 402.4, "conc_B_lo80": 85.6, "conc_B_hi80": 1352.9, "conc_B_lo95": 53.3, "conc_B_hi95": 2533.4, "conc_B_status": "research_estimate", "conc_B_status_ru": "исследовательская оценка", "conc_B_reasons": "ближайшее полевое измерение в 173 км (> 60 км); месяц 5 вне месяцев обучения [6]", "conc_B_model": "conc-B-c6bce5631d2b"}}]}