{"type": "FeatureCollection", "features": [{"type": "Feature", "geometry": {"type": "Polygon", "coordinates": [[[39.74957829222647, 43.549214804203146], [39.74957717641834, 43.54912476969456], [39.749453392099824, 43.5491255812086], [39.74945116086753, 43.54894551218201], [39.7495749448176, 43.54894470067305], [39.74957382902499, 43.54885466616011], [39.74982139654121, 43.54885304274525], [39.749822512702266, 43.54894307725311], [39.74994629663684, 43.54894226534213], [39.7499485293429, 43.549122334348425], [39.74982474503988, 43.54912314626448], [39.74982586121644, 43.54921318076799], [39.74957829222647, 43.549214804203146]]]}, "properties": {"zone_id": "sochi-2025-07-08-001", "aoi": "sochi", "date": "2025-07-08", "scene_id": "S2C_MSIL2A_20250708T081631_R121_T37TEJ_20250708T120258", "scene_datetime_utc": "2025-07-08T08:16:31.025000+00:00", "detection_status": "detected", "detection_status_ru": "обнаружено", "lon": 39.7497, "lat": 43.54903, "n_pixels": 4, "zone_area_km2": 0.0012, "cover_m2": 12.9, "p_mean": 0.725, "p_max": 0.863, "cover_m2_km2": 10750.0, "h3": "882d568e07fffff", "valid_frac_scene": 1.0, "wind_ms": 4.4, "sea": "спокойное", "scene_reliable": false, "field_event_id": "S4:DOORS3:T17", "field_profile": "B", "field_date": "2024-06-04", "field_distance_km": 183.6, "field_date_gap_days": 399, "field_conc_items_km2": 89.61, "conc_A_items_km2": null, "conc_A_lo80": null, "conc_A_hi80": null, "conc_A_lo95": null, "conc_A_hi95": null, "conc_A_status": "unavailable", "conc_A_status_ru": "концентрация недоступна", "conc_A_reasons": "вне бассейна профиля: nw_atlantic_subtropical", "conc_A_model": "conc-A-c6bce5631d2b", "conc_B_items_km2": 666.5, "conc_B_lo80": 142.3, "conc_B_hi80": 2239.2, "conc_B_lo95": 88.8, "conc_B_hi95": 4192.6, "conc_B_status": "research_estimate", "conc_B_status_ru": "исследовательская оценка", "conc_B_reasons": "ближайшее полевое измерение в 184 км (> 60 км); месяц 7 вне месяцев обучения [6]; log_dist_coast_km = 0.9 вне диапазона обучения [1.7; 5.0]", "conc_B_model": "conc-B-c6bce5631d2b"}}]}