{"type": "FeatureCollection", "features": [{"type": "Feature", "geometry": {"type": "Polygon", "coordinates": [[[37.80033009980744, 44.71498864809712], [37.800331959612905, 44.714898644080414], [37.80008136651492, 44.714805987585095], [37.800083226694085, 44.71471598357372], [37.80020945294153, 44.71471730987789], [37.80021317288257, 44.714537301842384], [37.80046748418765, 44.71444994998748], [37.80046562462133, 44.714539954015734], [37.800591850503785, 44.714541279893204], [37.80058999112432, 44.71463128392412], [37.800716217211054, 44.71463260966624], [37.80071249881711, 44.71481261773189], [37.80045818626891, 44.71489997011392], [37.80045632665902, 44.71498997413476], [37.80033009980744, 44.71498864809712]]]}, "properties": {"zone_id": "novorossiysk-2026-05-09-001", "aoi": "novorossiysk", "date": "2026-05-09", "scene_id": "S2B_MSIL2A_20260509T081559_R121_T37TCK_20260509T104903", "scene_datetime_utc": "2026-05-09T08:15:59.024000+00:00", "detection_status": "detected", "detection_status_ru": "обнаружено", "lon": 37.80042, "lat": 44.71473, "n_pixels": 7, "zone_area_km2": 0.0017, "cover_m2": 65.5, "p_mean": 0.99, "p_max": 1.0, "cover_m2_km2": 38529.4, "h3": "882d721259fffff", "valid_frac_scene": 1.0, "wind_ms": 2.3, "sea": "спокойное", "scene_reliable": true, "field_event_id": "S4:DOORS3:T12", "field_profile": "B", "field_date": "2024-06-04", "field_distance_km": 260.6, "field_date_gap_days": 704, "field_conc_items_km2": 48.97, "conc_A_items_km2": null, "conc_A_lo80": null, "conc_A_hi80": null, "conc_A_lo95": null, "conc_A_hi95": null, "conc_A_status": "unavailable", "conc_A_status_ru": "концентрация недоступна", "conc_A_reasons": "вне бассейна профиля: nw_atlantic_subtropical", "conc_A_model": "conc-A-c6bce5631d2b", "conc_B_items_km2": 669.1, "conc_B_lo80": 142.9, "conc_B_hi80": 2247.7, "conc_B_lo95": 89.2, "conc_B_hi95": 4208.6, "conc_B_status": "research_estimate", "conc_B_status_ru": "исследовательская оценка", "conc_B_reasons": "ближайшее полевое измерение в 261 км (> 60 км); месяц 5 вне месяцев обучения [6]; log_dist_coast_km = 0.8 вне диапазона обучения [1.7; 5.0]", "conc_B_model": "conc-B-c6bce5631d2b"}}, {"type": "Feature", "geometry": {"type": "Polygon", "coordinates": [[[37.801863396795824, 44.71410451061301], [37.80186525416738, 44.71401450653183], [37.801614662337734, 44.713921853402184], [37.80161652008301, 44.7138318493263], [37.80174274447935, 44.7138331739154], [37.80174645955266, 44.71365316575091], [37.801872683566586, 44.71365449019227], [37.80187454089463, 44.71356448610367], [37.80212698855748, 44.7135671345597], [37.802125131620556, 44.713657138656565], [37.802251355660594, 44.7136584626795], [37.80224578538429, 44.71392847497359], [37.801991478972255, 44.714015830850244], [37.80198962179626, 44.71410583493555], [37.801863396795824, 44.71410451061301]]]}, "properties": {"zone_id": "novorossiysk-2026-05-09-002", "aoi": "novorossiysk", "date": "2026-05-09", "scene_id": "S2B_MSIL2A_20260509T081559_R121_T37TCK_20260509T104903", "scene_datetime_utc": "2026-05-09T08:15:59.024000+00:00", "detection_status": "detected", "detection_status_ru": "обнаружено", "lon": 37.80197, "lat": 44.71382, "n_pixels": 7, "zone_area_km2": 0.0019, "cover_m2": 54.5, "p_mean": 0.864, "p_max": 0.996, "cover_m2_km2": 28684.2, "h3": "882d721259fffff", "valid_frac_scene": 1.0, "wind_ms": 2.3, "sea": "спокойное", "scene_reliable": true, "field_event_id": "S4:DOORS3:T12", "field_profile": "B", "field_date": "2024-06-04", "field_distance_km": 260.5, "field_date_gap_days": 704, "field_conc_items_km2": 48.97, "conc_A_items_km2": null, "conc_A_lo80": null, "conc_A_hi80": null, "conc_A_lo95": null, "conc_A_hi95": null, "conc_A_status": "unavailable", "conc_A_status_ru": "концентрация недоступна", "conc_A_reasons": "вне бассейна профиля: nw_atlantic_subtropical", "conc_A_model": "conc-A-c6bce5631d2b", "conc_B_items_km2": 669.1, "conc_B_lo80": 142.9, "conc_B_hi80": 2247.7, "conc_B_lo95": 89.2, "conc_B_hi95": 4208.6, "conc_B_status": "research_estimate", "conc_B_status_ru": "исследовательская оценка", "conc_B_reasons": "ближайшее полевое измерение в 261 км (> 60 км); месяц 5 вне месяцев обучения [6]; log_dist_coast_km = 0.8 вне диапазона обучения [1.7; 5.0]", "conc_B_model": "conc-B-c6bce5631d2b"}}, {"type": "Feature", "geometry": {"type": "Polygon", "coordinates": [[[37.79632821208407, 44.69487124876642], [37.796330076784834, 44.69478124456351], [37.79620389403216, 44.6947799144348], [37.796205758919555, 44.694689910234544], [37.796459988530835, 44.69460256613423], [37.79645812404291, 44.69469257034428], [37.79658430661769, 44.69469390019008], [37.796582442316385, 44.69478390440278], [37.79645625954624, 44.69478257455283], [37.79645439504084, 44.694872578759906], [37.79632821208407, 44.69487124876642]]]}, "properties": {"zone_id": "novorossiysk-2026-05-09-003", "aoi": "novorossiysk", "date": "2026-05-09", "scene_id": "S2B_MSIL2A_20260509T081559_R121_T37TCK_20260509T104903", "scene_datetime_utc": "2026-05-09T08:15:59.024000+00:00", "detection_status": "detected", "detection_status_ru": "обнаружено", "lon": 37.79639, "lat": 44.69474, "n_pixels": 1, "zone_area_km2": 0.0005, "cover_m2": 12.2, "p_mean": 0.992, "p_max": 0.992, "cover_m2_km2": 24400.0, "h3": "882d721243fffff", "valid_frac_scene": 1.0, "wind_ms": 2.3, "sea": "спокойное", "scene_reliable": true, "field_event_id": "S4:DOORS3:T12", "field_profile": "B", "field_date": "2024-06-04", "field_distance_km": 258.4, "field_date_gap_days": 704, "field_conc_items_km2": 48.97, "conc_A_items_km2": null, "conc_A_lo80": null, "conc_A_hi80": null, "conc_A_lo95": null, "conc_A_hi95": null, "conc_A_status": "unavailable", "conc_A_status_ru": "концентрация недоступна", "conc_A_reasons": "вне бассейна профиля: nw_atlantic_subtropical", "conc_A_model": "conc-A-c6bce5631d2b", "conc_B_items_km2": 901.4, "conc_B_lo80": 192.7, "conc_B_hi80": 3027.3, "conc_B_lo95": 120.4, "conc_B_hi95": 5668.0, "conc_B_status": "research_estimate", "conc_B_status_ru": "исследовательская оценка", "conc_B_reasons": "ближайшее полевое измерение в 258 км (> 60 км); месяц 5 вне месяцев обучения [6]; log_dist_coast_km = 0.0 вне диапазона обучения [1.7; 5.0]", "conc_B_model": "conc-B-c6bce5631d2b"}}, {"type": "Feature", "geometry": {"type": "Polygon", "coordinates": [[[37.81735992491534, 44.659891566898295], [37.81736175480681, 44.659801561452596], [37.81723564697986, 44.65980025535931], [37.81723930712713, 44.659620244471604], [37.81736541456406, 44.65962155055674], [37.817367244429825, 44.65953154510659], [37.81761762946361, 44.65962416230938], [37.81761579997931, 44.65971416776619], [37.81774190763696, 44.65971547343775], [37.817740078339085, 44.65980547889717], [37.817613970486434, 44.65980417322153], [37.81761214098498, 44.65989417867537], [37.81735992491534, 44.659891566898295]]]}, "properties": {"zone_id": "novorossiysk-2026-05-09-004", "aoi": "novorossiysk", "date": "2026-05-09", "scene_id": "S2B_MSIL2A_20260509T081559_R121_T37TCK_20260509T104903", "scene_datetime_utc": "2026-05-09T08:15:59.024000+00:00", "detection_status": "detected", "detection_status_ru": "обнаружено", "lon": 37.81747, "lat": 44.65973, "n_pixels": 3, "zone_area_km2": 0.001, "cover_m2": 20.4, "p_mean": 0.808, "p_max": 0.996, "cover_m2_km2": 20400.0, "h3": "882d72122dfffff", "valid_frac_scene": 1.0, "wind_ms": 2.3, "sea": "спокойное", "scene_reliable": true, "field_event_id": "S4:DOORS3:T12", "field_profile": "B", "field_date": "2024-06-04", "field_distance_km": 255.0, "field_date_gap_days": 704, "field_conc_items_km2": 48.97, "conc_A_items_km2": null, "conc_A_lo80": null, "conc_A_hi80": null, "conc_A_lo95": null, "conc_A_hi95": null, "conc_A_status": "unavailable", "conc_A_status_ru": "концентрация недоступна", "conc_A_reasons": "вне бассейна профиля: nw_atlantic_subtropical", "conc_A_model": "conc-A-c6bce5631d2b", "conc_B_items_km2": 592.0, "conc_B_lo80": 126.3, "conc_B_hi80": 1989.0, "conc_B_lo95": 78.8, "conc_B_hi95": 3724.3, "conc_B_status": "research_estimate", "conc_B_status_ru": "исследовательская оценка", "conc_B_reasons": "ближайшее полевое измерение в 255 км (> 60 км); месяц 5 вне месяцев обучения [6]; log_dist_coast_km = 1.2 вне диапазона обучения [1.7; 5.0]", "conc_B_model": "conc-B-c6bce5631d2b"}}, {"type": "Feature", "geometry": {"type": "Polygon", "coordinates": [[[37.708657607840074, 44.64737096594585], [37.70865960502716, 44.64728096399552], [37.708533529505566, 44.64727953819077], [37.70853552687815, 44.64718953624341], [37.708789674514506, 44.64710238574711], [37.708787677540975, 44.64719238770487], [37.708913752886424, 44.6471938132269], [37.7089117560984, 44.64728381518761], [37.70878568055811, 44.647282389661136], [37.708783683565876, 44.64737239161592], [37.708657607840074, 44.64737096594585]]]}, "properties": {"zone_id": "novorossiysk-2026-05-09-005", "aoi": "novorossiysk", "date": "2026-05-09", "scene_id": "S2B_MSIL2A_20260509T081559_R121_T37TCK_20260509T104903", "scene_datetime_utc": "2026-05-09T08:15:59.024000+00:00", "detection_status": "detected", "detection_status_ru": "обнаружено", "lon": 37.70872, "lat": 44.64724, "n_pixels": 1, "zone_area_km2": 0.0005, "cover_m2": 11.8, "p_mean": 0.573, "p_max": 0.573, "cover_m2_km2": 23600.0, "h3": "882d728917fffff", "valid_frac_scene": 1.0, "wind_ms": 2.3, "sea": "спокойное", "scene_reliable": true, "field_event_id": "S4:DOORS3:T12", "field_profile": "B", "field_date": "2024-06-04", "field_distance_km": 251.6, "field_date_gap_days": 704, "field_conc_items_km2": 48.97, "conc_A_items_km2": null, "conc_A_lo80": null, "conc_A_hi80": null, "conc_A_lo95": null, "conc_A_hi95": null, "conc_A_status": "unavailable", "conc_A_status_ru": "концентрация недоступна", "conc_A_reasons": "вне бассейна профиля: nw_atlantic_subtropical", "conc_A_model": "conc-A-c6bce5631d2b", "conc_B_items_km2": 621.6, "conc_B_lo80": 132.7, "conc_B_hi80": 2088.3, "conc_B_lo95": 82.8, "conc_B_hi95": 3910.2, "conc_B_status": "research_estimate", "conc_B_status_ru": "исследовательская оценка", "conc_B_reasons": "ближайшее полевое измерение в 252 км (> 60 км); месяц 5 вне месяцев обучения [6]; log_dist_coast_km = 1.0 вне диапазона обучения [1.7; 5.0]", "conc_B_model": "conc-B-c6bce5631d2b"}}, {"type": "Feature", "geometry": {"type": "Polygon", "coordinates": [[[37.91468871424382, 44.642132947306955], [37.9146903925188, 44.64204293854857], [37.91456431892129, 44.64204174029719], [37.914567675837404, 44.6418617227835], [37.914693749045185, 44.641862921027396], [37.91469542729659, 44.6417729122646], [37.91494589548434, 44.64186531709776], [37.914944217614796, 44.64195532586656], [37.91507029104101, 44.641956523696756], [37.91506861335847, 44.642046532467816], [37.91494253973739, 44.642045334633885], [37.91494086185213, 44.642135343399744], [37.91468871424382, 44.642132947306955]]]}, "properties": {"zone_id": "novorossiysk-2026-05-09-006", "aoi": "novorossiysk", "date": "2026-05-09", "scene_id": "S2B_MSIL2A_20260509T081559_R121_T37TCK_20260509T104903", "scene_datetime_utc": "2026-05-09T08:15:59.024000+00:00", "detection_status": "detected", "detection_status_ru": "обнаружено", "lon": 37.9148, "lat": 44.64197, "n_pixels": 3, "zone_area_km2": 0.001, "cover_m2": 13.3, "p_mean": 0.997, "p_max": 1.0, "cover_m2_km2": 13300.0, "h3": "882d721023fffff", "valid_frac_scene": 1.0, "wind_ms": 2.3, "sea": "спокойное", "scene_reliable": true, "field_event_id": "S4:DOORS3:T13", "field_profile": "B", "field_date": "2024-06-04", "field_distance_km": 254.8, "field_date_gap_days": 704, "field_conc_items_km2": 263.57, "conc_A_items_km2": null, "conc_A_lo80": null, "conc_A_hi80": null, "conc_A_lo95": null, "conc_A_hi95": null, "conc_A_status": "unavailable", "conc_A_status_ru": "концентрация недоступна", "conc_A_reasons": "вне бассейна профиля: nw_atlantic_subtropical", "conc_A_model": "conc-A-c6bce5631d2b", "conc_B_items_km2": 669.1, "conc_B_lo80": 142.9, "conc_B_hi80": 2247.7, "conc_B_lo95": 89.2, "conc_B_hi95": 4208.6, "conc_B_status": "research_estimate", "conc_B_status_ru": "исследовательская оценка", "conc_B_reasons": "ближайшее полевое измерение в 255 км (> 60 км); месяц 5 вне месяцев обучения [6]; log_dist_coast_km = 0.8 вне диапазона обучения [1.7; 5.0]", "conc_B_model": "conc-B-c6bce5631d2b"}}, {"type": "Feature", "geometry": {"type": "Polygon", "coordinates": [[[37.87957273550271, 44.61910754268663], [37.87957446668288, 44.61901753462772], [37.8794484444109, 44.619016298111696], [37.87945017577759, 44.618926290055185], [37.879576197854945, 44.61892752656735], [37.879577929018915, 44.618837518505494], [37.879703950909764, 44.61883875487477], [37.879705681871, 44.61874874680758], [37.87995599471578, 44.61884122719625], [37.87995253354745, 44.61902124334164], [37.87982651125116, 44.619020007242696], [37.879824780460225, 44.61911001530932], [37.87957273550271, 44.61910754268663]]]}, "properties": {"zone_id": "novorossiysk-2026-05-09-007", "aoi": "novorossiysk", "date": "2026-05-09", "scene_id": "S2B_MSIL2A_20260509T081559_R121_T37TCK_20260509T104903", "scene_datetime_utc": "2026-05-09T08:15:59.024000+00:00", "detection_status": "detected", "detection_status_ru": "обнаружено", "lon": 37.87972, "lat": 44.61894, "n_pixels": 3, "zone_area_km2": 0.001, "cover_m2": 40.4, "p_mean": 0.69, "p_max": 0.729, "cover_m2_km2": 40400.0, "h3": "882d721151fffff", "valid_frac_scene": 1.0, "wind_ms": 2.3, "sea": "спокойное", "scene_reliable": true, "field_event_id": "S4:DOORS3:T13", "field_profile": "B", "field_date": "2024-06-04", "field_distance_km": 251.8, "field_date_gap_days": 704, "field_conc_items_km2": 263.57, "conc_A_items_km2": null, "conc_A_lo80": null, "conc_A_hi80": null, "conc_A_lo95": null, "conc_A_hi95": null, "conc_A_status": "unavailable", "conc_A_status_ru": "концентрация недоступна", "conc_A_reasons": "вне бассейна профиля: nw_atlantic_subtropical", "conc_A_model": "conc-A-c6bce5631d2b", "conc_B_items_km2": 570.4, "conc_B_lo80": 121.7, "conc_B_hi80": 1916.5, "conc_B_lo95": 75.9, "conc_B_hi95": 3588.6, "conc_B_status": "research_estimate", "conc_B_status_ru": "исследовательская оценка", "conc_B_reasons": "ближайшее полевое измерение в 252 км (> 60 км); месяц 5 вне месяцев обучения [6]; log_dist_coast_km = 1.3 вне диапазона обучения [1.7; 5.0]", "conc_B_model": "conc-B-c6bce5631d2b"}}]}