{"type": "FeatureCollection", "features": [{"type": "Feature", "geometry": {"type": "Polygon", "coordinates": [[[131.87936084244117, 43.31641721417568], [131.8793565926203, 43.31632728216323], [131.87923342726964, 43.31633038519454], [131.87922917764953, 43.316240453170636], [131.87935234281903, 43.31623735014902], [131.87934809303735, 43.31614741813306], [131.87947125800608, 43.316144314988684], [131.87947550796892, 43.316234246994945], [131.8797218382098, 43.31622804028946], [131.87971758788464, 43.31613810830259], [131.88008708255538, 43.316128797280086], [131.88009133342408, 43.316218729237875], [131.88021449845627, 43.31621562528912], [131.88021874952577, 43.316305557235474], [131.8800955843124, 43.31630866119392], [131.8800998352203, 43.3163985931482], [131.87973033891902, 43.31640790425796], [131.87972608855458, 43.3163179722746], [131.87947975795134, 43.316324178999466], [131.87948400795338, 43.31641411100222], [131.87936084244117, 43.31641721417568]]]}, "properties": {"zone_id": "vladivostok-2025-09-15-001", "aoi": "vladivostok", "date": "2025-09-15", "scene_id": "S2C_MSIL2A_20250915T020701_R103_T52TGN_20250915T074314", "scene_datetime_utc": "2025-09-15T02:07:01.025000+00:00", "detection_status": "detected", "detection_status_ru": "обнаружено", "lon": 131.87979, "lat": 43.31627, "n_pixels": 4, "zone_area_km2": 0.0016, "cover_m2": 73.3, "p_mean": 0.575, "p_max": 0.655, "cover_m2_km2": 45812.5, "h3": "88316ccc1bfffff", "valid_frac_scene": 1.0, "wind_ms": 4.5, "sea": "спокойное", "scene_reliable": true, "field_event_id": "S4:DOORS3:T23", "field_profile": "B", "field_date": "2024-06-10", "field_distance_km": 6969.8, "field_date_gap_days": 462, "field_conc_items_km2": 102.37, "conc_A_items_km2": null, "conc_A_lo80": null, "conc_A_hi80": null, "conc_A_lo95": null, "conc_A_hi95": null, "conc_A_status": "unavailable", "conc_A_status_ru": "концентрация недоступна", "conc_A_reasons": "вне бассейна профиля: nw_atlantic_subtropical", "conc_A_model": "conc-A-c6bce5631d2b", "conc_B_items_km2": null, "conc_B_lo80": null, "conc_B_hi80": null, "conc_B_lo95": null, "conc_B_hi95": null, "conc_B_status": "unavailable", "conc_B_status_ru": "концентрация недоступна", "conc_B_reasons": "вне бассейна профиля: black_sea", "conc_B_model": "conc-B-c6bce5631d2b"}}, {"type": "Feature", "geometry": {"type": "Polygon", "coordinates": [[[131.88219364425936, 43.31634580767677], [131.8821893902715, 43.31625587588738], [131.88206622537206, 43.316258981964985], [131.882061971585, 43.31616905016411], [131.88218513630324, 43.3161659440962], [131.88218088235462, 43.316076012303284], [131.8823040468721, 43.31607290611264], [131.88230830100187, 43.316162837895845], [131.88243146568087, 43.31615973156304], [131.8824272113699, 43.31606979978954], [131.88267779498, 43.3161535185001], [131.88268204967292, 43.31624345025246], [131.882558884852, 43.31624655685985], [131.8825631393834, 43.316336488620145], [131.8823125551513, 43.31625276967731], [131.88231680932032, 43.31634270145701], [131.88219364425936, 43.31634580767677]]]}, "properties": {"zone_id": "vladivostok-2025-09-15-002", "aoi": "vladivostok", "date": "2025-09-15", "scene_id": "S2C_MSIL2A_20250915T020701_R103_T52TGN_20250915T074314", "scene_datetime_utc": "2025-09-15T02:07:01.025000+00:00", "detection_status": "detected", "detection_status_ru": "обнаружено", "lon": 131.88237, "lat": 43.31621, "n_pixels": 2, "zone_area_km2": 0.0009, "cover_m2": 34.1, "p_mean": 0.667, "p_max": 0.675, "cover_m2_km2": 37888.9, "h3": "88316ccccdfffff", "valid_frac_scene": 1.0, "wind_ms": 4.5, "sea": "спокойное", "scene_reliable": true, "field_event_id": "S4:DOORS3:T23", "field_profile": "B", "field_date": "2024-06-10", "field_distance_km": 6969.9, "field_date_gap_days": 462, "field_conc_items_km2": 102.37, "conc_A_items_km2": null, "conc_A_lo80": null, "conc_A_hi80": null, "conc_A_lo95": null, "conc_A_hi95": null, "conc_A_status": "unavailable", "conc_A_status_ru": "концентрация недоступна", "conc_A_reasons": "вне бассейна профиля: nw_atlantic_subtropical", "conc_A_model": "conc-A-c6bce5631d2b", "conc_B_items_km2": null, "conc_B_lo80": null, "conc_B_hi80": null, "conc_B_lo95": null, "conc_B_hi95": null, "conc_B_status": "unavailable", "conc_B_status_ru": "концентрация недоступна", "conc_B_reasons": "вне бассейна профиля: black_sea", "conc_B_model": "conc-B-c6bce5631d2b"}}, {"type": "Feature", "geometry": {"type": "Polygon", "coordinates": [[[131.88391795332646, 43.31630230854744], [131.8839136968022, 43.316212376893915], [131.8837905321776, 43.316215484825776], [131.88378627585416, 43.31612555316078], [131.88390944029754, 43.31612244523862], [131.88390518381257, 43.31603251358159], [131.88415576912544, 43.316116228996975], [131.88416002599237, 43.31620616063285], [131.8840368614071, 43.31620926882961], [131.88404111811255, 43.31629920047342], [131.88391795332646, 43.31630230854744]]]}, "properties": {"zone_id": "vladivostok-2025-09-15-003", "aoi": "vladivostok", "date": "2025-09-15", "scene_id": "S2C_MSIL2A_20250915T020701_R103_T52TGN_20250915T074314", "scene_datetime_utc": "2025-09-15T02:07:01.025000+00:00", "detection_status": "detected", "detection_status_ru": "обнаружено", "lon": 131.88397, "lat": 43.31617, "n_pixels": 1, "zone_area_km2": 0.0005, "cover_m2": 16.9, "p_mean": 0.518, "p_max": 0.518, "cover_m2_km2": 33800.0, "h3": "88316ccccdfffff", "valid_frac_scene": 1.0, "wind_ms": 4.5, "sea": "спокойное", "scene_reliable": true, "field_event_id": "S4:DOORS3:T23", "field_profile": "B", "field_date": "2024-06-10", "field_distance_km": 6970.1, "field_date_gap_days": 462, "field_conc_items_km2": 102.37, "conc_A_items_km2": null, "conc_A_lo80": null, "conc_A_hi80": null, "conc_A_lo95": null, "conc_A_hi95": null, "conc_A_status": "unavailable", "conc_A_status_ru": "концентрация недоступна", "conc_A_reasons": "вне бассейна профиля: nw_atlantic_subtropical", "conc_A_model": "conc-A-c6bce5631d2b", "conc_B_items_km2": null, "conc_B_lo80": null, "conc_B_hi80": null, "conc_B_lo95": null, "conc_B_hi95": null, "conc_B_status": "unavailable", "conc_B_status_ru": "концентрация недоступна", "conc_B_reasons": "вне бассейна профиля: black_sea", "conc_B_model": "conc-B-c6bce5631d2b"}}, {"type": "Feature", "geometry": {"type": "Polygon", "coordinates": [[[131.89143096930545, 43.31611247365748], [131.89142670172993, 43.31602254259692], [131.89130353830492, 43.316025658607884], [131.8912992709303, 43.315935727535816], [131.89142243417413, 43.315932611534585], [131.891418166638, 43.31584268047051], [131.89166876060273, 43.31592637913478], [131.89167302852087, 43.316016310177645], [131.89154986513526, 43.3160194264535], [131.89155413289188, 43.31610935750433], [131.89143096930545, 43.31611247365748]]]}, "properties": {"zone_id": "vladivostok-2025-09-15-004", "aoi": "vladivostok", "date": "2025-09-15", "scene_id": "S2C_MSIL2A_20250915T020701_R103_T52TGN_20250915T074314", "scene_datetime_utc": "2025-09-15T02:07:01.025000+00:00", "detection_status": "detected", "detection_status_ru": "обнаружено", "lon": 131.89149, "lat": 43.31598, "n_pixels": 1, "zone_area_km2": 0.0005, "cover_m2": 16.9, "p_mean": 0.506, "p_max": 0.506, "cover_m2_km2": 33800.0, "h3": "88316cccc9fffff", "valid_frac_scene": 1.0, "wind_ms": 4.5, "sea": "спокойное", "scene_reliable": true, "field_event_id": "S4:DOORS3:T23", "field_profile": "B", "field_date": "2024-06-10", "field_distance_km": 6970.6, "field_date_gap_days": 462, "field_conc_items_km2": 102.37, "conc_A_items_km2": null, "conc_A_lo80": null, "conc_A_hi80": null, "conc_A_lo95": null, "conc_A_hi95": null, "conc_A_status": "unavailable", "conc_A_status_ru": "концентрация недоступна", "conc_A_reasons": "вне бассейна профиля: nw_atlantic_subtropical", "conc_A_model": "conc-A-c6bce5631d2b", "conc_B_items_km2": null, "conc_B_lo80": null, "conc_B_hi80": null, "conc_B_lo95": null, "conc_B_hi95": null, "conc_B_status": "unavailable", "conc_B_status_ru": "концентрация недоступна", "conc_B_reasons": "вне бассейна профиля: black_sea", "conc_B_model": "conc-B-c6bce5631d2b"}}, {"type": "Feature", "geometry": {"type": "Polygon", "coordinates": [[[131.87763652321155, 43.31646064469694], [131.87763227592714, 43.31637071254883], [131.87750911030204, 43.31637381372587], [131.8775048632184, 43.31628388156631], [131.8771353667691, 43.316293184273654], [131.87713112024858, 43.3162032520833], [131.87688478954672, 43.31620945320658], [131.87688054340813, 43.3161195209951], [131.876511047752, 43.31612882165762], [131.87651529334704, 43.31621875389815], [131.87639212790796, 43.31622185386377], [131.87638788249407, 43.316131921613554], [131.87626471721657, 43.31613502143704], [131.87625622680994, 43.315955156911976], [131.87601414175208, 43.31605128840567], [131.8760098969209, 43.3159613561229], [131.875886731947, 43.315964455529674], [131.87588248731657, 43.315874523235465], [131.8753898279498, 43.315886919499405], [131.87538558406365, 43.31579698716473], [131.8751392546251, 43.31580318448265], [131.87513501112088, 43.315713252126855], [131.8750118465534, 43.31571635057746], [131.8750076032499, 43.31562641821023], [131.8746381099736, 43.315635712738356], [131.87464235273353, 43.31572564513461], [131.87451918808776, 43.315728743055445], [131.87451494550896, 43.3156388106495], [131.8743917810248, 43.31564190842821], [131.87438753864674, 43.315551976010845], [131.874141209982, 43.31555817115156], [131.8741454519977, 43.31564810358827], [131.8740222874548, 43.31565120096963], [131.87401804562026, 43.31556126852324], [131.87364855241765, 43.315570559843614], [131.8736443111462, 43.31548062736645], [131.87352114688738, 43.315483724198664], [131.87352538797765, 43.31557365668551], [131.8731558945402, 43.31558294641653], [131.87316013510653, 43.31567287893063], [131.87303697040707, 43.315675975252404], [131.87303273002192, 43.31558604272864], [131.87278640092663, 43.31559223495552], [131.8727821609234, 43.31550230241064], [131.87253583211222, 43.3155084940884], [131.87253159249087, 43.31541856152242], [131.8724084282371, 43.31542165715296], [131.87241690713702, 43.31560152230249], [131.87217481696308, 43.31569764579636], [131.87217057784613, 43.315607713204884], [131.87192000974196, 43.31552397096494], [131.87191577102647, 43.315434038350624], [131.87203893535846, 43.31543094324988], [131.8720304576238, 43.31525107803534], [131.8721536215739, 43.31524798282149], [131.87214938255474, 43.315158050221264], [131.87239994941544, 43.31524179199643], [131.8724041888165, 43.31533172457557], [131.87252735288908, 43.315328628954695], [131.87252311330684, 43.31523869638524], [131.8730157686769, 43.31522631261599], [131.87302000898381, 43.31531624514678], [131.8735126647655, 43.315303859219725], [131.87351690581664, 43.31539379171007], [131.87364006989432, 43.315390694887526], [131.873635828662, 43.31530076240686], [131.8740053202341, 43.315291471173545], [131.87400107847785, 43.31520153872013], [131.8741242421149, 43.31519844138715], [131.87412848405233, 43.31528837383088], [131.87425164785097, 43.31528527635578], [131.87426013214687, 43.315465141218624], [131.87438329628827, 43.31546204359172], [131.87437905394938, 43.315372111170845], [131.87499487345698, 43.31535662109803], [131.8749991167017, 43.315446553470515], [131.87512228072566, 43.315443455048936], [131.87512652417115, 43.31553338741001], [131.87537285252264, 43.315527190150156], [131.87537709635006, 43.315617122490096], [131.8758697535428, 43.315604726342315], [131.87587399811446, 43.315694658641796], [131.8763666557185, 43.31568226033615], [131.87637090103445, 43.31577219259514], [131.87674039457528, 43.31576289244617], [131.87674464045435, 43.31585282467436], [131.87724154558256, 43.31593035477044], [131.87724579222547, 43.316020286956366], [131.87786161672742, 43.31600478126494], [131.8778658642958, 43.31609471340068], [131.8779890293186, 43.31609161185537], [131.87799327708774, 43.31618154397968], [131.8784859377075, 43.31616913643518], [131.87848168921366, 43.31607920434963], [131.87885118392913, 43.316069897329626], [131.8788554329665, 43.316159829386095], [131.87897859801365, 43.31615672677152], [131.87898284725176, 43.316246658816546], [131.87910601246045, 43.31624355605981], [131.8791102618994, 43.31633348809341], [131.87898709650955, 43.31633659085982], [131.8789913457869, 43.31642652290136], [131.8786218489561, 43.31643583043499], [131.8786176002223, 43.316345898364396], [131.878494434754, 43.31634900060101], [131.87849868330665, 43.3164389326813], [131.87800602051277, 43.31645134034208], [131.87800177268483, 43.31636140822303], [131.87787860711853, 43.31636450979742], [131.87788285476532, 43.31645444192615], [131.87763652321155, 43.31646064469694]]]}, "properties": {"zone_id": "vladivostok-2025-09-15-005", "aoi": "vladivostok", "date": "2025-09-15", "scene_id": "S2C_MSIL2A_20250915T020701_R103_T52TGN_20250915T074314", "scene_datetime_utc": "2025-09-15T02:07:01.025000+00:00", "detection_status": "detected", "detection_status_ru": "обнаружено", "lon": 131.87561, "lat": 43.31581, "n_pixels": 72, "zone_area_km2": 0.0191, "cover_m2": 1415.7, "p_mean": 0.581, "p_max": 0.847, "cover_m2_km2": 74120.4, "h3": "88316ccc13fffff", "valid_frac_scene": 1.0, "wind_ms": 4.5, "sea": "спокойное", "scene_reliable": true, "field_event_id": "S4:DOORS3:T23", "field_profile": "B", "field_date": "2024-06-10", "field_distance_km": 6969.5, "field_date_gap_days": 462, "field_conc_items_km2": 102.37, "conc_A_items_km2": null, "conc_A_lo80": null, "conc_A_hi80": null, "conc_A_lo95": null, "conc_A_hi95": null, "conc_A_status": "unavailable", "conc_A_status_ru": "концентрация недоступна", "conc_A_reasons": "вне бассейна профиля: nw_atlantic_subtropical", "conc_A_model": "conc-A-c6bce5631d2b", "conc_B_items_km2": null, "conc_B_lo80": null, "conc_B_hi80": null, "conc_B_lo95": null, "conc_B_hi95": null, "conc_B_status": "unavailable", "conc_B_status_ru": "концентрация недоступна", "conc_B_reasons": "вне бассейна профиля: black_sea", "conc_B_model": "conc-B-c6bce5631d2b"}}, {"type": "Feature", "geometry": {"type": "MultiPolygon", "coordinates": [[[[131.89350766509406, 43.31569975745112], [131.89351193569024, 43.31578968835142], [131.89412774903377, 43.3157740951498], [131.89413202055545, 43.315864025999645], [131.8942551833462, 43.31586090695225], [131.89425091164335, 43.315770976112155], [131.8944972368034, 43.31576473763953], [131.89449296475797, 43.315674806817164], [131.89461612712728, 43.315671687391934], [131.89460758273322, 43.31549182576139], [131.8943569868944, 43.31540813360303], [131.89436125869955, 43.315498064440426], [131.89423809665314, 43.31550118358128], [131.89424236829686, 43.31559111442666], [131.89411920604957, 43.31559423344483], [131.89411493458704, 43.31550430258971], [131.8939917725012, 43.31550742146569], [131.89398750123954, 43.31541749059907], [131.89374117737108, 43.315423727934224], [131.89374544827044, 43.315513658820336], [131.89349912396088, 43.31551989564522], [131.89350339451764, 43.31560982654905], [131.8933802321521, 43.315612944772575], [131.8933845025474, 43.31570287568439], [131.89350766509406, 43.31569975745112]]], [[[131.89337596177654, 43.315523013859], [131.89312536735514, 43.31543931895444], [131.8931296373487, 43.315529249889245], [131.8928833128421, 43.315535485389745], [131.89288758249305, 43.31562541634226], [131.89276442002904, 43.315628533903585], [131.89276868951853, 43.3157184648641], [131.89251809504188, 43.31563476862892], [131.89252236416908, 43.3157246996089], [131.89227603874085, 43.31573093382393], [131.8922803075254, 43.315820864821625], [131.8919108186918, 43.315830215180085], [131.89191508695257, 43.31592014620522], [131.8917919237875, 43.31592326273622], [131.8917961918868, 43.31601319376935], [131.89191935523306, 43.31601007722861], [131.8919236235332, 43.31610000825024], [131.8921699505289, 43.31609377475197], [131.89216568186643, 43.31600384374982], [131.8922888451536, 43.31600072681175], [131.8922931139972, 43.31609065780417], [131.89253944087474, 43.316084423511235], [131.8925351716688, 43.31599449253829], [131.8927772285566, 43.31589832677983], [131.89277295902772, 43.31580839582284], [131.89289612185405, 43.31580527824204], [131.89290039156413, 43.31589520918929], [131.8932698804684, 43.31588585562302], [131.89326561021485, 43.31579592470499], [131.8933887729624, 43.31579280659443], [131.8933845025474, 43.31570287568439], [131.89326133998102, 43.3157059937852], [131.89325706976692, 43.315616062863654], [131.8933802321521, 43.315612944772575], [131.89337596177654, 43.315523013859]]]]}, "properties": {"zone_id": "vladivostok-2025-09-15-006", "aoi": "vladivostok", "date": "2025-09-15", "scene_id": "S2C_MSIL2A_20250915T020701_R103_T52TGN_20250915T074314", "scene_datetime_utc": "2025-09-15T02:07:01.025000+00:00", "detection_status": "detected", "detection_status_ru": "обнаружено", "lon": 131.89318, "lat": 43.31574, "n_pixels": 22, "zone_area_km2": 0.007, "cover_m2": 404.7, "p_mean": 0.662, "p_max": 0.996, "cover_m2_km2": 57814.3, "h3": "88316cccc9fffff", "valid_frac_scene": 1.0, "wind_ms": 4.5, "sea": "спокойное", "scene_reliable": true, "field_event_id": "S4:DOORS3:T23", "field_profile": "B", "field_date": "2024-06-10", "field_distance_km": 6970.7, "field_date_gap_days": 462, "field_conc_items_km2": 102.37, "conc_A_items_km2": null, "conc_A_lo80": null, "conc_A_hi80": null, "conc_A_lo95": null, "conc_A_hi95": null, "conc_A_status": "unavailable", "conc_A_status_ru": "концентрация недоступна", "conc_A_reasons": "вне бассейна профиля: nw_atlantic_subtropical", "conc_A_model": "conc-A-c6bce5631d2b", "conc_B_items_km2": null, "conc_B_lo80": null, "conc_B_hi80": null, "conc_B_lo95": null, "conc_B_hi95": null, "conc_B_status": "unavailable", "conc_B_status_ru": "концентрация недоступна", "conc_B_reasons": "вне бассейна профиля: black_sea", "conc_B_model": "conc-B-c6bce5631d2b"}}, {"type": "Feature", "geometry": {"type": "Polygon", "coordinates": [[[131.89523193867805, 43.31565608827922], [131.8952276655654, 43.31556615751355], [131.8951045034758, 43.31556927759122], [131.895100230564, 43.31547934681406], [131.89522339247245, 43.31547622674613], [131.89521911939917, 43.31538629597693], [131.8954697162301, 43.315469986212946], [131.8954739896854, 43.315559916960865], [131.89535082763524, 43.315563037303434], [131.89535510092907, 43.31565296805936], [131.89523193867805, 43.31565608827922]]]}, "properties": {"zone_id": "vladivostok-2025-09-15-007", "aoi": "vladivostok", "date": "2025-09-15", "scene_id": "S2C_MSIL2A_20250915T020701_R103_T52TGN_20250915T074314", "scene_datetime_utc": "2025-09-15T02:07:01.025000+00:00", "detection_status": "detected", "detection_status_ru": "обнаружено", "lon": 131.89529, "lat": 43.31552, "n_pixels": 1, "zone_area_km2": 0.0005, "cover_m2": 18.8, "p_mean": 0.529, "p_max": 0.529, "cover_m2_km2": 37600.0, "h3": "88316cccc9fffff", "valid_frac_scene": 1.0, "wind_ms": 4.5, "sea": "спокойное", "scene_reliable": true, "field_event_id": "S4:DOORS3:T23", "field_profile": "B", "field_date": "2024-06-10", "field_distance_km": 6970.9, "field_date_gap_days": 462, "field_conc_items_km2": 102.37, "conc_A_items_km2": null, "conc_A_lo80": null, "conc_A_hi80": null, "conc_A_lo95": null, "conc_A_hi95": null, "conc_A_status": "unavailable", "conc_A_status_ru": "концентрация недоступна", "conc_A_reasons": "вне бассейна профиля: nw_atlantic_subtropical", "conc_A_model": "conc-A-c6bce5631d2b", "conc_B_items_km2": null, "conc_B_lo80": null, "conc_B_hi80": null, "conc_B_lo95": null, "conc_B_hi95": null, "conc_B_status": "unavailable", "conc_B_status_ru": "концентрация недоступна", "conc_B_reasons": "вне бассейна профиля: black_sea", "conc_B_model": "conc-B-c6bce5631d2b"}}, {"type": "Feature", "geometry": {"type": "MultiPolygon", "coordinates": [[[[131.89657817216354, 43.31544189725794], [131.89658244724922, 43.31553182791813], [131.89670560910213, 43.31552870625118], [131.89670133383532, 43.31543877560075], [131.89682449548735, 43.315435653811114], [131.8968202200591, 43.31534572316866], [131.89656962205137, 43.31526203593227], [131.8965738970976, 43.31535196659597], [131.89645073558725, 43.31535508811097], [131.89645501047207, 43.31544501878269], [131.89657817216354, 43.31544189725794]]], [[[131.89633184876084, 43.31544814017499], [131.89632757405718, 43.315358209493546], [131.89595808934868, 43.315367572846625], [131.89596236350886, 43.315457503557326], [131.8957160399089, 43.31546374515001], [131.89572031372649, 43.31555367587844], [131.8955971517158, 43.31555679648588], [131.89560142537195, 43.31564672722231], [131.8957245875638, 43.315643606605136], [131.89572886142082, 43.31573353733005], [131.89609834842156, 43.315724174654626], [131.89609407402105, 43.31563424395895], [131.89634039822727, 43.31562800153263], [131.8963361234842, 43.31553807085469], [131.89645928537658, 43.315534949452626], [131.89645501047207, 43.31544501878269], [131.89633184876084, 43.31544814017499]]]]}, "properties": {"zone_id": "vladivostok-2025-09-15-008", "aoi": "vladivostok", "date": "2025-09-15", "scene_id": "S2C_MSIL2A_20250915T020701_R103_T52TGN_20250915T074314", "scene_datetime_utc": "2025-09-15T02:07:01.025000+00:00", "detection_status": "detected", "detection_status_ru": "обнаружено", "lon": 131.89612, "lat": 43.31552, "n_pixels": 7, "zone_area_km2": 0.0023, "cover_m2": 138.8, "p_mean": 0.55, "p_max": 0.565, "cover_m2_km2": 60347.8, "h3": "88316cccc9fffff", "valid_frac_scene": 1.0, "wind_ms": 4.5, "sea": "спокойное", "scene_reliable": true, "field_event_id": "S4:DOORS3:T23", "field_profile": "B", "field_date": "2024-06-10", "field_distance_km": 6970.9, "field_date_gap_days": 462, "field_conc_items_km2": 102.37, "conc_A_items_km2": null, "conc_A_lo80": null, "conc_A_hi80": null, "conc_A_lo95": null, "conc_A_hi95": null, "conc_A_status": "unavailable", "conc_A_status_ru": "концентрация недоступна", "conc_A_reasons": "вне бассейна профиля: nw_atlantic_subtropical", "conc_A_model": "conc-A-c6bce5631d2b", "conc_B_items_km2": null, "conc_B_lo80": null, "conc_B_hi80": null, "conc_B_lo95": null, "conc_B_hi95": null, "conc_B_status": "unavailable", "conc_B_status_ru": "концентрация недоступна", "conc_B_reasons": "вне бассейна профиля: black_sea", "conc_B_model": "conc-B-c6bce5631d2b"}}, {"type": "Feature", "geometry": {"type": "Polygon", "coordinates": [[[131.90349233642087, 43.31562660094581], [131.90348805113135, 43.31553667083757], [131.90336489000228, 43.3155397998081], [131.90336060491367, 43.315449869688315], [131.90348376586158, 43.31544674072757], [131.9034794806116, 43.31535681061582], [131.9036026413586, 43.315353681532414], [131.9036069267897, 43.31544361163441], [131.90385324858664, 43.31543735305074], [131.9038489627932, 43.3153474229683], [131.90397212348088, 43.315344293487584], [131.90397640945545, 43.315434223560246], [131.90409957030448, 43.315431093937335], [131.90410385648, 43.31552102399846], [131.9039806954498, 43.31552415363115], [131.90398498146396, 43.31561408370029], [131.90386182023286, 43.315617213210324], [131.90385753439986, 43.315527283131416], [131.90361121224063, 43.315533541734624], [131.9036154977113, 43.315623471833085], [131.90349233642087, 43.31562660094581]]]}, "properties": {"zone_id": "vladivostok-2025-09-15-009", "aoi": "vladivostok", "date": "2025-09-15", "scene_id": "S2C_MSIL2A_20250915T020701_R103_T52TGN_20250915T074314", "scene_datetime_utc": "2025-09-15T02:07:01.025000+00:00", "detection_status": "detected", "detection_status_ru": "обнаружено", "lon": 131.90373, "lat": 43.31549, "n_pixels": 2, "zone_area_km2": 0.001, "cover_m2": 43.5, "p_mean": 0.569, "p_max": 0.584, "cover_m2_km2": 43500.0, "h3": "88316cceb5fffff", "valid_frac_scene": 1.0, "wind_ms": 4.5, "sea": "спокойное", "scene_reliable": true, "field_event_id": "S4:DOORS3:T23", "field_profile": "B", "field_date": "2024-06-10", "field_distance_km": 6971.4, "field_date_gap_days": 462, "field_conc_items_km2": 102.37, "conc_A_items_km2": null, "conc_A_lo80": null, "conc_A_hi80": null, "conc_A_lo95": null, "conc_A_hi95": null, "conc_A_status": "unavailable", "conc_A_status_ru": "концентрация недоступна", "conc_A_reasons": "вне бассейна профиля: nw_atlantic_subtropical", "conc_A_model": "conc-A-c6bce5631d2b", "conc_B_items_km2": null, "conc_B_lo80": null, "conc_B_hi80": null, "conc_B_lo95": null, "conc_B_hi95": null, "conc_B_status": "unavailable", "conc_B_status_ru": "концентрация недоступна", "conc_B_reasons": "вне бассейна профиля: black_sea", "conc_B_model": "conc-B-c6bce5631d2b"}}, {"type": "Feature", "geometry": {"type": "Polygon", "coordinates": [[[131.89719825631656, 43.31551621825903], [131.8971939803251, 43.31542628764759], [131.89707081873226, 43.31542940983454], [131.8970665429417, 43.315339479211595], [131.8971897043534, 43.3153363570344], [131.8971854284014, 43.31524642641944], [131.8974360271176, 43.3153301122827], [131.89744030345162, 43.31542004287639], [131.89731714189824, 43.31542316532821], [131.89732141807085, 43.315513095929894], [131.89719825631656, 43.31551621825903]]]}, "properties": {"zone_id": "vladivostok-2025-09-15-010", "aoi": "vladivostok", "date": "2025-09-15", "scene_id": "S2C_MSIL2A_20250915T020701_R103_T52TGN_20250915T074314", "scene_datetime_utc": "2025-09-15T02:07:01.025000+00:00", "detection_status": "detected", "detection_status_ru": "обнаружено", "lon": 131.89725, "lat": 43.31538, "n_pixels": 1, "zone_area_km2": 0.0005, "cover_m2": 20.4, "p_mean": 0.529, "p_max": 0.529, "cover_m2_km2": 40800.0, "h3": "88316cceb5fffff", "valid_frac_scene": 1.0, "wind_ms": 4.5, "sea": "спокойное", "scene_reliable": true, "field_event_id": "S4:DOORS3:T23", "field_profile": "B", "field_date": "2024-06-10", "field_distance_km": 6971.0, "field_date_gap_days": 462, "field_conc_items_km2": 102.37, "conc_A_items_km2": null, "conc_A_lo80": null, "conc_A_hi80": null, "conc_A_lo95": null, "conc_A_hi95": null, "conc_A_status": "unavailable", "conc_A_status_ru": "концентрация недоступна", "conc_A_reasons": "вне бассейна профиля: nw_atlantic_subtropical", "conc_A_model": "conc-A-c6bce5631d2b", "conc_B_items_km2": null, "conc_B_lo80": null, "conc_B_hi80": null, "conc_B_lo95": null, "conc_B_hi95": null, "conc_B_status": "unavailable", "conc_B_status_ru": "концентрация недоступна", "conc_B_reasons": "вне бассейна профиля: black_sea", "conc_B_model": "conc-B-c6bce5631d2b"}}, {"type": "Feature", "geometry": {"type": "Polygon", "coordinates": [[[131.89693483035063, 43.31516273998566], [131.8969305548004, 43.31507280934769], [131.8968073938927, 43.31507593123076], [131.89680311854335, 43.314986000581264], [131.8969262792699, 43.31498287870796], [131.89692200375913, 43.314892948066465], [131.89717260066382, 43.31497663456405], [131.8971768765566, 43.31506656518426], [131.89705371568834, 43.31506968733219], [131.89705799141973, 43.31515961796042], [131.89693483035063, 43.31516273998566]]]}, "properties": {"zone_id": "vladivostok-2025-09-15-011", "aoi": "vladivostok", "date": "2025-09-15", "scene_id": "S2C_MSIL2A_20250915T020701_R103_T52TGN_20250915T074314", "scene_datetime_utc": "2025-09-15T02:07:01.025000+00:00", "detection_status": "detected", "detection_status_ru": "обнаружено", "lon": 131.89699, "lat": 43.31503, "n_pixels": 1, "zone_area_km2": 0.0005, "cover_m2": 17.6, "p_mean": 0.545, "p_max": 0.545, "cover_m2_km2": 35200.0, "h3": "88316cceb5fffff", "valid_frac_scene": 1.0, "wind_ms": 4.5, "sea": "спокойное", "scene_reliable": true, "field_event_id": "S4:DOORS3:T23", "field_profile": "B", "field_date": "2024-06-10", "field_distance_km": 6971.0, "field_date_gap_days": 462, "field_conc_items_km2": 102.37, "conc_A_items_km2": null, "conc_A_lo80": null, "conc_A_hi80": null, "conc_A_lo95": null, "conc_A_hi95": null, "conc_A_status": "unavailable", "conc_A_status_ru": "концентрация недоступна", "conc_A_reasons": "вне бассейна профиля: nw_atlantic_subtropical", "conc_A_model": "conc-A-c6bce5631d2b", "conc_B_items_km2": null, "conc_B_lo80": null, "conc_B_hi80": null, "conc_B_lo95": null, "conc_B_hi95": null, "conc_B_status": "unavailable", "conc_B_status_ru": "концентрация недоступна", "conc_B_reasons": "вне бассейна профиля: black_sea", "conc_B_model": "conc-B-c6bce5631d2b"}}, {"type": "Feature", "geometry": {"type": "Polygon", "coordinates": [[[131.91752829003136, 43.31517910009526], [131.91752398411106, 43.31508917110215], [131.91740082542253, 43.31509231516017], [131.91739651970323, 43.31500238615547], [131.91763853063648, 43.31490616893981], [131.91763422459462, 43.31481623995121], [131.91775738270005, 43.3148130956578], [131.91775307649692, 43.31472316667727], [131.91799939228582, 43.314716877712804], [131.91800369885118, 43.31480680667368], [131.91812685689695, 43.31480366198298], [131.91813116366333, 43.314893590932286], [131.9178891536136, 43.31498980916808], [131.91789346005743, 43.3150797381335], [131.9176471427797, 43.315086026911686], [131.91765144888114, 43.31517595589499], [131.91752829003136, 43.31517910009526]]]}, "properties": {"zone_id": "vladivostok-2025-09-15-012", "aoi": "vladivostok", "date": "2025-09-15", "scene_id": "S2C_MSIL2A_20250915T020701_R103_T52TGN_20250915T074314", "scene_datetime_utc": "2025-09-15T02:07:01.025000+00:00", "detection_status": "detected", "detection_status_ru": "обнаружено", "lon": 131.91779, "lat": 43.31492, "n_pixels": 4, "zone_area_km2": 0.0015, "cover_m2": 69.8, "p_mean": 0.733, "p_max": 0.808, "cover_m2_km2": 46533.3, "h3": "88316ccebbfffff", "valid_frac_scene": 1.0, "wind_ms": 4.5, "sea": "спокойное", "scene_reliable": true, "field_event_id": "S4:DOORS3:T23", "field_profile": "B", "field_date": "2024-06-10", "field_distance_km": 6972.4, "field_date_gap_days": 462, "field_conc_items_km2": 102.37, "conc_A_items_km2": null, "conc_A_lo80": null, "conc_A_hi80": null, "conc_A_lo95": null, "conc_A_hi95": null, "conc_A_status": "unavailable", "conc_A_status_ru": "концентрация недоступна", "conc_A_reasons": "вне бассейна профиля: nw_atlantic_subtropical", "conc_A_model": "conc-A-c6bce5631d2b", "conc_B_items_km2": null, "conc_B_lo80": null, "conc_B_hi80": null, "conc_B_lo95": null, "conc_B_hi95": null, "conc_B_status": "unavailable", "conc_B_status_ru": "концентрация недоступна", "conc_B_reasons": "вне бассейна профиля: black_sea", "conc_B_model": "conc-B-c6bce5631d2b"}}, {"type": "Feature", "geometry": {"type": "Polygon", "coordinates": [[[131.90074425200416, 43.31488603494745], [131.9007399708778, 43.314796104608455], [131.9006168109443, 43.31479923057749], [131.90061253001883, 43.31470930022697], [131.90073568977115, 43.314706174267705], [131.9007314086843, 43.314616243925194], [131.90098200921656, 43.31469992195188], [131.90098629068547, 43.3147898522731], [131.9008631307915, 43.31479297850699], [131.90086741209905, 43.31488290883624], [131.90074425200416, 43.31488603494745]]]}, "properties": {"zone_id": "vladivostok-2025-09-15-013", "aoi": "vladivostok", "date": "2025-09-15", "scene_id": "S2C_MSIL2A_20250915T020701_R103_T52TGN_20250915T074314", "scene_datetime_utc": "2025-09-15T02:07:01.025000+00:00", "detection_status": "detected", "detection_status_ru": "обнаружено", "lon": 131.9008, "lat": 43.31475, "n_pixels": 1, "zone_area_km2": 0.0005, "cover_m2": 18.8, "p_mean": 0.525, "p_max": 0.525, "cover_m2_km2": 37600.0, "h3": "88316cceb5fffff", "valid_frac_scene": 1.0, "wind_ms": 4.5, "sea": "спокойное", "scene_reliable": true, "field_event_id": "S4:DOORS3:T23", "field_profile": "B", "field_date": "2024-06-10", "field_distance_km": 6971.3, "field_date_gap_days": 462, "field_conc_items_km2": 102.37, "conc_A_items_km2": null, "conc_A_lo80": null, "conc_A_hi80": null, "conc_A_lo95": null, "conc_A_hi95": null, "conc_A_status": "unavailable", "conc_A_status_ru": "концентрация недоступна", "conc_A_reasons": "вне бассейна профиля: nw_atlantic_subtropical", "conc_A_model": "conc-A-c6bce5631d2b", "conc_B_items_km2": null, "conc_B_lo80": null, "conc_B_hi80": null, "conc_B_lo95": null, "conc_B_hi95": null, "conc_B_status": "unavailable", "conc_B_status_ru": "концентрация недоступна", "conc_B_reasons": "вне бассейна профиля: black_sea", "conc_B_model": "conc-B-c6bce5631d2b"}}, {"type": "Feature", "geometry": {"type": "Polygon", "coordinates": [[[131.89791156437204, 43.3149578989538], [131.89790728741207, 43.314867968390324], [131.89778412702452, 43.31487109131336], [131.89777985026544, 43.31478116073839], [131.89790301047182, 43.3147780378251], [131.89789873355133, 43.314688107258114], [131.89777557352608, 43.31469123016165], [131.89776702010653, 43.314511369002894], [131.89789017976952, 43.314508246118876], [131.89788590290823, 43.31441831554661], [131.8981322218127, 43.31441206940078], [131.8981279446088, 43.31432213884627], [131.89837426307201, 43.314315892190216], [131.8983785406382, 43.314405822725206], [131.8985017000213, 43.31440269918878], [131.89851453338164, 43.31467249075395], [131.8990028943595, 43.31457006468587], [131.89899433735656, 43.31439020371873], [131.89911749664103, 43.31438707952013], [131.899113217988, 43.31429714904368], [131.89923637707156, 43.31429402472241], [131.89923209825716, 43.31420409425397], [131.89935525713986, 43.314200969810024], [131.89935953613542, 43.314290900268716], [131.89960585420383, 43.31428465096402], [131.8996101335814, 43.31437458140144], [131.89973329276717, 43.314371456540684], [131.89973757234563, 43.31446138696658], [131.90022592931268, 43.31435895577334], [131.9002302096157, 43.314448886160186], [131.90035336888386, 43.31444576062752], [131.9003576493878, 43.31453569100283], [131.9002344899385, 43.31453881654527], [131.90024305064335, 43.314718677310154], [131.900119890812, 43.3147218027397], [131.9001241710129, 43.314811733129275], [131.8998778509287, 43.31481798361055], [131.8998735710901, 43.314728053201456], [131.8996272512892, 43.3147343031335], [131.89962297183263, 43.314644372703114], [131.89949981208372, 43.31464749746073], [131.89950409135912, 43.31473742790085], [131.89926205037264, 43.31483360749616], [131.89926632932523, 43.314923537952325], [131.89877368780043, 43.31493603471604], [131.8987694095724, 43.31484610422086], [131.898646249323, 43.31484922807094], [131.89864197129586, 43.31475929756426], [131.89839992876497, 43.314855475373804], [131.89839565110012, 43.3147655448476], [131.89814933082548, 43.31477179160122], [131.89815360812798, 43.31486172214692], [131.8980304477799, 43.314864845334846], [131.89803472492102, 43.31495477588855], [131.89791156437204, 43.3149578989538]]]}, "properties": {"zone_id": "vladivostok-2025-09-15-014", "aoi": "vladivostok", "date": "2025-09-15", "scene_id": "S2C_MSIL2A_20250915T020701_R103_T52TGN_20250915T074314", "scene_datetime_utc": "2025-09-15T02:07:01.025000+00:00", "detection_status": "detected", "detection_status_ru": "обнаружено", "lon": 131.89902, "lat": 43.3146, "n_pixels": 42, "zone_area_km2": 0.009, "cover_m2": 781.2, "p_mean": 0.674, "p_max": 0.996, "cover_m2_km2": 86800.0, "h3": "88316cceb5fffff", "valid_frac_scene": 1.0, "wind_ms": 4.5, "sea": "спокойное", "scene_reliable": true, "field_event_id": "S4:DOORS3:T23", "field_profile": "B", "field_date": "2024-06-10", "field_distance_km": 6971.2, "field_date_gap_days": 462, "field_conc_items_km2": 102.37, "conc_A_items_km2": null, "conc_A_lo80": null, "conc_A_hi80": null, "conc_A_lo95": null, "conc_A_hi95": null, "conc_A_status": "unavailable", "conc_A_status_ru": "концентрация недоступна", "conc_A_reasons": "вне бассейна профиля: nw_atlantic_subtropical", "conc_A_model": "conc-A-c6bce5631d2b", "conc_B_items_km2": null, "conc_B_lo80": null, "conc_B_hi80": null, "conc_B_lo95": null, "conc_B_hi95": null, "conc_B_status": "unavailable", "conc_B_status_ru": "концентрация недоступна", "conc_B_reasons": "вне бассейна профиля: black_sea", "conc_B_model": "conc-B-c6bce5631d2b"}}, {"type": "Feature", "geometry": {"type": "Polygon", "coordinates": [[[131.92186712699066, 43.313087394983135], [131.92186281498715, 43.31299746630503], [131.92173966099912, 43.31300061491408], [131.9217353491966, 43.31291068622437], [131.92185850300353, 43.312907537625144], [131.92185419103984, 43.3128176089435], [131.92210049823174, 43.31281131136747], [131.92209618592568, 43.31272138270372], [131.922465646021, 43.31271193537607], [131.92246133319154, 43.31262200674008], [131.92258448633572, 43.31261885737587], [131.9225887993463, 43.31270878600202], [131.92271195265172, 43.31270563649555], [131.92270763946001, 43.31261570787924], [131.9229539456489, 43.312609408488726], [131.92295825920286, 43.312699337085384], [131.92308141244857, 43.312696187181665], [131.92309003997838, 43.31287604434998], [131.92296688637043, 43.31287919427338], [131.92297119998406, 43.31296912286473], [131.92284804617515, 43.31297227266554], [131.92284373274262, 43.31288234406435], [131.92259311237683, 43.31279871462642], [131.92259742542723, 43.31288864324905], [131.9223554307403, 43.312984870544625], [131.9223597434683, 43.313074799183404], [131.92211343526927, 43.3130810973481], [131.92210912290352, 43.31299116868966], [131.92198596895528, 43.31299431756354], [131.9219902811399, 43.31308424623184], [131.92186712699066, 43.313087394983135]]]}, "properties": {"zone_id": "vladivostok-2025-09-15-015", "aoi": "vladivostok", "date": "2025-09-15", "scene_id": "S2C_MSIL2A_20250915T020701_R103_T52TGN_20250915T074314", "scene_datetime_utc": "2025-09-15T02:07:01.025000+00:00", "detection_status": "detected", "detection_status_ru": "обнаружено", "lon": 131.92244, "lat": 43.31285, "n_pixels": 9, "zone_area_km2": 0.003, "cover_m2": 163.5, "p_mean": 0.658, "p_max": 0.898, "cover_m2_km2": 54500.0, "h3": "88316ccebbfffff", "valid_frac_scene": 1.0, "wind_ms": 4.5, "sea": "спокойное", "scene_reliable": true, "field_event_id": "S4:DOORS3:T23", "field_profile": "B", "field_date": "2024-06-10", "field_distance_km": 6972.9, "field_date_gap_days": 462, "field_conc_items_km2": 102.37, "conc_A_items_km2": null, "conc_A_lo80": null, "conc_A_hi80": null, "conc_A_lo95": null, "conc_A_hi95": null, "conc_A_status": "unavailable", "conc_A_status_ru": "концентрация недоступна", "conc_A_reasons": "вне бассейна профиля: nw_atlantic_subtropical", "conc_A_model": "conc-A-c6bce5631d2b", "conc_B_items_km2": null, "conc_B_lo80": null, "conc_B_hi80": null, "conc_B_lo95": null, "conc_B_hi95": null, "conc_B_status": "unavailable", "conc_B_status_ru": "концентрация недоступна", "conc_B_reasons": "вне бассейна профиля: black_sea", "conc_B_model": "conc-B-c6bce5631d2b"}}, {"type": "Feature", "geometry": {"type": "Polygon", "coordinates": [[[131.92357402523237, 43.31268358624265], [131.92356971077285, 43.3125936576952], [131.92344655778786, 43.312596808118734], [131.9234379292908, 43.31241695099887], [131.92356108191356, 43.31241380059501], [131.9235567675138, 43.31232387204227], [131.924045061977, 43.31222134062693], [131.9240493770813, 43.312311269142064], [131.92417252942343, 43.31230811808597], [131.924181160054, 43.31248797509128], [131.92405800734966, 43.31249112616705], [131.92406232251372, 43.312581054676905], [131.92369286373793, 43.312590507139255], [131.92369717837855, 43.31268043567686], [131.92357402523237, 43.31268358624265]]]}, "properties": {"zone_id": "vladivostok-2025-09-15-016", "aoi": "vladivostok", "date": "2025-09-15", "scene_id": "S2C_MSIL2A_20250915T020701_R103_T52TGN_20250915T074314", "scene_datetime_utc": "2025-09-15T02:07:01.025000+00:00", "detection_status": "detected", "detection_status_ru": "обнаружено", "lon": 131.92382, "lat": 43.31244, "n_pixels": 7, "zone_area_km2": 0.0019, "cover_m2": 126.3, "p_mean": 0.688, "p_max": 0.91, "cover_m2_km2": 66473.7, "h3": "88316ccebbfffff", "valid_frac_scene": 1.0, "wind_ms": 4.5, "sea": "спокойное", "scene_reliable": true, "field_event_id": "S4:DOORS3:T23", "field_profile": "B", "field_date": "2024-06-10", "field_distance_km": 6973.0, "field_date_gap_days": 462, "field_conc_items_km2": 102.37, "conc_A_items_km2": null, "conc_A_lo80": null, "conc_A_hi80": null, "conc_A_lo95": null, "conc_A_hi95": null, "conc_A_status": "unavailable", "conc_A_status_ru": "концентрация недоступна", "conc_A_reasons": "вне бассейна профиля: nw_atlantic_subtropical", "conc_A_model": "conc-A-c6bce5631d2b", "conc_B_items_km2": null, "conc_B_lo80": null, "conc_B_hi80": null, "conc_B_lo95": null, "conc_B_hi95": null, "conc_B_status": "unavailable", "conc_B_status_ru": "концентрация недоступна", "conc_B_reasons": "вне бассейна профиля: black_sea", "conc_B_model": "conc-B-c6bce5631d2b"}}, {"type": "Feature", "geometry": {"type": "Polygon", "coordinates": [[[131.92576919041903, 43.312177213929935], [131.9257648727991, 43.31208728555086], [131.9256417210781, 43.31209043830862], [131.92563740365924, 43.31200050991793], [131.92576055519916, 43.311997357170014], [131.9257562376191, 43.311907428787414], [131.92600254027693, 43.311901122914044], [131.9260068582192, 43.31199105127696], [131.92613000969934, 43.3119878981318], [131.92613432784265, 43.3120778264831], [131.9260111761814, 43.31208097963809], [131.9260154941635, 43.312170907997476], [131.92576919041903, 43.312177213929935]]]}, "properties": {"zone_id": "vladivostok-2025-09-15-017", "aoi": "vladivostok", "date": "2025-09-15", "scene_id": "S2C_MSIL2A_20250915T020701_R103_T52TGN_20250915T074314", "scene_datetime_utc": "2025-09-15T02:07:01.025000+00:00", "detection_status": "detected", "detection_status_ru": "обнаружено", "lon": 131.92589, "lat": 43.31204, "n_pixels": 2, "zone_area_km2": 0.0008, "cover_m2": 32.2, "p_mean": 0.831, "p_max": 0.839, "cover_m2_km2": 40250.0, "h3": "88316c1b6dfffff", "valid_frac_scene": 1.0, "wind_ms": 4.5, "sea": "спокойное", "scene_reliable": true, "field_event_id": "S4:DOORS3:T23", "field_profile": "B", "field_date": "2024-06-10", "field_distance_km": 6973.1, "field_date_gap_days": 462, "field_conc_items_km2": 102.37, "conc_A_items_km2": null, "conc_A_lo80": null, "conc_A_hi80": null, "conc_A_lo95": null, "conc_A_hi95": null, "conc_A_status": "unavailable", "conc_A_status_ru": "концентрация недоступна", "conc_A_reasons": "вне бассейна профиля: nw_atlantic_subtropical", "conc_A_model": "conc-A-c6bce5631d2b", "conc_B_items_km2": null, "conc_B_lo80": null, "conc_B_hi80": null, "conc_B_lo95": null, "conc_B_hi95": null, "conc_B_status": "unavailable", "conc_B_status_ru": "концентрация недоступна", "conc_B_reasons": "вне бассейна профиля: black_sea", "conc_B_model": "conc-B-c6bce5631d2b"}}, {"type": "Feature", "geometry": {"type": "Polygon", "coordinates": [[[131.68044672324675, 43.17863078119776], [131.68044278578137, 43.17854083182202], [131.68031987697614, 43.178543713337774], [131.68031200245989, 43.178363814563156], [131.68018909399652, 43.178366695929036], [131.68018515694564, 43.17827674653015], [131.68030806522896, 43.17827386517328], [131.6803041280162, 43.178183915781695], [131.68055388174116, 43.17826810206388], [131.68055781933214, 43.17835805143576], [131.68068072774102, 43.17835516967422], [131.68068860333742, 43.17853506839482], [131.68044672324675, 43.17863078119776]]]}, "properties": {"zone_id": "vladivostok-2025-09-15-018", "aoi": "vladivostok", "date": "2025-09-15", "scene_id": "S2C_MSIL2A_20250915T020701_R103_T52TGN_20250915T074314", "scene_datetime_utc": "2025-09-15T02:07:01.025000+00:00", "detection_status": "detected", "detection_status_ru": "обнаружено", "lon": 131.68046, "lat": 43.17841, "n_pixels": 3, "zone_area_km2": 0.0011, "cover_m2": 13.3, "p_mean": 0.861, "p_max": 0.929, "cover_m2_km2": 12090.9, "h3": "88316c4205fffff", "valid_frac_scene": 1.0, "wind_ms": 4.5, "sea": "спокойное", "scene_reliable": true, "field_event_id": "S4:DOORS3:T23", "field_profile": "B", "field_date": "2024-06-10", "field_distance_km": 6964.8, "field_date_gap_days": 462, "field_conc_items_km2": 102.37, "conc_A_items_km2": null, "conc_A_lo80": null, "conc_A_hi80": null, "conc_A_lo95": null, "conc_A_hi95": null, "conc_A_status": "unavailable", "conc_A_status_ru": "концентрация недоступна", "conc_A_reasons": "вне бассейна профиля: nw_atlantic_subtropical", "conc_A_model": "conc-A-c6bce5631d2b", "conc_B_items_km2": null, "conc_B_lo80": null, "conc_B_hi80": null, "conc_B_lo95": null, "conc_B_hi95": null, "conc_B_status": "unavailable", "conc_B_status_ru": "концентрация недоступна", "conc_B_reasons": "вне бассейна профиля: black_sea", "conc_B_model": "conc-B-c6bce5631d2b"}}, {"type": "Feature", "geometry": {"type": "Polygon", "coordinates": [[[131.65187550926998, 43.16948249173371], [131.6518716149888, 43.16939254012096], [131.6517487216695, 43.169395390462995], [131.6517448275862, 43.169305438839636], [131.65186772072556, 43.16930258850652], [131.65186382648025, 43.169212636890364], [131.6521135069504, 43.16929688744474], [131.65211740157355, 43.169386839041366], [131.65199450829013, 43.16938968964708], [131.6519984027513, 43.16947964125093], [131.65187550926998, 43.16948249173371]]]}, "properties": {"zone_id": "vladivostok-2025-09-15-019", "aoi": "vladivostok", "date": "2025-09-15", "scene_id": "S2C_MSIL2A_20250915T020701_R103_T52TGN_20250915T074314", "scene_datetime_utc": "2025-09-15T02:07:01.025000+00:00", "detection_status": "detected", "detection_status_ru": "обнаружено", "lon": 131.65193, "lat": 43.16935, "n_pixels": 1, "zone_area_km2": 0.0005, "cover_m2": 3.5, "p_mean": 0.808, "p_max": 0.808, "cover_m2_km2": 7000.0, "h3": "88316c4319fffff", "valid_frac_scene": 1.0, "wind_ms": 4.5, "sea": "спокойное", "scene_reliable": true, "field_event_id": "S4:DOORS3:T23", "field_profile": "B", "field_date": "2024-06-10", "field_distance_km": 6963.5, "field_date_gap_days": 462, "field_conc_items_km2": 102.37, "conc_A_items_km2": null, "conc_A_lo80": null, "conc_A_hi80": null, "conc_A_lo95": null, "conc_A_hi95": null, "conc_A_status": "unavailable", "conc_A_status_ru": "концентрация недоступна", "conc_A_reasons": "вне бассейна профиля: nw_atlantic_subtropical", "conc_A_model": "conc-A-c6bce5631d2b", "conc_B_items_km2": null, "conc_B_lo80": null, "conc_B_hi80": null, "conc_B_lo95": null, "conc_B_hi95": null, "conc_B_status": "unavailable", "conc_B_status_ru": "концентрация недоступна", "conc_B_reasons": "вне бассейна профиля: black_sea", "conc_B_model": "conc-B-c6bce5631d2b"}}, {"type": "Feature", "geometry": {"type": "Polygon", "coordinates": [[[131.65245102549534, 43.16856872224269], [131.6524471304939, 43.16847877065748], [131.6523242390638, 43.16848162156965], [131.65232034426026, 43.168391669973815], [131.6524432355104, 43.16838881907054], [131.65243934054484, 43.168298867481916], [131.65256223159707, 43.16829601645572], [131.65255833646955, 43.1682060648743], [131.65280801364773, 43.16829031400778], [131.6528119091531, 43.16838026556967], [131.6526890179568, 43.16838311686847], [131.65269291330017, 43.16847306843758], [131.65245102549534, 43.16856872224269]]]}, "properties": {"zone_id": "vladivostok-2025-09-15-020", "aoi": "vladivostok", "date": "2025-09-15", "scene_id": "S2C_MSIL2A_20250915T020701_R103_T52TGN_20250915T074314", "scene_datetime_utc": "2025-09-15T02:07:01.025000+00:00", "detection_status": "detected", "detection_status_ru": "обнаружено", "lon": 131.65257, "lat": 43.16839, "n_pixels": 2, "zone_area_km2": 0.0008, "cover_m2": 7.8, "p_mean": 0.563, "p_max": 0.608, "cover_m2_km2": 9750.0, "h3": "88316c4319fffff", "valid_frac_scene": 1.0, "wind_ms": 4.5, "sea": "спокойное", "scene_reliable": true, "field_event_id": "S4:DOORS3:T23", "field_profile": "B", "field_date": "2024-06-10", "field_distance_km": 6963.6, "field_date_gap_days": 462, "field_conc_items_km2": 102.37, "conc_A_items_km2": null, "conc_A_lo80": null, "conc_A_hi80": null, "conc_A_lo95": null, "conc_A_hi95": null, "conc_A_status": "unavailable", "conc_A_status_ru": "концентрация недоступна", "conc_A_reasons": "вне бассейна профиля: nw_atlantic_subtropical", "conc_A_model": "conc-A-c6bce5631d2b", "conc_B_items_km2": null, "conc_B_lo80": null, "conc_B_hi80": null, "conc_B_lo95": null, "conc_B_hi95": null, "conc_B_status": "unavailable", "conc_B_status_ru": "концентрация недоступна", "conc_B_reasons": "вне бассейна профиля: black_sea", "conc_B_model": "conc-B-c6bce5631d2b"}}, {"type": "Feature", "geometry": {"type": "Polygon", "coordinates": [[[131.7122414599623, 43.14645636224012], [131.71223748030005, 43.146366414712226], [131.712114639192, 43.1463693286545], [131.71210668028186, 43.14618943357534], [131.71234838197384, 43.14609365807155], [131.7123523617608, 43.146183605595496], [131.71247520247275, 43.146180691407984], [131.7124831624611, 43.14636058643249], [131.7122414599623, 43.14645636224012]]]}, "properties": {"zone_id": "vladivostok-2025-09-15-021", "aoi": "vladivostok", "date": "2025-09-15", "scene_id": "S2C_MSIL2A_20250915T020701_R103_T52TGN_20250915T074314", "scene_datetime_utc": "2025-09-15T02:07:01.025000+00:00", "detection_status": "detected", "detection_status_ru": "обнаружено", "lon": 131.71229, "lat": 43.14628, "n_pixels": 2, "zone_area_km2": 0.0008, "cover_m2": 9.0, "p_mean": 0.982, "p_max": 0.988, "cover_m2_km2": 11250.0, "h3": "88316c42e1fffff", "valid_frac_scene": 1.0, "wind_ms": 4.5, "sea": "спокойное", "scene_reliable": true, "field_event_id": "S4:DOORS3:T23", "field_profile": "B", "field_date": "2024-06-10", "field_distance_km": 6969.0, "field_date_gap_days": 462, "field_conc_items_km2": 102.37, "conc_A_items_km2": null, "conc_A_lo80": null, "conc_A_hi80": null, "conc_A_lo95": null, "conc_A_hi95": null, "conc_A_status": "unavailable", "conc_A_status_ru": "концентрация недоступна", "conc_A_reasons": "вне бассейна профиля: nw_atlantic_subtropical", "conc_A_model": "conc-A-c6bce5631d2b", "conc_B_items_km2": null, "conc_B_lo80": null, "conc_B_hi80": null, "conc_B_lo95": null, "conc_B_hi95": null, "conc_B_status": "unavailable", "conc_B_status_ru": "концентрация недоступна", "conc_B_reasons": "вне бассейна профиля: black_sea", "conc_B_model": "conc-B-c6bce5631d2b"}}, {"type": "Feature", "geometry": {"type": "Polygon", "coordinates": [[[131.7052583454533, 43.13311549375859], [131.70525437787865, 43.13302554550067], [131.7051315627656, 43.13302845123063], [131.70512759538877, 43.13293850296193], [131.7052504103222, 43.132935597241044], [131.70524644278407, 43.13284564897971], [131.70536925751966, 43.13284274313625], [131.70536528982024, 43.132752794882265], [131.70561488693602, 43.132836931054314], [131.7056228231081, 43.133016827520784], [131.70550000804988, 43.13301973364574], [131.70550397598373, 43.13310968188549], [131.7052583454533, 43.13311549375859]]]}, "properties": {"zone_id": "vladivostok-2025-09-15-022", "aoi": "vladivostok", "date": "2025-09-15", "scene_id": "S2C_MSIL2A_20250915T020701_R103_T52TGN_20250915T074314", "scene_datetime_utc": "2025-09-15T02:07:01.025000+00:00", "detection_status": "detected", "detection_status_ru": "обнаружено", "lon": 131.70539, "lat": 43.13295, "n_pixels": 3, "zone_area_km2": 0.001, "cover_m2": 10.2, "p_mean": 0.692, "p_max": 0.725, "cover_m2_km2": 10200.0, "h3": "88316c42a9fffff", "valid_frac_scene": 1.0, "wind_ms": 4.5, "sea": "спокойное", "scene_reliable": true, "field_event_id": "S4:DOORS3:T23", "field_profile": "B", "field_date": "2024-06-10", "field_distance_km": 6969.3, "field_date_gap_days": 462, "field_conc_items_km2": 102.37, "conc_A_items_km2": null, "conc_A_lo80": null, "conc_A_hi80": null, "conc_A_lo95": null, "conc_A_hi95": null, "conc_A_status": "unavailable", "conc_A_status_ru": "концентрация недоступна", "conc_A_reasons": "вне бассейна профиля: nw_atlantic_subtropical", "conc_A_model": "conc-A-c6bce5631d2b", "conc_B_items_km2": null, "conc_B_lo80": null, "conc_B_hi80": null, "conc_B_lo95": null, "conc_B_hi95": null, "conc_B_status": "unavailable", "conc_B_status_ru": "концентрация недоступна", "conc_B_reasons": "вне бассейна профиля: black_sea", "conc_B_model": "conc-B-c6bce5631d2b"}}, {"type": "Feature", "geometry": {"type": "Polygon", "coordinates": [[[131.70460445804702, 43.1294392344564], [131.70460049193983, 43.129349286091916], [131.70447768411606, 43.12935219092296], [131.70446975231562, 43.129172294170736], [131.70471140099474, 43.129076536052786], [131.70471536722667, 43.12916648441332], [131.70483817465478, 43.12916357933713], [131.70484610753255, 43.12934347603488], [131.70460445804702, 43.1294392344564]]]}, "properties": {"zone_id": "vladivostok-2025-09-15-023", "aoi": "vladivostok", "date": "2025-09-15", "scene_id": "S2C_MSIL2A_20250915T020701_R103_T52TGN_20250915T074314", "scene_datetime_utc": "2025-09-15T02:07:01.025000+00:00", "detection_status": "detected", "detection_status_ru": "обнаружено", "lon": 131.70466, "lat": 43.12926, "n_pixels": 2, "zone_area_km2": 0.0008, "cover_m2": 7.1, "p_mean": 0.876, "p_max": 0.882, "cover_m2_km2": 8875.0, "h3": "88316c42a1fffff", "valid_frac_scene": 1.0, "wind_ms": 4.5, "sea": "спокойное", "scene_reliable": true, "field_event_id": "S4:DOORS3:T23", "field_profile": "B", "field_date": "2024-06-10", "field_distance_km": 6969.5, "field_date_gap_days": 462, "field_conc_items_km2": 102.37, "conc_A_items_km2": null, "conc_A_lo80": null, "conc_A_hi80": null, "conc_A_lo95": null, "conc_A_hi95": null, "conc_A_status": "unavailable", "conc_A_status_ru": "концентрация недоступна", "conc_A_reasons": "вне бассейна профиля: nw_atlantic_subtropical", "conc_A_model": "conc-A-c6bce5631d2b", "conc_B_items_km2": null, "conc_B_lo80": null, "conc_B_hi80": null, "conc_B_lo95": null, "conc_B_hi95": null, "conc_B_status": "unavailable", "conc_B_status_ru": "концентрация недоступна", "conc_B_reasons": "вне бассейна профиля: black_sea", "conc_B_model": "conc-B-c6bce5631d2b"}}, {"type": "Feature", "geometry": {"type": "Polygon", "coordinates": [[[131.70607021615612, 43.12922446959358], [131.70606624793086, 43.12913452133467], [131.7059434406855, 43.12913742772733], [131.70593550464895, 43.12895753118619], [131.7060583115352, 43.12895462481168], [131.7060543433648, 43.12886467654763], [131.70630392525288, 43.12894881166776], [131.7063078938007, 43.12903875991192], [131.70643070081167, 43.129035853133395], [131.7064346695573, 43.12912580136678], [131.70631186236676, 43.1291287081544], [131.70631583095113, 43.12921865639513], [131.70607021615612, 43.12922446959358]]]}, "properties": {"zone_id": "vladivostok-2025-09-15-024", "aoi": "vladivostok", "date": "2025-09-15", "scene_id": "S2C_MSIL2A_20250915T020701_R103_T52TGN_20250915T074314", "scene_datetime_utc": "2025-09-15T02:07:01.025000+00:00", "detection_status": "detected", "detection_status_ru": "обнаружено", "lon": 131.70617, "lat": 43.12906, "n_pixels": 3, "zone_area_km2": 0.001, "cover_m2": 10.6, "p_mean": 0.843, "p_max": 0.973, "cover_m2_km2": 10600.0, "h3": "88316c42a1fffff", "valid_frac_scene": 1.0, "wind_ms": 4.5, "sea": "спокойное", "scene_reliable": true, "field_event_id": "S4:DOORS3:T23", "field_profile": "B", "field_date": "2024-06-10", "field_distance_km": 6969.6, "field_date_gap_days": 462, "field_conc_items_km2": 102.37, "conc_A_items_km2": null, "conc_A_lo80": null, "conc_A_hi80": null, "conc_A_lo95": null, "conc_A_hi95": null, "conc_A_status": "unavailable", "conc_A_status_ru": "концентрация недоступна", "conc_A_reasons": "вне бассейна профиля: nw_atlantic_subtropical", "conc_A_model": "conc-A-c6bce5631d2b", "conc_B_items_km2": null, "conc_B_lo80": null, "conc_B_hi80": null, "conc_B_lo95": null, "conc_B_hi95": null, "conc_B_status": "unavailable", "conc_B_status_ru": "концентрация недоступна", "conc_B_reasons": "вне бассейна профиля: black_sea", "conc_B_model": "conc-B-c6bce5631d2b"}}, {"type": "Feature", "geometry": {"type": "Polygon", "coordinates": [[[131.82483368480712, 43.081331001747174], [131.82482954948532, 43.08124106175606], [131.82470685024825, 43.081244092923434], [131.8246985800198, 43.08106421291708], [131.82493984231496, 43.08096821050199], [131.8249439777587, 43.08105815048884], [131.8250666765996, 43.08105511907764], [131.8250749479023, 43.08123499902715], [131.82483368480712, 43.081331001747174]]]}, "properties": {"zone_id": "vladivostok-2025-09-15-025", "aoi": "vladivostok", "date": "2025-09-15", "scene_id": "S2C_MSIL2A_20250915T020701_R103_T52TGN_20250915T074314", "scene_datetime_utc": "2025-09-15T02:07:01.025000+00:00", "detection_status": "detected", "detection_status_ru": "обнаружено", "lon": 131.82489, "lat": 43.08115, "n_pixels": 2, "zone_area_km2": 0.0008, "cover_m2": 9.0, "p_mean": 0.712, "p_max": 0.882, "cover_m2_km2": 11250.0, "h3": "88316c4607fffff", "valid_frac_scene": 1.0, "wind_ms": 4.5, "sea": "спокойное", "scene_reliable": true, "field_event_id": "S4:DOORS3:T23", "field_profile": "B", "field_date": "2024-06-10", "field_distance_km": 6980.6, "field_date_gap_days": 462, "field_conc_items_km2": 102.37, "conc_A_items_km2": null, "conc_A_lo80": null, "conc_A_hi80": null, "conc_A_lo95": null, "conc_A_hi95": null, "conc_A_status": "unavailable", "conc_A_status_ru": "концентрация недоступна", "conc_A_reasons": "вне бассейна профиля: nw_atlantic_subtropical", "conc_A_model": "conc-A-c6bce5631d2b", "conc_B_items_km2": null, "conc_B_lo80": null, "conc_B_hi80": null, "conc_B_lo95": null, "conc_B_hi95": null, "conc_B_status": "unavailable", "conc_B_status_ru": "концентрация недоступна", "conc_B_reasons": "вне бассейна профиля: black_sea", "conc_B_model": "conc-B-c6bce5631d2b"}}, {"type": "Feature", "geometry": {"type": "Polygon", "coordinates": [[[131.8319485483832, 43.07845374605729], [131.83194440307082, 43.078363806573684], [131.8318217103291, 43.078366845207945], [131.8318175652148, 43.07827690571309], [131.83194025777752, 43.07827386708831], [131.8319361125033, 43.078183927601216], [131.83218564284573, 43.078267789444645], [131.83218978849703, 43.07835772891102], [131.83206709579346, 43.078360767808036], [131.83207124128486, 43.07845070728214], [131.8319485483832, 43.07845374605729]]]}, "properties": {"zone_id": "vladivostok-2025-09-15-026", "aoi": "vladivostok", "date": "2025-09-15", "scene_id": "S2C_MSIL2A_20250915T020701_R103_T52TGN_20250915T074314", "scene_datetime_utc": "2025-09-15T02:07:01.025000+00:00", "detection_status": "detected", "detection_status_ru": "обнаружено", "lon": 131.832, "lat": 43.07832, "n_pixels": 1, "zone_area_km2": 0.0005, "cover_m2": 5.1, "p_mean": 0.996, "p_max": 0.996, "cover_m2_km2": 10200.0, "h3": "88316c4639fffff", "valid_frac_scene": 1.0, "wind_ms": 4.5, "sea": "спокойное", "scene_reliable": true, "field_event_id": "S4:DOORS3:T23", "field_profile": "B", "field_date": "2024-06-10", "field_distance_km": 6981.2, "field_date_gap_days": 462, "field_conc_items_km2": 102.37, "conc_A_items_km2": null, "conc_A_lo80": null, "conc_A_hi80": null, "conc_A_lo95": null, "conc_A_hi95": null, "conc_A_status": "unavailable", "conc_A_status_ru": "концентрация недоступна", "conc_A_reasons": "вне бассейна профиля: nw_atlantic_subtropical", "conc_A_model": "conc-A-c6bce5631d2b", "conc_B_items_km2": null, "conc_B_lo80": null, "conc_B_hi80": null, "conc_B_lo95": null, "conc_B_hi95": null, "conc_B_status": "unavailable", "conc_B_status_ru": "концентрация недоступна", "conc_B_reasons": "вне бассейна профиля: black_sea", "conc_B_model": "conc-B-c6bce5631d2b"}}, {"type": "Feature", "geometry": {"type": "Polygon", "coordinates": [[[131.95896142732525, 43.05047594021797], [131.9589571004867, 43.05038601039638], [131.95883447730188, 43.05038918355579], [131.9588258240419, 43.05020932388746], [131.95906674271953, 43.05011304766011], [131.95907106967698, 43.050202977477085], [131.95919369246465, 43.05019980407512], [131.95920234679667, 43.05037966368394], [131.95896142732525, 43.05047594021797]]]}, "properties": {"zone_id": "vladivostok-2025-09-15-027", "aoi": "vladivostok", "date": "2025-09-15", "scene_id": "S2C_MSIL2A_20250915T020701_R103_T52TGN_20250915T074314", "scene_datetime_utc": "2025-09-15T02:07:01.025000+00:00", "detection_status": "detected", "detection_status_ru": "обнаружено", "lon": 131.95901, "lat": 43.05029, "n_pixels": 2, "zone_area_km2": 0.0008, "cover_m2": 21.2, "p_mean": 0.924, "p_max": 0.961, "cover_m2_km2": 26500.0, "h3": "88316c09d3fffff", "valid_frac_scene": 1.0, "wind_ms": 4.5, "sea": "спокойное", "scene_reliable": true, "field_event_id": "S4:DOORS3:T23", "field_profile": "B", "field_date": "2024-06-10", "field_distance_km": 6991.6, "field_date_gap_days": 462, "field_conc_items_km2": 102.37, "conc_A_items_km2": null, "conc_A_lo80": null, "conc_A_hi80": null, "conc_A_lo95": null, "conc_A_hi95": null, "conc_A_status": "unavailable", "conc_A_status_ru": "концентрация недоступна", "conc_A_reasons": "вне бассейна профиля: nw_atlantic_subtropical", "conc_A_model": "conc-A-c6bce5631d2b", "conc_B_items_km2": null, "conc_B_lo80": null, "conc_B_hi80": null, "conc_B_lo95": null, "conc_B_hi95": null, "conc_B_status": "unavailable", "conc_B_status_ru": "концентрация недоступна", "conc_B_reasons": "вне бассейна профиля: black_sea", "conc_B_model": "conc-B-c6bce5631d2b"}}]}