{"type": "FeatureCollection", "features": [{"type": "Feature", "geometry": {"type": "Polygon", "coordinates": [[[44.63980822950252, 48.801208380961455], [44.63980887364268, 48.801118423458114], [44.639537167657515, 48.801027614597544], [44.639539101510344, 48.80075774208282], [44.63967527583928, 48.800758167837145], [44.639675920207, 48.80066821032807], [44.63994762450673, 48.80075901886322], [44.639945692845494, 48.80102889138997], [44.64008186791453, 48.80102931666572], [44.64008122426459, 48.801119274173146], [44.63994504895204, 48.80111884889606], [44.639944405055395, 48.801208806400744], [44.63980822950252, 48.801208380961455]]]}, "properties": {"zone_id": "volgograd-2025-07-10-001", "aoi": "volgograd", "date": "2025-07-10", "scene_id": "S2B_MSIL2A_20250710T080609_R078_T38UMV_20250710T103052", "scene_datetime_utc": "2025-07-10T08:06:09.024000+00:00", "detection_status": "detected", "detection_status_ru": "обнаружено", "lon": 44.63978, "lat": 48.80094, "n_pixels": 4, "zone_area_km2": 0.0014, "cover_m2": 28.6, "p_mean": 0.988, "p_max": 1.0, "cover_m2_km2": 20428.6, "h3": "882d48a1e5fffff", "valid_frac_scene": 1.0, "wind_ms": 7.5, "sea": "волнение", "scene_reliable": false, "field_event_id": "S4:DOORS3:T23", "field_profile": "B", "field_date": "2024-06-10", "field_distance_km": 757.4, "field_date_gap_days": 395, "field_conc_items_km2": 102.37, "conc_A_items_km2": null, "conc_A_lo80": null, "conc_A_hi80": null, "conc_A_lo95": null, "conc_A_hi95": null, "conc_A_status": "unavailable", "conc_A_status_ru": "концентрация недоступна", "conc_A_reasons": "вне бассейна профиля: nw_atlantic_subtropical", "conc_A_model": "conc-A-c6bce5631d2b", "conc_B_items_km2": null, "conc_B_lo80": null, "conc_B_hi80": null, "conc_B_lo95": null, "conc_B_hi95": null, "conc_B_status": "unavailable", "conc_B_status_ru": "концентрация недоступна", "conc_B_reasons": "вне бассейна профиля: black_sea", "conc_B_model": "conc-B-c6bce5631d2b"}}]}