{"type": "FeatureCollection", "features": [{"type": "Feature", "geometry": {"type": "Polygon", "coordinates": [[[131.80980710346694, 43.24404561506078], [131.80980296668676, 43.24395567647205], [131.80967993979803, 43.243958700585075], [131.80967166665602, 43.24377882338349], [131.8099135827887, 43.243682836478584], [131.8099177196922, 43.243772775063086], [131.81004074618173, 43.24376975070467], [131.81004902040704, 43.24394962784957], [131.80980710346694, 43.24404561506078]]]}, "properties": {"zone_id": "vladivostok-2026-04-13-001", "aoi": "vladivostok", "date": "2026-04-13", "scene_id": "S2C_MSIL2A_20260413T020651_R103_T52TGN_20260413T055000", "scene_datetime_utc": "2026-04-13T02:06:51.025000+00:00", "detection_status": "detected", "detection_status_ru": "обнаружено", "lon": 131.80986, "lat": 43.24386, "n_pixels": 2, "zone_area_km2": 0.0008, "cover_m2": 11.8, "p_mean": 0.908, "p_max": 0.996, "cover_m2_km2": 14750.0, "h3": "88316c5751fffff", "valid_frac_scene": 0.806, "wind_ms": 5.3, "sea": "спокойное", "scene_reliable": true, "field_event_id": "S4:DOORS3:T23", "field_profile": "B", "field_date": "2024-06-10", "field_distance_km": 6969.5, "field_date_gap_days": 672, "field_conc_items_km2": 102.37, "conc_A_items_km2": null, "conc_A_lo80": null, "conc_A_hi80": null, "conc_A_lo95": null, "conc_A_hi95": null, "conc_A_status": "unavailable", "conc_A_status_ru": "концентрация недоступна", "conc_A_reasons": "вне бассейна профиля: nw_atlantic_subtropical", "conc_A_model": "conc-A-c6bce5631d2b", "conc_B_items_km2": null, "conc_B_lo80": null, "conc_B_hi80": null, "conc_B_lo95": null, "conc_B_hi95": null, "conc_B_status": "unavailable", "conc_B_status_ru": "концентрация недоступна", "conc_B_reasons": "вне бассейна профиля: black_sea", "conc_B_model": "conc-B-c6bce5631d2b"}}, {"type": "Feature", "geometry": {"type": "Polygon", "coordinates": [[[131.80105839582208, 43.23858779401737], [131.80105427269785, 43.238497854668324], [131.8009312558682, 43.23850086907018], [131.80092713294343, 43.238410929709985], [131.80105014959264, 43.238407915317545], [131.8010460265064, 43.23831797596504], [131.80129618283394, 43.23840188613631], [131.80130030630016, 43.238491825468245], [131.8011772895085, 43.238494840134344], [131.80118141281324, 43.23858477947397], [131.80105839582208, 43.23858779401737]]]}, "properties": {"zone_id": "vladivostok-2026-04-13-002", "aoi": "vladivostok", "date": "2026-04-13", "scene_id": "S2C_MSIL2A_20260413T020651_R103_T52TGN_20260413T055000", "scene_datetime_utc": "2026-04-13T02:06:51.025000+00:00", "detection_status": "detected", "detection_status_ru": "обнаружено", "lon": 131.80111, "lat": 43.23845, "n_pixels": 1, "zone_area_km2": 0.0005, "cover_m2": 5.1, "p_mean": 0.6, "p_max": 0.6, "cover_m2_km2": 10200.0, "h3": "88316c5755fffff", "valid_frac_scene": 0.806, "wind_ms": 5.3, "sea": "спокойное", "scene_reliable": true, "field_event_id": "S4:DOORS3:T23", "field_profile": "B", "field_date": "2024-06-10", "field_distance_km": 6969.3, "field_date_gap_days": 672, "field_conc_items_km2": 102.37, "conc_A_items_km2": null, "conc_A_lo80": null, "conc_A_hi80": null, "conc_A_lo95": null, "conc_A_hi95": null, "conc_A_status": "unavailable", "conc_A_status_ru": "концентрация недоступна", "conc_A_reasons": "вне бассейна профиля: nw_atlantic_subtropical", "conc_A_model": "conc-A-c6bce5631d2b", "conc_B_items_km2": null, "conc_B_lo80": null, "conc_B_hi80": null, "conc_B_lo95": null, "conc_B_hi95": null, "conc_B_status": "unavailable", "conc_B_status_ru": "концентрация недоступна", "conc_B_reasons": "вне бассейна профиля: black_sea", "conc_B_model": "conc-B-c6bce5631d2b"}}, {"type": "Feature", "geometry": {"type": "Polygon", "coordinates": [[[131.79660507201297, 43.23815659143566], [131.79660095550074, 43.23806665173741], [131.79647793907023, 43.238069661326584], [131.79647382275752, 43.2379797216172], [131.79623190615226, 43.23807568010857], [131.79622779020053, 43.237985740380395], [131.7961047738936, 43.23798874956381], [131.7960965424081, 43.23780887008344], [131.79633845820572, 43.237712911898114], [131.79634257428103, 43.237802851622085], [131.79658860607805, 43.237796832632284], [131.7965927225333, 43.23788677233573], [131.79671573858383, 43.237883762633246], [131.7967198552386, 43.23797370232555], [131.79684287145065, 43.237970692481554], [131.7968387546154, 43.237880752798645], [131.7970889038178, 43.23796467239719], [131.79709302103302, 43.23805461205955], [131.79697000467843, 43.23805762217719], [131.79697412173212, 43.23814756184723], [131.79672397191231, 43.23806364201612], [131.796728088605, 43.238153581704964], [131.79660507201297, 43.23815659143566]]]}, "properties": {"zone_id": "vladivostok-2026-04-13-003", "aoi": "vladivostok", "date": "2026-04-13", "scene_id": "S2C_MSIL2A_20260413T020651_R103_T52TGN_20260413T055000", "scene_datetime_utc": "2026-04-13T02:06:51.025000+00:00", "detection_status": "detected", "detection_status_ru": "обнаружено", "lon": 131.79653, "lat": 43.23795, "n_pixels": 5, "zone_area_km2": 0.0019, "cover_m2": 31.0, "p_mean": 0.836, "p_max": 0.906, "cover_m2_km2": 16315.8, "h3": "88316c5709fffff", "valid_frac_scene": 0.806, "wind_ms": 5.3, "sea": "спокойное", "scene_reliable": true, "field_event_id": "S4:DOORS3:T23", "field_profile": "B", "field_date": "2024-06-10", "field_distance_km": 6969.0, "field_date_gap_days": 672, "field_conc_items_km2": 102.37, "conc_A_items_km2": null, "conc_A_lo80": null, "conc_A_hi80": null, "conc_A_lo95": null, "conc_A_hi95": null, "conc_A_status": "unavailable", "conc_A_status_ru": "концентрация недоступна", "conc_A_reasons": "вне бассейна профиля: nw_atlantic_subtropical", "conc_A_model": "conc-A-c6bce5631d2b", "conc_B_items_km2": null, "conc_B_lo80": null, "conc_B_hi80": null, "conc_B_lo95": null, "conc_B_hi95": null, "conc_B_status": "unavailable", "conc_B_status_ru": "концентрация недоступна", "conc_B_reasons": "вне бассейна профиля: black_sea", "conc_B_model": "conc-B-c6bce5631d2b"}}, {"type": "Feature", "geometry": {"type": "Polygon", "coordinates": [[[131.78368422181885, 43.235680720357344], [131.78368012466498, 43.2355907796297], [131.78355711186043, 43.23559377518823], [131.78355301490595, 43.235503834449496], [131.78367602753002, 43.23550083890033], [131.78367193041396, 43.23541089816921], [131.78391795524448, 43.23540490669327], [131.78392205272152, 43.235494847405654], [131.78404506528892, 43.235491851460154], [131.78404916296535, 43.23558179216145], [131.78392615021744, 43.235584788116306], [131.7839302477323, 43.235674728825245], [131.78368422181885, 43.235680720357344]]]}, "properties": {"zone_id": "vladivostok-2026-04-13-004", "aoi": "vladivostok", "date": "2026-04-13", "scene_id": "S2C_MSIL2A_20260413T020651_R103_T52TGN_20260413T055000", "scene_datetime_utc": "2026-04-13T02:06:51.025000+00:00", "detection_status": "detected", "detection_status_ru": "обнаружено", "lon": 131.7838, "lat": 43.23554, "n_pixels": 2, "zone_area_km2": 0.0008, "cover_m2": 14.5, "p_mean": 0.967, "p_max": 0.976, "cover_m2_km2": 18125.0, "h3": "88316c570dfffff", "valid_frac_scene": 0.806, "wind_ms": 5.3, "sea": "спокойное", "scene_reliable": true, "field_event_id": "S4:DOORS3:T23", "field_profile": "B", "field_date": "2024-06-10", "field_distance_km": 6968.3, "field_date_gap_days": 672, "field_conc_items_km2": 102.37, "conc_A_items_km2": null, "conc_A_lo80": null, "conc_A_hi80": null, "conc_A_lo95": null, "conc_A_hi95": null, "conc_A_status": "unavailable", "conc_A_status_ru": "концентрация недоступна", "conc_A_reasons": "вне бассейна профиля: nw_atlantic_subtropical", "conc_A_model": "conc-A-c6bce5631d2b", "conc_B_items_km2": null, "conc_B_lo80": null, "conc_B_hi80": null, "conc_B_lo95": null, "conc_B_hi95": null, "conc_B_status": "unavailable", "conc_B_status_ru": "концентрация недоступна", "conc_B_reasons": "вне бассейна профиля: black_sea", "conc_B_model": "conc-B-c6bce5631d2b"}}, {"type": "Feature", "geometry": {"type": "MultiPolygon", "coordinates": [[[[131.78266735225856, 43.23498515473279], [131.78241723365718, 43.23490120263793], [131.78241313847815, 43.23481126180112], [131.78229012710904, 43.23481425595434], [131.78228603212935, 43.23472431510644], [131.78204410431422, 43.23482024386447], [131.78204819895183, 43.234910184729344], [131.78217121053916, 43.23490719083097], [131.78217940023197, 43.23508707253681], [131.78230241216139, 43.235084078487624], [131.7823065072166, 43.23517401932859], [131.78255253137974, 43.23516803081518], [131.78254843596355, 43.23507808999293], [131.78267144783635, 43.23507509554743], [131.78266735225856, 43.23498515473279]]], [[[131.78267963904852, 43.235254977171486], [131.78292975945473, 43.23533892863745], [131.78292566345934, 43.23524898784672], [131.78304867563642, 43.23524599298617], [131.78304048334132, 43.235066111418256], [131.78279036393195, 43.23498216016453], [131.78279445969022, 43.23507210096981], [131.78267144783635, 43.23507509554743], [131.78267963904852, 43.235254977171486]]]]}, "properties": {"zone_id": "vladivostok-2026-04-13-005", "aoi": "vladivostok", "date": "2026-04-13", "scene_id": "S2C_MSIL2A_20260413T020651_R103_T52TGN_20260413T055000", "scene_datetime_utc": "2026-04-13T02:06:51.025000+00:00", "detection_status": "detected", "detection_status_ru": "обнаружено", "lon": 131.78253, "lat": 43.23503, "n_pixels": 6, "zone_area_km2": 0.0021, "cover_m2": 39.6, "p_mean": 0.956, "p_max": 0.996, "cover_m2_km2": 18857.1, "h3": "88316c5705fffff", "valid_frac_scene": 0.806, "wind_ms": 5.3, "sea": "спокойное", "scene_reliable": true, "field_event_id": "S4:DOORS3:T23", "field_profile": "B", "field_date": "2024-06-10", "field_distance_km": 6968.2, "field_date_gap_days": 672, "field_conc_items_km2": 102.37, "conc_A_items_km2": null, "conc_A_lo80": null, "conc_A_hi80": null, "conc_A_lo95": null, "conc_A_hi95": null, "conc_A_status": "unavailable", "conc_A_status_ru": "концентрация недоступна", "conc_A_reasons": "вне бассейна профиля: nw_atlantic_subtropical", "conc_A_model": "conc-A-c6bce5631d2b", "conc_B_items_km2": null, "conc_B_lo80": null, "conc_B_hi80": null, "conc_B_lo95": null, "conc_B_hi95": null, "conc_B_status": "unavailable", "conc_B_status_ru": "концентрация недоступна", "conc_B_reasons": "вне бассейна профиля: black_sea", "conc_B_model": "conc-B-c6bce5631d2b"}}, {"type": "Feature", "geometry": {"type": "Polygon", "coordinates": [[[131.78178989294722, 43.23464634947383], [131.78178579872719, 43.234556408585064], [131.78166278780512, 43.2345594020497], [131.7816586937845, 43.23446946114984], [131.78178170452605, 43.23446646769456], [131.7817776103438, 43.234376526802336], [131.78202772595256, 43.23446048038769], [131.78203182051467, 43.23455042125948], [131.78190880963035, 43.234553414988326], [131.78191290403086, 43.234643355867746], [131.78178989294722, 43.23464634947383]]]}, "properties": {"zone_id": "vladivostok-2026-04-13-006", "aoi": "vladivostok", "date": "2026-04-13", "scene_id": "S2C_MSIL2A_20260413T020651_R103_T52TGN_20260413T055000", "scene_datetime_utc": "2026-04-13T02:06:51.025000+00:00", "detection_status": "detected", "detection_status_ru": "обнаружено", "lon": 131.78185, "lat": 43.23451, "n_pixels": 1, "zone_area_km2": 0.0005, "cover_m2": 4.3, "p_mean": 0.541, "p_max": 0.541, "cover_m2_km2": 8600.0, "h3": "88316c5705fffff", "valid_frac_scene": 0.806, "wind_ms": 5.3, "sea": "спокойное", "scene_reliable": true, "field_event_id": "S4:DOORS3:T23", "field_profile": "B", "field_date": "2024-06-10", "field_distance_km": 6968.2, "field_date_gap_days": 672, "field_conc_items_km2": 102.37, "conc_A_items_km2": null, "conc_A_lo80": null, "conc_A_hi80": null, "conc_A_lo95": null, "conc_A_hi95": null, "conc_A_status": "unavailable", "conc_A_status_ru": "концентрация недоступна", "conc_A_reasons": "вне бассейна профиля: nw_atlantic_subtropical", "conc_A_model": "conc-A-c6bce5631d2b", "conc_B_items_km2": null, "conc_B_lo80": null, "conc_B_hi80": null, "conc_B_lo95": null, "conc_B_hi95": null, "conc_B_status": "unavailable", "conc_B_status_ru": "концентрация недоступна", "conc_B_reasons": "вне бассейна профиля: black_sea", "conc_B_model": "conc-B-c6bce5631d2b"}}, {"type": "Feature", "geometry": {"type": "Polygon", "coordinates": [[[131.78051476554273, 43.2336869273686], [131.78051067333504, 43.233596986367274], [131.78038766420948, 43.233599978408], [131.78037948021168, 43.23342009638147], [131.78062140539055, 43.23332417120814], [131.7806254977221, 43.2334141122053], [131.78074850644902, 43.233411119919076], [131.7807566915296, 43.23359100188951], [131.78051476554273, 43.2336869273686]]]}, "properties": {"zone_id": "vladivostok-2026-04-13-007", "aoi": "vladivostok", "date": "2026-04-13", "scene_id": "S2C_MSIL2A_20260413T020651_R103_T52TGN_20260413T055000", "scene_datetime_utc": "2026-04-13T02:06:51.025000+00:00", "detection_status": "detected", "detection_status_ru": "обнаружено", "lon": 131.78057, "lat": 43.23351, "n_pixels": 2, "zone_area_km2": 0.0008, "cover_m2": 9.4, "p_mean": 0.782, "p_max": 0.937, "cover_m2_km2": 11750.0, "h3": "88316c5705fffff", "valid_frac_scene": 0.806, "wind_ms": 5.3, "sea": "спокойное", "scene_reliable": true, "field_event_id": "S4:DOORS3:T23", "field_profile": "B", "field_date": "2024-06-10", "field_distance_km": 6968.2, "field_date_gap_days": 672, "field_conc_items_km2": 102.37, "conc_A_items_km2": null, "conc_A_lo80": null, "conc_A_hi80": null, "conc_A_lo95": null, "conc_A_hi95": null, "conc_A_status": "unavailable", "conc_A_status_ru": "концентрация недоступна", "conc_A_reasons": "вне бассейна профиля: nw_atlantic_subtropical", "conc_A_model": "conc-A-c6bce5631d2b", "conc_B_items_km2": null, "conc_B_lo80": null, "conc_B_hi80": null, "conc_B_lo95": null, "conc_B_hi95": null, "conc_B_status": "unavailable", "conc_B_status_ru": "концентрация недоступна", "conc_B_reasons": "вне бассейна профиля: black_sea", "conc_B_model": "conc-B-c6bce5631d2b"}}, {"type": "Feature", "geometry": {"type": "Polygon", "coordinates": [[[131.77849345469104, 43.23256554922155], [131.778489365616, 43.23247560804821], [131.7783663585347, 43.23247859785386], [131.77836226965897, 43.23238865666945], [131.7784852765598, 43.23238566687314], [131.77848118752246, 43.232295725696325], [131.77873129030493, 43.23237968688423], [131.77873537972206, 43.23246962804062], [131.77861237267845, 43.23247261811047], [131.77861646193395, 43.23256255927446], [131.77849345469104, 43.23256554922155]]]}, "properties": {"zone_id": "vladivostok-2026-04-13-008", "aoi": "vladivostok", "date": "2026-04-13", "scene_id": "S2C_MSIL2A_20260413T020651_R103_T52TGN_20260413T055000", "scene_datetime_utc": "2026-04-13T02:06:51.025000+00:00", "detection_status": "detected", "detection_status_ru": "обнаружено", "lon": 131.77855, "lat": 43.23243, "n_pixels": 1, "zone_area_km2": 0.0005, "cover_m2": 7.5, "p_mean": 0.624, "p_max": 0.624, "cover_m2_km2": 15000.0, "h3": "88316c5705fffff", "valid_frac_scene": 0.806, "wind_ms": 5.3, "sea": "спокойное", "scene_reliable": true, "field_event_id": "S4:DOORS3:T23", "field_profile": "B", "field_date": "2024-06-10", "field_distance_km": 6968.1, "field_date_gap_days": 672, "field_conc_items_km2": 102.37, "conc_A_items_km2": null, "conc_A_lo80": null, "conc_A_hi80": null, "conc_A_lo95": null, "conc_A_hi95": null, "conc_A_status": "unavailable", "conc_A_status_ru": "концентрация недоступна", "conc_A_reasons": "вне бассейна профиля: nw_atlantic_subtropical", "conc_A_model": "conc-A-c6bce5631d2b", "conc_B_items_km2": null, "conc_B_lo80": null, "conc_B_hi80": null, "conc_B_lo95": null, "conc_B_hi95": null, "conc_B_status": "unavailable", "conc_B_status_ru": "концентрация недоступна", "conc_B_reasons": "вне бассейна профиля: black_sea", "conc_B_model": "conc-B-c6bce5631d2b"}}, {"type": "Feature", "geometry": {"type": "Polygon", "coordinates": [[[131.772716766349, 43.230094636810335], [131.77271268612085, 43.230004695157575], [131.77258968340627, 43.230007678616325], [131.7725815233673, 43.22982779528694], [131.77282344770373, 43.22973188662599], [131.77282752805587, 43.22982182827463], [131.77295053037193, 43.229818844570346], [131.77295869149353, 43.2299987278438], [131.772716766349, 43.230094636810335]]]}, "properties": {"zone_id": "vladivostok-2026-04-13-009", "aoi": "vladivostok", "date": "2026-04-13", "scene_id": "S2C_MSIL2A_20260413T020651_R103_T52TGN_20260413T055000", "scene_datetime_utc": "2026-04-13T02:06:51.025000+00:00", "detection_status": "detected", "detection_status_ru": "обнаружено", "lon": 131.77277, "lat": 43.22991, "n_pixels": 2, "zone_area_km2": 0.0008, "cover_m2": 10.2, "p_mean": 0.992, "p_max": 0.992, "cover_m2_km2": 12750.0, "h3": "88316c5729fffff", "valid_frac_scene": 0.806, "wind_ms": 5.3, "sea": "спокойное", "scene_reliable": true, "field_event_id": "S4:DOORS3:T23", "field_profile": "B", "field_date": "2024-06-10", "field_distance_km": 6967.9, "field_date_gap_days": 672, "field_conc_items_km2": 102.37, "conc_A_items_km2": null, "conc_A_lo80": null, "conc_A_hi80": null, "conc_A_lo95": null, "conc_A_hi95": null, "conc_A_status": "unavailable", "conc_A_status_ru": "концентрация недоступна", "conc_A_reasons": "вне бассейна профиля: nw_atlantic_subtropical", "conc_A_model": "conc-A-c6bce5631d2b", "conc_B_items_km2": null, "conc_B_lo80": null, "conc_B_hi80": null, "conc_B_lo95": null, "conc_B_hi95": null, "conc_B_status": "unavailable", "conc_B_status_ru": "концентрация недоступна", "conc_B_reasons": "вне бассейна профиля: black_sea", "conc_B_model": "conc-B-c6bce5631d2b"}}, {"type": "Feature", "geometry": {"type": "Polygon", "coordinates": [[[131.76789525472455, 43.216075090250854], [131.7678911835794, 43.215985148010056], [131.7677682085452, 43.21598812551677], [131.7677600666717, 43.21580824101141], [131.7676370919794, 43.215811218367485], [131.76763302125116, 43.21572127610291], [131.76775599576317, 43.21571829875614], [131.76775192487335, 43.21562835649912], [131.7680019447309, 43.21571234366649], [131.7680060160001, 43.21580228590317], [131.76812899063614, 43.21579930815101], [131.76813713359144, 43.21597919260055], [131.76789525472455, 43.216075090250854]]]}, "properties": {"zone_id": "vladivostok-2026-04-13-010", "aoi": "vladivostok", "date": "2026-04-13", "scene_id": "S2C_MSIL2A_20260413T020651_R103_T52TGN_20260413T055000", "scene_datetime_utc": "2026-04-13T02:06:51.025000+00:00", "detection_status": "detected", "detection_status_ru": "обнаружено", "lon": 131.76791, "lat": 43.21585, "n_pixels": 3, "zone_area_km2": 0.0011, "cover_m2": 12.5, "p_mean": 0.812, "p_max": 0.929, "cover_m2_km2": 11363.6, "h3": "88316c5723fffff", "valid_frac_scene": 0.806, "wind_ms": 5.3, "sea": "спокойное", "scene_reliable": true, "field_event_id": "S4:DOORS3:T23", "field_profile": "B", "field_date": "2024-06-10", "field_distance_km": 6968.4, "field_date_gap_days": 672, "field_conc_items_km2": 102.37, "conc_A_items_km2": null, "conc_A_lo80": null, "conc_A_hi80": null, "conc_A_lo95": null, "conc_A_hi95": null, "conc_A_status": "unavailable", "conc_A_status_ru": "концентрация недоступна", "conc_A_reasons": "вне бассейна профиля: nw_atlantic_subtropical", "conc_A_model": "conc-A-c6bce5631d2b", "conc_B_items_km2": null, "conc_B_lo80": null, "conc_B_hi80": null, "conc_B_lo95": null, "conc_B_hi95": null, "conc_B_status": "unavailable", "conc_B_status_ru": "концентрация недоступна", "conc_B_reasons": "вне бассейна профиля: black_sea", "conc_B_model": "conc-B-c6bce5631d2b"}}, {"type": "Feature", "geometry": {"type": "Polygon", "coordinates": [[[131.75229306966372, 43.20312573477281], [131.75228902327927, 43.203035791144785], [131.7521660726408, 43.20303875117477], [131.7521579802883, 43.20285886389509], [131.75228093056637, 43.20285590388361], [131.75227688423792, 43.20276596025043], [131.75252278437767, 43.20276003985006], [131.75252683106658, 43.20284998346475], [131.75264978128868, 43.20284702305735], [131.75265382817642, 43.20293696666105], [131.75253087777412, 43.20293992707769], [131.75253492450028, 43.20302987068892], [131.75229306966372, 43.20312573477281]]]}, "properties": {"zone_id": "vladivostok-2026-04-13-011", "aoi": "vladivostok", "date": "2026-04-13", "scene_id": "S2C_MSIL2A_20260413T020651_R103_T52TGN_20260413T055000", "scene_datetime_utc": "2026-04-13T02:06:51.025000+00:00", "detection_status": "detected", "detection_status_ru": "обнаружено", "lon": 131.75239, "lat": 43.20293, "n_pixels": 3, "zone_area_km2": 0.001, "cover_m2": 13.7, "p_mean": 0.99, "p_max": 1.0, "cover_m2_km2": 13700.0, "h3": "88316c5545fffff", "valid_frac_scene": 0.806, "wind_ms": 5.3, "sea": "спокойное", "scene_reliable": true, "field_event_id": "S4:DOORS3:T23", "field_profile": "B", "field_date": "2024-06-10", "field_distance_km": 6968.2, "field_date_gap_days": 672, "field_conc_items_km2": 102.37, "conc_A_items_km2": null, "conc_A_lo80": null, "conc_A_hi80": null, "conc_A_lo95": null, "conc_A_hi95": null, "conc_A_status": "unavailable", "conc_A_status_ru": "концентрация недоступна", "conc_A_reasons": "вне бассейна профиля: nw_atlantic_subtropical", "conc_A_model": "conc-A-c6bce5631d2b", "conc_B_items_km2": null, "conc_B_lo80": null, "conc_B_hi80": null, "conc_B_lo95": null, "conc_B_hi95": null, "conc_B_status": "unavailable", "conc_B_status_ru": "концентрация недоступна", "conc_B_reasons": "вне бассейна профиля: black_sea", "conc_B_model": "conc-B-c6bce5631d2b"}}, {"type": "Feature", "geometry": {"type": "Polygon", "coordinates": [[[131.6941994075033, 43.14724309495216], [131.694195454186, 43.14715314609679], [131.69407260967276, 43.1471560407111], [131.69406865655338, 43.14706609184498], [131.69419150088692, 43.14706319723971], [131.69418754760602, 43.146973248380895], [131.69443323585898, 43.14696745879326], [131.69442928223685, 43.146877509950855], [131.6945521261563, 43.14687461496848], [131.69455607995812, 43.146964563801845], [131.69467892403907, 43.14696166867869], [131.69468287803883, 43.147051617501305], [131.69456003377817, 43.14705451263351], [131.69456398761642, 43.14714446146345], [131.69431829868103, 43.14715025135074], [131.69432225217807, 43.147240200197075], [131.6941994075033, 43.14724309495216]]]}, "properties": {"zone_id": "vladivostok-2026-04-13-012", "aoi": "vladivostok", "date": "2026-04-13", "scene_id": "S2C_MSIL2A_20260413T020651_R103_T52TGN_20260413T055000", "scene_datetime_utc": "2026-04-13T02:06:51.025000+00:00", "detection_status": "detected", "detection_status_ru": "обнаружено", "lon": 131.69438, "lat": 43.14706, "n_pixels": 2, "zone_area_km2": 0.001, "cover_m2": 7.8, "p_mean": 0.935, "p_max": 0.98, "cover_m2_km2": 7800.0, "h3": "88316c4059fffff", "valid_frac_scene": 0.806, "wind_ms": 5.3, "sea": "спокойное", "scene_reliable": true, "field_event_id": "S4:DOORS3:T23", "field_profile": "B", "field_date": "2024-06-10", "field_distance_km": 6967.7, "field_date_gap_days": 672, "field_conc_items_km2": 102.37, "conc_A_items_km2": null, "conc_A_lo80": null, "conc_A_hi80": null, "conc_A_lo95": null, "conc_A_hi95": null, "conc_A_status": "unavailable", "conc_A_status_ru": "концентрация недоступна", "conc_A_reasons": "вне бассейна профиля: nw_atlantic_subtropical", "conc_A_model": "conc-A-c6bce5631d2b", "conc_B_items_km2": null, "conc_B_lo80": null, "conc_B_hi80": null, "conc_B_lo95": null, "conc_B_hi95": null, "conc_B_status": "unavailable", "conc_B_status_ru": "концентрация недоступна", "conc_B_reasons": "вне бассейна профиля: black_sea", "conc_B_model": "conc-B-c6bce5631d2b"}}, {"type": "Feature", "geometry": {"type": "Polygon", "coordinates": [[[131.85763416581136, 43.076103907954945], [131.8576299832754, 43.07601397044167], [131.85750729795998, 43.076017036480955], [131.85750311562225, 43.07592709895635], [131.85762580075865, 43.07592403292665], [131.85762161826116, 43.075834095409895], [131.8578711709737, 43.07591790047321], [131.85787535384839, 43.07600783796906], [131.85775266857152, 43.07601090427105], [131.85775685128647, 43.076100841774725], [131.85763416581136, 43.076103907954945]]]}, "properties": {"zone_id": "vladivostok-2026-04-13-013", "aoi": "vladivostok", "date": "2026-04-13", "scene_id": "S2C_MSIL2A_20260413T020651_R103_T52TGN_20260413T055000", "scene_datetime_utc": "2026-04-13T02:06:51.025000+00:00", "detection_status": "detected", "detection_status_ru": "обнаружено", "lon": 131.85769, "lat": 43.07597, "n_pixels": 1, "zone_area_km2": 0.0005, "cover_m2": 3.9, "p_mean": 0.796, "p_max": 0.796, "cover_m2_km2": 7800.0, "h3": "88316c461bfffff", "valid_frac_scene": 0.806, "wind_ms": 5.3, "sea": "спокойное", "scene_reliable": true, "field_event_id": "S4:DOORS3:T23", "field_profile": "B", "field_date": "2024-06-10", "field_distance_km": 6983.1, "field_date_gap_days": 672, "field_conc_items_km2": 102.37, "conc_A_items_km2": null, "conc_A_lo80": null, "conc_A_hi80": null, "conc_A_lo95": null, "conc_A_hi95": null, "conc_A_status": "unavailable", "conc_A_status_ru": "концентрация недоступна", "conc_A_reasons": "вне бассейна профиля: nw_atlantic_subtropical", "conc_A_model": "conc-A-c6bce5631d2b", "conc_B_items_km2": null, "conc_B_lo80": null, "conc_B_hi80": null, "conc_B_lo95": null, "conc_B_hi95": null, "conc_B_status": "unavailable", "conc_B_status_ru": "концентрация недоступна", "conc_B_reasons": "вне бассейна профиля: black_sea", "conc_B_model": "conc-B-c6bce5631d2b"}}, {"type": "Feature", "geometry": {"type": "Polygon", "coordinates": [[[131.8576606537139, 43.07403227874808], [131.8576564714418, 43.07394234120423], [131.85753379026175, 43.07394540715445], [131.8575254261332, 43.07376553204234], [131.85776660536493, 43.07366946250938], [131.8577707877582, 43.07375940004888], [131.85789346854185, 43.07375633385514], [131.8579018337441, 43.07393620890974], [131.8576606537139, 43.07403227874808]]]}, "properties": {"zone_id": "vladivostok-2026-04-13-014", "aoi": "vladivostok", "date": "2026-04-13", "scene_id": "S2C_MSIL2A_20260413T020651_R103_T52TGN_20260413T055000", "scene_datetime_utc": "2026-04-13T02:06:51.025000+00:00", "detection_status": "detected", "detection_status_ru": "обнаружено", "lon": 131.85771, "lat": 43.07385, "n_pixels": 2, "zone_area_km2": 0.0008, "cover_m2": 9.8, "p_mean": 0.82, "p_max": 0.988, "cover_m2_km2": 12250.0, "h3": "88316c4613fffff", "valid_frac_scene": 0.806, "wind_ms": 5.3, "sea": "спокойное", "scene_reliable": true, "field_event_id": "S4:DOORS3:T23", "field_profile": "B", "field_date": "2024-06-10", "field_distance_km": 6983.3, "field_date_gap_days": 672, "field_conc_items_km2": 102.37, "conc_A_items_km2": null, "conc_A_lo80": null, "conc_A_hi80": null, "conc_A_lo95": null, "conc_A_hi95": null, "conc_A_status": "unavailable", "conc_A_status_ru": "концентрация недоступна", "conc_A_reasons": "вне бассейна профиля: nw_atlantic_subtropical", "conc_A_model": "conc-A-c6bce5631d2b", "conc_B_items_km2": null, "conc_B_lo80": null, "conc_B_hi80": null, "conc_B_lo95": null, "conc_B_hi95": null, "conc_B_status": "unavailable", "conc_B_status_ru": "концентрация недоступна", "conc_B_reasons": "вне бассейна профиля: black_sea", "conc_B_model": "conc-B-c6bce5631d2b"}}, {"type": "Feature", "geometry": {"type": "Polygon", "coordinates": [[[131.76102986348928, 43.00635293498974], [131.76102583207012, 43.00626298892119], [131.7609032754949, 43.00626594756675], [131.7608992442727, 43.00617600148724], [131.76102180066954, 43.00617304285092], [131.76101776928746, 43.00608309677893], [131.76126288166873, 43.006077179131594], [131.76126691340755, 43.00616712518508], [131.76138946974874, 43.00616416615556], [131.76139350168452, 43.006254112198064], [131.76127094516494, 43.006257071236845], [131.76127497694088, 43.0063470172869], [131.76102986348928, 43.00635293498974]]]}, "properties": {"zone_id": "vladivostok-2026-04-13-015", "aoi": "vladivostok", "date": "2026-04-13", "scene_id": "S2C_MSIL2A_20260413T020651_R103_T52TGN_20260413T055000", "scene_datetime_utc": "2026-04-13T02:06:51.025000+00:00", "detection_status": "detected", "detection_status_ru": "обнаружено", "lon": 131.76115, "lat": 43.00622, "n_pixels": 2, "zone_area_km2": 0.0008, "cover_m2": 13.7, "p_mean": 0.982, "p_max": 0.988, "cover_m2_km2": 17125.0, "h3": "88316c45ebfffff", "valid_frac_scene": 0.806, "wind_ms": 5.3, "sea": "спокойное", "scene_reliable": true, "field_event_id": "S4:DOORS3:T23", "field_profile": "B", "field_date": "2024-06-10", "field_distance_km": 6980.9, "field_date_gap_days": 672, "field_conc_items_km2": 102.37, "conc_A_items_km2": null, "conc_A_lo80": null, "conc_A_hi80": null, "conc_A_lo95": null, "conc_A_hi95": null, "conc_A_status": "unavailable", "conc_A_status_ru": "концентрация недоступна", "conc_A_reasons": "вне бассейна профиля: nw_atlantic_subtropical", "conc_A_model": "conc-A-c6bce5631d2b", "conc_B_items_km2": null, "conc_B_lo80": null, "conc_B_hi80": null, "conc_B_lo95": null, "conc_B_hi95": null, "conc_B_status": "unavailable", "conc_B_status_ru": "концентрация недоступна", "conc_B_reasons": "вне бассейна профиля: black_sea", "conc_B_model": "conc-B-c6bce5631d2b"}}]}