{"type": "FeatureCollection", "features": [{"type": "Feature", "geometry": {"type": "Polygon", "coordinates": [[[44.5298009372838, 48.69645795787847], [44.52980177505863, 48.6963679999848], [44.529665884396174, 48.69636744530974], [44.52966756041759, 48.69618752952163], [44.529940178298546, 48.69609868080482], [44.52993934077825, 48.696188638704506], [44.530075230964776, 48.696189193055524], [44.530073556395955, 48.6963691088541], [44.5298009372838, 48.69645795787847]]]}, "properties": {"zone_id": "volgograd-2025-05-03-001", "aoi": "volgograd", "date": "2025-05-03", "scene_id": "S2C_MSIL2A_20250503T075631_R035_T38UMV_20250503T115013", "scene_datetime_utc": "2025-05-03T07:56:31.025000+00:00", "detection_status": "detected", "detection_status_ru": "обнаружено", "lon": 44.52987, "lat": 48.69628, "n_pixels": 2, "zone_area_km2": 0.0008, "cover_m2": 15.7, "p_mean": 0.724, "p_max": 0.863, "cover_m2_km2": 19625.0, "h3": "882d48b9bdfffff", "valid_frac_scene": 0.999, "wind_ms": 4.2, "sea": "спокойное", "scene_reliable": true, "field_event_id": "S4:DOORS3:T23", "field_profile": "B", "field_date": "2024-06-10", "field_distance_km": 743.8, "field_date_gap_days": 327, "field_conc_items_km2": 102.37, "conc_A_items_km2": null, "conc_A_lo80": null, "conc_A_hi80": null, "conc_A_lo95": null, "conc_A_hi95": null, "conc_A_status": "unavailable", "conc_A_status_ru": "концентрация недоступна", "conc_A_reasons": "вне бассейна профиля: nw_atlantic_subtropical", "conc_A_model": "conc-A-c6bce5631d2b", "conc_B_items_km2": null, "conc_B_lo80": null, "conc_B_hi80": null, "conc_B_lo95": null, "conc_B_hi95": null, "conc_B_status": "unavailable", "conc_B_status_ru": "концентрация недоступна", "conc_B_reasons": "вне бассейна профиля: black_sea", "conc_B_model": "conc-B-c6bce5631d2b"}}, {"type": "Feature", "geometry": {"type": "MultiPolygon", "coordinates": [[[[44.5116359718144, 48.635568202490035], [44.511636840094184, 48.63547824387953], [44.511772566793475, 48.63547881928731], [44.51177343482768, 48.63538886067358], [44.51163770836967, 48.63538828526761], [44.51163857664087, 48.63529832665424], [44.511366255466505, 48.6353871339759], [44.511365386708434, 48.635477092584196], [44.51150111339916, 48.63547766831183], [44.51150024487809, 48.635567626920526], [44.5116359718144, 48.635568202490035]]], [[[44.511364517946085, 48.635567051191074], [44.51136364917944, 48.635657009796546], [44.51122792201041, 48.635656433905346], [44.51122705299818, 48.63574639250758], [44.51136278040849, 48.63574696840057], [44.51136104285375, 48.63592688560439], [44.511225314960846, 48.63592630970776], [44.511223576906346, 48.636106226902236], [44.511494165110534, 48.636197337141525], [44.511495033661625, 48.6361073785428], [44.5116307620457, 48.63610795412317], [44.51163249865242, 48.635928036917825], [44.51149677075094, 48.63592746134107], [44.5114985078231, 48.63574754413364], [44.511634235241985, 48.63574811970677], [44.51163510353034, 48.63565816109912], [44.511364517946085, 48.635567051191074]]]]}, "properties": {"zone_id": "volgograd-2025-05-03-002", "aoi": "volgograd", "date": "2025-05-03", "scene_id": "S2C_MSIL2A_20250503T075631_R035_T38UMV_20250503T115013", "scene_datetime_utc": "2025-05-03T07:56:31.025000+00:00", "detection_status": "detected", "detection_status_ru": "обнаружено", "lon": 44.51146, "lat": 48.63579, "n_pixels": 4, "zone_area_km2": 0.0018, "cover_m2": 24.7, "p_mean": 0.832, "p_max": 0.949, "cover_m2_km2": 13722.2, "h3": "882d4816abfffff", "valid_frac_scene": 0.999, "wind_ms": 4.2, "sea": "спокойное", "scene_reliable": true, "field_event_id": "S4:DOORS3:T23", "field_profile": "B", "field_date": "2024-06-10", "field_distance_km": 737.0, "field_date_gap_days": 327, "field_conc_items_km2": 102.37, "conc_A_items_km2": null, "conc_A_lo80": null, "conc_A_hi80": null, "conc_A_lo95": null, "conc_A_hi95": null, "conc_A_status": "unavailable", "conc_A_status_ru": "концентрация недоступна", "conc_A_reasons": "вне бассейна профиля: nw_atlantic_subtropical", "conc_A_model": "conc-A-c6bce5631d2b", "conc_B_items_km2": null, "conc_B_lo80": null, "conc_B_hi80": null, "conc_B_lo95": null, "conc_B_hi95": null, "conc_B_status": "unavailable", "conc_B_status_ru": "концентрация недоступна", "conc_B_reasons": "вне бассейна профиля: black_sea", "conc_B_model": "conc-B-c6bce5631d2b"}}, {"type": "Feature", "geometry": {"type": "Polygon", "coordinates": [[[44.511911764643, 48.63511956006441], [44.51191263241876, 48.635029601443165], [44.51177690692161, 48.63502902620437], [44.51177777493438, 48.63493906758352], [44.511913500190246, 48.63493964282051], [44.51191436795745, 48.63484968419642], [44.511778642942865, 48.63484910896125], [44.51177951094706, 48.63475915033754], [44.5120518280153, 48.634670342015596], [44.51205096049796, 48.63476030064434], [44.512186685279836, 48.63476087555785], [44.51218581799949, 48.63485083418699], [44.512050092976324, 48.634850259271666], [44.51204922545041, 48.634940217897565], [44.51218495071485, 48.634940792814696], [44.51218408342593, 48.63503075144098], [44.511911764643, 48.63511956006441]]]}, "properties": {"zone_id": "volgograd-2025-05-03-003", "aoi": "volgograd", "date": "2025-05-03", "scene_id": "S2C_MSIL2A_20250503T075631_R035_T38UMV_20250503T115013", "scene_datetime_utc": "2025-05-03T07:56:31.025000+00:00", "detection_status": "detected", "detection_status_ru": "обнаружено", "lon": 44.51198, "lat": 48.63489, "n_pixels": 2, "zone_area_km2": 0.0009, "cover_m2": 16.1, "p_mean": 0.961, "p_max": 0.976, "cover_m2_km2": 17888.9, "h3": "882d4816abfffff", "valid_frac_scene": 0.999, "wind_ms": 4.2, "sea": "спокойное", "scene_reliable": true, "field_event_id": "S4:DOORS3:T23", "field_profile": "B", "field_date": "2024-06-10", "field_distance_km": 736.9, "field_date_gap_days": 327, "field_conc_items_km2": 102.37, "conc_A_items_km2": null, "conc_A_lo80": null, "conc_A_hi80": null, "conc_A_lo95": null, "conc_A_hi95": null, "conc_A_status": "unavailable", "conc_A_status_ru": "концентрация недоступна", "conc_A_reasons": "вне бассейна профиля: nw_atlantic_subtropical", "conc_A_model": "conc-A-c6bce5631d2b", "conc_B_items_km2": null, "conc_B_lo80": null, "conc_B_hi80": null, "conc_B_lo95": null, "conc_B_hi95": null, "conc_B_status": "unavailable", "conc_B_status_ru": "концентрация недоступна", "conc_B_reasons": "вне бассейна профиля: black_sea", "conc_B_model": "conc-B-c6bce5631d2b"}}, {"type": "Feature", "geometry": {"type": "Polygon", "coordinates": [[[44.5121875525559, 48.6346709169273], [44.51218841982769, 48.634580958295324], [44.51205269552837, 48.63458038338544], [44.51205356303715, 48.634490424753835], [44.5121892870952, 48.63449099966193], [44.512190154358414, 48.63440104102711], [44.512054430541646, 48.634400466120816], [44.51205529804186, 48.63431050748637], [44.512327612210505, 48.634221698495914], [44.51232674519713, 48.63431165713539], [44.51246246878118, 48.634312231720024], [44.51246160200479, 48.634402190359886], [44.51232587817946, 48.634401615773456], [44.51232501115752, 48.6344915744101], [44.512460735224124, 48.634492148998326], [44.51245986843917, 48.634582107635346], [44.5121875525559, 48.6346709169273]]]}, "properties": {"zone_id": "volgograd-2025-05-03-004", "aoi": "volgograd", "date": "2025-05-03", "scene_id": "S2C_MSIL2A_20250503T075631_R035_T38UMV_20250503T115013", "scene_datetime_utc": "2025-05-03T07:56:31.025000+00:00", "detection_status": "detected", "detection_status_ru": "обнаружено", "lon": 44.51226, "lat": 48.63445, "n_pixels": 2, "zone_area_km2": 0.0009, "cover_m2": 20.0, "p_mean": 0.859, "p_max": 0.918, "cover_m2_km2": 22222.2, "h3": "882d4816abfffff", "valid_frac_scene": 0.999, "wind_ms": 4.2, "sea": "спокойное", "scene_reliable": true, "field_event_id": "S4:DOORS3:T23", "field_profile": "B", "field_date": "2024-06-10", "field_distance_km": 736.8, "field_date_gap_days": 327, "field_conc_items_km2": 102.37, "conc_A_items_km2": null, "conc_A_lo80": null, "conc_A_hi80": null, "conc_A_lo95": null, "conc_A_hi95": null, "conc_A_status": "unavailable", "conc_A_status_ru": "концентрация недоступна", "conc_A_reasons": "вне бассейна профиля: nw_atlantic_subtropical", "conc_A_model": "conc-A-c6bce5631d2b", "conc_B_items_km2": null, "conc_B_lo80": null, "conc_B_hi80": null, "conc_B_lo95": null, "conc_B_hi95": null, "conc_B_status": "unavailable", "conc_B_status_ru": "концентрация недоступна", "conc_B_reasons": "вне бассейна профиля: black_sea", "conc_B_model": "conc-B-c6bce5631d2b"}}, {"type": "Feature", "geometry": {"type": "Polygon", "coordinates": [[[44.51069806252276, 48.63430474964574], [44.510698932431424, 48.634214791027986], [44.5105632091444, 48.63421421436615], [44.51056407929004, 48.63412425574878], [44.51083639504465, 48.63403545028648], [44.51083552538585, 48.63412540890891], [44.51097124844019, 48.634125985249085], [44.510970379018374, 48.63421594387189], [44.51083465572275, 48.6342153675299], [44.51083378605536, 48.634305326149466], [44.51069806252276, 48.63430474964574]]]}, "properties": {"zone_id": "volgograd-2025-05-03-005", "aoi": "volgograd", "date": "2025-05-03", "scene_id": "S2C_MSIL2A_20250503T075631_R035_T38UMV_20250503T115013", "scene_datetime_utc": "2025-05-03T07:56:31.025000+00:00", "detection_status": "detected", "detection_status_ru": "обнаружено", "lon": 44.51077, "lat": 48.63417, "n_pixels": 1, "zone_area_km2": 0.0005, "cover_m2": 7.1, "p_mean": 0.988, "p_max": 0.988, "cover_m2_km2": 14200.0, "h3": "882d4816abfffff", "valid_frac_scene": 0.999, "wind_ms": 4.2, "sea": "спокойное", "scene_reliable": true, "field_event_id": "S4:DOORS3:T23", "field_profile": "B", "field_date": "2024-06-10", "field_distance_km": 736.8, "field_date_gap_days": 327, "field_conc_items_km2": 102.37, "conc_A_items_km2": null, "conc_A_lo80": null, "conc_A_hi80": null, "conc_A_lo95": null, "conc_A_hi95": null, "conc_A_status": "unavailable", "conc_A_status_ru": "концентрация недоступна", "conc_A_reasons": "вне бассейна профиля: nw_atlantic_subtropical", "conc_A_model": "conc-A-c6bce5631d2b", "conc_B_items_km2": null, "conc_B_lo80": null, "conc_B_hi80": null, "conc_B_lo95": null, "conc_B_hi95": null, "conc_B_status": "unavailable", "conc_B_status_ru": "концентрация недоступна", "conc_B_reasons": "вне бассейна профиля: black_sea", "conc_B_model": "conc-B-c6bce5631d2b"}}, {"type": "Feature", "geometry": {"type": "Polygon", "coordinates": [[[44.51440749025602, 48.629642406565175], [44.514408353428614, 48.629552447824615], [44.51427264257064, 48.62955187557433], [44.514274369385475, 48.629371958092534], [44.514546653059455, 48.62928314367937], [44.51454579014085, 48.62937310242601], [44.51468150052493, 48.629373674352905], [44.51467977515736, 48.6295535918455], [44.51440749025602, 48.629642406565175]]]}, "properties": {"zone_id": "volgograd-2025-05-03-006", "aoi": "volgograd", "date": "2025-05-03", "scene_id": "S2C_MSIL2A_20250503T075631_R035_T38UMV_20250503T115013", "scene_datetime_utc": "2025-05-03T07:56:31.025000+00:00", "detection_status": "detected", "detection_status_ru": "обнаружено", "lon": 44.51448, "lat": 48.62946, "n_pixels": 2, "zone_area_km2": 0.0008, "cover_m2": 6.7, "p_mean": 0.959, "p_max": 0.984, "cover_m2_km2": 8375.0, "h3": "882d4816abfffff", "valid_frac_scene": 0.999, "wind_ms": 4.2, "sea": "спокойное", "scene_reliable": true, "field_event_id": "S4:DOORS3:T23", "field_profile": "B", "field_date": "2024-06-10", "field_distance_km": 736.4, "field_date_gap_days": 327, "field_conc_items_km2": 102.37, "conc_A_items_km2": null, "conc_A_lo80": null, "conc_A_hi80": null, "conc_A_lo95": null, "conc_A_hi95": null, "conc_A_status": "unavailable", "conc_A_status_ru": "концентрация недоступна", "conc_A_reasons": "вне бассейна профиля: nw_atlantic_subtropical", "conc_A_model": "conc-A-c6bce5631d2b", "conc_B_items_km2": null, "conc_B_lo80": null, "conc_B_hi80": null, "conc_B_lo95": null, "conc_B_hi95": null, "conc_B_status": "unavailable", "conc_B_status_ru": "концентрация недоступна", "conc_B_reasons": "вне бассейна профиля: black_sea", "conc_B_model": "conc-B-c6bce5631d2b"}}]}