{"type": "FeatureCollection", "features": [{"type": "Feature", "geometry": {"type": "Polygon", "coordinates": [[[44.74358832040481, 48.87894047073747], [44.74358878020897, 48.878850513575394], [44.743452392691786, 48.878850210222296], [44.7434533127824, 48.878670295895795], [44.74372654639355, 48.87858094526958], [44.743726086840795, 48.87867090243686], [44.743862473873406, 48.878671205465416], [44.743861555250184, 48.87885111979765], [44.74358832040481, 48.87894047073747]]]}, "properties": {"zone_id": "volgograd-2026-04-06-001", "aoi": "volgograd", "date": "2026-04-06", "scene_id": "S2B_MSIL2A_20260406T080609_R078_T38UMV_20260406T120606", "scene_datetime_utc": "2026-04-06T08:06:09.024000+00:00", "detection_status": "detected", "detection_status_ru": "обнаружено", "lon": 44.74366, "lat": 48.87876, "n_pixels": 2, "zone_area_km2": 0.0008, "cover_m2": 144.7, "p_mean": 0.839, "p_max": 0.969, "cover_m2_km2": 180875.0, "h3": "882d48ae53fffff", "valid_frac_scene": 0.999, "wind_ms": 6.5, "sea": "волнение", "scene_reliable": true, "field_event_id": "S4:DOORS3:T23", "field_profile": "B", "field_date": "2024-06-10", "field_distance_km": 768.1, "field_date_gap_days": 665, "field_conc_items_km2": 102.37, "conc_A_items_km2": null, "conc_A_lo80": null, "conc_A_hi80": null, "conc_A_lo95": null, "conc_A_hi95": null, "conc_A_status": "unavailable", "conc_A_status_ru": "концентрация недоступна", "conc_A_reasons": "вне бассейна профиля: nw_atlantic_subtropical", "conc_A_model": "conc-A-c6bce5631d2b", "conc_B_items_km2": null, "conc_B_lo80": null, "conc_B_hi80": null, "conc_B_lo95": null, "conc_B_hi95": null, "conc_B_status": "unavailable", "conc_B_status_ru": "концентрация недоступна", "conc_B_reasons": "вне бассейна профиля: black_sea", "conc_B_model": "conc-B-c6bce5631d2b"}}, {"type": "Feature", "geometry": {"type": "Polygon", "coordinates": [[[44.63668618264182, 48.78095765544739], [44.636686831902736, 48.780867697657364], [44.63655071143322, 48.78086726850167], [44.63655136093417, 48.78077731071159], [44.636824250401176, 48.78068821106529], [44.63682360138992, 48.780778168859506], [44.63695972162262, 48.78077859769233], [44.6369590728514, 48.78086855548647], [44.63682295237546, 48.780868126652294], [44.63682230335778, 48.78095808444367], [44.63668618264182, 48.78095765544739]]]}, "properties": {"zone_id": "volgograd-2026-04-06-002", "aoi": "volgograd", "date": "2026-04-06", "scene_id": "S2B_MSIL2A_20260406T080609_R078_T38UMV_20260406T120606", "scene_datetime_utc": "2026-04-06T08:06:09.024000+00:00", "detection_status": "detected", "detection_status_ru": "обнаружено", "lon": 44.63676, "lat": 48.78082, "n_pixels": 1, "zone_area_km2": 0.0005, "cover_m2": 6.3, "p_mean": 0.871, "p_max": 0.871, "cover_m2_km2": 12600.0, "h3": "882d48aaddfffff", "valid_frac_scene": 0.999, "wind_ms": 6.5, "sea": "волнение", "scene_reliable": true, "field_event_id": "S4:DOORS3:T23", "field_profile": "B", "field_date": "2024-06-10", "field_distance_km": 755.2, "field_date_gap_days": 665, "field_conc_items_km2": 102.37, "conc_A_items_km2": null, "conc_A_lo80": null, "conc_A_hi80": null, "conc_A_lo95": null, "conc_A_hi95": null, "conc_A_status": "unavailable", "conc_A_status_ru": "концентрация недоступна", "conc_A_reasons": "вне бассейна профиля: nw_atlantic_subtropical", "conc_A_model": "conc-A-c6bce5631d2b", "conc_B_items_km2": null, "conc_B_lo80": null, "conc_B_hi80": null, "conc_B_lo95": null, "conc_B_hi95": null, "conc_B_status": "unavailable", "conc_B_status_ru": "концентрация недоступна", "conc_B_reasons": "вне бассейна профиля: black_sea", "conc_B_model": "conc-B-c6bce5631d2b"}}]}