{"type": "FeatureCollection", "features": [{"type": "Feature", "geometry": {"type": "Polygon", "coordinates": [[[39.87124754758467, 43.47037571006757], [39.871246254237946, 43.47028567702226], [39.87112263465302, 43.470286618907146], [39.87112004834443, 43.47010655280626], [39.87124366756245, 43.47010561092726], [39.87124237423368, 43.470015577877575], [39.87148961228488, 43.470013693724596], [39.87149090598056, 43.47010372676839], [39.871614525180625, 43.47010278448851], [39.87161711295684, 43.47028285056583], [39.87149349338986, 43.470283792851596], [39.871494787103494, 43.47037382589103], [39.87124754758467, 43.47037571006757]]]}, "properties": {"zone_id": "sochi-2025-07-28-001", "aoi": "sochi", "date": "2025-07-28", "scene_id": "S2C_MSIL2A_20250728T081631_R121_T37TEJ_20250728T115713", "scene_datetime_utc": "2025-07-28T08:16:31.025000+00:00", "detection_status": "detected", "detection_status_ru": "обнаружено", "lon": 39.87137, "lat": 43.47019, "n_pixels": 4, "zone_area_km2": 0.0012, "cover_m2": 16.1, "p_mean": 0.875, "p_max": 0.992, "cover_m2_km2": 13416.7, "h3": "882d568de7fffff", "valid_frac_scene": 1.0, "wind_ms": 3.2, "sea": "спокойное", "scene_reliable": false, "field_event_id": "S4:DOORS3:T17", "field_profile": "B", "field_date": "2024-06-04", "field_distance_km": 182.9, "field_date_gap_days": 419, "field_conc_items_km2": 89.61, "conc_A_items_km2": null, "conc_A_lo80": null, "conc_A_hi80": null, "conc_A_lo95": null, "conc_A_hi95": null, "conc_A_status": "unavailable", "conc_A_status_ru": "концентрация недоступна", "conc_A_reasons": "вне бассейна профиля: nw_atlantic_subtropical", "conc_A_model": "conc-A-c6bce5631d2b", "conc_B_items_km2": 591.0, "conc_B_lo80": 126.1, "conc_B_hi80": 1985.7, "conc_B_lo95": 78.7, "conc_B_hi95": 3718.0, "conc_B_status": "research_estimate", "conc_B_status_ru": "исследовательская оценка", "conc_B_reasons": "ближайшее полевое измерение в 183 км (> 60 км); месяц 7 вне месяцев обучения [6]; log_dist_coast_km = 1.2 вне диапазона обучения [1.7; 5.0]", "conc_B_model": "conc-B-c6bce5631d2b"}}]}