{"type": "FeatureCollection", "features": [{"type": "Feature", "geometry": {"type": "Polygon", "coordinates": [[[44.72830608454767, 48.88016489095221], [44.72830657177712, 48.88007493392002], [44.728170181098854, 48.88007461248597], [44.72817066857047, 48.87998465545342], [44.7284439364203, 48.87989534112218], [44.728443449440256, 48.87998529815818], [44.728579839878776, 48.87998561926858], [44.7285793531409, 48.88007557630418], [44.728442962457805, 48.88007525519276], [44.72844247547293, 48.88016521222595], [44.72830608454767, 48.88016489095221]]]}, "properties": {"zone_id": "volgograd-2026-08-19-001", "aoi": "volgograd", "date": "2026-08-19", "scene_id": "S2C_MSIL2A_20260819T080601_R078_T38UMV_20260819T115013", "scene_datetime_utc": "2026-08-19T08:06:01.025000+00:00", "detection_status": "detected", "detection_status_ru": "обнаружено", "lon": 44.72838, "lat": 48.88003, "n_pixels": 1, "zone_area_km2": 0.0005, "cover_m2": 7.5, "p_mean": 0.714, "p_max": 0.714, "cover_m2_km2": 15000.0, "h3": "882d48ae5bfffff", "valid_frac_scene": 1.0, "wind_ms": 1.6, "sea": "спокойное", "scene_reliable": true, "field_event_id": "S4:DOORS3:T23", "field_profile": "B", "field_date": "2024-06-10", "field_distance_km": 767.9, "field_date_gap_days": 800, "field_conc_items_km2": 102.37, "conc_A_items_km2": null, "conc_A_lo80": null, "conc_A_hi80": null, "conc_A_lo95": null, "conc_A_hi95": null, "conc_A_status": "unavailable", "conc_A_status_ru": "концентрация недоступна", "conc_A_reasons": "вне бассейна профиля: nw_atlantic_subtropical", "conc_A_model": "conc-A-c6bce5631d2b", "conc_B_items_km2": null, "conc_B_lo80": null, "conc_B_hi80": null, "conc_B_lo95": null, "conc_B_hi95": null, "conc_B_status": "unavailable", "conc_B_status_ru": "концентрация недоступна", "conc_B_reasons": "вне бассейна профиля: black_sea", "conc_B_model": "conc-B-c6bce5631d2b"}}, {"type": "Feature", "geometry": {"type": "Polygon", "coordinates": [[[44.730898477701736, 48.879991053463954], [44.730898960279326, 48.87990109640983], [44.73076257004454, 48.87990077804282], [44.73076305286432, 48.87981082098828], [44.73103631517535, 48.87972150050105], [44.73103583284713, 48.87981145755899], [44.73117222284212, 48.87981177560236], [44.73117174075608, 48.879901732659924], [44.73103535051651, 48.87990141461554], [44.7310348681835, 48.87999137167067], [44.730898477701736, 48.879991053463954]]]}, "properties": {"zone_id": "volgograd-2026-08-19-002", "aoi": "volgograd", "date": "2026-08-19", "scene_id": "S2C_MSIL2A_20260819T080601_R078_T38UMV_20260819T115013", "scene_datetime_utc": "2026-08-19T08:06:01.025000+00:00", "detection_status": "detected", "detection_status_ru": "обнаружено", "lon": 44.73097, "lat": 48.87986, "n_pixels": 1, "zone_area_km2": 0.0005, "cover_m2": 7.1, "p_mean": 0.545, "p_max": 0.545, "cover_m2_km2": 14200.0, "h3": "882d48ae5bfffff", "valid_frac_scene": 1.0, "wind_ms": 1.6, "sea": "спокойное", "scene_reliable": true, "field_event_id": "S4:DOORS3:T23", "field_profile": "B", "field_date": "2024-06-10", "field_distance_km": 767.9, "field_date_gap_days": 800, "field_conc_items_km2": 102.37, "conc_A_items_km2": null, "conc_A_lo80": null, "conc_A_hi80": null, "conc_A_lo95": null, "conc_A_hi95": null, "conc_A_status": "unavailable", "conc_A_status_ru": "концентрация недоступна", "conc_A_reasons": "вне бассейна профиля: nw_atlantic_subtropical", "conc_A_model": "conc-A-c6bce5631d2b", "conc_B_items_km2": null, "conc_B_lo80": null, "conc_B_hi80": null, "conc_B_lo95": null, "conc_B_hi95": null, "conc_B_status": "unavailable", "conc_B_status_ru": "концентрация недоступна", "conc_B_reasons": "вне бассейна профиля: black_sea", "conc_B_model": "conc-B-c6bce5631d2b"}}, {"type": "Feature", "geometry": {"type": "Polygon", "coordinates": [[[44.72803525356435, 48.87980441979172], [44.728035741273295, 48.87971446275593], [44.72789935157817, 48.87971414100329], [44.72789983952928, 48.879624183967096], [44.727627549073304, 48.879533582944326], [44.72762803750872, 48.879443625907335], [44.72790130336809, 48.87935431285002], [44.72790081542424, 48.87944426989046], [44.728037204385636, 48.879444591640045], [44.72803671668393, 48.879534548680084], [44.72830900788816, 48.87962514873799], [44.72830852067077, 48.87971510577724], [44.728172130970826, 48.87971478434724], [44.72817164350646, 48.87980474138405], [44.72803525356435, 48.87980441979172]]]}, "properties": {"zone_id": "volgograd-2026-08-19-003", "aoi": "volgograd", "date": "2026-08-19", "scene_id": "S2C_MSIL2A_20260819T080601_R078_T38UMV_20260819T115013", "scene_datetime_utc": "2026-08-19T08:06:01.025000+00:00", "detection_status": "detected", "detection_status_ru": "обнаружено", "lon": 44.72797, "lat": 48.87958, "n_pixels": 3, "zone_area_km2": 0.0011, "cover_m2": 19.2, "p_mean": 0.647, "p_max": 0.859, "cover_m2_km2": 17454.5, "h3": "882d48ae5bfffff", "valid_frac_scene": 1.0, "wind_ms": 1.6, "sea": "спокойное", "scene_reliable": true, "field_event_id": "S4:DOORS3:T23", "field_profile": "B", "field_date": "2024-06-10", "field_distance_km": 767.8, "field_date_gap_days": 800, "field_conc_items_km2": 102.37, "conc_A_items_km2": null, "conc_A_lo80": null, "conc_A_hi80": null, "conc_A_lo95": null, "conc_A_hi95": null, "conc_A_status": "unavailable", "conc_A_status_ru": "концентрация недоступна", "conc_A_reasons": "вне бассейна профиля: nw_atlantic_subtropical", "conc_A_model": "conc-A-c6bce5631d2b", "conc_B_items_km2": null, "conc_B_lo80": null, "conc_B_hi80": null, "conc_B_lo95": null, "conc_B_hi95": null, "conc_B_status": "unavailable", "conc_B_status_ru": "концентрация недоступна", "conc_B_reasons": "вне бассейна профиля: black_sea", "conc_B_model": "conc-B-c6bce5631d2b"}}, {"type": "Feature", "geometry": {"type": "Polygon", "coordinates": [[[44.72503566162859, 48.8796173899194], [44.72503615471336, 48.879527432903174], [44.72489976556089, 48.87952710760366], [44.72490025888779, 48.87943715058705], [44.72517352954133, 48.879347844002645], [44.725173036706025, 48.87943780102272], [44.7253094256188, 48.87943812599859], [44.72530893302563, 48.879528083018265], [44.72517254386827, 48.87952775804138], [44.725172051028075, 48.87961771505863], [44.72503566162859, 48.8796173899194]]]}, "properties": {"zone_id": "volgograd-2026-08-19-004", "aoi": "volgograd", "date": "2026-08-19", "scene_id": "S2C_MSIL2A_20260819T080601_R078_T38UMV_20260819T115013", "scene_datetime_utc": "2026-08-19T08:06:01.025000+00:00", "detection_status": "detected", "detection_status_ru": "обнаружено", "lon": 44.7251, "lat": 48.87948, "n_pixels": 1, "zone_area_km2": 0.0005, "cover_m2": 5.9, "p_mean": 0.678, "p_max": 0.678, "cover_m2_km2": 11800.0, "h3": "882d48ae59fffff", "valid_frac_scene": 1.0, "wind_ms": 1.6, "sea": "спокойное", "scene_reliable": true, "field_event_id": "S4:DOORS3:T23", "field_profile": "B", "field_date": "2024-06-10", "field_distance_km": 767.7, "field_date_gap_days": 800, "field_conc_items_km2": 102.37, "conc_A_items_km2": null, "conc_A_lo80": null, "conc_A_hi80": null, "conc_A_lo95": null, "conc_A_hi95": null, "conc_A_status": "unavailable", "conc_A_status_ru": "концентрация недоступна", "conc_A_reasons": "вне бассейна профиля: nw_atlantic_subtropical", "conc_A_model": "conc-A-c6bce5631d2b", "conc_B_items_km2": null, "conc_B_lo80": null, "conc_B_hi80": null, "conc_B_lo95": null, "conc_B_hi95": null, "conc_B_status": "unavailable", "conc_B_status_ru": "концентрация недоступна", "conc_B_reasons": "вне бассейна профиля: black_sea", "conc_B_model": "conc-B-c6bce5631d2b"}}, {"type": "Feature", "geometry": {"type": "Polygon", "coordinates": [[[44.66810472775981, 48.84681264457892], [44.668105322249716, 48.84672268752222], [44.66796902292624, 48.84672229508144], [44.667969617657334, 48.84663233802457], [44.668242810058864, 48.84654316568172], [44.66824221581898, 48.8466331227425], [44.66837851490421, 48.846633514859775], [44.6683779209055, 48.846723471920356], [44.668241621576136, 48.84672307980185], [44.66824102733036, 48.846813036859785], [44.66810472775981, 48.84681264457892]]]}, "properties": {"zone_id": "volgograd-2026-08-19-005", "aoi": "volgograd", "date": "2026-08-19", "scene_id": "S2C_MSIL2A_20260819T080601_R078_T38UMV_20260819T115013", "scene_datetime_utc": "2026-08-19T08:06:01.025000+00:00", "detection_status": "detected", "detection_status_ru": "обнаружено", "lon": 44.66817, "lat": 48.84668, "n_pixels": 1, "zone_area_km2": 0.0005, "cover_m2": 3.5, "p_mean": 0.698, "p_max": 0.698, "cover_m2_km2": 7000.0, "h3": "882d48a1d3fffff", "valid_frac_scene": 1.0, "wind_ms": 1.6, "sea": "спокойное", "scene_reliable": true, "field_event_id": "S4:DOORS3:T23", "field_profile": "B", "field_date": "2024-06-10", "field_distance_km": 762.9, "field_date_gap_days": 800, "field_conc_items_km2": 102.37, "conc_A_items_km2": null, "conc_A_lo80": null, "conc_A_hi80": null, "conc_A_lo95": null, "conc_A_hi95": null, "conc_A_status": "unavailable", "conc_A_status_ru": "концентрация недоступна", "conc_A_reasons": "вне бассейна профиля: nw_atlantic_subtropical", "conc_A_model": "conc-A-c6bce5631d2b", "conc_B_items_km2": null, "conc_B_lo80": null, "conc_B_hi80": null, "conc_B_lo95": null, "conc_B_hi95": null, "conc_B_status": "unavailable", "conc_B_status_ru": "концентрация недоступна", "conc_B_reasons": "вне бассейна профиля: black_sea", "conc_B_model": "conc-B-c6bce5631d2b"}}, {"type": "Feature", "geometry": {"type": "Polygon", "coordinates": [[[44.680591522610456, 48.833713920954295], [44.68059209447082, 48.83362396358057], [44.68045583051429, 48.833623585975936], [44.68045640261578, 48.833533628602], [44.68059266632836, 48.83353400620545], [44.68059323818306, 48.833444048828916], [44.6808657651288, 48.83344480355029], [44.680865193762, 48.833534760929204], [44.68100145748308, 48.833535138049484], [44.681000886357396, 48.833625095428175], [44.68086462239238, 48.833624718306694], [44.68086405101992, 48.833714675682785], [44.680591522610456, 48.833713920954295]]]}, "properties": {"zone_id": "volgograd-2026-08-19-006", "aoi": "volgograd", "date": "2026-08-19", "scene_id": "S2C_MSIL2A_20260819T080601_R078_T38UMV_20260819T115013", "scene_datetime_utc": "2026-08-19T08:06:01.025000+00:00", "detection_status": "detected", "detection_status_ru": "обнаружено", "lon": 44.68073, "lat": 48.83358, "n_pixels": 2, "zone_area_km2": 0.0008, "cover_m2": 5.9, "p_mean": 0.918, "p_max": 0.984, "cover_m2_km2": 7375.0, "h3": "882d48a19dfffff", "valid_frac_scene": 1.0, "wind_ms": 1.6, "sea": "спокойное", "scene_reliable": true, "field_event_id": "S4:DOORS3:T23", "field_profile": "B", "field_date": "2024-06-10", "field_distance_km": 761.8, "field_date_gap_days": 800, "field_conc_items_km2": 102.37, "conc_A_items_km2": null, "conc_A_lo80": null, "conc_A_hi80": null, "conc_A_lo95": null, "conc_A_hi95": null, "conc_A_status": "unavailable", "conc_A_status_ru": "концентрация недоступна", "conc_A_reasons": "вне бассейна профиля: nw_atlantic_subtropical", "conc_A_model": "conc-A-c6bce5631d2b", "conc_B_items_km2": null, "conc_B_lo80": null, "conc_B_hi80": null, "conc_B_lo95": null, "conc_B_hi95": null, "conc_B_status": "unavailable", "conc_B_status_ru": "концентрация недоступна", "conc_B_reasons": "вне бассейна профиля: black_sea", "conc_B_model": "conc-B-c6bce5631d2b"}}, {"type": "Feature", "geometry": {"type": "Polygon", "coordinates": [[[44.63711727788366, 48.75891881168524], [44.63711792587199, 48.758828853545154], [44.63698186495406, 48.75882842504144], [44.636982513182126, 48.7587384669013], [44.63725528227428, 48.75864936560113], [44.6372546345353, 48.758739323745395], [44.63739069521671, 48.75873975192649], [44.637390047717474, 48.758829710070685], [44.637253986793134, 48.75882928188823], [44.63725333904775, 48.75891924002968], [44.63711727788366, 48.75891881168524]]]}, "properties": {"zone_id": "volgograd-2026-08-19-007", "aoi": "volgograd", "date": "2026-08-19", "scene_id": "S2C_MSIL2A_20260819T080601_R078_T38UMV_20260819T115013", "scene_datetime_utc": "2026-08-19T08:06:01.025000+00:00", "detection_status": "detected", "detection_status_ru": "обнаружено", "lon": 44.63719, "lat": 48.75878, "n_pixels": 1, "zone_area_km2": 0.0005, "cover_m2": 7.5, "p_mean": 0.98, "p_max": 0.98, "cover_m2_km2": 15000.0, "h3": "882d48aaebfffff", "valid_frac_scene": 1.0, "wind_ms": 1.6, "sea": "спокойное", "scene_reliable": true, "field_event_id": "S4:DOORS3:T23", "field_profile": "B", "field_date": "2024-06-10", "field_distance_km": 752.9, "field_date_gap_days": 800, "field_conc_items_km2": 102.37, "conc_A_items_km2": null, "conc_A_lo80": null, "conc_A_hi80": null, "conc_A_lo95": null, "conc_A_hi95": null, "conc_A_status": "unavailable", "conc_A_status_ru": "концентрация недоступна", "conc_A_reasons": "вне бассейна профиля: nw_atlantic_subtropical", "conc_A_model": "conc-A-c6bce5631d2b", "conc_B_items_km2": null, "conc_B_lo80": null, "conc_B_hi80": null, "conc_B_lo95": null, "conc_B_hi95": null, "conc_B_status": "unavailable", "conc_B_status_ru": "концентрация недоступна", "conc_B_reasons": "вне бассейна профиля: black_sea", "conc_B_model": "conc-B-c6bce5631d2b"}}, {"type": "Feature", "geometry": {"type": "Polygon", "coordinates": [[[44.63170837282952, 48.75431368200929], [44.63170903036978, 48.7542237238512], [44.63157298196974, 48.754223288992065], [44.63157495529967, 48.75395341451343], [44.63171100297105, 48.75395384936845], [44.631711660498304, 48.753863891204716], [44.63198375536508, 48.753864760430226], [44.63198309832359, 48.75395471859671], [44.63225519368912, 48.753955587182546], [44.632254537130144, 48.754045545350344], [44.63239058506067, 48.754045979403735], [44.632389928741325, 48.754135937571476], [44.632253880567916, 48.75413550351673], [44.63225322400245, 48.754225461681685], [44.63184507877307, 48.754224158549725], [44.63184442147569, 48.75431411670917], [44.63170837282952, 48.75431368200929]]]}, "properties": {"zone_id": "volgograd-2026-08-19-008", "aoi": "volgograd", "date": "2026-08-19", "scene_id": "S2C_MSIL2A_20260819T080601_R078_T38UMV_20260819T115013", "scene_datetime_utc": "2026-08-19T08:06:01.025000+00:00", "detection_status": "detected", "detection_status_ru": "обнаружено", "lon": 44.63191, "lat": 48.75408, "n_pixels": 7, "zone_area_km2": 0.0019, "cover_m2": 127.5, "p_mean": 0.927, "p_max": 1.0, "cover_m2_km2": 67105.3, "h3": "882d48aae9fffff", "valid_frac_scene": 1.0, "wind_ms": 1.6, "sea": "спокойное", "scene_reliable": true, "field_event_id": "S4:DOORS3:T23", "field_profile": "B", "field_date": "2024-06-10", "field_distance_km": 752.3, "field_date_gap_days": 800, "field_conc_items_km2": 102.37, "conc_A_items_km2": null, "conc_A_lo80": null, "conc_A_hi80": null, "conc_A_lo95": null, "conc_A_hi95": null, "conc_A_status": "unavailable", "conc_A_status_ru": "концентрация недоступна", "conc_A_reasons": "вне бассейна профиля: nw_atlantic_subtropical", "conc_A_model": "conc-A-c6bce5631d2b", "conc_B_items_km2": null, "conc_B_lo80": null, "conc_B_hi80": null, "conc_B_lo95": null, "conc_B_hi95": null, "conc_B_status": "unavailable", "conc_B_status_ru": "концентрация недоступна", "conc_B_reasons": "вне бассейна профиля: black_sea", "conc_B_model": "conc-B-c6bce5631d2b"}}]}