{"type": "FeatureCollection", "features": [{"type": "Feature", "geometry": {"type": "Polygon", "coordinates": [[[29.902205019347022, 60.08461955071718], [29.902197131301314, 60.084529874464295], [29.90201762000192, 60.08453381486474], [29.902009732492374, 60.08444413859583], [29.90218924330554, 60.08444019820955], [29.90218135535972, 60.08435052195297], [29.902548264782034, 60.084432316706945], [29.90255615375026, 60.08452199293329], [29.902376642550763, 60.08452593382048], [29.902384531082706, 60.084615610059174], [29.902205019347022, 60.08461955071718]]]}, "properties": {"zone_id": "neva-2025-07-18-001", "aoi": "neva", "date": "2025-07-18", "scene_id": "S2A_MSIL2A_20250718T092051_R093_T36VUM_20250718T105813", "scene_datetime_utc": "2025-07-18T09:20:51.024000+00:00", "detection_status": "detected", "detection_status_ru": "обнаружено", "lon": 29.90228, "lat": 60.08448, "n_pixels": 1, "zone_area_km2": 0.0005, "cover_m2": 4.3, "p_mean": 0.973, "p_max": 0.973, "cover_m2_km2": 8600.0, "h3": "881106b16dfffff", "valid_frac_scene": 1.0, "wind_ms": 5.6, "sea": "спокойное", "scene_reliable": true, "field_event_id": "S3:HE419_MarLitter_transect28", "field_profile": "B", "field_date": "2014-04-11", "field_distance_km": 1410.7, "field_date_gap_days": 4116, "field_conc_items_km2": 43.1, "conc_A_items_km2": null, "conc_A_lo80": null, "conc_A_hi80": null, "conc_A_lo95": null, "conc_A_hi95": null, "conc_A_status": "unavailable", "conc_A_status_ru": "концентрация недоступна", "conc_A_reasons": "вне бассейна профиля: nw_atlantic_subtropical", "conc_A_model": "conc-A-c6bce5631d2b", "conc_B_items_km2": null, "conc_B_lo80": null, "conc_B_hi80": null, "conc_B_lo95": null, "conc_B_hi95": null, "conc_B_status": "unavailable", "conc_B_status_ru": "концентрация недоступна", "conc_B_reasons": "вне бассейна профиля: black_sea", "conc_B_model": "conc-B-c6bce5631d2b"}}, {"type": "Feature", "geometry": {"type": "Polygon", "coordinates": [[[29.755136512342364, 60.063687749753036], [29.755129030022324, 60.063598061835535], [29.754949609663413, 60.06360180193424], [29.754934646136917, 60.06342242606699], [29.755114065524303, 60.06341868599524], [29.75510658334633, 60.063328998072365], [29.75547290415703, 60.06341120512195], [29.755487870598078, 60.06359058090839], [29.755136512342364, 60.063687749753036]]]}, "properties": {"zone_id": "neva-2025-07-18-002", "aoi": "neva", "date": "2025-07-18", "scene_id": "S2A_MSIL2A_20250718T092051_R093_T36VUM_20250718T105813", "scene_datetime_utc": "2025-07-18T09:20:51.024000+00:00", "detection_status": "detected", "detection_status_ru": "обнаружено", "lon": 29.75521, "lat": 60.06351, "n_pixels": 2, "zone_area_km2": 0.0008, "cover_m2": 7.1, "p_mean": 0.996, "p_max": 0.996, "cover_m2_km2": 8875.0, "h3": "88110686e5fffff", "valid_frac_scene": 1.0, "wind_ms": 5.6, "sea": "спокойное", "scene_reliable": true, "field_event_id": "S3:HE419_MarLitter_transect28", "field_profile": "B", "field_date": "2014-04-11", "field_distance_km": 1402.2, "field_date_gap_days": 4116, "field_conc_items_km2": 43.1, "conc_A_items_km2": null, "conc_A_lo80": null, "conc_A_hi80": null, "conc_A_lo95": null, "conc_A_hi95": null, "conc_A_status": "unavailable", "conc_A_status_ru": "концентрация недоступна", "conc_A_reasons": "вне бассейна профиля: nw_atlantic_subtropical", "conc_A_model": "conc-A-c6bce5631d2b", "conc_B_items_km2": null, "conc_B_lo80": null, "conc_B_hi80": null, "conc_B_lo95": null, "conc_B_hi95": null, "conc_B_status": "unavailable", "conc_B_status_ru": "концентрация недоступна", "conc_B_reasons": "вне бассейна профиля: black_sea", "conc_B_model": "conc-B-c6bce5631d2b"}}, {"type": "Feature", "geometry": {"type": "Polygon", "coordinates": [[[29.579017740171903, 60.00399573643991], [29.579010752638798, 60.00390603485789], [29.578831629992035, 60.003909533963935], [29.578824642987076, 60.003819832367604], [29.579003765149842, 60.00381633327415], [29.578996777705036, 60.0037266316887], [29.579355020930123, 60.00371963279871], [29.579362009342912, 60.003809334359], [29.579541131373208, 60.00380583453729], [29.579548120314154, 60.003895536083256], [29.57936899779986, 60.00389903591756], [29.579375986300967, 60.00398873747439], [29.579017740171903, 60.00399573643991]]]}, "properties": {"zone_id": "neva-2025-07-18-003", "aoi": "neva", "date": "2025-07-18", "scene_id": "S2A_MSIL2A_20250718T092051_R093_T36VUM_20250718T105813", "scene_datetime_utc": "2025-07-18T09:20:51.024000+00:00", "detection_status": "detected", "detection_status_ru": "обнаружено", "lon": 29.57919, "lat": 60.00386, "n_pixels": 2, "zone_area_km2": 0.0008, "cover_m2": 5.5, "p_mean": 0.931, "p_max": 0.992, "cover_m2_km2": 6875.0, "h3": "88110695c5fffff", "valid_frac_scene": 1.0, "wind_ms": 5.6, "sea": "спокойное", "scene_reliable": true, "field_event_id": "S3:HE419_MarLitter_transect28", "field_profile": "B", "field_date": "2014-04-11", "field_distance_km": 1391.1, "field_date_gap_days": 4116, "field_conc_items_km2": 43.1, "conc_A_items_km2": null, "conc_A_lo80": null, "conc_A_hi80": null, "conc_A_lo95": null, "conc_A_hi95": null, "conc_A_status": "unavailable", "conc_A_status_ru": "концентрация недоступна", "conc_A_reasons": "вне бассейна профиля: nw_atlantic_subtropical", "conc_A_model": "conc-A-c6bce5631d2b", "conc_B_items_km2": null, "conc_B_lo80": null, "conc_B_hi80": null, "conc_B_lo95": null, "conc_B_hi95": null, "conc_B_status": "unavailable", "conc_B_status_ru": "концентрация недоступна", "conc_B_reasons": "вне бассейна профиля: black_sea", "conc_B_model": "conc-B-c6bce5631d2b"}}, {"type": "Feature", "geometry": {"type": "Polygon", "coordinates": [[[29.725852413417154, 59.985412625492586], [29.725845033867124, 59.985322934309934], [29.725666032887045, 59.98532663181408], [29.72565127489304, 59.98514724941686], [29.725830274906855, 59.9851435519393], [29.725822895496623, 59.98505386075133], [29.726188274794687, 59.98513615625668], [29.726203035687483, 59.98531553857412], [29.725852413417154, 59.985412625492586]]]}, "properties": {"zone_id": "neva-2025-07-18-004", "aoi": "neva", "date": "2025-07-18", "scene_id": "S2A_MSIL2A_20250718T092051_R093_T36VUM_20250718T105813", "scene_datetime_utc": "2025-07-18T09:20:51.024000+00:00", "detection_status": "detected", "detection_status_ru": "обнаружено", "lon": 29.72593, "lat": 59.98523, "n_pixels": 2, "zone_area_km2": 0.0008, "cover_m2": 8.2, "p_mean": 0.927, "p_max": 0.976, "cover_m2_km2": 10250.0, "h3": "881106872bfffff", "valid_frac_scene": 1.0, "wind_ms": 5.6, "sea": "спокойное", "scene_reliable": true, "field_event_id": "S3:HE419_MarLitter_transect28", "field_profile": "B", "field_date": "2014-04-11", "field_distance_km": 1398.5, "field_date_gap_days": 4116, "field_conc_items_km2": 43.1, "conc_A_items_km2": null, "conc_A_lo80": null, "conc_A_hi80": null, "conc_A_lo95": null, "conc_A_hi95": null, "conc_A_status": "unavailable", "conc_A_status_ru": "концентрация недоступна", "conc_A_reasons": "вне бассейна профиля: nw_atlantic_subtropical", "conc_A_model": "conc-A-c6bce5631d2b", "conc_B_items_km2": null, "conc_B_lo80": null, "conc_B_hi80": null, "conc_B_lo95": null, "conc_B_hi95": null, "conc_B_status": "unavailable", "conc_B_status_ru": "концентрация недоступна", "conc_B_reasons": "вне бассейна профиля: black_sea", "conc_B_model": "conc-B-c6bce5631d2b"}}, {"type": "Feature", "geometry": {"type": "Polygon", "coordinates": [[[30.085939562853337, 59.98170483452048], [30.08593121059215, 59.98161517190773], [30.085752286737197, 59.98161935727275], [30.085743935011124, 59.981529694643], [30.085922858383682, 59.98152550929303], [30.085914506227933, 59.98143584667644], [30.085735583337765, 59.981440032011356], [30.085727231717115, 59.98135036937774], [30.085548309256612, 59.98135455445536], [30.085539958171072, 59.98126489180479], [30.08571888014919, 59.98126070674223], [30.08571052863397, 59.98117104410476], [30.08606837146731, 59.98116267328293], [30.086076723947283, 59.98125233589029], [30.086255645767253, 59.98124815010093], [30.08626399878232, 59.9813378126913], [30.086085076479975, 59.98134199849572], [30.08609342906539, 59.981431661099265], [30.086459628185036, 59.98151295178956], [30.086467981840677, 59.98160261435912], [30.08628905814389, 59.98160680045092], [30.086297411369863, 59.98169646303357], [30.085939562853337, 59.98170483452048]]]}, "properties": {"zone_id": "neva-2025-07-18-005", "aoi": "neva", "date": "2025-07-18", "scene_id": "S2A_MSIL2A_20250718T092051_R093_T36VUM_20250718T105813", "scene_datetime_utc": "2025-07-18T09:20:51.024000+00:00", "detection_status": "detected", "detection_status_ru": "обнаружено", "lon": 30.086, "lat": 59.98143, "n_pixels": 4, "zone_area_km2": 0.0016, "cover_m2": 27.1, "p_mean": 0.829, "p_max": 0.937, "cover_m2_km2": 16937.5, "h3": "881106b907fffff", "valid_frac_scene": 1.0, "wind_ms": 5.6, "sea": "спокойное", "scene_reliable": true, "field_event_id": "S3:HE419_MarLitter_transect28", "field_profile": "B", "field_date": "2014-04-11", "field_distance_km": 1417.9, "field_date_gap_days": 4116, "field_conc_items_km2": 43.1, "conc_A_items_km2": null, "conc_A_lo80": null, "conc_A_hi80": null, "conc_A_lo95": null, "conc_A_hi95": null, "conc_A_status": "unavailable", "conc_A_status_ru": "концентрация недоступна", "conc_A_reasons": "вне бассейна профиля: nw_atlantic_subtropical", "conc_A_model": "conc-A-c6bce5631d2b", "conc_B_items_km2": null, "conc_B_lo80": null, "conc_B_hi80": null, "conc_B_lo95": null, "conc_B_hi95": null, "conc_B_status": "unavailable", "conc_B_status_ru": "концентрация недоступна", "conc_B_reasons": "вне бассейна профиля: black_sea", "conc_B_model": "conc-B-c6bce5631d2b"}}, {"type": "Feature", "geometry": {"type": "Polygon", "coordinates": [[[30.08460360491215, 59.98083749982583], [30.084595256554692, 59.980747837088465], [30.084416337154597, 59.98075202060723], [30.084407989332195, 59.98066235785289], [30.08458690824993, 59.98065817434918], [30.084578559997862, 59.980568511607984], [30.085115314987814, 59.98055595968839], [30.085106965341364, 59.98046629699037], [30.085822635994038, 59.980449557766114], [30.085830987569906, 59.980539220404], [30.086009905583648, 59.98053503497726], [30.086018257694587, 59.98062469759813], [30.085839339198486, 59.98062888303993], [30.085847690879785, 59.98071854567392], [30.084953095196806, 59.98073946932418], [30.084961444518996, 59.980829132031474], [30.08460360491215, 59.98083749982583]]]}, "properties": {"zone_id": "neva-2025-07-18-006", "aoi": "neva", "date": "2025-07-18", "scene_id": "S2A_MSIL2A_20250718T092051_R093_T36VUM_20250718T105813", "scene_datetime_utc": "2025-07-18T09:20:51.024000+00:00", "detection_status": "detected", "detection_status_ru": "обнаружено", "lon": 30.08524, "lat": 59.98063, "n_pixels": 6, "zone_area_km2": 0.0022, "cover_m2": 38.0, "p_mean": 0.731, "p_max": 0.984, "cover_m2_km2": 17272.7, "h3": "881106b907fffff", "valid_frac_scene": 1.0, "wind_ms": 5.6, "sea": "спокойное", "scene_reliable": true, "field_event_id": "S3:HE419_MarLitter_transect28", "field_profile": "B", "field_date": "2014-04-11", "field_distance_km": 1417.8, "field_date_gap_days": 4116, "field_conc_items_km2": 43.1, "conc_A_items_km2": null, "conc_A_lo80": null, "conc_A_hi80": null, "conc_A_lo95": null, "conc_A_hi95": null, "conc_A_status": "unavailable", "conc_A_status_ru": "концентрация недоступна", "conc_A_reasons": "вне бассейна профиля: nw_atlantic_subtropical", "conc_A_model": "conc-A-c6bce5631d2b", "conc_B_items_km2": null, "conc_B_lo80": null, "conc_B_hi80": null, "conc_B_lo95": null, "conc_B_hi95": null, "conc_B_status": "unavailable", "conc_B_status_ru": "концентрация недоступна", "conc_B_reasons": "вне бассейна профиля: black_sea", "conc_B_model": "conc-B-c6bce5631d2b"}}, {"type": "Feature", "geometry": {"type": "Polygon", "coordinates": [[[30.084033457781373, 59.980491398558975], [30.084025111081754, 59.9804017357688], [30.083846193453038, 59.98040591850063], [30.083829501176552, 59.980226592884385], [30.084008417840565, 59.98022241018261], [30.084000071299, 59.98013274738666], [30.084707387080556, 59.98002635147942], [30.084699038714987, 59.97993668873974], [30.085056868569392, 59.97992832076163], [30.085048519291846, 59.97983865805009], [30.085764176438904, 59.97982191924701], [30.085772527645787, 59.97991158189839], [30.08595144228312, 59.97990739657696], [30.08595979402505, 59.979997059211364], [30.08561031456297, 59.98009509230464], [30.085618665445644, 59.98018475496525], [30.085260833013404, 59.98019312448711], [30.0852691829841, 59.980282787175916], [30.084553515557804, 59.98029952337272], [30.0845618636518, 59.98038918611976], [30.08420402865779, 59.980397552794706], [30.084212375839765, 59.980487215569845], [30.084033457781373, 59.980491398558975]]]}, "properties": {"zone_id": "neva-2025-07-18-007", "aoi": "neva", "date": "2025-07-18", "scene_id": "S2A_MSIL2A_20250718T092051_R093_T36VUM_20250718T105813", "scene_datetime_utc": "2025-07-18T09:20:51.024000+00:00", "detection_status": "detected", "detection_status_ru": "обнаружено", "lon": 30.08491, "lat": 59.98012, "n_pixels": 18, "zone_area_km2": 0.0041, "cover_m2": 154.5, "p_mean": 0.96, "p_max": 1.0, "cover_m2_km2": 37682.9, "h3": "881106b907fffff", "valid_frac_scene": 1.0, "wind_ms": 5.6, "sea": "спокойное", "scene_reliable": true, "field_event_id": "S3:HE419_MarLitter_transect28", "field_profile": "B", "field_date": "2014-04-11", "field_distance_km": 1417.8, "field_date_gap_days": 4116, "field_conc_items_km2": 43.1, "conc_A_items_km2": null, "conc_A_lo80": null, "conc_A_hi80": null, "conc_A_lo95": null, "conc_A_hi95": null, "conc_A_status": "unavailable", "conc_A_status_ru": "концентрация недоступна", "conc_A_reasons": "вне бассейна профиля: nw_atlantic_subtropical", "conc_A_model": "conc-A-c6bce5631d2b", "conc_B_items_km2": null, "conc_B_lo80": null, "conc_B_hi80": null, "conc_B_lo95": null, "conc_B_hi95": null, "conc_B_status": "unavailable", "conc_B_status_ru": "концентрация недоступна", "conc_B_reasons": "вне бассейна профиля: black_sea", "conc_B_model": "conc-B-c6bce5631d2b"}}, {"type": "Feature", "geometry": {"type": "Polygon", "coordinates": [[[29.699629688261926, 59.967264406547145], [29.69962238498545, 59.967174713170365], [29.699443478042188, 59.96717837446971], [29.699436175294355, 59.967088681077975], [29.69961508175506, 59.967085019791774], [29.69960777857077, 59.966995326411435], [29.699965590388775, 59.96698800313839], [29.69997289453818, 59.96707769649241], [29.700151800860585, 59.967074034479204], [29.70015910553865, 59.96716372781829], [29.699980198733684, 59.96716738984465], [29.699987502975286, 59.96725708319512], [29.699629688261926, 59.967264406547145]]]}, "properties": {"zone_id": "neva-2025-07-18-008", "aoi": "neva", "date": "2025-07-18", "scene_id": "S2A_MSIL2A_20250718T092051_R093_T36VUM_20250718T105813", "scene_datetime_utc": "2025-07-18T09:20:51.024000+00:00", "detection_status": "detected", "detection_status_ru": "обнаружено", "lon": 29.6998, "lat": 59.96713, "n_pixels": 2, "zone_area_km2": 0.0008, "cover_m2": 15.3, "p_mean": 0.69, "p_max": 0.863, "cover_m2_km2": 19125.0, "h3": "88110680dbfffff", "valid_frac_scene": 1.0, "wind_ms": 5.6, "sea": "спокойное", "scene_reliable": true, "field_event_id": "S3:HE419_MarLitter_transect28", "field_profile": "B", "field_date": "2014-04-11", "field_distance_km": 1396.6, "field_date_gap_days": 4116, "field_conc_items_km2": 43.1, "conc_A_items_km2": null, "conc_A_lo80": null, "conc_A_hi80": null, "conc_A_lo95": null, "conc_A_hi95": null, "conc_A_status": "unavailable", "conc_A_status_ru": "концентрация недоступна", "conc_A_reasons": "вне бассейна профиля: nw_atlantic_subtropical", "conc_A_model": "conc-A-c6bce5631d2b", "conc_B_items_km2": null, "conc_B_lo80": null, "conc_B_hi80": null, "conc_B_lo95": null, "conc_B_hi95": null, "conc_B_status": "unavailable", "conc_B_status_ru": "концентрация недоступна", "conc_B_reasons": "вне бассейна профиля: black_sea", "conc_B_model": "conc-B-c6bce5631d2b"}}, {"type": "Feature", "geometry": {"type": "Polygon", "coordinates": [[[29.853144455655087, 59.96645898726502], [29.85313673766065, 59.966369305535636], [29.85295785831265, 59.9663731748439], [29.852950140849188, 59.966283493098764], [29.85312901971491, 59.96627962380441], [29.85312130181788, 59.96618994207133], [29.85348677730023, 59.96627188448895], [29.85349449621053, 59.96636156619237], [29.853315616959943, 59.96636543598512], [29.85332333543667, 59.96645511770061], [29.853144455655087, 59.96645898726502]]]}, "properties": {"zone_id": "neva-2025-07-18-009", "aoi": "neva", "date": "2025-07-18", "scene_id": "S2A_MSIL2A_20250718T092051_R093_T36VUM_20250718T105813", "scene_datetime_utc": "2025-07-18T09:20:51.024000+00:00", "detection_status": "detected", "detection_status_ru": "обнаружено", "lon": 29.85322, "lat": 59.96632, "n_pixels": 1, "zone_area_km2": 0.0005, "cover_m2": 0.0, "p_mean": 0.816, "p_max": 0.816, "cover_m2_km2": 0.0, "h3": "8811068ecbfffff", "valid_frac_scene": 1.0, "wind_ms": 5.6, "sea": "спокойное", "scene_reliable": true, "field_event_id": "S3:HE419_MarLitter_transect28", "field_profile": "B", "field_date": "2014-04-11", "field_distance_km": 1404.9, "field_date_gap_days": 4116, "field_conc_items_km2": 43.1, "conc_A_items_km2": null, "conc_A_lo80": null, "conc_A_hi80": null, "conc_A_lo95": null, "conc_A_hi95": null, "conc_A_status": "unavailable", "conc_A_status_ru": "концентрация недоступна", "conc_A_reasons": "вне бассейна профиля: nw_atlantic_subtropical", "conc_A_model": "conc-A-c6bce5631d2b", "conc_B_items_km2": null, "conc_B_lo80": null, "conc_B_hi80": null, "conc_B_lo95": null, "conc_B_hi95": null, "conc_B_status": "unavailable", "conc_B_status_ru": "концентрация недоступна", "conc_B_reasons": "вне бассейна профиля: black_sea", "conc_B_model": "conc-B-c6bce5631d2b"}}, {"type": "Feature", "geometry": {"type": "Polygon", "coordinates": [[[30.159425714701435, 59.966306359340855], [30.159417169041166, 59.966216702793695], [30.159238340745592, 59.96622098707349], [30.15922979562097, 59.96613133050897], [30.15940862343481, 59.96612704624458], [30.15940007788237, 59.966037389693454], [30.159766278900758, 59.966118476989536], [30.15977482547058, 59.966208133507855], [30.159595997282832, 59.966212418271816], [30.159604543424834, 59.966302074803586], [30.159425714701435, 59.966306359340855]]]}, "properties": {"zone_id": "neva-2025-07-18-010", "aoi": "neva", "date": "2025-07-18", "scene_id": "S2A_MSIL2A_20250718T092051_R093_T36VUM_20250718T105813", "scene_datetime_utc": "2025-07-18T09:20:51.024000+00:00", "detection_status": "detected", "detection_status_ru": "обнаружено", "lon": 30.1595, "lat": 59.96617, "n_pixels": 1, "zone_area_km2": 0.0005, "cover_m2": 4.7, "p_mean": 1.0, "p_max": 1.0, "cover_m2_km2": 9400.0, "h3": "8811061681fffff", "valid_frac_scene": 1.0, "wind_ms": 5.6, "sea": "спокойное", "scene_reliable": true, "field_event_id": "S3:HE419_MarLitter_transect28", "field_profile": "B", "field_date": "2014-04-11", "field_distance_km": 1421.5, "field_date_gap_days": 4116, "field_conc_items_km2": 43.1, "conc_A_items_km2": null, "conc_A_lo80": null, "conc_A_hi80": null, "conc_A_lo95": null, "conc_A_hi95": null, "conc_A_status": "unavailable", "conc_A_status_ru": "концентрация недоступна", "conc_A_reasons": "вне бассейна профиля: nw_atlantic_subtropical", "conc_A_model": "conc-A-c6bce5631d2b", "conc_B_items_km2": null, "conc_B_lo80": null, "conc_B_hi80": null, "conc_B_lo95": null, "conc_B_hi95": null, "conc_B_status": "unavailable", "conc_B_status_ru": "концентрация недоступна", "conc_B_reasons": "вне бассейна профиля: black_sea", "conc_B_model": "conc-B-c6bce5631d2b"}}, {"type": "Feature", "geometry": {"type": "Polygon", "coordinates": [[[30.161741931976504, 59.96616098512737], [30.16173338010766, 59.96607132877844], [30.161554552994915, 59.966075616189826], [30.161537450382518, 59.965896303455224], [30.161716276531823, 59.96589201607466], [30.16170772482484, 59.965802359719845], [30.162073928668576, 59.965883440587305], [30.162082481392957, 59.965973096909366], [30.162261307862117, 59.96596880878717], [30.16226986112218, 59.96605846509187], [30.1620910341713, 59.966062753229465], [30.162099587003592, 59.96615240954758], [30.161741931976504, 59.96616098512737]]]}, "properties": {"zone_id": "neva-2025-07-18-011", "aoi": "neva", "date": "2025-07-18", "scene_id": "S2A_MSIL2A_20250718T092051_R093_T36VUM_20250718T105813", "scene_datetime_utc": "2025-07-18T09:20:51.024000+00:00", "detection_status": "detected", "detection_status_ru": "обнаружено", "lon": 30.16188, "lat": 59.96599, "n_pixels": 3, "zone_area_km2": 0.001, "cover_m2": 14.5, "p_mean": 0.886, "p_max": 1.0, "cover_m2_km2": 14500.0, "h3": "8811061681fffff", "valid_frac_scene": 1.0, "wind_ms": 5.6, "sea": "спокойное", "scene_reliable": true, "field_event_id": "S3:HE419_MarLitter_transect28", "field_profile": "B", "field_date": "2014-04-11", "field_distance_km": 1421.6, "field_date_gap_days": 4116, "field_conc_items_km2": 43.1, "conc_A_items_km2": null, "conc_A_lo80": null, "conc_A_hi80": null, "conc_A_lo95": null, "conc_A_hi95": null, "conc_A_status": "unavailable", "conc_A_status_ru": "концентрация недоступна", "conc_A_reasons": "вне бассейна профиля: nw_atlantic_subtropical", "conc_A_model": "conc-A-c6bce5631d2b", "conc_B_items_km2": null, "conc_B_lo80": null, "conc_B_hi80": null, "conc_B_lo95": null, "conc_B_hi95": null, "conc_B_status": "unavailable", "conc_B_status_ru": "концентрация недоступна", "conc_B_reasons": "вне бассейна профиля: black_sea", "conc_B_model": "conc-B-c6bce5631d2b"}}, {"type": "Feature", "geometry": {"type": "Polygon", "coordinates": [[[30.159553267381543, 59.965764135583484], [30.159544721563023, 59.96567447903995], [30.159178526005313, 59.96559339108056], [30.15916998125805, 59.9655037345023], [30.159348805699842, 59.96549945034565], [30.159340260524772, 59.9654097937808], [30.15987673208157, 59.96539693990459], [30.15988527870176, 59.96548659642325], [30.160064102927908, 59.965482311298324], [30.16007265008373, 59.965571967799626], [30.16025147473766, 59.965567682417245], [30.160260022429117, 59.96565733890117], [30.160081197293472, 59.96566162429897], [30.16008974455714, 59.965751280796326], [30.159553267381543, 59.965764135583484]]]}, "properties": {"zone_id": "neva-2025-07-18-012", "aoi": "neva", "date": "2025-07-18", "scene_id": "S2A_MSIL2A_20250718T092051_R093_T36VUM_20250718T105813", "scene_datetime_utc": "2025-07-18T09:20:51.024000+00:00", "detection_status": "detected", "detection_status_ru": "обнаружено", "lon": 30.15972, "lat": 59.96558, "n_pixels": 6, "zone_area_km2": 0.0016, "cover_m2": 39.2, "p_mean": 0.996, "p_max": 1.0, "cover_m2_km2": 24500.0, "h3": "8811061681fffff", "valid_frac_scene": 1.0, "wind_ms": 5.6, "sea": "спокойное", "scene_reliable": true, "field_event_id": "S3:HE419_MarLitter_transect28", "field_profile": "B", "field_date": "2014-04-11", "field_distance_km": 1421.4, "field_date_gap_days": 4116, "field_conc_items_km2": 43.1, "conc_A_items_km2": null, "conc_A_lo80": null, "conc_A_hi80": null, "conc_A_lo95": null, "conc_A_hi95": null, "conc_A_status": "unavailable", "conc_A_status_ru": "концентрация недоступна", "conc_A_reasons": "вне бассейна профиля: nw_atlantic_subtropical", "conc_A_model": "conc-A-c6bce5631d2b", "conc_B_items_km2": null, "conc_B_lo80": null, "conc_B_hi80": null, "conc_B_lo95": null, "conc_B_hi95": null, "conc_B_status": "unavailable", "conc_B_status_ru": "концентрация недоступна", "conc_B_reasons": "вне бассейна профиля: black_sea", "conc_B_model": "conc-B-c6bce5631d2b"}}, {"type": "Feature", "geometry": {"type": "Polygon", "coordinates": [[[30.161869446222916, 59.96561875942786], [30.161860894196067, 59.965529103082545], [30.161682070027567, 59.96553339064354], [30.16167351853637, 59.96544373428086], [30.16185234222317, 59.965439446735246], [30.161843790304225, 59.96534979038597], [30.162209989434903, 59.96543087091781], [30.16221854237121, 59.96552052723428], [30.162039718310613, 59.96552481527944], [30.162048270819174, 59.96561447160937], [30.161869446222916, 59.96561875942786]]]}, "properties": {"zone_id": "neva-2025-07-18-013", "aoi": "neva", "date": "2025-07-18", "scene_id": "S2A_MSIL2A_20250718T092051_R093_T36VUM_20250718T105813", "scene_datetime_utc": "2025-07-18T09:20:51.024000+00:00", "detection_status": "detected", "detection_status_ru": "обнаружено", "lon": 30.16195, "lat": 59.96548, "n_pixels": 1, "zone_area_km2": 0.0005, "cover_m2": 10.2, "p_mean": 0.98, "p_max": 0.98, "cover_m2_km2": 20400.0, "h3": "8811061681fffff", "valid_frac_scene": 1.0, "wind_ms": 5.6, "sea": "спокойное", "scene_reliable": true, "field_event_id": "S3:HE419_MarLitter_transect28", "field_profile": "B", "field_date": "2014-04-11", "field_distance_km": 1421.6, "field_date_gap_days": 4116, "field_conc_items_km2": 43.1, "conc_A_items_km2": null, "conc_A_lo80": null, "conc_A_hi80": null, "conc_A_lo95": null, "conc_A_hi95": null, "conc_A_status": "unavailable", "conc_A_status_ru": "концентрация недоступна", "conc_A_reasons": "вне бассейна профиля: nw_atlantic_subtropical", "conc_A_model": "conc-A-c6bce5631d2b", "conc_B_items_km2": null, "conc_B_lo80": null, "conc_B_hi80": null, "conc_B_lo95": null, "conc_B_hi95": null, "conc_B_status": "unavailable", "conc_B_status_ru": "концентрация недоступна", "conc_B_reasons": "вне бассейна профиля: black_sea", "conc_B_model": "conc-B-c6bce5631d2b"}}, {"type": "Feature", "geometry": {"type": "Polygon", "coordinates": [[[30.162447090493608, 59.962280034678585], [30.162438538054673, 59.96219037833756], [30.16225973197696, 59.96219466653883], [30.162251180073568, 59.962105010180395], [30.162429985669696, 59.962100721994545], [30.16242143333866, 59.96201106564957], [30.162787596700095, 59.96209214489672], [30.16279615004826, 59.962181801208935], [30.16261734407845, 59.962186089894246], [30.162625896998968, 59.962275746219866], [30.162447090493608, 59.962280034678585]]]}, "properties": {"zone_id": "neva-2025-07-18-014", "aoi": "neva", "date": "2025-07-18", "scene_id": "S2A_MSIL2A_20250718T092051_R093_T36VUM_20250718T105813", "scene_datetime_utc": "2025-07-18T09:20:51.024000+00:00", "detection_status": "detected", "detection_status_ru": "обнаружено", "lon": 30.16252, "lat": 59.96214, "n_pixels": 1, "zone_area_km2": 0.0005, "cover_m2": 3.1, "p_mean": 0.867, "p_max": 0.867, "cover_m2_km2": 6200.0, "h3": "8811061685fffff", "valid_frac_scene": 1.0, "wind_ms": 5.6, "sea": "спокойное", "scene_reliable": true, "field_event_id": "S3:HE419_MarLitter_transect28", "field_profile": "B", "field_date": "2014-04-11", "field_distance_km": 1421.5, "field_date_gap_days": 4116, "field_conc_items_km2": 43.1, "conc_A_items_km2": null, "conc_A_lo80": null, "conc_A_hi80": null, "conc_A_lo95": null, "conc_A_hi95": null, "conc_A_status": "unavailable", "conc_A_status_ru": "концентрация недоступна", "conc_A_reasons": "вне бассейна профиля: nw_atlantic_subtropical", "conc_A_model": "conc-A-c6bce5631d2b", "conc_B_items_km2": null, "conc_B_lo80": null, "conc_B_hi80": null, "conc_B_lo95": null, "conc_B_hi95": null, "conc_B_status": "unavailable", "conc_B_status_ru": "концентрация недоступна", "conc_B_reasons": "вне бассейна профиля: black_sea", "conc_B_model": "conc-B-c6bce5631d2b"}}, {"type": "Feature", "geometry": {"type": "Polygon", "coordinates": [[[30.128059525955724, 59.95681005611481], [30.128051068281863, 59.956720396740806], [30.12787228577241, 59.956724638127966], [30.12786382863336, 59.95663497873677], [30.12804261066135, 59.95663073736484], [30.128034153094177, 59.956541077986934], [30.12840017455729, 59.95662225389498], [30.128408633140744, 59.956711913240476], [30.128229850737977, 59.95671615511165], [30.128238308893316, 59.95680581447042], [30.128059525955724, 59.95681005611481]]]}, "properties": {"zone_id": "neva-2025-07-18-015", "aoi": "neva", "date": "2025-07-18", "scene_id": "S2A_MSIL2A_20250718T092051_R093_T36VUM_20250718T105813", "scene_datetime_utc": "2025-07-18T09:20:51.024000+00:00", "detection_status": "detected", "detection_status_ru": "обнаружено", "lon": 30.12814, "lat": 59.95667, "n_pixels": 1, "zone_area_km2": 0.0005, "cover_m2": 6.3, "p_mean": 0.886, "p_max": 0.886, "cover_m2_km2": 12600.0, "h3": "88110616c5fffff", "valid_frac_scene": 1.0, "wind_ms": 5.6, "sea": "спокойное", "scene_reliable": true, "field_event_id": "S3:HE419_MarLitter_transect28", "field_profile": "B", "field_date": "2014-04-11", "field_distance_km": 1419.5, "field_date_gap_days": 4116, "field_conc_items_km2": 43.1, "conc_A_items_km2": null, "conc_A_lo80": null, "conc_A_hi80": null, "conc_A_lo95": null, "conc_A_hi95": null, "conc_A_status": "unavailable", "conc_A_status_ru": "концентрация недоступна", "conc_A_reasons": "вне бассейна профиля: nw_atlantic_subtropical", "conc_A_model": "conc-A-c6bce5631d2b", "conc_B_items_km2": null, "conc_B_lo80": null, "conc_B_hi80": null, "conc_B_lo95": null, "conc_B_hi95": null, "conc_B_status": "unavailable", "conc_B_status_ru": "концентрация недоступна", "conc_B_reasons": "вне бассейна профиля: black_sea", "conc_B_model": "conc-B-c6bce5631d2b"}}, {"type": "Feature", "geometry": {"type": "Polygon", "coordinates": [[[30.129243318539377, 59.95606308532865], [30.12923485792213, 59.955973426045695], [30.12905607963779, 59.95597766900494], [30.129047619555354, 59.955888009704815], [30.12922639735825, 59.955883766760834], [30.129217936847727, 59.95579410747398], [30.12958395280395, 59.955875280146856], [30.12959241433071, 59.95596493940125], [30.1294136361531, 59.95596918284446], [30.12942209725179, 59.95605884211218], [30.129243318539377, 59.95606308532865]]]}, "properties": {"zone_id": "neva-2025-07-18-016", "aoi": "neva", "date": "2025-07-18", "scene_id": "S2A_MSIL2A_20250718T092051_R093_T36VUM_20250718T105813", "scene_datetime_utc": "2025-07-18T09:20:51.024000+00:00", "detection_status": "detected", "detection_status_ru": "обнаружено", "lon": 30.12932, "lat": 59.95593, "n_pixels": 1, "zone_area_km2": 0.0005, "cover_m2": 7.8, "p_mean": 0.984, "p_max": 0.984, "cover_m2_km2": 15600.0, "h3": "88110616e9fffff", "valid_frac_scene": 1.0, "wind_ms": 5.6, "sea": "спокойное", "scene_reliable": true, "field_event_id": "S3:HE419_MarLitter_transect28", "field_profile": "B", "field_date": "2014-04-11", "field_distance_km": 1419.6, "field_date_gap_days": 4116, "field_conc_items_km2": 43.1, "conc_A_items_km2": null, "conc_A_lo80": null, "conc_A_hi80": null, "conc_A_lo95": null, "conc_A_hi95": null, "conc_A_status": "unavailable", "conc_A_status_ru": "концентрация недоступна", "conc_A_reasons": "вне бассейна профиля: nw_atlantic_subtropical", "conc_A_model": "conc-A-c6bce5631d2b", "conc_B_items_km2": null, "conc_B_lo80": null, "conc_B_hi80": null, "conc_B_lo95": null, "conc_B_hi95": null, "conc_B_status": "unavailable", "conc_B_status_ru": "концентрация недоступна", "conc_B_reasons": "вне бассейна профиля: black_sea", "conc_B_model": "conc-B-c6bce5631d2b"}}, {"type": "Feature", "geometry": {"type": "Polygon", "coordinates": [[[30.12626451593987, 59.9548757103294], [30.12625606377215, 59.95478605077538], [30.12607729137445, 59.954790289649495], [30.126060388161754, 59.95461097050518], [30.126239159596643, 59.95460673166152], [30.126230707588846, 59.95451707210167], [30.1265882493359, 59.95450859371886], [30.126596702306493, 59.95459825324827], [30.12677547358146, 59.95459401367866], [30.126783927086766, 59.95468367319085], [30.126605155330402, 59.954687912775704], [30.126613608407624, 59.95477757230119], [30.12626451593987, 59.9548757103294]]]}, "properties": {"zone_id": "neva-2025-07-18-017", "aoi": "neva", "date": "2025-07-18", "scene_id": "S2A_MSIL2A_20250718T092051_R093_T36VUM_20250718T105813", "scene_datetime_utc": "2025-07-18T09:20:51.024000+00:00", "detection_status": "detected", "detection_status_ru": "обнаружено", "lon": 30.1264, "lat": 59.95468, "n_pixels": 3, "zone_area_km2": 0.001, "cover_m2": 22.7, "p_mean": 0.877, "p_max": 0.937, "cover_m2_km2": 22700.0, "h3": "88110616e9fffff", "valid_frac_scene": 1.0, "wind_ms": 5.6, "sea": "спокойное", "scene_reliable": true, "field_event_id": "S3:HE419_MarLitter_transect28", "field_profile": "B", "field_date": "2014-04-11", "field_distance_km": 1419.4, "field_date_gap_days": 4116, "field_conc_items_km2": 43.1, "conc_A_items_km2": null, "conc_A_lo80": null, "conc_A_hi80": null, "conc_A_lo95": null, "conc_A_hi95": null, "conc_A_status": "unavailable", "conc_A_status_ru": "концентрация недоступна", "conc_A_reasons": "вне бассейна профиля: nw_atlantic_subtropical", "conc_A_model": "conc-A-c6bce5631d2b", "conc_B_items_km2": null, "conc_B_lo80": null, "conc_B_hi80": null, "conc_B_lo95": null, "conc_B_hi95": null, "conc_B_status": "unavailable", "conc_B_status_ru": "концентрация недоступна", "conc_B_reasons": "вне бассейна профиля: black_sea", "conc_B_model": "conc-B-c6bce5631d2b"}}, {"type": "Feature", "geometry": {"type": "Polygon", "coordinates": [[[29.882982153343463, 59.95098492825051], [29.882974359555604, 59.95089524865006], [29.882608984121607, 59.950813387055355], [29.882601191395473, 59.95072370742315], [29.882779981785994, 59.95071979855445], [29.88277218862731, 59.95063011893442], [29.882950978486985, 59.95062620983769], [29.88294318489576, 59.95053653022988], [29.883308558058832, 59.95061839091798], [29.883316352662614, 59.950708070495864], [29.883495142856486, 59.95070416065883], [29.88350293799114, 59.95079384022084], [29.88332414731556, 59.9507977500719], [29.883331942017666, 59.9508874296461], [29.882982153343463, 59.95098492825051]]]}, "properties": {"zone_id": "neva-2025-07-18-018", "aoi": "neva", "date": "2025-07-18", "scene_id": "S2A_MSIL2A_20250718T092051_R093_T36VUM_20250718T105813", "scene_datetime_utc": "2025-07-18T09:20:51.024000+00:00", "detection_status": "detected", "detection_status_ru": "обнаружено", "lon": 29.88305, "lat": 59.95076, "n_pixels": 5, "zone_area_km2": 0.0013, "cover_m2": 13.7, "p_mean": 0.958, "p_max": 0.996, "cover_m2_km2": 10538.5, "h3": "8811068ee3fffff", "valid_frac_scene": 1.0, "wind_ms": 5.6, "sea": "спокойное", "scene_reliable": true, "field_event_id": "S3:HE419_MarLitter_transect28", "field_profile": "B", "field_date": "2014-04-11", "field_distance_km": 1406.1, "field_date_gap_days": 4116, "field_conc_items_km2": 43.1, "conc_A_items_km2": null, "conc_A_lo80": null, "conc_A_hi80": null, "conc_A_lo95": null, "conc_A_hi95": null, "conc_A_status": "unavailable", "conc_A_status_ru": "концентрация недоступна", "conc_A_reasons": "вне бассейна профиля: nw_atlantic_subtropical", "conc_A_model": "conc-A-c6bce5631d2b", "conc_B_items_km2": null, "conc_B_lo80": null, "conc_B_hi80": null, "conc_B_lo95": null, "conc_B_hi95": null, "conc_B_status": "unavailable", "conc_B_status_ru": "концентрация недоступна", "conc_B_reasons": "вне бассейна профиля: black_sea", "conc_B_model": "conc-B-c6bce5631d2b"}}, {"type": "Feature", "geometry": {"type": "Polygon", "coordinates": [[[30.06199111366848, 59.897167914025076], [30.061982854284082, 59.89707824824172], [30.06180438120725, 59.89708239766538], [30.061796122354426, 59.896992731865204], [30.06197459495169, 59.896988582456444], [30.061966335671308, 59.896898916669215], [30.062331539990186, 59.896980282914484], [30.06233980028173, 59.89706994866999], [30.062161327308914, 59.89707409857658], [30.06216958717289, 59.897163764345066], [30.06199111366848, 59.897167914025076]]]}, "properties": {"zone_id": "neva-2025-07-18-019", "aoi": "neva", "date": "2025-07-18", "scene_id": "S2A_MSIL2A_20250718T092051_R093_T36VUM_20250718T105813", "scene_datetime_utc": "2025-07-18T09:20:51.024000+00:00", "detection_status": "detected", "detection_status_ru": "обнаружено", "lon": 30.06207, "lat": 59.89703, "n_pixels": 1, "zone_area_km2": 0.0005, "cover_m2": 6.7, "p_mean": 0.867, "p_max": 0.867, "cover_m2_km2": 13400.0, "h3": "8811068db3fffff", "valid_frac_scene": 1.0, "wind_ms": 5.6, "sea": "спокойное", "scene_reliable": true, "field_event_id": "S3:HE419_MarLitter_transect28", "field_profile": "B", "field_date": "2014-04-11", "field_distance_km": 1414.4, "field_date_gap_days": 4116, "field_conc_items_km2": 43.1, "conc_A_items_km2": null, "conc_A_lo80": null, "conc_A_hi80": null, "conc_A_lo95": null, "conc_A_hi95": null, "conc_A_status": "unavailable", "conc_A_status_ru": "концентрация недоступна", "conc_A_reasons": "вне бассейна профиля: nw_atlantic_subtropical", "conc_A_model": "conc-A-c6bce5631d2b", "conc_B_items_km2": null, "conc_B_lo80": null, "conc_B_hi80": null, "conc_B_lo95": null, "conc_B_hi95": null, "conc_B_status": "unavailable", "conc_B_status_ru": "концентрация недоступна", "conc_B_reasons": "вне бассейна профиля: black_sea", "conc_B_model": "conc-B-c6bce5631d2b"}}]}