{"type": "FeatureCollection", "features": [{"type": "Feature", "geometry": {"type": "Polygon", "coordinates": [[[44.671101741627496, 48.867871545222094], [44.67110233118567, 48.86778158846848], [44.6709659746356, 48.86778119944718], [44.67096715423202, 48.867601285938164], [44.67110351029327, 48.86760167495701], [44.67110409984268, 48.867511718199154], [44.671376811485125, 48.86751249575066], [44.67137622242453, 48.86760245251097], [44.671512578494536, 48.86760284104608], [44.6715114008534, 48.86778275456491], [44.67137504429457, 48.86778236602734], [44.67137445522522, 48.86787232278341], [44.671101741627496, 48.867871545222094]]]}, "properties": {"zone_id": "volgograd-2026-05-21-001", "aoi": "volgograd", "date": "2026-05-21", "scene_id": "S2C_MSIL2A_20260521T080601_R078_T38UMV_20260521T115714", "scene_datetime_utc": "2026-05-21T08:06:01.025000+00:00", "detection_status": "detected", "detection_status_ru": "обнаружено", "lon": 44.67124, "lat": 48.86769, "n_pixels": 4, "zone_area_km2": 0.0012, "cover_m2": 18.4, "p_mean": 0.81, "p_max": 0.878, "cover_m2_km2": 15333.3, "h3": "882d48a0a9fffff", "valid_frac_scene": 1.0, "wind_ms": 6.0, "sea": "волнение", "scene_reliable": false, "field_event_id": "S4:DOORS3:T23", "field_profile": "B", "field_date": "2024-06-10", "field_distance_km": 765.2, "field_date_gap_days": 710, "field_conc_items_km2": 102.37, "conc_A_items_km2": null, "conc_A_lo80": null, "conc_A_hi80": null, "conc_A_lo95": null, "conc_A_hi95": null, "conc_A_status": "unavailable", "conc_A_status_ru": "концентрация недоступна", "conc_A_reasons": "вне бассейна профиля: nw_atlantic_subtropical", "conc_A_model": "conc-A-c6bce5631d2b", "conc_B_items_km2": null, "conc_B_lo80": null, "conc_B_hi80": null, "conc_B_lo95": null, "conc_B_hi95": null, "conc_B_status": "unavailable", "conc_B_status_ru": "концентрация недоступна", "conc_B_reasons": "вне бассейна профиля: black_sea", "conc_B_model": "conc-B-c6bce5631d2b"}}]}