{"type": "FeatureCollection", "features": [{"type": "Feature", "geometry": {"type": "Polygon", "coordinates": [[[36.68197677912416, 45.08979935635221], [36.68198041919458, 45.08970941228469], [36.68185344598079, 45.0897068337022], [36.68186072646818, 45.089526945578285], [36.681987699284065, 45.089529524144695], [36.68199133930312, 45.0894395800722], [36.68224528458835, 45.089444736765785], [36.68224164496719, 45.08953468085436], [36.68236861783444, 45.08953725899761], [36.682361338938684, 45.08971714718585], [36.68223436567353, 45.08971456902651], [36.682230726001016, 45.089804513110124], [36.68197677912416, 45.08979935635221]]]}, "properties": {"zone_id": "kerch-2025-04-17-001", "aoi": "kerch", "date": "2025-04-17", "scene_id": "S2B_MSIL2A_20250417T082609_R021_T37TCK_20250417T105154", "scene_datetime_utc": "2025-04-17T08:26:09.024000+00:00", "detection_status": "detected", "detection_status_ru": "обнаружено", "lon": 36.68211, "lat": 45.08962, "n_pixels": 4, "zone_area_km2": 0.0012, "cover_m2": 52.2, "p_mean": 0.735, "p_max": 0.89, "cover_m2_km2": 43500.0, "h3": "882d76a827fffff", "valid_frac_scene": 0.808, "wind_ms": 4.8, "sea": "спокойное", "scene_reliable": true, "field_event_id": "S4:DOORS3:T11", "field_profile": "B", "field_date": "2024-06-04", "field_distance_km": 288.8, "field_date_gap_days": 317, "field_conc_items_km2": 62.52, "conc_A_items_km2": null, "conc_A_lo80": null, "conc_A_hi80": null, "conc_A_lo95": null, "conc_A_hi95": null, "conc_A_status": "unavailable", "conc_A_status_ru": "концентрация недоступна", "conc_A_reasons": "вне бассейна профиля: nw_atlantic_subtropical", "conc_A_model": "conc-A-c6bce5631d2b", "conc_B_items_km2": 512.0, "conc_B_lo80": 109.1, "conc_B_hi80": 1720.6, "conc_B_lo95": 68.0, "conc_B_hi95": 3221.8, "conc_B_status": "research_estimate", "conc_B_status_ru": "исследовательская оценка", "conc_B_reasons": "ближайшее полевое измерение в 289 км (> 60 км); месяц 4 вне месяцев обучения [6]", "conc_B_model": "conc-B-c6bce5631d2b"}}, {"type": "Feature", "geometry": {"type": "Polygon", "coordinates": [[[36.657157469309226, 45.019258273508626], [36.65716113930005, 45.01916832991429], [36.656911179745485, 45.01907318017925], [36.65691485009823, 45.01898323659781], [36.65704166465546, 45.018985839729545], [36.65704533479275, 45.018895896138325], [36.65729896356255, 45.01890110196348], [36.657295293821676, 45.018991045570935], [36.65742210843066, 45.018993648280585], [36.657414769293595, 45.019173535506745], [36.657157469309226, 45.019258273508626]]]}, "properties": {"zone_id": "kerch-2025-04-17-002", "aoi": "kerch", "date": "2025-04-17", "scene_id": "S2B_MSIL2A_20250417T082609_R021_T37TCK_20250417T105154", "scene_datetime_utc": "2025-04-17T08:26:09.024000+00:00", "detection_status": "detected", "detection_status_ru": "обнаружено", "lon": 36.65719, "lat": 45.01906, "n_pixels": 3, "zone_area_km2": 0.001, "cover_m2": 35.3, "p_mean": 0.782, "p_max": 0.882, "cover_m2_km2": 35300.0, "h3": "882d760651fffff", "valid_frac_scene": 0.808, "wind_ms": 4.8, "sea": "спокойное", "scene_reliable": true, "field_event_id": "S4:DOORS3:T11", "field_profile": "B", "field_date": "2024-06-04", "field_distance_km": 280.9, "field_date_gap_days": 317, "field_conc_items_km2": 62.52, "conc_A_items_km2": null, "conc_A_lo80": null, "conc_A_hi80": null, "conc_A_lo95": null, "conc_A_hi95": null, "conc_A_status": "unavailable", "conc_A_status_ru": "концентрация недоступна", "conc_A_reasons": "вне бассейна профиля: nw_atlantic_subtropical", "conc_A_model": "conc-A-c6bce5631d2b", "conc_B_items_km2": 365.1, "conc_B_lo80": 77.6, "conc_B_hi80": 1227.7, "conc_B_lo95": 48.3, "conc_B_hi95": 2299.1, "conc_B_status": "research_estimate", "conc_B_status_ru": "исследовательская оценка", "conc_B_reasons": "ближайшее полевое измерение в 281 км (> 60 км); месяц 4 вне месяцев обучения [6]", "conc_B_model": "conc-B-c6bce5631d2b"}}, {"type": "Feature", "geometry": {"type": "Polygon", "coordinates": [[[37.313517866537836, 44.913726160906016], [37.31352049901428, 44.913636179328634], [37.31326986434239, 44.913542456396215], [37.313280395654566, 44.91318253011173], [37.31315376289486, 44.9131806592478], [37.31316166184147, 44.91291071453573], [37.31328829400888, 44.91291258538215], [37.31329092676892, 44.91282260380252], [37.31354155838079, 44.91291632665393], [37.31353366121107, 44.913186271418525], [37.31366029400786, 44.91318814186139], [37.31365239731918, 44.9134580866296], [37.31377903072063, 44.91345995694963], [37.31377376659458, 44.913639920132375], [37.313517866537836, 44.913726160906016]]]}, "properties": {"zone_id": "kerch-2025-04-17-003", "aoi": "kerch", "date": "2025-04-17", "scene_id": "S2B_MSIL2A_20250417T082609_R021_T37TCK_20250417T105154", "scene_datetime_utc": "2025-04-17T08:26:09.024000+00:00", "detection_status": "detected", "detection_status_ru": "обнаружено", "lon": 37.31345, "lat": 44.9133, "n_pixels": 9, "zone_area_km2": 0.0027, "cover_m2": 0.8, "p_mean": 0.739, "p_max": 0.984, "cover_m2_km2": 296.3, "h3": "882d729257fffff", "valid_frac_scene": 0.808, "wind_ms": 4.8, "sea": "спокойное", "scene_reliable": true, "field_event_id": "S4:DOORS3:T11", "field_profile": "B", "field_date": "2024-06-04", "field_distance_km": 274.0, "field_date_gap_days": 317, "field_conc_items_km2": 62.52, "conc_A_items_km2": null, "conc_A_lo80": null, "conc_A_hi80": null, "conc_A_lo95": null, "conc_A_hi95": null, "conc_A_status": "unavailable", "conc_A_status_ru": "концентрация недоступна", "conc_A_reasons": "вне бассейна профиля: nw_atlantic_subtropical", "conc_A_model": "conc-A-c6bce5631d2b", "conc_B_items_km2": 669.6, "conc_B_lo80": 143.0, "conc_B_hi80": 2249.5, "conc_B_lo95": 89.2, "conc_B_hi95": 4211.9, "conc_B_status": "research_estimate", "conc_B_status_ru": "исследовательская оценка", "conc_B_reasons": "ближайшее полевое измерение в 274 км (> 60 км); месяц 4 вне месяцев обучения [6]; log_dist_coast_km = 0.8 вне диапазона обучения [1.7; 5.0]", "conc_B_model": "conc-B-c6bce5631d2b"}}, {"type": "Feature", "geometry": {"type": "Polygon", "coordinates": [[[36.9812121088688, 44.87034489092602], [36.981215255094554, 44.870254925570265], [36.98108874026275, 44.87025268820807], [36.98109188667057, 44.8701627228577], [36.98121840130554, 44.87016496021291], [36.98122154750177, 44.87007499485398], [36.981474576422315, 44.870079469130246], [36.98147143061978, 44.87016943450315], [36.981597945299036, 44.87017167143817], [36.981594799678575, 44.87026163681645], [36.981468284802474, 44.870259399874456], [36.98146513897041, 44.87034936524417], [36.9812121088688, 44.87034489092602]]]}, "properties": {"zone_id": "kerch-2025-04-17-004", "aoi": "kerch", "date": "2025-04-17", "scene_id": "S2B_MSIL2A_20250417T082609_R021_T37TCK_20250417T105154", "scene_datetime_utc": "2025-04-17T08:26:09.024000+00:00", "detection_status": "detected", "detection_status_ru": "обнаружено", "lon": 36.98134, "lat": 44.87021, "n_pixels": 2, "zone_area_km2": 0.0008, "cover_m2": 5.9, "p_mean": 0.667, "p_max": 0.761, "cover_m2_km2": 7375.0, "h3": "882d76393dfffff", "valid_frac_scene": 0.808, "wind_ms": 4.8, "sea": "спокойное", "scene_reliable": true, "field_event_id": "S4:DOORS3:T11", "field_profile": "B", "field_date": "2024-06-04", "field_distance_km": 265.5, "field_date_gap_days": 317, "field_conc_items_km2": 62.52, "conc_A_items_km2": null, "conc_A_lo80": null, "conc_A_hi80": null, "conc_A_lo95": null, "conc_A_hi95": null, "conc_A_status": "unavailable", "conc_A_status_ru": "концентрация недоступна", "conc_A_reasons": "вне бассейна профиля: nw_atlantic_subtropical", "conc_A_model": "conc-A-c6bce5631d2b", "conc_B_items_km2": 302.8, "conc_B_lo80": 64.2, "conc_B_hi80": 1018.4, "conc_B_lo95": 39.9, "conc_B_hi95": 1907.3, "conc_B_status": "research_estimate", "conc_B_status_ru": "исследовательская оценка", "conc_B_reasons": "ближайшее полевое измерение в 265 км (> 60 км); месяц 4 вне месяцев обучения [6]", "conc_B_model": "conc-B-c6bce5631d2b"}}]}