{"type": "FeatureCollection", "features": [{"type": "Feature", "geometry": {"type": "Polygon", "coordinates": [[[49.238088189952094, 53.487878047897716], [49.238091914319575, 53.487788203528716], [49.23794127330741, 53.487785982176014], [49.23794872261823, 53.487606293447875], [49.23825372737977, 53.48752089155368], [49.238250003390505, 53.48761073593453], [49.238400643806735, 53.48761295689319], [49.238393196404076, 53.487792645664754], [49.238088189952094, 53.487878047897716]]]}, "properties": {"zone_id": "kuibyshev-2025-07-09-001", "aoi": "kuibyshev", "date": "2025-07-09", "scene_id": "S2C_MSIL2A_20250709T074631_R135_T39UUV_20250709T091614", "scene_datetime_utc": "2025-07-09T07:46:31.025000+00:00", "detection_status": "detected", "detection_status_ru": "обнаружено", "lon": 49.23817, "lat": 53.4877, "n_pixels": 2, "zone_area_km2": 0.0008, "cover_m2": 0.8, "p_mean": 0.692, "p_max": 0.753, "cover_m2_km2": 1000.0, "h3": "881081d25bfffff", "valid_frac_scene": 1.0, "wind_ms": 3.7, "sea": "спокойное", "scene_reliable": true, "field_event_id": "S4:DOORS3:T23", "field_profile": "B", "field_date": "2024-06-10", "field_distance_km": 1363.7, "field_date_gap_days": 394, "field_conc_items_km2": 102.37, "conc_A_items_km2": null, "conc_A_lo80": null, "conc_A_hi80": null, "conc_A_lo95": null, "conc_A_hi95": null, "conc_A_status": "unavailable", "conc_A_status_ru": "концентрация недоступна", "conc_A_reasons": "вне бассейна профиля: nw_atlantic_subtropical", "conc_A_model": "conc-A-c6bce5631d2b", "conc_B_items_km2": null, "conc_B_lo80": null, "conc_B_hi80": null, "conc_B_lo95": null, "conc_B_hi95": null, "conc_B_status": "unavailable", "conc_B_status_ru": "концентрация недоступна", "conc_B_reasons": "вне бассейна профиля: black_sea", "conc_B_model": "conc-B-c6bce5631d2b"}}, {"type": "Feature", "geometry": {"type": "Polygon", "coordinates": [[[49.50115725316448, 53.44813736063301], [49.50116041700435, 53.44804750391071], [49.500862541354046, 53.447953869363445], [49.50086570579471, 53.447864012650484], [49.501169908421765, 53.447777933734855], [49.501166744633, 53.447867790461636], [49.501317264077684, 53.44786967908283], [49.50131410058931, 53.44795953581427], [49.50146462036846, 53.447961424252036], [49.5014614571805, 53.44805128098814], [49.50131093708391, 53.44804939254421], [49.50130777356147, 53.448139249272664], [49.50115725316448, 53.44813736063301]]]}, "properties": {"zone_id": "kuibyshev-2025-07-09-002", "aoi": "kuibyshev", "date": "2025-07-09", "scene_id": "S2C_MSIL2A_20250709T074631_R135_T39UUV_20250709T091614", "scene_datetime_utc": "2025-07-09T07:46:31.025000+00:00", "detection_status": "detected", "detection_status_ru": "обнаружено", "lon": 49.50116, "lat": 53.44796, "n_pixels": 2, "zone_area_km2": 0.0008, "cover_m2": 5.1, "p_mean": 0.665, "p_max": 0.749, "cover_m2_km2": 6375.0, "h3": "881081d52dfffff", "valid_frac_scene": 1.0, "wind_ms": 3.7, "sea": "спокойное", "scene_reliable": true, "field_event_id": "S4:DOORS3:T23", "field_profile": "B", "field_date": "2024-06-10", "field_distance_km": 1368.0, "field_date_gap_days": 394, "field_conc_items_km2": 102.37, "conc_A_items_km2": null, "conc_A_lo80": null, "conc_A_hi80": null, "conc_A_lo95": null, "conc_A_hi95": null, "conc_A_status": "unavailable", "conc_A_status_ru": "концентрация недоступна", "conc_A_reasons": "вне бассейна профиля: nw_atlantic_subtropical", "conc_A_model": "conc-A-c6bce5631d2b", "conc_B_items_km2": null, "conc_B_lo80": null, "conc_B_hi80": null, "conc_B_lo95": null, "conc_B_hi95": null, "conc_B_status": "unavailable", "conc_B_status_ru": "концентрация недоступна", "conc_B_reasons": "вне бассейна профиля: black_sea", "conc_B_model": "conc-B-c6bce5631d2b"}}, {"type": "Feature", "geometry": {"type": "Polygon", "coordinates": [[[49.46247732605694, 53.44755583990203], [49.462480571456496, 53.44746598478001], [49.46233005614524, 53.447464047241326], [49.462336547526725, 53.447284337005435], [49.46264082192682, 53.44719835673517], [49.46263757689708, 53.447288211868006], [49.462788091608466, 53.447290149014925], [49.46278160213139, 53.44746985928869], [49.46247732605694, 53.44755583990203]]]}, "properties": {"zone_id": "kuibyshev-2025-07-09-003", "aoi": "kuibyshev", "date": "2025-07-09", "scene_id": "S2C_MSIL2A_20250709T074631_R135_T39UUV_20250709T091614", "scene_datetime_utc": "2025-07-09T07:46:31.025000+00:00", "detection_status": "detected", "detection_status_ru": "обнаружено", "lon": 49.46256, "lat": 53.44738, "n_pixels": 2, "zone_area_km2": 0.0008, "cover_m2": 30.6, "p_mean": 0.833, "p_max": 0.922, "cover_m2_km2": 38250.0, "h3": "881081d0b3fffff", "valid_frac_scene": 1.0, "wind_ms": 3.7, "sea": "спокойное", "scene_reliable": true, "field_event_id": "S4:DOORS3:T23", "field_profile": "B", "field_date": "2024-06-10", "field_distance_km": 1366.8, "field_date_gap_days": 394, "field_conc_items_km2": 102.37, "conc_A_items_km2": null, "conc_A_lo80": null, "conc_A_hi80": null, "conc_A_lo95": null, "conc_A_hi95": null, "conc_A_status": "unavailable", "conc_A_status_ru": "концентрация недоступна", "conc_A_reasons": "вне бассейна профиля: nw_atlantic_subtropical", "conc_A_model": "conc-A-c6bce5631d2b", "conc_B_items_km2": null, "conc_B_lo80": null, "conc_B_hi80": null, "conc_B_lo95": null, "conc_B_hi95": null, "conc_B_status": "unavailable", "conc_B_status_ru": "концентрация недоступна", "conc_B_reasons": "вне бассейна профиля: black_sea", "conc_B_model": "conc-B-c6bce5631d2b"}}, {"type": "Feature", "geometry": {"type": "Polygon", "coordinates": [[[49.466737080331605, 53.44635203988012], [49.46674031659991, 53.44626218456068], [49.466589805243636, 53.446260252418156], [49.4665930418119, 53.446170397103515], [49.46689729982318, 53.44608440585767], [49.466894063907105, 53.446174261186385], [49.46704457498083, 53.44617619294349], [49.46704133936472, 53.44626604827701], [49.46689082797361, 53.44626411651363], [49.46688759202269, 53.44635397183937], [49.466737080331605, 53.44635203988012]]]}, "properties": {"zone_id": "kuibyshev-2025-07-09-004", "aoi": "kuibyshev", "date": "2025-07-09", "scene_id": "S2C_MSIL2A_20250709T074631_R135_T39UUV_20250709T091614", "scene_datetime_utc": "2025-07-09T07:46:31.025000+00:00", "detection_status": "detected", "detection_status_ru": "обнаружено", "lon": 49.46682, "lat": 53.44622, "n_pixels": 1, "zone_area_km2": 0.0005, "cover_m2": 14.9, "p_mean": 0.639, "p_max": 0.639, "cover_m2_km2": 29800.0, "h3": "881081d0b3fffff", "valid_frac_scene": 1.0, "wind_ms": 3.7, "sea": "спокойное", "scene_reliable": true, "field_event_id": "S4:DOORS3:T23", "field_profile": "B", "field_date": "2024-06-10", "field_distance_km": 1366.8, "field_date_gap_days": 394, "field_conc_items_km2": 102.37, "conc_A_items_km2": null, "conc_A_lo80": null, "conc_A_hi80": null, "conc_A_lo95": null, "conc_A_hi95": null, "conc_A_status": "unavailable", "conc_A_status_ru": "концентрация недоступна", "conc_A_reasons": "вне бассейна профиля: nw_atlantic_subtropical", "conc_A_model": "conc-A-c6bce5631d2b", "conc_B_items_km2": null, "conc_B_lo80": null, "conc_B_hi80": null, "conc_B_lo95": null, "conc_B_hi95": null, "conc_B_status": "unavailable", "conc_B_status_ru": "концентрация недоступна", "conc_B_reasons": "вне бассейна профиля: black_sea", "conc_B_model": "conc-B-c6bce5631d2b"}}, {"type": "Feature", "geometry": {"type": "Polygon", "coordinates": [[[49.55775275698637, 53.44442921327091], [49.55775580097582, 53.44433935421197], [49.55760529020045, 53.44433753677701], [49.557608334490915, 53.44424767772252], [49.55791239906253, 53.444161453323204], [49.55790935542324, 53.44425131239102], [49.55805986591399, 53.444253129440916], [49.558056822575715, 53.44434298851317], [49.557906311767574, 53.44434117145736], [49.557903268095515, 53.44443103052221], [49.55775275698637, 53.44442921327091]]]}, "properties": {"zone_id": "kuibyshev-2025-07-09-005", "aoi": "kuibyshev", "date": "2025-07-09", "scene_id": "S2C_MSIL2A_20250709T074631_R135_T39UUV_20250709T091614", "scene_datetime_utc": "2025-07-09T07:46:31.025000+00:00", "detection_status": "detected", "detection_status_ru": "обнаружено", "lon": 49.55783, "lat": 53.4443, "n_pixels": 1, "zone_area_km2": 0.0005, "cover_m2": 16.5, "p_mean": 0.82, "p_max": 0.82, "cover_m2_km2": 33000.0, "h3": "881081c2c1fffff", "valid_frac_scene": 1.0, "wind_ms": 3.7, "sea": "спокойное", "scene_reliable": true, "field_event_id": "S4:DOORS3:T23", "field_profile": "B", "field_date": "2024-06-10", "field_distance_km": 1369.5, "field_date_gap_days": 394, "field_conc_items_km2": 102.37, "conc_A_items_km2": null, "conc_A_lo80": null, "conc_A_hi80": null, "conc_A_lo95": null, "conc_A_hi95": null, "conc_A_status": "unavailable", "conc_A_status_ru": "концентрация недоступна", "conc_A_reasons": "вне бассейна профиля: nw_atlantic_subtropical", "conc_A_model": "conc-A-c6bce5631d2b", "conc_B_items_km2": null, "conc_B_lo80": null, "conc_B_hi80": null, "conc_B_lo95": null, "conc_B_hi95": null, "conc_B_status": "unavailable", "conc_B_status_ru": "концентрация недоступна", "conc_B_reasons": "вне бассейна профиля: black_sea", "conc_B_model": "conc-B-c6bce5631d2b"}}]}