{"type": "FeatureCollection", "features": [{"type": "Feature", "geometry": {"type": "Polygon", "coordinates": [[[29.989930045064092, 60.08607908126749], [29.989921918320945, 60.085989412103324], [29.989742413236897, 60.08599347156621], [29.98973428703133, 60.08590380238551], [29.98938340291444, 60.08600158976201], [29.989375277681134, 60.08591192055207], [29.989195772928873, 60.08591597927034], [29.98915514996458, 60.08546763311916], [29.98933465228625, 60.08546357447399], [29.989326527361605, 60.08537390525272], [29.989506029145723, 60.08536984637883], [29.98949790378641, 60.08528017717028], [29.989677405032978, 60.085276118067696], [29.98968553087839, 60.08536578726163], [29.989865032559617, 60.08536172790109], [29.989856906228095, 60.08527205872178], [29.990754411431848, 60.08525175834219], [29.990762540193895, 60.08534142744835], [29.99094204156636, 60.085337366627805], [29.990966429619622, 60.08560637389109], [29.99078692678883, 60.08561043475552], [29.990795055756745, 60.08570010385415], [29.990615552388363, 60.08570416448987], [29.990607423906567, 60.085614495376625], [29.990427920972838, 60.08561855575438], [29.99041979302862, 60.08552888662463], [29.989709908723338, 60.08563479483205], [29.989718034774548, 60.08572446401844], [29.98989753840023, 60.08572040459939], [29.989905664989017, 60.08581007376927], [29.990272800670727, 60.08589162331063], [29.990280928334677, 60.085981292447485], [29.990101423353543, 60.08598535239707], [29.990109550582815, 60.08607502154662], [29.989930045064092, 60.08607908126749]]]}, "properties": {"zone_id": "neva-2026-04-10-001", "aoi": "neva", "date": "2026-04-10", "scene_id": "S2B_MSIL2A_20260410T093029_R136_T36VUM_20260410T114916", "scene_datetime_utc": "2026-04-10T09:30:29.025000+00:00", "detection_status": "detected", "detection_status_ru": "обнаружено", "lon": 29.98994, "lat": 60.08557, "n_pixels": 21, "zone_area_km2": 0.0051, "cover_m2": 506.7, "p_mean": 0.717, "p_max": 1.0, "cover_m2_km2": 99352.9, "h3": "881106bac5fffff", "valid_frac_scene": 0.99, "wind_ms": 5.7, "sea": "спокойное", "scene_reliable": true, "field_event_id": "S3:HE419_MarLitter_transect28", "field_profile": "B", "field_date": "2014-04-11", "field_distance_km": 1415.5, "field_date_gap_days": 4382, "field_conc_items_km2": 43.1, "conc_A_items_km2": null, "conc_A_lo80": null, "conc_A_hi80": null, "conc_A_lo95": null, "conc_A_hi95": null, "conc_A_status": "unavailable", "conc_A_status_ru": "концентрация недоступна", "conc_A_reasons": "вне бассейна профиля: nw_atlantic_subtropical", "conc_A_model": "conc-A-c6bce5631d2b", "conc_B_items_km2": null, "conc_B_lo80": null, "conc_B_hi80": null, "conc_B_lo95": null, "conc_B_hi95": null, "conc_B_status": "unavailable", "conc_B_status_ru": "концентрация недоступна", "conc_B_reasons": "вне бассейна профиля: black_sea", "conc_B_model": "conc-B-c6bce5631d2b"}}, {"type": "Feature", "geometry": {"type": "Polygon", "coordinates": [[[29.991741970910617, 60.084241030529675], [29.99173383984975, 60.08415136148863], [29.991554345053732, 60.084155423335616], [29.991538084058554, 60.083976085218545], [29.991717577882454, 60.08397202340084], [29.99170944697602, 60.083882354354095], [29.991529953638178, 60.0838864161572], [29.991521823269277, 60.083796747093935], [29.991342330366013, 60.0838008086391], [29.99133420053464, 60.08371113955931], [29.991154708065956, 60.08371520084654], [29.991146578772096, 60.08362553175023], [29.99096708673799, 60.083629592779495], [29.99095895798164, 60.08353992366669], [29.99059184699832, 60.08345837582204], [29.990575591687094, 60.08327903752848], [29.99092644347088, 60.08318124719656], [29.990934572021374, 60.083270916316934], [29.991301681723833, 60.08335246322134], [29.991309811349332, 60.08344213230867], [29.991489302308416, 60.083438070822034], [29.991497432471427, 60.08352773989286], [29.99167692386508, 60.08352367814829], [29.991685054565597, 60.08361334720257], [29.99186454639382, 60.08360928520005], [29.991872677631857, 60.083698954237825], [29.992231662105944, 60.08369082947356], [29.99223979436756, 60.083780498480166], [29.992419287013423, 60.08377643571842], [29.99242741981258, 60.08386610470851], [29.992606912893, 60.08386204168883], [29.992631313057572, 60.08413104860384], [29.992451818518987, 60.084135111667436], [29.992459951524104, 60.08422478064995], [29.992100961320332, 60.084232906076465], [29.99209282928734, 60.08414323706468], [29.991913334594287, 60.08414729939831], [29.991921466141214, 60.084236968424726], [29.991741970910617, 60.084241030529675]], [[29.99189707165487, 60.08396796133978], [29.992076565375807, 60.0839638990354], [29.99206843349727, 60.08387423001793], [29.99188894026238, 60.083878292307666], [29.99189707165487, 60.08396796133978]]]}, "properties": {"zone_id": "neva-2026-04-10-002", "aoi": "neva", "date": "2026-04-10", "scene_id": "S2B_MSIL2A_20260410T093029_R136_T36VUM_20260410T114916", "scene_datetime_utc": "2026-04-10T09:30:29.025000+00:00", "detection_status": "detected", "detection_status_ru": "обнаружено", "lon": 29.9917, "lat": 60.08377, "n_pixels": 18, "zone_area_km2": 0.0049, "cover_m2": 375.3, "p_mean": 0.61, "p_max": 0.855, "cover_m2_km2": 76591.8, "h3": "881106bac5fffff", "valid_frac_scene": 0.99, "wind_ms": 5.7, "sea": "спокойное", "scene_reliable": true, "field_event_id": "S3:HE419_MarLitter_transect28", "field_profile": "B", "field_date": "2014-04-11", "field_distance_km": 1415.5, "field_date_gap_days": 4382, "field_conc_items_km2": 43.1, "conc_A_items_km2": null, "conc_A_lo80": null, "conc_A_hi80": null, "conc_A_lo95": null, "conc_A_hi95": null, "conc_A_status": "unavailable", "conc_A_status_ru": "концентрация недоступна", "conc_A_reasons": "вне бассейна профиля: nw_atlantic_subtropical", "conc_A_model": "conc-A-c6bce5631d2b", "conc_B_items_km2": null, "conc_B_lo80": null, "conc_B_hi80": null, "conc_B_lo95": null, "conc_B_hi95": null, "conc_B_status": "unavailable", "conc_B_status_ru": "концентрация недоступна", "conc_B_reasons": "вне бассейна профиля: black_sea", "conc_B_model": "conc-B-c6bce5631d2b"}}, {"type": "Feature", "geometry": {"type": "Polygon", "coordinates": [[[29.99021661114698, 60.08328715776677], [29.990208484540616, 60.08319748858791], [29.989841379183922, 60.0831159386137], [29.989825128172548, 60.082936600188035], [29.98964563966655, 60.08294065939711], [29.98963751472405, 60.08285099016681], [29.989458026652628, 60.08285504911794], [29.989449902247586, 60.08276537987115], [29.989629389832988, 60.08276132093462], [29.98962126499336, 60.08267165170057], [29.98998023903781, 60.082663533126855], [29.989988364849463, 60.08275320233167], [29.99016785228054, 60.08274914266525], [29.99019223148224, 60.08301815022452], [29.990559336581686, 60.08309969922737], [29.990567464108658, 60.08318936837886], [29.99021661114698, 60.08328715776677]]]}, "properties": {"zone_id": "neva-2026-04-10-003", "aoi": "neva", "date": "2026-04-10", "scene_id": "S2B_MSIL2A_20260410T093029_R136_T36VUM_20260410T114916", "scene_datetime_utc": "2026-04-10T09:30:29.025000+00:00", "detection_status": "detected", "detection_status_ru": "обнаружено", "lon": 29.98999, "lat": 60.08294, "n_pixels": 5, "zone_area_km2": 0.0018, "cover_m2": 102.0, "p_mean": 0.529, "p_max": 0.553, "cover_m2_km2": 56666.7, "h3": "881106bac5fffff", "valid_frac_scene": 0.99, "wind_ms": 5.7, "sea": "спокойное", "scene_reliable": true, "field_event_id": "S3:HE419_MarLitter_transect28", "field_profile": "B", "field_date": "2014-04-11", "field_distance_km": 1415.4, "field_date_gap_days": 4382, "field_conc_items_km2": 43.1, "conc_A_items_km2": null, "conc_A_lo80": null, "conc_A_hi80": null, "conc_A_lo95": null, "conc_A_hi95": null, "conc_A_status": "unavailable", "conc_A_status_ru": "концентрация недоступна", "conc_A_reasons": "вне бассейна профиля: nw_atlantic_subtropical", "conc_A_model": "conc-A-c6bce5631d2b", "conc_B_items_km2": null, "conc_B_lo80": null, "conc_B_hi80": null, "conc_B_lo95": null, "conc_B_hi95": null, "conc_B_status": "unavailable", "conc_B_status_ru": "концентрация недоступна", "conc_B_reasons": "вне бассейна профиля: black_sea", "conc_B_model": "conc-B-c6bce5631d2b"}}, {"type": "Feature", "geometry": {"type": "Polygon", "coordinates": [[[29.99155496953415, 60.082178642107266], [29.991546839657193, 60.082088973022756], [29.991367356039806, 60.08209303453324], [29.991342968175704, 60.08182402722448], [29.99098400370246, 60.081832149427775], [29.990975875489323, 60.081742480291815], [29.990796393661494, 60.08174654101389], [29.990788265985792, 60.08165687186142], [29.99096774732764, 60.08165281115396], [29.99095961921742, 60.08156314201425], [29.99078013836155, 60.08156720270707], [29.99077201078875, 60.08147753355081], [29.9905925303674, 60.08148159398572], [29.990584403332033, 60.08139192481295], [29.990763883267412, 60.08138786439267], [29.990755755797526, 60.08129819523265], [29.990935235195487, 60.081294134583715], [29.99092710729109, 60.0812044654364], [29.99128606496071, 60.081196343437895], [29.991277936135845, 60.081106674318], [29.991636892627707, 60.08109855137556], [29.991628762882385, 60.081008882283], [29.992167195776307, 60.08099669608859], [29.992175326979485, 60.08108636513724], [29.9923548049938, 60.081082302571225], [29.992371068526516, 60.08126164063361], [29.992191589540287, 60.0812657032289], [29.992199720897894, 60.08135537227188], [29.991840761799082, 60.08136349676184], [29.991832631413395, 60.0812738276896], [29.99165315227274, 60.08127788955502], [29.99166128217246, 60.08136755864187], [29.991481802494373, 60.081371620278624], [29.991489931959595, 60.08146128937827], [29.991139100021833, 60.081559081078126], [29.991147228618033, 60.08164875020323], [29.99168567218043, 60.08163656589121], [29.991693802286026, 60.08172623497053], [29.991873283856535, 60.08172217303198], [29.9918895451941, 60.08190151115572], [29.992248510124618, 60.08189338649015], [29.992256641842584, 60.081983055519935], [29.99243612471661, 60.08197899280757], [29.992444256972043, 60.0820686618208], [29.99226477361203, 60.0820727245478], [29.99227290543295, 60.08216239357378], [29.99155496953415, 60.082178642107266]]]}, "properties": {"zone_id": "neva-2026-04-10-004", "aoi": "neva", "date": "2026-04-10", "scene_id": "S2B_MSIL2A_20260410T093029_R136_T36VUM_20260410T114916", "scene_datetime_utc": "2026-04-10T09:30:29.025000+00:00", "detection_status": "detected", "detection_status_ru": "обнаружено", "lon": 29.99154, "lat": 60.08155, "n_pixels": 22, "zone_area_km2": 0.0061, "cover_m2": 611.8, "p_mean": 0.698, "p_max": 0.996, "cover_m2_km2": 100295.1, "h3": "881106ba13fffff", "valid_frac_scene": 0.99, "wind_ms": 5.7, "sea": "спокойное", "scene_reliable": true, "field_event_id": "S3:HE419_MarLitter_transect28", "field_profile": "B", "field_date": "2014-04-11", "field_distance_km": 1415.4, "field_date_gap_days": 4382, "field_conc_items_km2": 43.1, "conc_A_items_km2": null, "conc_A_lo80": null, "conc_A_hi80": null, "conc_A_lo95": null, "conc_A_hi95": null, "conc_A_status": "unavailable", "conc_A_status_ru": "концентрация недоступна", "conc_A_reasons": "вне бассейна профиля: nw_atlantic_subtropical", "conc_A_model": "conc-A-c6bce5631d2b", "conc_B_items_km2": null, "conc_B_lo80": null, "conc_B_hi80": null, "conc_B_lo95": null, "conc_B_hi95": null, "conc_B_status": "unavailable", "conc_B_status_ru": "концентрация недоступна", "conc_B_reasons": "вне бассейна профиля: black_sea", "conc_B_model": "conc-B-c6bce5631d2b"}}, {"type": "Feature", "geometry": {"type": "Polygon", "coordinates": [[[29.98899344973783, 60.08169746555454], [29.988985326973374, 60.08160779625395], [29.988805845551678, 60.08161185427051], [29.98878960114898, 60.08143251563444], [29.98861012064782, 60.08143657337847], [29.988601999009582, 60.081346904042995], [29.988781479024773, 60.08134284631358], [29.98876523493059, 60.081163507666204], [29.989116069920954, 60.08106572223867], [29.98912419286284, 60.08115539153595], [29.989303671751827, 60.081151333105915], [29.98934428966249, 60.08159967949094], [29.98899344973783, 60.08169746555454]]]}, "properties": {"zone_id": "neva-2026-04-10-005", "aoi": "neva", "date": "2026-04-10", "scene_id": "S2B_MSIL2A_20260410T093029_R136_T36VUM_20260410T114916", "scene_datetime_utc": "2026-04-10T09:30:29.025000+00:00", "detection_status": "detected", "detection_status_ru": "обнаружено", "lon": 29.98902, "lat": 60.08138, "n_pixels": 6, "zone_area_km2": 0.0018, "cover_m2": 126.7, "p_mean": 0.531, "p_max": 0.569, "cover_m2_km2": 70388.9, "h3": "881106ba13fffff", "valid_frac_scene": 0.99, "wind_ms": 5.7, "sea": "спокойное", "scene_reliable": true, "field_event_id": "S3:HE419_MarLitter_transect28", "field_profile": "B", "field_date": "2014-04-11", "field_distance_km": 1415.3, "field_date_gap_days": 4382, "field_conc_items_km2": 43.1, "conc_A_items_km2": null, "conc_A_lo80": null, "conc_A_hi80": null, "conc_A_lo95": null, "conc_A_hi95": null, "conc_A_status": "unavailable", "conc_A_status_ru": "концентрация недоступна", "conc_A_reasons": "вне бассейна профиля: nw_atlantic_subtropical", "conc_A_model": "conc-A-c6bce5631d2b", "conc_B_items_km2": null, "conc_B_lo80": null, "conc_B_hi80": null, "conc_B_lo95": null, "conc_B_hi95": null, "conc_B_status": "unavailable", "conc_B_status_ru": "концентрация недоступна", "conc_B_reasons": "вне бассейна профиля: black_sea", "conc_B_model": "conc-B-c6bce5631d2b"}}, {"type": "Feature", "geometry": {"type": "Polygon", "coordinates": [[[29.91199642195307, 60.081439208030154], [29.911988508332605, 60.08134953251241], [29.911809015878042, 60.08135348607155], [29.911801102793778, 60.081263810537706], [29.911980594762234, 60.08125985699281], [29.911972681241966, 60.08117018147134], [29.91233166405636, 60.081162273680015], [29.912339578548835, 60.081251949173], [29.912519070366976, 60.0812479948981], [29.912526985395658, 60.08133767037497], [29.912347493091413, 60.08134162466412], [29.9123554076841, 60.08143130015338], [29.91199642195307, 60.081439208030154]]]}, "properties": {"zone_id": "neva-2026-04-10-006", "aoi": "neva", "date": "2026-04-10", "scene_id": "S2B_MSIL2A_20260410T093029_R136_T36VUM_20260410T114916", "scene_datetime_utc": "2026-04-10T09:30:29.025000+00:00", "detection_status": "detected", "detection_status_ru": "обнаружено", "lon": 29.91216, "lat": 60.0813, "n_pixels": 2, "zone_area_km2": 0.0008, "cover_m2": 16.9, "p_mean": 0.551, "p_max": 0.573, "cover_m2_km2": 21125.0, "h3": "88110684b3fffff", "valid_frac_scene": 0.99, "wind_ms": 5.7, "sea": "спокойное", "scene_reliable": true, "field_event_id": "S3:HE419_MarLitter_transect28", "field_profile": "B", "field_date": "2014-04-11", "field_distance_km": 1411.2, "field_date_gap_days": 4382, "field_conc_items_km2": 43.1, "conc_A_items_km2": null, "conc_A_lo80": null, "conc_A_hi80": null, "conc_A_lo95": null, "conc_A_hi95": null, "conc_A_status": "unavailable", "conc_A_status_ru": "концентрация недоступна", "conc_A_reasons": "вне бассейна профиля: nw_atlantic_subtropical", "conc_A_model": "conc-A-c6bce5631d2b", "conc_B_items_km2": null, "conc_B_lo80": null, "conc_B_hi80": null, "conc_B_lo95": null, "conc_B_hi95": null, "conc_B_status": "unavailable", "conc_B_status_ru": "концентрация недоступна", "conc_B_reasons": "вне бассейна профиля: black_sea", "conc_B_model": "conc-B-c6bce5631d2b"}}, {"type": "Feature", "geometry": {"type": "Polygon", "coordinates": [[[29.99297457302977, 60.08196680321072], [29.99296643936787, 60.08187713423948], [29.992599342210763, 60.08179559184903], [29.992591209623804, 60.08170592284475], [29.99329286566006, 60.081510330867665], [29.993276596958793, 60.08133099296296], [29.993097117744032, 60.081335056789364], [29.993080850220668, 60.081155718847825], [29.99326032846351, 60.081151655050704], [29.993252194293113, 60.08106198609177], [29.99289323872785, 60.081070113413425], [29.992885105580854, 60.080980444423304], [29.99234667330466, 60.0809926335372], [29.992338541667, 60.08090296450129], [29.992159064624595, 60.08090702703804], [29.992150933524364, 60.0808173579856], [29.99178385018016, 60.08073581321639], [29.99177572015476, 60.08064614413092], [29.99195519584228, 60.08064208212464], [29.99194706538241, 60.080552413051876], [29.99212654053251, 60.08054835081695], [29.992118409638174, 60.080458681756944], [29.99301578218686, 60.08043836700615], [29.99302391551087, 60.080528035992984], [29.99320339035209, 60.08052397229835], [29.99321152421353, 60.08061364126866], [29.993032048886374, 60.08061770497793], [29.993048315791846, 60.080797042942116], [29.99322779209088, 60.08079297920357], [29.9932359261068, 60.080882648168185], [29.993594879522284, 60.080874519931925], [29.993603014561593, 60.08096418886538], [29.993782491678033, 60.080960124367685], [29.993790627254793, 60.08104979328463], [29.993970104805687, 60.08104572852898], [29.994010785891835, 60.08149407301207], [29.993831305911144, 60.08149813784091], [29.993847577734222, 60.08167747565019], [29.993496750691296, 60.08177527356764], [29.99350488575965, 60.08186494249684], [29.99314592154996, 60.08187307056856], [29.993154055697843, 60.081962739525146], [29.99297457302977, 60.08196680321072]]]}, "properties": {"zone_id": "neva-2026-04-10-007", "aoi": "neva", "date": "2026-04-10", "scene_id": "S2B_MSIL2A_20260410T093029_R136_T36VUM_20260410T114916", "scene_datetime_utc": "2026-04-10T09:30:29.025000+00:00", "detection_status": "detected", "detection_status_ru": "обнаружено", "lon": 29.99311, "lat": 60.08115, "n_pixels": 39, "zone_area_km2": 0.0086, "cover_m2": 1038.8, "p_mean": 0.633, "p_max": 0.976, "cover_m2_km2": 120790.7, "h3": "881106bae9fffff", "valid_frac_scene": 0.99, "wind_ms": 5.7, "sea": "спокойное", "scene_reliable": true, "field_event_id": "S3:HE419_MarLitter_transect28", "field_profile": "B", "field_date": "2014-04-11", "field_distance_km": 1415.5, "field_date_gap_days": 4382, "field_conc_items_km2": 43.1, "conc_A_items_km2": null, "conc_A_lo80": null, "conc_A_hi80": null, "conc_A_lo95": null, "conc_A_hi95": null, "conc_A_status": "unavailable", "conc_A_status_ru": "концентрация недоступна", "conc_A_reasons": "вне бассейна профиля: nw_atlantic_subtropical", "conc_A_model": "conc-A-c6bce5631d2b", "conc_B_items_km2": null, "conc_B_lo80": null, "conc_B_hi80": null, "conc_B_lo95": null, "conc_B_hi95": null, "conc_B_status": "unavailable", "conc_B_status_ru": "концентрация недоступна", "conc_B_reasons": "вне бассейна профиля: black_sea", "conc_B_model": "conc-B-c6bce5631d2b"}}, {"type": "Feature", "geometry": {"type": "Polygon", "coordinates": [[[29.987647765143052, 60.080739503127965], [29.987639646345865, 60.080649833704285], [29.987460169909927, 60.08065388985703], [29.987443933441646, 60.08047455097488], [29.98762340890569, 60.08047049485134], [29.987615290262703, 60.08038082542202], [29.9879823596796, 60.080462381874426], [29.98799859906356, 60.080641720668915], [29.987647765143052, 60.080739503127965]]]}, "properties": {"zone_id": "neva-2026-04-10-008", "aoi": "neva", "date": "2026-04-10", "scene_id": "S2B_MSIL2A_20260410T093029_R136_T36VUM_20260410T114916", "scene_datetime_utc": "2026-04-10T09:30:29.025000+00:00", "detection_status": "detected", "detection_status_ru": "обнаружено", "lon": 29.98772, "lat": 60.08056, "n_pixels": 2, "zone_area_km2": 0.0008, "cover_m2": 47.8, "p_mean": 0.633, "p_max": 0.667, "cover_m2_km2": 59750.0, "h3": "881106ba13fffff", "valid_frac_scene": 0.99, "wind_ms": 5.7, "sea": "спокойное", "scene_reliable": true, "field_event_id": "S3:HE419_MarLitter_transect28", "field_profile": "B", "field_date": "2014-04-11", "field_distance_km": 1415.2, "field_date_gap_days": 4382, "field_conc_items_km2": 43.1, "conc_A_items_km2": null, "conc_A_lo80": null, "conc_A_hi80": null, "conc_A_lo95": null, "conc_A_hi95": null, "conc_A_status": "unavailable", "conc_A_status_ru": "концентрация недоступна", "conc_A_reasons": "вне бассейна профиля: nw_atlantic_subtropical", "conc_A_model": "conc-A-c6bce5631d2b", "conc_B_items_km2": null, "conc_B_lo80": null, "conc_B_hi80": null, "conc_B_lo95": null, "conc_B_hi95": null, "conc_B_status": "unavailable", "conc_B_status_ru": "концентрация недоступна", "conc_B_reasons": "вне бассейна профиля: black_sea", "conc_B_model": "conc-B-c6bce5631d2b"}}, {"type": "Feature", "geometry": {"type": "Polygon", "coordinates": [[[29.990136060004424, 60.08041368357683], [29.990127934558288, 60.080324014352136], [29.989768985990267, 60.08033213313868], [29.98976086156744, 60.08024246388289], [29.989581387692212, 60.08024652289662], [29.989573263806747, 60.08015685362428], [29.98975273719605, 60.08015279462519], [29.98972836439044, 60.07988378684075], [29.98990783627054, 60.07987972764223], [29.989899711618946, 60.07979005839161], [29.990079182961686, 60.07978599896443], [29.990071057875618, 60.079696329726524], [29.990609470137482, 60.07968415002916], [29.990617596681297, 60.0797738192232], [29.99079706781828, 60.0797697588229], [29.99084583107705, 60.08030777385962], [29.990666357024526, 60.08031183434768], [29.990674483928466, 60.080401503528485], [29.990136060004424, 60.08041368357683]]]}, "properties": {"zone_id": "neva-2026-04-10-009", "aoi": "neva", "date": "2026-04-10", "scene_id": "S2B_MSIL2A_20260410T093029_R136_T36VUM_20260410T114916", "scene_datetime_utc": "2026-04-10T09:30:29.025000+00:00", "detection_status": "detected", "detection_status_ru": "обнаружено", "lon": 29.9903, "lat": 60.08005, "n_pixels": 21, "zone_area_km2": 0.0042, "cover_m2": 538.4, "p_mean": 0.754, "p_max": 0.992, "cover_m2_km2": 128190.5, "h3": "881106ba13fffff", "valid_frac_scene": 0.99, "wind_ms": 5.7, "sea": "спокойное", "scene_reliable": true, "field_event_id": "S3:HE419_MarLitter_transect28", "field_profile": "B", "field_date": "2014-04-11", "field_distance_km": 1415.3, "field_date_gap_days": 4382, "field_conc_items_km2": 43.1, "conc_A_items_km2": null, "conc_A_lo80": null, "conc_A_hi80": null, "conc_A_lo95": null, "conc_A_hi95": null, "conc_A_status": "unavailable", "conc_A_status_ru": "концентрация недоступна", "conc_A_reasons": "вне бассейна профиля: nw_atlantic_subtropical", "conc_A_model": "conc-A-c6bce5631d2b", "conc_B_items_km2": null, "conc_B_lo80": null, "conc_B_hi80": null, "conc_B_lo95": null, "conc_B_hi95": null, "conc_B_status": "unavailable", "conc_B_status_ru": "концентрация недоступна", "conc_B_reasons": "вне бассейна профиля: black_sea", "conc_B_model": "conc-B-c6bce5631d2b"}}, {"type": "Feature", "geometry": {"type": "Polygon", "coordinates": [[[29.988056277688273, 60.07929262286266], [29.988048158255683, 60.07920295345265], [29.987868689748716, 60.07920701010146], [29.987852452009527, 60.07902767124657], [29.988031919544692, 60.07902361462696], [29.988007561863693, 60.078754606374275], [29.9881870278898, 60.078750549555245], [29.988170788721025, 60.0785712107399], [29.988350253723972, 60.07856715370683], [29.988334013789043, 60.07838781491316], [29.988513477768844, 60.07838375766603], [29.988505357392608, 60.07829408828098], [29.988872405574227, 60.078375642442], [29.988904891480214, 60.0787343198464], [29.98926382296696, 60.07872620353235], [29.989271945543752, 60.07881587284948], [29.98945141169588, 60.07881181431296], [29.989459534809974, 60.0789014836136], [29.989280068171958, 60.07890554216477], [29.989288190851582, 60.07899521147813], [29.988929256449524, 60.07900332787989], [29.988937378208785, 60.079092997220584], [29.988586563468168, 60.07919078204653], [29.98859468435846, 60.0792804514127], [29.988227626711243, 60.07919889656054], [29.988235746629737, 60.079288565955956], [29.988056277688273, 60.07929262286266]], [[29.988749789171372, 60.07900738571583], [29.988929256449524, 60.07900332787989], [29.988921134741673, 60.078913658537275], [29.98874166794941, 60.07891771635862], [29.988749789171372, 60.07900738571583]]]}, "properties": {"zone_id": "neva-2026-04-10-010", "aoi": "neva", "date": "2026-04-10", "scene_id": "S2B_MSIL2A_20260410T093029_R136_T36VUM_20260410T114916", "scene_datetime_utc": "2026-04-10T09:30:29.025000+00:00", "detection_status": "detected", "detection_status_ru": "обнаружено", "lon": 29.98854, "lat": 60.07884, "n_pixels": 22, "zone_area_km2": 0.0049, "cover_m2": 564.7, "p_mean": 0.706, "p_max": 0.992, "cover_m2_km2": 115244.9, "h3": "881106ba13fffff", "valid_frac_scene": 0.99, "wind_ms": 5.7, "sea": "спокойное", "scene_reliable": true, "field_event_id": "S3:HE419_MarLitter_transect28", "field_profile": "B", "field_date": "2014-04-11", "field_distance_km": 1415.2, "field_date_gap_days": 4382, "field_conc_items_km2": 43.1, "conc_A_items_km2": null, "conc_A_lo80": null, "conc_A_hi80": null, "conc_A_lo95": null, "conc_A_hi95": null, "conc_A_status": "unavailable", "conc_A_status_ru": "концентрация недоступна", "conc_A_reasons": "вне бассейна профиля: nw_atlantic_subtropical", "conc_A_model": "conc-A-c6bce5631d2b", "conc_B_items_km2": null, "conc_B_lo80": null, "conc_B_hi80": null, "conc_B_lo95": null, "conc_B_hi95": null, "conc_B_status": "unavailable", "conc_B_status_ru": "концентрация недоступна", "conc_B_reasons": "вне бассейна профиля: black_sea", "conc_B_model": "conc-B-c6bce5631d2b"}}, {"type": "Feature", "geometry": {"type": "Polygon", "coordinates": [[[30.009118787125836, 60.077556880888594], [30.009110611084775, 60.07746721318232], [30.008931155465508, 60.077471298330586], [30.008922979961998, 60.07738163060769], [30.00910243509546, 60.07737754547411], [30.00909425915791, 60.07728787776405], [30.00946134520713, 60.07736937447723], [30.00946952216804, 60.07745904215601], [30.009290066652284, 60.07746312779079], [30.00929824317915, 60.077552795482354], [30.009118787125836, 60.077556880888594]]]}, "properties": {"zone_id": "neva-2026-04-10-011", "aoi": "neva", "date": "2026-04-10", "scene_id": "S2B_MSIL2A_20260410T093029_R136_T36VUM_20260410T114916", "scene_datetime_utc": "2026-04-10T09:30:29.025000+00:00", "detection_status": "detected", "detection_status_ru": "обнаружено", "lon": 30.0092, "lat": 60.07742, "n_pixels": 1, "zone_area_km2": 0.0005, "cover_m2": 17.6, "p_mean": 0.537, "p_max": 0.537, "cover_m2_km2": 35200.0, "h3": "881106bae1fffff", "valid_frac_scene": 0.99, "wind_ms": 5.7, "sea": "спокойное", "scene_reliable": true, "field_event_id": "S3:HE419_MarLitter_transect28", "field_profile": "B", "field_date": "2014-04-11", "field_distance_km": 1416.3, "field_date_gap_days": 4382, "field_conc_items_km2": 43.1, "conc_A_items_km2": null, "conc_A_lo80": null, "conc_A_hi80": null, "conc_A_lo95": null, "conc_A_hi95": null, "conc_A_status": "unavailable", "conc_A_status_ru": "концентрация недоступна", "conc_A_reasons": "вне бассейна профиля: nw_atlantic_subtropical", "conc_A_model": "conc-A-c6bce5631d2b", "conc_B_items_km2": null, "conc_B_lo80": null, "conc_B_hi80": null, "conc_B_lo95": null, "conc_B_hi95": null, "conc_B_status": "unavailable", "conc_B_status_ru": "концентрация недоступна", "conc_B_reasons": "вне бассейна профиля: black_sea", "conc_B_model": "conc-B-c6bce5631d2b"}}, {"type": "Feature", "geometry": {"type": "MultiPolygon", "coordinates": [[[[30.008368266314136, 60.07721454900921], [30.00818881194529, 60.07721863314038], [30.0081806385402, 60.077128965352955], [30.007642276580626, 60.07714121624288], [30.00763410468464, 60.07705154840944], [30.00745465108045, 60.077055631538215], [30.007446479721988, 60.07696596368818], [30.007267026551865, 60.076970046559005], [30.00727519742454, 60.07705971442374], [30.00690812005646, 60.076978211570946], [30.006916289957555, 60.07706787946512], [30.006736836146487, 60.07707196162092], [30.006745005613503, 60.077161629527914], [30.006924459910365, 60.07715754735739], [30.00693262991489, 60.07724721524774], [30.00765862052777, 60.07732055190409], [30.007666792578927, 60.077410219731846], [30.008205158910677, 60.07739796870953], [30.008196985402112, 60.077308300925914], [30.00837644025676, 60.077304216780036], [30.008368266314136, 60.07721454900921]]], [[[30.00821333247098, 60.077487636491284], [30.00858041865538, 60.07756913564787], [30.008572244071733, 60.07747946789744], [30.008751699794498, 60.07747538323565], [30.008743524776786, 60.07738571549802], [30.00837644025676, 60.077304216780036], [30.008384614251124, 60.07739388454893], [30.008205158910677, 60.07739796870953], [30.00821333247098, 60.077487636491284]]]]}, "properties": {"zone_id": "neva-2026-04-10-012", "aoi": "neva", "date": "2026-04-10", "scene_id": "S2B_MSIL2A_20260410T093029_R136_T36VUM_20260410T114916", "scene_datetime_utc": "2026-04-10T09:30:29.025000+00:00", "detection_status": "detected", "detection_status_ru": "обнаружено", "lon": 30.00772, "lat": 60.07724, "n_pixels": 7, "zone_area_km2": 0.0028, "cover_m2": 137.6, "p_mean": 0.616, "p_max": 0.816, "cover_m2_km2": 49142.9, "h3": "881106bae1fffff", "valid_frac_scene": 0.99, "wind_ms": 5.7, "sea": "спокойное", "scene_reliable": true, "field_event_id": "S3:HE419_MarLitter_transect28", "field_profile": "B", "field_date": "2014-04-11", "field_distance_km": 1416.2, "field_date_gap_days": 4382, "field_conc_items_km2": 43.1, "conc_A_items_km2": null, "conc_A_lo80": null, "conc_A_hi80": null, "conc_A_lo95": null, "conc_A_hi95": null, "conc_A_status": "unavailable", "conc_A_status_ru": "концентрация недоступна", "conc_A_reasons": "вне бассейна профиля: nw_atlantic_subtropical", "conc_A_model": "conc-A-c6bce5631d2b", "conc_B_items_km2": null, "conc_B_lo80": null, "conc_B_hi80": null, "conc_B_lo95": null, "conc_B_hi95": null, "conc_B_status": "unavailable", "conc_B_status_ru": "концентрация недоступна", "conc_B_reasons": "вне бассейна профиля: black_sea", "conc_B_model": "conc-B-c6bce5631d2b"}}, {"type": "Feature", "geometry": {"type": "Polygon", "coordinates": [[[30.003049836085957, 60.07607753509804], [30.003041677006337, 60.07598786687257], [30.002862228425137, 60.07599194372934], [30.002854069882922, 60.075902275487316], [30.003033517978356, 60.07589819864521], [30.003025359002013, 60.075808530415955], [30.003392414014286, 60.075890044231336], [30.00340057401378, 60.075979712429294], [30.00322112553588, 60.075983789772565], [30.00322928510127, 60.076073457983334], [30.003049836085957, 60.07607753509804]]]}, "properties": {"zone_id": "neva-2026-04-10-013", "aoi": "neva", "date": "2026-04-10", "scene_id": "S2B_MSIL2A_20260410T093029_R136_T36VUM_20260410T114916", "scene_datetime_utc": "2026-04-10T09:30:29.025000+00:00", "detection_status": "detected", "detection_status_ru": "обнаружено", "lon": 30.00313, "lat": 60.07594, "n_pixels": 1, "zone_area_km2": 0.0005, "cover_m2": 18.8, "p_mean": 0.506, "p_max": 0.506, "cover_m2_km2": 37600.0, "h3": "881106bae9fffff", "valid_frac_scene": 0.99, "wind_ms": 5.7, "sea": "спокойное", "scene_reliable": true, "field_event_id": "S3:HE419_MarLitter_transect28", "field_profile": "B", "field_date": "2014-04-11", "field_distance_km": 1415.9, "field_date_gap_days": 4382, "field_conc_items_km2": 43.1, "conc_A_items_km2": null, "conc_A_lo80": null, "conc_A_hi80": null, "conc_A_lo95": null, "conc_A_hi95": null, "conc_A_status": "unavailable", "conc_A_status_ru": "концентрация недоступна", "conc_A_reasons": "вне бассейна профиля: nw_atlantic_subtropical", "conc_A_model": "conc-A-c6bce5631d2b", "conc_B_items_km2": null, "conc_B_lo80": null, "conc_B_hi80": null, "conc_B_lo95": null, "conc_B_hi95": null, "conc_B_status": "unavailable", "conc_B_status_ru": "концентрация недоступна", "conc_B_reasons": "вне бассейна профиля: black_sea", "conc_B_model": "conc-B-c6bce5631d2b"}}, {"type": "Feature", "geometry": {"type": "MultiPolygon", "coordinates": [[[[30.00171213706318, 60.07520938472284], [30.001345093678268, 60.075127866147184], [30.001336939538295, 60.07503819776878], [30.001157495835688, 60.07504227227503], [30.001149342233052, 60.07495260388005], [30.00079045564448, 60.074960752133485], [30.000774150536945, 60.074781415279176], [30.000594708136713, 60.074785489011724], [30.000586556146065, 60.07469582056703], [30.000407114179957, 60.07469989404168], [30.00039896272663, 60.07461022558046], [30.000031929180786, 60.074528703278254], [30.00001562847496, 60.07434936628766], [29.999836188296946, 60.07435343897395], [29.999828038507125, 60.074263770461144], [30.000007478199425, 60.074259697789515], [29.999999327975477, 60.074170029289455], [29.999819888768883, 60.074174101946426], [29.99981173908223, 60.07408443342983], [29.999273422610077, 60.07409664989742], [29.999265274432105, 60.07400698133494], [29.998906397497535, 60.07401512440126], [29.99889825034254, 60.07392545580753], [29.99853937417311, 60.073933597871644], [29.998547520356706, 60.07402326649469], [29.998368081708954, 60.07402733717658], [29.998376227458404, 60.07411700581236], [29.99855566659187, 60.0741129351158], [29.998571959216868, 60.074292272352416], [29.998938986633206, 60.07437379875716], [29.998947134046038, 60.074463467341396], [29.99912657496765, 60.07445939585653], [29.999134722917773, 60.074549064424225], [29.99931416427353, 60.07454499268148], [29.999330461299937, 60.07472432978182], [29.999697495361637, 60.07480585402604], [29.99970564497524, 60.074895522542164], [29.999885088119157, 60.07489145001109], [29.999893238270072, 60.07498111851064], [30.000072681848142, 60.07497704572166], [30.00008083253638, 60.075066714204674], [30.000260276548588, 60.0750626411578], [30.000268427774156, 60.07515230962423], [30.00044787222051, 60.07514823631945], [30.000456023983407, 60.07523790476934], [30.0008149136928, 60.075229757400756], [30.000823066478784, 60.07531942581941], [30.001190110762316, 60.07540094583598], [30.001198264622996, 60.075490614221486], [30.00137771075431, 60.075486539641894], [30.001385865152344, 60.07557620801082], [30.001736602862078, 60.07547838975298], [30.00171213706318, 60.07520938472284]]], [[[30.0015734666532, 60.07566180152567], [30.00194051655927, 60.075743319412716], [30.001932360600733, 60.07565365109159], [30.002111807497066, 60.0756495755097], [30.002103651104406, 60.07555990720138], [30.001736602862078, 60.07547838975298], [30.00174475823162, 60.075568058092564], [30.00156531171779, 60.075572133173296], [30.0015734666532, 60.07566180152567]]]]}, "properties": {"zone_id": "neva-2026-04-10-014", "aoi": "neva", "date": "2026-04-10", "scene_id": "S2B_MSIL2A_20260410T093029_R136_T36VUM_20260410T114916", "scene_datetime_utc": "2026-04-10T09:30:29.025000+00:00", "detection_status": "detected", "detection_status_ru": "обнаружено", "lon": 30.00003, "lat": 60.0747, "n_pixels": 56, "zone_area_km2": 0.0103, "cover_m2": 1119.6, "p_mean": 0.598, "p_max": 0.737, "cover_m2_km2": 108699.0, "h3": "881106bae9fffff", "valid_frac_scene": 0.99, "wind_ms": 5.7, "sea": "спокойное", "scene_reliable": true, "field_event_id": "S3:HE419_MarLitter_transect28", "field_profile": "B", "field_date": "2014-04-11", "field_distance_km": 1415.7, "field_date_gap_days": 4382, "field_conc_items_km2": 43.1, "conc_A_items_km2": null, "conc_A_lo80": null, "conc_A_hi80": null, "conc_A_lo95": null, "conc_A_hi95": null, "conc_A_status": "unavailable", "conc_A_status_ru": "концентрация недоступна", "conc_A_reasons": "вне бассейна профиля: nw_atlantic_subtropical", "conc_A_model": "conc-A-c6bce5631d2b", "conc_B_items_km2": null, "conc_B_lo80": null, "conc_B_hi80": null, "conc_B_lo95": null, "conc_B_hi95": null, "conc_B_status": "unavailable", "conc_B_status_ru": "концентрация недоступна", "conc_B_reasons": "вне бассейна профиля: black_sea", "conc_B_model": "conc-B-c6bce5631d2b"}}, {"type": "Feature", "geometry": {"type": "Polygon", "coordinates": [[[29.993027225310914, 60.06866733916748], [29.993019095866202, 60.068577670019025], [29.9928396858845, 60.06858173298346], [29.99283155697676, 60.068492063818475], [29.993010966472937, 60.06848800086864], [29.99300283713111, 60.0683983317164], [29.99318224609032, 60.06839426853805], [29.993174116314428, 60.068304599398544], [29.99354106385439, 60.06838614145183], [29.993549194652775, 60.0684758105602], [29.993369785310946, 60.068479874239515], [29.99337791567526, 60.06856954336061], [29.993027225310914, 60.06866733916748]]]}, "properties": {"zone_id": "neva-2026-04-10-015", "aoi": "neva", "date": "2026-04-10", "scene_id": "S2B_MSIL2A_20260410T093029_R136_T36VUM_20260410T114916", "scene_datetime_utc": "2026-04-10T09:30:29.025000+00:00", "detection_status": "detected", "detection_status_ru": "обнаружено", "lon": 29.99319, "lat": 60.06848, "n_pixels": 2, "zone_area_km2": 0.0008, "cover_m2": 37.3, "p_mean": 0.61, "p_max": 0.714, "cover_m2_km2": 46625.0, "h3": "881106ba3bfffff", "valid_frac_scene": 0.99, "wind_ms": 5.7, "sea": "спокойное", "scene_reliable": true, "field_event_id": "S3:HE419_MarLitter_transect28", "field_profile": "B", "field_date": "2014-04-11", "field_distance_km": 1415.2, "field_date_gap_days": 4382, "field_conc_items_km2": 43.1, "conc_A_items_km2": null, "conc_A_lo80": null, "conc_A_hi80": null, "conc_A_lo95": null, "conc_A_hi95": null, "conc_A_status": "unavailable", "conc_A_status_ru": "концентрация недоступна", "conc_A_reasons": "вне бассейна профиля: nw_atlantic_subtropical", "conc_A_model": "conc-A-c6bce5631d2b", "conc_B_items_km2": null, "conc_B_lo80": null, "conc_B_hi80": null, "conc_B_lo95": null, "conc_B_hi95": null, "conc_B_status": "unavailable", "conc_B_status_ru": "концентрация недоступна", "conc_B_reasons": "вне бассейна профиля: black_sea", "conc_B_model": "conc-B-c6bce5631d2b"}}, {"type": "Feature", "geometry": {"type": "Polygon", "coordinates": [[[29.956183146144454, 60.02259386303415], [29.956175131576032, 60.02250419025873], [29.955995965353857, 60.02250820142042], [29.955987951320104, 60.02241852862867], [29.956167117058264, 60.02241451748141], [29.956159102591155, 60.022324844702204], [29.956517432947493, 60.022316821708344], [29.956525448382628, 60.02240649445868], [29.95670461396882, 60.02240248258318], [29.956712629938625, 60.022492155317224], [29.956533463868418, 60.022496167207116], [29.956541479404873, 60.022585839953706], [29.956183146144454, 60.02259386303415]]]}, "properties": {"zone_id": "neva-2026-04-10-016", "aoi": "neva", "date": "2026-04-10", "scene_id": "S2B_MSIL2A_20260410T093029_R136_T36VUM_20260410T114916", "scene_datetime_utc": "2026-04-10T09:30:29.025000+00:00", "detection_status": "detected", "detection_status_ru": "обнаружено", "lon": 29.95635, "lat": 60.02246, "n_pixels": 2, "zone_area_km2": 0.0008, "cover_m2": 7.8, "p_mean": 0.624, "p_max": 0.682, "cover_m2_km2": 9750.0, "h3": "881106bb51fffff", "valid_frac_scene": 0.99, "wind_ms": 5.7, "sea": "спокойное", "scene_reliable": true, "field_event_id": "S3:HE419_MarLitter_transect28", "field_profile": "B", "field_date": "2014-04-11", "field_distance_km": 1411.9, "field_date_gap_days": 4382, "field_conc_items_km2": 43.1, "conc_A_items_km2": null, "conc_A_lo80": null, "conc_A_hi80": null, "conc_A_lo95": null, "conc_A_hi95": null, "conc_A_status": "unavailable", "conc_A_status_ru": "концентрация недоступна", "conc_A_reasons": "вне бассейна профиля: nw_atlantic_subtropical", "conc_A_model": "conc-A-c6bce5631d2b", "conc_B_items_km2": null, "conc_B_lo80": null, "conc_B_hi80": null, "conc_B_lo95": null, "conc_B_hi95": null, "conc_B_status": "unavailable", "conc_B_status_ru": "концентрация недоступна", "conc_B_reasons": "вне бассейна профиля: black_sea", "conc_B_model": "conc-B-c6bce5631d2b"}}, {"type": "Feature", "geometry": {"type": "Polygon", "coordinates": [[[29.774841762355695, 60.01583739202537], [29.774834241075848, 60.015747704944346], [29.774655083020544, 60.01575146998774], [29.77464756227232, 60.01566178289136], [29.774826719843535, 60.0156580178615], [29.774819198658758, 60.01556833077689], [29.775185034843357, 60.01565048707352], [29.775192557043848, 60.015740174129256], [29.775013399083615, 60.015743939658186], [29.77502092084756, 60.01583362672567], [29.774841762355695, 60.01583739202537]]]}, "properties": {"zone_id": "neva-2026-04-10-017", "aoi": "neva", "date": "2026-04-10", "scene_id": "S2B_MSIL2A_20260410T093029_R136_T36VUM_20260410T114916", "scene_datetime_utc": "2026-04-10T09:30:29.025000+00:00", "detection_status": "detected", "detection_status_ru": "обнаружено", "lon": 29.77492, "lat": 60.0157, "n_pixels": 1, "zone_area_km2": 0.0005, "cover_m2": 3.5, "p_mean": 0.949, "p_max": 0.949, "cover_m2_km2": 7000.0, "h3": "8811068467fffff", "valid_frac_scene": 0.99, "wind_ms": 5.7, "sea": "спокойное", "scene_reliable": true, "field_event_id": "S3:HE419_MarLitter_transect28", "field_profile": "B", "field_date": "2014-04-11", "field_distance_km": 1402.0, "field_date_gap_days": 4382, "field_conc_items_km2": 43.1, "conc_A_items_km2": null, "conc_A_lo80": null, "conc_A_hi80": null, "conc_A_lo95": null, "conc_A_hi95": null, "conc_A_status": "unavailable", "conc_A_status_ru": "концентрация недоступна", "conc_A_reasons": "вне бассейна профиля: nw_atlantic_subtropical", "conc_A_model": "conc-A-c6bce5631d2b", "conc_B_items_km2": null, "conc_B_lo80": null, "conc_B_hi80": null, "conc_B_lo95": null, "conc_B_hi95": null, "conc_B_status": "unavailable", "conc_B_status_ru": "концентрация недоступна", "conc_B_reasons": "вне бассейна профиля: black_sea", "conc_B_model": "conc-B-c6bce5631d2b"}}, {"type": "Feature", "geometry": {"type": "Polygon", "coordinates": [[[29.593892018317483, 60.00837592838043], [29.593884989272297, 60.008286227910695], [29.593519672733542, 60.00820356602464], [29.59351264474544, 60.00811386552613], [29.593691788052528, 60.00811034636748], [29.593684759624722, 60.008020645879895], [29.5940430451374, 60.008013606859556], [29.594050074533442, 60.00810330732182], [29.594229217707266, 60.008099787434816], [29.59424327760086, 60.008279188328835], [29.593892018317483, 60.00837592838043]]]}, "properties": {"zone_id": "neva-2026-04-10-018", "aoi": "neva", "date": "2026-04-10", "scene_id": "S2B_MSIL2A_20260410T093029_R136_T36VUM_20260410T114916", "scene_datetime_utc": "2026-04-10T09:30:29.025000+00:00", "detection_status": "detected", "detection_status_ru": "обнаружено", "lon": 29.59391, "lat": 60.00818, "n_pixels": 3, "zone_area_km2": 0.001, "cover_m2": 34.9, "p_mean": 0.795, "p_max": 0.89, "cover_m2_km2": 34900.0, "h3": "88110695c7fffff", "valid_frac_scene": 0.99, "wind_ms": 5.7, "sea": "спокойное", "scene_reliable": true, "field_event_id": "S3:HE419_MarLitter_transect28", "field_profile": "B", "field_date": "2014-04-11", "field_distance_km": 1392.0, "field_date_gap_days": 4382, "field_conc_items_km2": 43.1, "conc_A_items_km2": null, "conc_A_lo80": null, "conc_A_hi80": null, "conc_A_lo95": null, "conc_A_hi95": null, "conc_A_status": "unavailable", "conc_A_status_ru": "концентрация недоступна", "conc_A_reasons": "вне бассейна профиля: nw_atlantic_subtropical", "conc_A_model": "conc-A-c6bce5631d2b", "conc_B_items_km2": null, "conc_B_lo80": null, "conc_B_hi80": null, "conc_B_lo95": null, "conc_B_hi95": null, "conc_B_status": "unavailable", "conc_B_status_ru": "концентрация недоступна", "conc_B_reasons": "вне бассейна профиля: black_sea", "conc_B_model": "conc-B-c6bce5631d2b"}}, {"type": "Feature", "geometry": {"type": "Polygon", "coordinates": [[[29.959386693923168, 60.00823556729909], [29.959378675314813, 60.00814589458654], [29.959199587278146, 60.00814990951959], [29.95919156920397, 60.00806023679071], [29.959370656757123, 60.00805622187213], [29.959362638250084, 60.00796654915584], [29.95972883171144, 60.00804819130712], [29.959736851236173, 60.00813786399265], [29.959557763300825, 60.008141879410886], [29.959565782392705, 60.008231552108995], [29.959386693923168, 60.00823556729909]]]}, "properties": {"zone_id": "neva-2026-04-10-019", "aoi": "neva", "date": "2026-04-10", "scene_id": "S2B_MSIL2A_20260410T093029_R136_T36VUM_20260410T114916", "scene_datetime_utc": "2026-04-10T09:30:29.025000+00:00", "detection_status": "detected", "detection_status_ru": "обнаружено", "lon": 29.95946, "lat": 60.0081, "n_pixels": 1, "zone_area_km2": 0.0005, "cover_m2": 8.6, "p_mean": 0.518, "p_max": 0.518, "cover_m2_km2": 17200.0, "h3": "881106bb55fffff", "valid_frac_scene": 0.99, "wind_ms": 5.7, "sea": "спокойное", "scene_reliable": true, "field_event_id": "S3:HE419_MarLitter_transect28", "field_profile": "B", "field_date": "2014-04-11", "field_distance_km": 1411.7, "field_date_gap_days": 4382, "field_conc_items_km2": 43.1, "conc_A_items_km2": null, "conc_A_lo80": null, "conc_A_hi80": null, "conc_A_lo95": null, "conc_A_hi95": null, "conc_A_status": "unavailable", "conc_A_status_ru": "концентрация недоступна", "conc_A_reasons": "вне бассейна профиля: nw_atlantic_subtropical", "conc_A_model": "conc-A-c6bce5631d2b", "conc_B_items_km2": null, "conc_B_lo80": null, "conc_B_hi80": null, "conc_B_lo95": null, "conc_B_hi95": null, "conc_B_status": "unavailable", "conc_B_status_ru": "концентрация недоступна", "conc_B_reasons": "вне бассейна профиля: black_sea", "conc_B_model": "conc-B-c6bce5631d2b"}}, {"type": "Feature", "geometry": {"type": "Polygon", "coordinates": [[[30.204490727171603, 59.97636199216971], [30.20448205623768, 59.976272339681906], [30.204303181552067, 59.97627668544391], [30.20429451115486, 59.97618703293855], [30.20447338535848, 59.97618268719215], [30.20446471453399, 59.97609303470037], [30.204831133601562, 59.97617399497289], [30.204839805444745, 59.97626364743141], [30.20466093086857, 59.976267993677745], [30.204669602284483, 59.97635764614993], [30.204490727171603, 59.97636199216971]]]}, "properties": {"zone_id": "neva-2026-04-10-020", "aoi": "neva", "date": "2026-04-10", "scene_id": "S2B_MSIL2A_20260410T093029_R136_T36VUM_20260410T114916", "scene_datetime_utc": "2026-04-10T09:30:29.025000+00:00", "detection_status": "detected", "detection_status_ru": "обнаружено", "lon": 30.20457, "lat": 59.97623, "n_pixels": 1, "zone_area_km2": 0.0005, "cover_m2": 3.5, "p_mean": 0.976, "p_max": 0.976, "cover_m2_km2": 7000.0, "h3": "88110616b3fffff", "valid_frac_scene": 0.99, "wind_ms": 5.7, "sea": "спокойное", "scene_reliable": true, "field_event_id": "S3:HE419_MarLitter_transect28", "field_profile": "B", "field_date": "2014-04-11", "field_distance_km": 1424.1, "field_date_gap_days": 4382, "field_conc_items_km2": 43.1, "conc_A_items_km2": null, "conc_A_lo80": null, "conc_A_hi80": null, "conc_A_lo95": null, "conc_A_hi95": null, "conc_A_status": "unavailable", "conc_A_status_ru": "концентрация недоступна", "conc_A_reasons": "вне бассейна профиля: nw_atlantic_subtropical", "conc_A_model": "conc-A-c6bce5631d2b", "conc_B_items_km2": null, "conc_B_lo80": null, "conc_B_hi80": null, "conc_B_lo95": null, "conc_B_hi95": null, "conc_B_status": "unavailable", "conc_B_status_ru": "концентрация недоступна", "conc_B_reasons": "вне бассейна профиля: black_sea", "conc_B_model": "conc-B-c6bce5631d2b"}}, {"type": "Feature", "geometry": {"type": "Polygon", "coordinates": [[[29.892494665609124, 59.961468783150856], [29.892486842829268, 59.961379104445264], [29.892307996545476, 59.961383026880696], [29.892300174297027, 59.96129334815919], [29.892479020098776, 59.961289425737824], [29.89247119741763, 59.96119974702852], [29.89265004268798, 59.96119582437907], [29.89264221957416, 59.961106145682045], [29.893007733080594, 59.96118797835366], [29.89301555720786, 59.96127765702066], [29.893194402812163, 59.96127373363056], [29.893202227470834, 59.96136341228161], [29.89302338138449, 59.961367335685786], [29.893031205610487, 59.96145701434912], [29.892494665609124, 59.961468783150856]]]}, "properties": {"zone_id": "neva-2026-04-10-021", "aoi": "neva", "date": "2026-04-10", "scene_id": "S2B_MSIL2A_20260410T093029_R136_T36VUM_20260410T114916", "scene_datetime_utc": "2026-04-10T09:30:29.025000+00:00", "detection_status": "detected", "detection_status_ru": "обнаружено", "lon": 29.89275, "lat": 59.96131, "n_pixels": 4, "zone_area_km2": 0.0012, "cover_m2": 32.9, "p_mean": 0.867, "p_max": 0.984, "cover_m2_km2": 27416.7, "h3": "8811068e81fffff", "valid_frac_scene": 0.99, "wind_ms": 5.7, "sea": "спокойное", "scene_reliable": true, "field_event_id": "S3:HE419_MarLitter_transect28", "field_profile": "B", "field_date": "2014-04-11", "field_distance_km": 1406.9, "field_date_gap_days": 4382, "field_conc_items_km2": 43.1, "conc_A_items_km2": null, "conc_A_lo80": null, "conc_A_hi80": null, "conc_A_lo95": null, "conc_A_hi95": null, "conc_A_status": "unavailable", "conc_A_status_ru": "концентрация недоступна", "conc_A_reasons": "вне бассейна профиля: nw_atlantic_subtropical", "conc_A_model": "conc-A-c6bce5631d2b", "conc_B_items_km2": null, "conc_B_lo80": null, "conc_B_hi80": null, "conc_B_lo95": null, "conc_B_hi95": null, "conc_B_status": "unavailable", "conc_B_status_ru": "концентрация недоступна", "conc_B_reasons": "вне бассейна профиля: black_sea", "conc_B_model": "conc-B-c6bce5631d2b"}}, {"type": "Feature", "geometry": {"type": "Polygon", "coordinates": [[[29.892568590037236, 59.95409943556452], [29.89256076937605, 59.9540097567639], [29.892381962807214, 59.954013679012206], [29.892374142677152, 59.95392400019566], [29.892552948764195, 59.953920077961456], [29.892545128201682, 59.95383039915716], [29.892902739264176, 59.95382255399061], [29.892910560790277, 59.95391223276672], [29.893089366729313, 59.95390830980618], [29.893097188786548, 59.95399798856634], [29.89291838236572, 59.95400191154097], [29.892926203990502, 59.954091590313396], [29.892568590037236, 59.95409943556452]]]}, "properties": {"zone_id": "neva-2026-04-10-022", "aoi": "neva", "date": "2026-04-10", "scene_id": "S2B_MSIL2A_20260410T093029_R136_T36VUM_20260410T114916", "scene_datetime_utc": "2026-04-10T09:30:29.025000+00:00", "detection_status": "detected", "detection_status_ru": "обнаружено", "lon": 29.89274, "lat": 59.95396, "n_pixels": 2, "zone_area_km2": 0.0008, "cover_m2": 17.6, "p_mean": 0.914, "p_max": 0.945, "cover_m2_km2": 22000.0, "h3": "8811068e85fffff", "valid_frac_scene": 0.99, "wind_ms": 5.7, "sea": "спокойное", "scene_reliable": true, "field_event_id": "S3:HE419_MarLitter_transect28", "field_profile": "B", "field_date": "2014-04-11", "field_distance_km": 1406.7, "field_date_gap_days": 4382, "field_conc_items_km2": 43.1, "conc_A_items_km2": null, "conc_A_lo80": null, "conc_A_hi80": null, "conc_A_lo95": null, "conc_A_hi95": null, "conc_A_status": "unavailable", "conc_A_status_ru": "концентрация недоступна", "conc_A_reasons": "вне бассейна профиля: nw_atlantic_subtropical", "conc_A_model": "conc-A-c6bce5631d2b", "conc_B_items_km2": null, "conc_B_lo80": null, "conc_B_hi80": null, "conc_B_lo95": null, "conc_B_hi95": null, "conc_B_status": "unavailable", "conc_B_status_ru": "концентрация недоступна", "conc_B_reasons": "вне бассейна профиля: black_sea", "conc_B_model": "conc-B-c6bce5631d2b"}}]}