{"type": "FeatureCollection", "features": [{"type": "Feature", "geometry": {"type": "Polygon", "coordinates": [[[37.79103373346299, 44.72488321025089], [37.79103560832454, 44.72479320669828], [37.790909360593695, 44.724791870019935], [37.790913110681764, 44.724611862918614], [37.79103935802128, 44.72461319958861], [37.79104123285646, 44.72452319603154], [37.79129372717051, 44.72452586894463], [37.79129185272666, 44.724615872510036], [37.79141810009253, 44.72461720876146], [37.7914143515698, 44.72479721589615], [37.79128810381258, 44.72479587963639], [37.79128622934238, 44.72488588319734], [37.79103373346299, 44.72488321025089]]]}, "properties": {"zone_id": "novorossiysk-2025-07-10-001", "aoi": "novorossiysk", "date": "2025-07-10", "scene_id": "S2A_MSIL2A_20250710T082031_R121_T37TCK_20250710T121301", "scene_datetime_utc": "2025-07-10T08:20:31.024000+00:00", "detection_status": "detected", "detection_status_ru": "обнаружено", "lon": 37.79116, "lat": 44.7247, "n_pixels": 4, "zone_area_km2": 0.0012, "cover_m2": 18.4, "p_mean": 0.975, "p_max": 0.996, "cover_m2_km2": 15333.3, "h3": "882d728d6dfffff", "valid_frac_scene": 0.999, "wind_ms": 4.7, "sea": "спокойное", "scene_reliable": true, "field_event_id": "S4:DOORS3:T12", "field_profile": "B", "field_date": "2024-06-04", "field_distance_km": 261.5, "field_date_gap_days": 401, "field_conc_items_km2": 48.97, "conc_A_items_km2": null, "conc_A_lo80": null, "conc_A_hi80": null, "conc_A_lo95": null, "conc_A_hi95": null, "conc_A_status": "unavailable", "conc_A_status_ru": "концентрация недоступна", "conc_A_reasons": "вне бассейна профиля: nw_atlantic_subtropical", "conc_A_model": "conc-A-c6bce5631d2b", "conc_B_items_km2": 669.1, "conc_B_lo80": 142.9, "conc_B_hi80": 2247.7, "conc_B_lo95": 89.2, "conc_B_hi95": 4208.6, "conc_B_status": "research_estimate", "conc_B_status_ru": "исследовательская оценка", "conc_B_reasons": "ближайшее полевое измерение в 262 км (> 60 км); месяц 7 вне месяцев обучения [6]; log_dist_coast_km = 0.8 вне диапазона обучения [1.7; 5.0]", "conc_B_model": "conc-B-c6bce5631d2b"}}, {"type": "Feature", "geometry": {"type": "Polygon", "coordinates": [[[37.81595518585063, 44.710290457869455], [37.81595702113602, 44.710200453266886], [37.81583080398328, 44.710199144470586], [37.815834474919306, 44.71001913526917], [37.815960691681, 44.7100204440573], [37.81596252694058, 44.70993043945027], [37.816214960098705, 44.70993305659997], [37.81621312523017, 44.710023061215175], [37.81633934201766, 44.71002436958492], [37.81633567264585, 44.71020437881901], [37.8162094554673, 44.710203070441096], [37.816207620572975, 44.71029307505184], [37.81595518585063, 44.710290457869455]]]}, "properties": {"zone_id": "novorossiysk-2025-07-10-002", "aoi": "novorossiysk", "date": "2025-07-10", "scene_id": "S2A_MSIL2A_20250710T082031_R121_T37TCK_20250710T121301", "scene_datetime_utc": "2025-07-10T08:20:31.024000+00:00", "detection_status": "detected", "detection_status_ru": "обнаружено", "lon": 37.81609, "lat": 44.71011, "n_pixels": 4, "zone_area_km2": 0.0012, "cover_m2": 36.9, "p_mean": 0.95, "p_max": 0.988, "cover_m2_km2": 30750.0, "h3": "882d721253fffff", "valid_frac_scene": 0.999, "wind_ms": 4.7, "sea": "спокойное", "scene_reliable": true, "field_event_id": "S4:DOORS3:T12", "field_profile": "B", "field_date": "2024-06-04", "field_distance_km": 260.4, "field_date_gap_days": 401, "field_conc_items_km2": 48.97, "conc_A_items_km2": null, "conc_A_lo80": null, "conc_A_hi80": null, "conc_A_lo95": null, "conc_A_hi95": null, "conc_A_status": "unavailable", "conc_A_status_ru": "концентрация недоступна", "conc_A_reasons": "вне бассейна профиля: nw_atlantic_subtropical", "conc_A_model": "conc-A-c6bce5631d2b", "conc_B_items_km2": 669.1, "conc_B_lo80": 142.9, "conc_B_hi80": 2247.7, "conc_B_lo95": 89.2, "conc_B_hi95": 4208.6, "conc_B_status": "research_estimate", "conc_B_status_ru": "исследовательская оценка", "conc_B_reasons": "ближайшее полевое измерение в 260 км (> 60 км); месяц 7 вне месяцев обучения [6]; log_dist_coast_km = 0.8 вне диапазона обучения [1.7; 5.0]", "conc_B_model": "conc-B-c6bce5631d2b"}}, {"type": "Feature", "geometry": {"type": "Polygon", "coordinates": [[[37.8363033466355, 44.70914927705436], [37.836305150313585, 44.709059271777626], [37.83617893472081, 44.70905798549472], [37.83618073858596, 44.70896798022052], [37.83643497285459, 44.708880547355164], [37.83643316938893, 44.70897055263888], [37.83655938480309, 44.70897183863887], [37.8365575815245, 44.7090618439251], [37.83643136591483, 44.7090605579211], [37.836429562432265, 44.70915056320184], [37.8363033466355, 44.70914927705436]]]}, "properties": {"zone_id": "novorossiysk-2025-07-10-003", "aoi": "novorossiysk", "date": "2025-07-10", "scene_id": "S2A_MSIL2A_20250710T082031_R121_T37TCK_20250710T121301", "scene_datetime_utc": "2025-07-10T08:20:31.024000+00:00", "detection_status": "detected", "detection_status_ru": "обнаружено", "lon": 37.83637, "lat": 44.70901, "n_pixels": 1, "zone_area_km2": 0.0005, "cover_m2": 12.2, "p_mean": 0.906, "p_max": 0.906, "cover_m2_km2": 24400.0, "h3": "882d72121bfffff", "valid_frac_scene": 0.999, "wind_ms": 4.7, "sea": "спокойное", "scene_reliable": true, "field_event_id": "S4:DOORS3:T12", "field_profile": "B", "field_date": "2024-06-04", "field_distance_km": 260.7, "field_date_gap_days": 401, "field_conc_items_km2": 48.97, "conc_A_items_km2": null, "conc_A_lo80": null, "conc_A_hi80": null, "conc_A_lo95": null, "conc_A_hi95": null, "conc_A_status": "unavailable", "conc_A_status_ru": "концентрация недоступна", "conc_A_reasons": "вне бассейна профиля: nw_atlantic_subtropical", "conc_A_model": "conc-A-c6bce5631d2b", "conc_B_items_km2": 901.4, "conc_B_lo80": 192.7, "conc_B_hi80": 3027.3, "conc_B_lo95": 120.4, "conc_B_hi95": 5668.0, "conc_B_status": "research_estimate", "conc_B_status_ru": "исследовательская оценка", "conc_B_reasons": "ближайшее полевое измерение в 261 км (> 60 км); месяц 7 вне месяцев обучения [6]; log_dist_coast_km = 0.0 вне диапазона обучения [1.7; 5.0]", "conc_B_model": "conc-B-c6bce5631d2b"}}, {"type": "Feature", "geometry": {"type": "Polygon", "coordinates": [[[37.82558959703919, 44.70831940529447], [37.825591417268164, 44.70822940034865], [37.825340811274465, 44.70813679906163], [37.82534445247179, 44.707956789178766], [37.82547066518358, 44.70795808741026], [37.82547248557394, 44.707868082462554], [37.82572491063209, 44.70787067849907], [37.82572309063275, 44.70796068345487], [37.82584930337012, 44.70796198126801], [37.82584384390744, 44.70823199613867], [37.82558959703919, 44.70831940529447]]]}, "properties": {"zone_id": "novorossiysk-2025-07-10-004", "aoi": "novorossiysk", "date": "2025-07-10", "scene_id": "S2A_MSIL2A_20250710T082031_R121_T37TCK_20250710T121301", "scene_datetime_utc": "2025-07-10T08:20:31.024000+00:00", "detection_status": "detected", "detection_status_ru": "обнаружено", "lon": 37.82561, "lat": 44.70808, "n_pixels": 5, "zone_area_km2": 0.0014, "cover_m2": 58.4, "p_mean": 0.829, "p_max": 0.988, "cover_m2_km2": 41714.3, "h3": "882d721219fffff", "valid_frac_scene": 0.999, "wind_ms": 4.7, "sea": "спокойное", "scene_reliable": true, "field_event_id": "S4:DOORS3:T12", "field_profile": "B", "field_date": "2024-06-04", "field_distance_km": 260.4, "field_date_gap_days": 401, "field_conc_items_km2": 48.97, "conc_A_items_km2": null, "conc_A_lo80": null, "conc_A_hi80": null, "conc_A_lo95": null, "conc_A_hi95": null, "conc_A_status": "unavailable", "conc_A_status_ru": "концентрация недоступна", "conc_A_reasons": "вне бассейна профиля: nw_atlantic_subtropical", "conc_A_model": "conc-A-c6bce5631d2b", "conc_B_items_km2": 669.1, "conc_B_lo80": 142.9, "conc_B_hi80": 2247.7, "conc_B_lo95": 89.2, "conc_B_hi95": 4208.6, "conc_B_status": "research_estimate", "conc_B_status_ru": "исследовательская оценка", "conc_B_reasons": "ближайшее полевое измерение в 260 км (> 60 км); месяц 7 вне месяцев обучения [6]; log_dist_coast_km = 0.8 вне диапазона обучения [1.7; 5.0]", "conc_B_model": "conc-B-c6bce5631d2b"}}, {"type": "Feature", "geometry": {"type": "Polygon", "coordinates": [[[37.8243537902739, 44.69453305227845], [37.82435561154276, 44.69444304715436], [37.82422942824047, 44.69444174799726], [37.824231249696155, 44.69435174287574], [37.82435743280307, 44.6943530420288], [37.82435925405485, 44.694263036901745], [37.82461161990355, 44.6942656347816], [37.824609799042506, 44.69435563991676], [37.824735982175014, 44.69435693865167], [37.82473416150081, 44.694446943789394], [37.82460797817293, 44.69444564505043], [37.82460615729481, 44.69453565018264], [37.8243537902739, 44.69453305227845]]]}, "properties": {"zone_id": "novorossiysk-2025-07-10-005", "aoi": "novorossiysk", "date": "2025-07-10", "scene_id": "S2A_MSIL2A_20250710T082031_R121_T37TCK_20250710T121301", "scene_datetime_utc": "2025-07-10T08:20:31.024000+00:00", "detection_status": "detected", "detection_status_ru": "обнаружено", "lon": 37.82448, "lat": 44.6944, "n_pixels": 2, "zone_area_km2": 0.0008, "cover_m2": 12.5, "p_mean": 0.996, "p_max": 1.0, "cover_m2_km2": 15625.0, "h3": "882d72120bfffff", "valid_frac_scene": 0.999, "wind_ms": 4.7, "sea": "спокойное", "scene_reliable": true, "field_event_id": "S4:DOORS3:T12", "field_profile": "B", "field_date": "2024-06-04", "field_distance_km": 258.9, "field_date_gap_days": 401, "field_conc_items_km2": 48.97, "conc_A_items_km2": null, "conc_A_lo80": null, "conc_A_hi80": null, "conc_A_lo95": null, "conc_A_hi95": null, "conc_A_status": "unavailable", "conc_A_status_ru": "концентрация недоступна", "conc_A_reasons": "вне бассейна профиля: nw_atlantic_subtropical", "conc_A_model": "conc-A-c6bce5631d2b", "conc_B_items_km2": 592.0, "conc_B_lo80": 126.3, "conc_B_hi80": 1989.0, "conc_B_lo95": 78.8, "conc_B_hi95": 3724.3, "conc_B_status": "research_estimate", "conc_B_status_ru": "исследовательская оценка", "conc_B_reasons": "ближайшее полевое измерение в 259 км (> 60 км); месяц 7 вне месяцев обучения [6]; log_dist_coast_km = 1.2 вне диапазона обучения [1.7; 5.0]", "conc_B_model": "conc-B-c6bce5631d2b"}}, {"type": "Feature", "geometry": {"type": "Polygon", "coordinates": [[[37.80683050245843, 44.687419458653814], [37.806832350411675, 44.68732945398726], [37.8067061833533, 44.687328135633535], [37.806709879624385, 44.6871481263042], [37.806964060700615, 44.687060758180735], [37.80696221296863, 44.68715076285585], [37.80708837965374, 44.68715208092266], [37.8070846845544, 44.68733209027667], [37.80683050245843, 44.687419458653814]]]}, "properties": {"zone_id": "novorossiysk-2025-07-10-006", "aoi": "novorossiysk", "date": "2025-07-10", "scene_id": "S2A_MSIL2A_20250710T082031_R121_T37TCK_20250710T121301", "scene_datetime_utc": "2025-07-10T08:20:31.024000+00:00", "detection_status": "detected", "detection_status_ru": "обнаружено", "lon": 37.8069, "lat": 44.68724, "n_pixels": 2, "zone_area_km2": 0.0008, "cover_m2": 11.4, "p_mean": 0.749, "p_max": 0.996, "cover_m2_km2": 14250.0, "h3": "882d721209fffff", "valid_frac_scene": 0.999, "wind_ms": 4.7, "sea": "спокойное", "scene_reliable": true, "field_event_id": "S4:DOORS3:T12", "field_profile": "B", "field_date": "2024-06-04", "field_distance_km": 257.8, "field_date_gap_days": 401, "field_conc_items_km2": 48.97, "conc_A_items_km2": null, "conc_A_lo80": null, "conc_A_hi80": null, "conc_A_lo95": null, "conc_A_hi95": null, "conc_A_status": "unavailable", "conc_A_status_ru": "концентрация недоступна", "conc_A_reasons": "вне бассейна профиля: nw_atlantic_subtropical", "conc_A_model": "conc-A-c6bce5631d2b", "conc_B_items_km2": 901.4, "conc_B_lo80": 192.7, "conc_B_hi80": 3027.3, "conc_B_lo95": 120.4, "conc_B_hi95": 5668.0, "conc_B_status": "research_estimate", "conc_B_status_ru": "исследовательская оценка", "conc_B_reasons": "ближайшее полевое измерение в 258 км (> 60 км); месяц 7 вне месяцев обучения [6]; log_dist_coast_km = 0.0 вне диапазона обучения [1.7; 5.0]", "conc_B_model": "conc-B-c6bce5631d2b"}}, {"type": "Feature", "geometry": {"type": "Polygon", "coordinates": [[[37.6122043098433, 44.66244385313133], [37.612206457304566, 44.66235385496849], [37.612080354093536, 44.66235232228834], [37.61208464937586, 44.66217232596772], [37.612339002264186, 44.66208539299752], [37.61233685502806, 44.66217539116967], [37.612462957869255, 44.66217692356185], [37.6124586637568, 44.66235691991118], [37.6122043098433, 44.66244385313133]]]}, "properties": {"zone_id": "novorossiysk-2025-07-10-007", "aoi": "novorossiysk", "date": "2025-07-10", "scene_id": "S2A_MSIL2A_20250710T082031_R121_T37TCK_20250710T121301", "scene_datetime_utc": "2025-07-10T08:20:31.024000+00:00", "detection_status": "detected", "detection_status_ru": "обнаружено", "lon": 37.61227, "lat": 44.66226, "n_pixels": 2, "zone_area_km2": 0.0008, "cover_m2": 10.2, "p_mean": 0.994, "p_max": 1.0, "cover_m2_km2": 12750.0, "h3": "882d728b01fffff", "valid_frac_scene": 0.999, "wind_ms": 4.7, "sea": "спокойное", "scene_reliable": true, "field_event_id": "S4:DOORS3:T12", "field_profile": "B", "field_date": "2024-06-04", "field_distance_km": 251.7, "field_date_gap_days": 401, "field_conc_items_km2": 48.97, "conc_A_items_km2": null, "conc_A_lo80": null, "conc_A_hi80": null, "conc_A_lo95": null, "conc_A_hi95": null, "conc_A_status": "unavailable", "conc_A_status_ru": "концентрация недоступна", "conc_A_reasons": "вне бассейна профиля: nw_atlantic_subtropical", "conc_A_model": "conc-A-c6bce5631d2b", "conc_B_items_km2": 901.4, "conc_B_lo80": 192.7, "conc_B_hi80": 3027.3, "conc_B_lo95": 120.4, "conc_B_hi95": 5668.0, "conc_B_status": "research_estimate", "conc_B_status_ru": "исследовательская оценка", "conc_B_reasons": "ближайшее полевое измерение в 252 км (> 60 км); месяц 7 вне месяцев обучения [6]; log_dist_coast_km = 0.0 вне диапазона обучения [1.7; 5.0]", "conc_B_model": "conc-B-c6bce5631d2b"}}, {"type": "Feature", "geometry": {"type": "Polygon", "coordinates": [[[37.62321369200313, 44.66095668925841], [37.62321582232145, 44.66086669065403], [37.62296575188351, 44.66077365094898], [37.62297001325013, 44.660593653751675], [37.62309611322836, 44.66059517436137], [37.62309824370174, 44.66050517575572], [37.62334831321473, 44.6605982151632], [37.6233461831213, 44.66068821377684], [37.62347228332442, 44.66068973397371], [37.623468023497566, 44.66086973120594], [37.62321369200313, 44.66095668925841]]]}, "properties": {"zone_id": "novorossiysk-2025-07-10-008", "aoi": "novorossiysk", "date": "2025-07-10", "scene_id": "S2A_MSIL2A_20250710T082031_R121_T37TCK_20250710T121301", "scene_datetime_utc": "2025-07-10T08:20:31.024000+00:00", "detection_status": "detected", "detection_status_ru": "обнаружено", "lon": 37.62322, "lat": 44.66073, "n_pixels": 4, "zone_area_km2": 0.0012, "cover_m2": 42.0, "p_mean": 0.752, "p_max": 0.957, "cover_m2_km2": 35000.0, "h3": "882d728b07fffff", "valid_frac_scene": 0.999, "wind_ms": 4.7, "sea": "спокойное", "scene_reliable": true, "field_event_id": "S4:DOORS3:T12", "field_profile": "B", "field_date": "2024-06-04", "field_distance_km": 251.7, "field_date_gap_days": 401, "field_conc_items_km2": 48.97, "conc_A_items_km2": null, "conc_A_lo80": null, "conc_A_hi80": null, "conc_A_lo95": null, "conc_A_hi95": null, "conc_A_status": "unavailable", "conc_A_status_ru": "концентрация недоступна", "conc_A_reasons": "вне бассейна профиля: nw_atlantic_subtropical", "conc_A_model": "conc-A-c6bce5631d2b", "conc_B_items_km2": 901.4, "conc_B_lo80": 192.7, "conc_B_hi80": 3027.3, "conc_B_lo95": 120.4, "conc_B_hi95": 5668.0, "conc_B_status": "research_estimate", "conc_B_status_ru": "исследовательская оценка", "conc_B_reasons": "ближайшее полевое измерение в 252 км (> 60 км); месяц 7 вне месяцев обучения [6]; log_dist_coast_km = 0.0 вне диапазона обучения [1.7; 5.0]", "conc_B_model": "conc-B-c6bce5631d2b"}}, {"type": "Feature", "geometry": {"type": "Polygon", "coordinates": [[[37.85886624241053, 44.63375661878459], [37.85886800648067, 44.63366661160066], [37.858741953410515, 44.633665351913955], [37.858745481915534, 44.63348533754951], [37.85887153459616, 44.63348659722834], [37.85887329864152, 44.63339659003998], [37.859125403638046, 44.633399108972526], [37.8591236399822, 44.633489116168754], [37.85924969268761, 44.633490375430306], [37.85924616574068, 44.6336703898262], [37.85912011264575, 44.633669130556775], [37.85911834896513, 44.63375913774857], [37.85886624241053, 44.63375661878459]]]}, "properties": {"zone_id": "novorossiysk-2025-07-10-009", "aoi": "novorossiysk", "date": "2025-07-10", "scene_id": "S2A_MSIL2A_20250710T082031_R121_T37TCK_20250710T121301", "scene_datetime_utc": "2025-07-10T08:20:31.024000+00:00", "detection_status": "detected", "detection_status_ru": "обнаружено", "lon": 37.859, "lat": 44.63358, "n_pixels": 4, "zone_area_km2": 0.0012, "cover_m2": 22.0, "p_mean": 0.814, "p_max": 0.961, "cover_m2_km2": 18333.3, "h3": "882d72106dfffff", "valid_frac_scene": 0.999, "wind_ms": 4.7, "sea": "спокойное", "scene_reliable": true, "field_event_id": "S4:DOORS3:T12", "field_profile": "B", "field_date": "2024-06-04", "field_distance_km": 253.1, "field_date_gap_days": 401, "field_conc_items_km2": 48.97, "conc_A_items_km2": null, "conc_A_lo80": null, "conc_A_hi80": null, "conc_A_lo95": null, "conc_A_hi95": null, "conc_A_status": "unavailable", "conc_A_status_ru": "концентрация недоступна", "conc_A_reasons": "вне бассейна профиля: nw_atlantic_subtropical", "conc_A_model": "conc-A-c6bce5631d2b", "conc_B_items_km2": 470.1, "conc_B_lo80": 100.2, "conc_B_hi80": 1580.1, "conc_B_lo95": 62.4, "conc_B_hi95": 2958.8, "conc_B_status": "research_estimate", "conc_B_status_ru": "исследовательская оценка", "conc_B_reasons": "ближайшее полевое измерение в 253 км (> 60 км); месяц 7 вне месяцев обучения [6]", "conc_B_model": "conc-B-c6bce5631d2b"}}, {"type": "Feature", "geometry": {"type": "Polygon", "coordinates": [[[37.69754203794937, 44.62563879676982], [37.69754405079976, 44.625548794871634], [37.697294008200885, 44.62545591778549], [37.697296021421685, 44.625365915893276], [37.697422048942265, 44.62536735355154], [37.69742406195901, 44.62527735165333], [37.69767611663918, 44.62528022654378], [37.697674104011696, 44.62537022845095], [37.69780013156055, 44.625371665692114], [37.697796106666566, 44.625551669510926], [37.69754203794937, 44.62563879676982]]]}, "properties": {"zone_id": "novorossiysk-2025-07-10-010", "aoi": "novorossiysk", "date": "2025-07-10", "scene_id": "S2A_MSIL2A_20250710T082031_R121_T37TCK_20250710T121301", "scene_datetime_utc": "2025-07-10T08:20:31.024000+00:00", "detection_status": "detected", "detection_status_ru": "обнаружено", "lon": 37.69757, "lat": 44.62544, "n_pixels": 3, "zone_area_km2": 0.001, "cover_m2": 20.4, "p_mean": 0.925, "p_max": 0.976, "cover_m2_km2": 20400.0, "h3": "882d72893dfffff", "valid_frac_scene": 0.999, "wind_ms": 4.7, "sea": "спокойное", "scene_reliable": true, "field_event_id": "S4:DOORS3:T12", "field_profile": "B", "field_date": "2024-06-04", "field_distance_km": 249.1, "field_date_gap_days": 401, "field_conc_items_km2": 48.97, "conc_A_items_km2": null, "conc_A_lo80": null, "conc_A_hi80": null, "conc_A_lo95": null, "conc_A_hi95": null, "conc_A_status": "unavailable", "conc_A_status_ru": "концентрация недоступна", "conc_A_reasons": "вне бассейна профиля: nw_atlantic_subtropical", "conc_A_model": "conc-A-c6bce5631d2b", "conc_B_items_km2": 592.0, "conc_B_lo80": 126.3, "conc_B_hi80": 1989.0, "conc_B_lo95": 78.8, "conc_B_hi95": 3724.3, "conc_B_status": "research_estimate", "conc_B_status_ru": "исследовательская оценка", "conc_B_reasons": "ближайшее полевое измерение в 249 км (> 60 км); месяц 7 вне месяцев обучения [6]; log_dist_coast_km = 1.2 вне диапазона обучения [1.7; 5.0]", "conc_B_model": "conc-B-c6bce5631d2b"}}, {"type": "Feature", "geometry": {"type": "Polygon", "coordinates": [[[37.69831430002767, 44.62492740360355], [37.69831631163491, 44.62483740166649], [37.69819028521615, 44.624835965008344], [37.698194308791635, 44.624655961138686], [37.698320334821155, 44.624657397787864], [37.69832234640015, 44.6245673958463], [37.69857238690844, 44.62466027066913], [37.698570375709274, 44.624750272618144], [37.69869640196166, 44.624751708854724], [37.6986943909477, 44.62484171080675], [37.69856836450069, 44.62484027456568], [37.69856635328269, 44.624930276511705], [37.69831430002767, 44.62492740360355]]]}, "properties": {"zone_id": "novorossiysk-2025-07-10-011", "aoi": "novorossiysk", "date": "2025-07-10", "scene_id": "S2A_MSIL2A_20250710T082031_R121_T37TCK_20250710T121301", "scene_datetime_utc": "2025-07-10T08:20:31.024000+00:00", "detection_status": "detected", "detection_status_ru": "обнаружено", "lon": 37.69842, "lat": 44.62476, "n_pixels": 3, "zone_area_km2": 0.001, "cover_m2": 20.4, "p_mean": 0.735, "p_max": 0.855, "cover_m2_km2": 20400.0, "h3": "882d72893dfffff", "valid_frac_scene": 0.999, "wind_ms": 4.7, "sea": "спокойное", "scene_reliable": true, "field_event_id": "S4:DOORS3:T12", "field_profile": "B", "field_date": "2024-06-04", "field_distance_km": 249.0, "field_date_gap_days": 401, "field_conc_items_km2": 48.97, "conc_A_items_km2": null, "conc_A_lo80": null, "conc_A_hi80": null, "conc_A_lo95": null, "conc_A_hi95": null, "conc_A_status": "unavailable", "conc_A_status_ru": "концентрация недоступна", "conc_A_reasons": "вне бассейна профиля: nw_atlantic_subtropical", "conc_A_model": "conc-A-c6bce5631d2b", "conc_B_items_km2": 592.0, "conc_B_lo80": 126.3, "conc_B_hi80": 1989.0, "conc_B_lo95": 78.8, "conc_B_hi95": 3724.3, "conc_B_status": "research_estimate", "conc_B_status_ru": "исследовательская оценка", "conc_B_reasons": "ближайшее полевое измерение в 249 км (> 60 км); месяц 7 вне месяцев обучения [6]; log_dist_coast_km = 1.2 вне диапазона обучения [1.7; 5.0]", "conc_B_model": "conc-B-c6bce5631d2b"}}, {"type": "Feature", "geometry": {"type": "Polygon", "coordinates": [[[37.658135103026346, 44.62347205131585], [37.65813717660968, 44.623382050814534], [37.658011155382326, 44.623380569858824], [37.65801322915054, 44.62329056936063], [37.65826734459509, 44.62320353061485], [37.65826527122577, 44.62329353112379], [37.65839129227795, 44.62329501179684], [37.65838921909352, 44.62338501230891], [37.65826319784675, 44.62338353163122], [37.658261124458015, 44.62347353213716], [37.658135103026346, 44.62347205131585]]]}, "properties": {"zone_id": "novorossiysk-2025-07-10-012", "aoi": "novorossiysk", "date": "2025-07-10", "scene_id": "S2A_MSIL2A_20250710T082031_R121_T37TCK_20250710T121301", "scene_datetime_utc": "2025-07-10T08:20:31.024000+00:00", "detection_status": "detected", "detection_status_ru": "обнаружено", "lon": 37.6582, "lat": 44.62334, "n_pixels": 1, "zone_area_km2": 0.0005, "cover_m2": 9.0, "p_mean": 0.722, "p_max": 0.722, "cover_m2_km2": 18000.0, "h3": "882d72896bfffff", "valid_frac_scene": 0.999, "wind_ms": 4.7, "sea": "спокойное", "scene_reliable": true, "field_event_id": "S4:DOORS3:T12", "field_profile": "B", "field_date": "2024-06-04", "field_distance_km": 248.2, "field_date_gap_days": 401, "field_conc_items_km2": 48.97, "conc_A_items_km2": null, "conc_A_lo80": null, "conc_A_hi80": null, "conc_A_lo95": null, "conc_A_hi95": null, "conc_A_status": "unavailable", "conc_A_status_ru": "концентрация недоступна", "conc_A_reasons": "вне бассейна профиля: nw_atlantic_subtropical", "conc_A_model": "conc-A-c6bce5631d2b", "conc_B_items_km2": 511.9, "conc_B_lo80": 109.1, "conc_B_hi80": 1720.2, "conc_B_lo95": 68.0, "conc_B_hi95": 3221.1, "conc_B_status": "research_estimate", "conc_B_status_ru": "исследовательская оценка", "conc_B_reasons": "ближайшее полевое измерение в 248 км (> 60 км); месяц 7 вне месяцев обучения [6]", "conc_B_model": "conc-B-c6bce5631d2b"}}, {"type": "Feature", "geometry": {"type": "Polygon", "coordinates": [[[37.65851731333982, 44.623296492330894], [37.65851938631995, 44.62320649181271], [37.65839336545267, 44.62320501128329], [37.65839543861768, 44.62311501076822], [37.658649552738886, 44.62302797115301], [37.65864747997276, 44.623117971678816], [37.65877350066486, 44.6231194519256], [37.65877142808363, 44.623209452454525], [37.65864540719694, 44.62320797220312], [37.658643334411416, 44.62329797272593], [37.65851731333982, 44.623296492330894]]]}, "properties": {"zone_id": "novorossiysk-2025-07-10-013", "aoi": "novorossiysk", "date": "2025-07-10", "scene_id": "S2A_MSIL2A_20250710T082031_R121_T37TCK_20250710T121301", "scene_datetime_utc": "2025-07-10T08:20:31.024000+00:00", "detection_status": "detected", "detection_status_ru": "обнаружено", "lon": 37.65858, "lat": 44.62316, "n_pixels": 1, "zone_area_km2": 0.0005, "cover_m2": 9.0, "p_mean": 0.894, "p_max": 0.894, "cover_m2_km2": 18000.0, "h3": "882d72896bfffff", "valid_frac_scene": 0.999, "wind_ms": 4.7, "sea": "спокойное", "scene_reliable": true, "field_event_id": "S4:DOORS3:T12", "field_profile": "B", "field_date": "2024-06-04", "field_distance_km": 248.2, "field_date_gap_days": 401, "field_conc_items_km2": 48.97, "conc_A_items_km2": null, "conc_A_lo80": null, "conc_A_hi80": null, "conc_A_lo95": null, "conc_A_hi95": null, "conc_A_status": "unavailable", "conc_A_status_ru": "концентрация недоступна", "conc_A_reasons": "вне бассейна профиля: nw_atlantic_subtropical", "conc_A_model": "conc-A-c6bce5631d2b", "conc_B_items_km2": 511.9, "conc_B_lo80": 109.1, "conc_B_hi80": 1720.2, "conc_B_lo95": 68.0, "conc_B_hi95": 3221.1, "conc_B_status": "research_estimate", "conc_B_status_ru": "исследовательская оценка", "conc_B_reasons": "ближайшее полевое измерение в 248 км (> 60 км); месяц 7 вне месяцев обучения [6]", "conc_B_model": "conc-B-c6bce5631d2b"}}, {"type": "Feature", "geometry": {"type": "Polygon", "coordinates": [[[37.90420217970375, 44.623127585038176], [37.90420387307069, 44.62303757629321], [37.904077841052384, 44.62303636686852], [37.904079534606055, 44.62294635812583], [37.904205566429695, 44.62294756754676], [37.90420725978078, 44.62285755879882], [37.904459323062525, 44.62285997721596], [37.90445763010077, 44.62294998597144], [37.9045836619482, 44.6229511949752], [37.90458196917319, 44.62304120373298], [37.90445593713109, 44.62303999472544], [37.904454244153484, 44.62313000347796], [37.90420217970375, 44.623127585038176]]]}, "properties": {"zone_id": "novorossiysk-2025-07-10-014", "aoi": "novorossiysk", "date": "2025-07-10", "scene_id": "S2A_MSIL2A_20250710T082031_R121_T37TCK_20250710T121301", "scene_datetime_utc": "2025-07-10T08:20:31.024000+00:00", "detection_status": "detected", "detection_status_ru": "обнаружено", "lon": 37.90433, "lat": 44.62299, "n_pixels": 2, "zone_area_km2": 0.0008, "cover_m2": 13.7, "p_mean": 0.947, "p_max": 0.984, "cover_m2_km2": 17125.0, "h3": "882d721025fffff", "valid_frac_scene": 0.999, "wind_ms": 4.7, "sea": "спокойное", "scene_reliable": true, "field_event_id": "S4:DOORS3:T13", "field_profile": "B", "field_date": "2024-06-04", "field_distance_km": 252.6, "field_date_gap_days": 401, "field_conc_items_km2": 263.57, "conc_A_items_km2": null, "conc_A_lo80": null, "conc_A_hi80": null, "conc_A_lo95": null, "conc_A_hi95": null, "conc_A_status": "unavailable", "conc_A_status_ru": "концентрация недоступна", "conc_A_reasons": "вне бассейна профиля: nw_atlantic_subtropical", "conc_A_model": "conc-A-c6bce5631d2b", "conc_B_items_km2": 669.1, "conc_B_lo80": 142.9, "conc_B_hi80": 2247.7, "conc_B_lo95": 89.2, "conc_B_hi95": 4208.6, "conc_B_status": "research_estimate", "conc_B_status_ru": "исследовательская оценка", "conc_B_reasons": "ближайшее полевое измерение в 253 км (> 60 км); месяц 7 вне месяцев обучения [6]; log_dist_coast_km = 0.8 вне диапазона обучения [1.7; 5.0]", "conc_B_model": "conc-B-c6bce5631d2b"}}, {"type": "Feature", "geometry": {"type": "Polygon", "coordinates": [[[37.915867142230525, 44.612705987816], [37.91586881696504, 44.61261597855687], [37.9157428069991, 44.6126147822228], [37.91574615683374, 44.612434763707576], [37.915999850511646, 44.61234714695448], [37.915998175995206, 44.612437156221766], [37.916124185587705, 44.61243835227036], [37.91612083692044, 44.612618370807986], [37.915867142230525, 44.612705987816]]]}, "properties": {"zone_id": "novorossiysk-2025-07-10-015", "aoi": "novorossiysk", "date": "2025-07-10", "scene_id": "S2A_MSIL2A_20250710T082031_R121_T37TCK_20250710T121301", "scene_datetime_utc": "2025-07-10T08:20:31.024000+00:00", "detection_status": "detected", "detection_status_ru": "обнаружено", "lon": 37.91593, "lat": 44.61253, "n_pixels": 2, "zone_area_km2": 0.0008, "cover_m2": 9.8, "p_mean": 0.925, "p_max": 0.98, "cover_m2_km2": 12250.0, "h3": "882d721111fffff", "valid_frac_scene": 0.999, "wind_ms": 4.7, "sea": "спокойное", "scene_reliable": true, "field_event_id": "S4:DOORS3:T13", "field_profile": "B", "field_date": "2024-06-04", "field_distance_km": 251.6, "field_date_gap_days": 401, "field_conc_items_km2": 263.57, "conc_A_items_km2": null, "conc_A_lo80": null, "conc_A_hi80": null, "conc_A_lo95": null, "conc_A_hi95": null, "conc_A_status": "unavailable", "conc_A_status_ru": "концентрация недоступна", "conc_A_reasons": "вне бассейна профиля: nw_atlantic_subtropical", "conc_A_model": "conc-A-c6bce5631d2b", "conc_B_items_km2": 901.4, "conc_B_lo80": 192.7, "conc_B_hi80": 3027.3, "conc_B_lo95": 120.4, "conc_B_hi95": 5668.0, "conc_B_status": "research_estimate", "conc_B_status_ru": "исследовательская оценка", "conc_B_reasons": "ближайшее полевое измерение в 252 км (> 60 км); месяц 7 вне месяцев обучения [6]; log_dist_coast_km = 0.0 вне диапазона обучения [1.7; 5.0]", "conc_B_model": "conc-B-c6bce5631d2b"}}, {"type": "Feature", "geometry": {"type": "Polygon", "coordinates": [[[37.66030901624879, 44.61116415689269], [37.66031108558556, 44.61107415611658], [37.66018509086417, 44.61107267787825], [37.660189229897604, 44.61089267633075], [37.66044328768542, 44.6108056318648], [37.660441218572174, 44.61089563265002], [37.66056721292399, 44.610897110601236], [37.6605630750574, 44.6110771121764], [37.66030901624879, 44.61116415689269]]]}, "properties": {"zone_id": "novorossiysk-2025-07-10-016", "aoi": "novorossiysk", "date": "2025-07-10", "scene_id": "S2A_MSIL2A_20250710T082031_R121_T37TCK_20250710T121301", "scene_datetime_utc": "2025-07-10T08:20:31.024000+00:00", "detection_status": "detected", "detection_status_ru": "обнаружено", "lon": 37.66038, "lat": 44.61098, "n_pixels": 2, "zone_area_km2": 0.0008, "cover_m2": 6.3, "p_mean": 0.839, "p_max": 0.949, "cover_m2_km2": 7875.0, "h3": "882d728965fffff", "valid_frac_scene": 0.999, "wind_ms": 4.7, "sea": "спокойное", "scene_reliable": true, "field_event_id": "S4:DOORS3:T12", "field_profile": "B", "field_date": "2024-06-04", "field_distance_km": 246.9, "field_date_gap_days": 401, "field_conc_items_km2": 48.97, "conc_A_items_km2": null, "conc_A_lo80": null, "conc_A_hi80": null, "conc_A_lo95": null, "conc_A_hi95": null, "conc_A_status": "unavailable", "conc_A_status_ru": "концентрация недоступна", "conc_A_reasons": "вне бассейна профиля: nw_atlantic_subtropical", "conc_A_model": "conc-A-c6bce5631d2b", "conc_B_items_km2": 458.9, "conc_B_lo80": 97.8, "conc_B_hi80": 1542.5, "conc_B_lo95": 60.9, "conc_B_hi95": 2888.4, "conc_B_status": "research_estimate", "conc_B_status_ru": "исследовательская оценка", "conc_B_reasons": "ближайшее полевое измерение в 247 км (> 60 км); месяц 7 вне месяцев обучения [6]", "conc_B_model": "conc-B-c6bce5631d2b"}}, {"type": "Feature", "geometry": {"type": "Polygon", "coordinates": [[[37.91505881209368, 44.60873720288618], [37.91506048784493, 44.608647193588325], [37.91481016128293, 44.60855478987216], [37.914811837407534, 44.60846478057882], [37.9149378383618, 44.608465977853], [37.914939514284036, 44.608375968554455], [37.91519151582705, 44.60837836267838], [37.91518984029385, 44.608468371984394], [37.91531584127164, 44.60846956884162], [37.915312490570756, 44.608649587456696], [37.91505881209368, 44.60873720288618]]]}, "properties": {"zone_id": "novorossiysk-2025-07-10-017", "aoi": "novorossiysk", "date": "2025-07-10", "scene_id": "S2A_MSIL2A_20250710T082031_R121_T37TCK_20250710T121301", "scene_datetime_utc": "2025-07-10T08:20:31.024000+00:00", "detection_status": "detected", "detection_status_ru": "обнаружено", "lon": 37.91508, "lat": 44.60854, "n_pixels": 3, "zone_area_km2": 0.001, "cover_m2": 17.3, "p_mean": 0.749, "p_max": 0.925, "cover_m2_km2": 17300.0, "h3": "882d721115fffff", "valid_frac_scene": 0.999, "wind_ms": 4.7, "sea": "спокойное", "scene_reliable": true, "field_event_id": "S4:DOORS3:T13", "field_profile": "B", "field_date": "2024-06-04", "field_distance_km": 251.1, "field_date_gap_days": 401, "field_conc_items_km2": 263.57, "conc_A_items_km2": null, "conc_A_lo80": null, "conc_A_hi80": null, "conc_A_lo95": null, "conc_A_hi95": null, "conc_A_status": "unavailable", "conc_A_status_ru": "концентрация недоступна", "conc_A_reasons": "вне бассейна профиля: nw_atlantic_subtropical", "conc_A_model": "conc-A-c6bce5631d2b", "conc_B_items_km2": 901.4, "conc_B_lo80": 192.7, "conc_B_hi80": 3027.3, "conc_B_lo95": 120.4, "conc_B_hi95": 5668.0, "conc_B_status": "research_estimate", "conc_B_status_ru": "исследовательская оценка", "conc_B_reasons": "ближайшее полевое измерение в 251 км (> 60 км); месяц 7 вне месяцев обучения [6]; log_dist_coast_km = 0.0 вне диапазона обучения [1.7; 5.0]", "conc_B_model": "conc-B-c6bce5631d2b"}}]}