{"type": "FeatureCollection", "features": [{"type": "Feature", "geometry": {"type": "Polygon", "coordinates": [[[29.92850144785002, 60.030308940734635], [29.928493505796883, 60.03021926583685], [29.928314293357356, 60.030223239773605], [29.92830635183875, 60.03013356485967], [29.928485563793956, 60.03012959093722], [29.928477621841235, 60.03003991603573], [29.92884398755375, 60.03012164236381], [29.92885193052533, 60.03021131723485], [29.92867271818621, 60.030215291657264], [29.92868066072368, 60.03030496654075], [29.92850144785002, 60.030308940734635]]]}, "properties": {"zone_id": "neva-2025-05-09-001", "aoi": "neva", "date": "2025-05-09", "scene_id": "S2A_MSIL2A_20250509T092231_R093_T36VUM_20250509T115912", "scene_datetime_utc": "2025-05-09T09:22:31.024000+00:00", "detection_status": "detected", "detection_status_ru": "обнаружено", "lon": 29.92858, "lat": 60.03017, "n_pixels": 1, "zone_area_km2": 0.0005, "cover_m2": 4.3, "p_mean": 0.953, "p_max": 0.953, "cover_m2_km2": 8600.0, "h3": "881106ba6dfffff", "valid_frac_scene": 0.931, "wind_ms": 5.1, "sea": "спокойное", "scene_reliable": true, "field_event_id": "S3:HE419_MarLitter_transect28", "field_profile": "B", "field_date": "2014-04-11", "field_distance_km": 1410.7, "field_date_gap_days": 4046, "field_conc_items_km2": 43.1, "conc_A_items_km2": null, "conc_A_lo80": null, "conc_A_hi80": null, "conc_A_lo95": null, "conc_A_hi95": null, "conc_A_status": "unavailable", "conc_A_status_ru": "концентрация недоступна", "conc_A_reasons": "вне бассейна профиля: nw_atlantic_subtropical", "conc_A_model": "conc-A-c6bce5631d2b", "conc_B_items_km2": null, "conc_B_lo80": null, "conc_B_hi80": null, "conc_B_lo95": null, "conc_B_hi95": null, "conc_B_status": "unavailable", "conc_B_status_ru": "концентрация недоступна", "conc_B_reasons": "вне бассейна профиля: black_sea", "conc_B_model": "conc-B-c6bce5631d2b"}}, {"type": "Feature", "geometry": {"type": "Polygon", "coordinates": [[[29.92445564767184, 60.029230533660524], [29.92444771692584, 60.02914085842414], [29.924268509678637, 60.02914482683299], [29.92425264930561, 60.02896547632614], [29.924431855584228, 60.02896150794586], [29.924423924988623, 60.02887183270393], [29.92479026799105, 60.02895357045685], [29.924798199605377, 60.02904324566838], [29.924977406217867, 60.02903927654536], [29.924985338366632, 60.02912895174072], [29.924806131269836, 60.029132920878006], [29.92481406298444, 60.02922259608583], [29.92445564767184, 60.029230533660524]]]}, "properties": {"zone_id": "neva-2025-05-09-002", "aoi": "neva", "date": "2025-05-09", "scene_id": "S2A_MSIL2A_20250509T092231_R093_T36VUM_20250509T115912", "scene_datetime_utc": "2025-05-09T09:22:31.024000+00:00", "detection_status": "detected", "detection_status_ru": "обнаружено", "lon": 29.92459, "lat": 60.02906, "n_pixels": 3, "zone_area_km2": 0.001, "cover_m2": 10.2, "p_mean": 0.937, "p_max": 0.969, "cover_m2_km2": 10200.0, "h3": "881106ba6dfffff", "valid_frac_scene": 0.931, "wind_ms": 5.1, "sea": "спокойное", "scene_reliable": true, "field_event_id": "S3:HE419_MarLitter_transect28", "field_profile": "B", "field_date": "2014-04-11", "field_distance_km": 1410.4, "field_date_gap_days": 4046, "field_conc_items_km2": 43.1, "conc_A_items_km2": null, "conc_A_lo80": null, "conc_A_hi80": null, "conc_A_lo95": null, "conc_A_hi95": null, "conc_A_status": "unavailable", "conc_A_status_ru": "концентрация недоступна", "conc_A_reasons": "вне бассейна профиля: nw_atlantic_subtropical", "conc_A_model": "conc-A-c6bce5631d2b", "conc_B_items_km2": null, "conc_B_lo80": null, "conc_B_hi80": null, "conc_B_lo95": null, "conc_B_hi95": null, "conc_B_status": "unavailable", "conc_B_status_ru": "концентрация недоступна", "conc_B_reasons": "вне бассейна профиля: black_sea", "conc_B_model": "conc-B-c6bce5631d2b"}}, {"type": "Feature", "geometry": {"type": "Polygon", "coordinates": [[[29.92462051141549, 60.025003890828465], [29.924612581572873, 60.024914215547525], [29.92443339723464, 60.02491818401362], [29.924425467926294, 60.02482850871658], [29.924604651780374, 60.02482454026474], [29.924596722038, 60.024734864980076], [29.92496301933817, 60.02481660263277], [29.92497095009897, 60.024906277886984], [29.92479176586098, 60.02491024683863], [29.924799696187755, 60.024999922105295], [29.92462051141549, 60.025003890828465]]]}, "properties": {"zone_id": "neva-2025-05-09-003", "aoi": "neva", "date": "2025-05-09", "scene_id": "S2A_MSIL2A_20250509T092231_R093_T36VUM_20250509T115912", "scene_datetime_utc": "2025-05-09T09:22:31.024000+00:00", "detection_status": "detected", "detection_status_ru": "обнаружено", "lon": 29.9247, "lat": 60.02487, "n_pixels": 1, "zone_area_km2": 0.0005, "cover_m2": 3.5, "p_mean": 0.859, "p_max": 0.859, "cover_m2_km2": 7000.0, "h3": "88110685b3fffff", "valid_frac_scene": 0.931, "wind_ms": 5.1, "sea": "спокойное", "scene_reliable": true, "field_event_id": "S3:HE419_MarLitter_transect28", "field_profile": "B", "field_date": "2014-04-11", "field_distance_km": 1410.3, "field_date_gap_days": 4046, "field_conc_items_km2": 43.1, "conc_A_items_km2": null, "conc_A_lo80": null, "conc_A_hi80": null, "conc_A_lo95": null, "conc_A_hi95": null, "conc_A_status": "unavailable", "conc_A_status_ru": "концентрация недоступна", "conc_A_reasons": "вне бассейна профиля: nw_atlantic_subtropical", "conc_A_model": "conc-A-c6bce5631d2b", "conc_B_items_km2": null, "conc_B_lo80": null, "conc_B_hi80": null, "conc_B_lo95": null, "conc_B_hi95": null, "conc_B_status": "unavailable", "conc_B_status_ru": "концентрация недоступна", "conc_B_reasons": "вне бассейна профиля: black_sea", "conc_B_model": "conc-B-c6bce5631d2b"}}, {"type": "Feature", "geometry": {"type": "Polygon", "coordinates": [[[29.70800946674753, 59.98209643639801], [29.708002136444986, 59.98200674384393], [29.707823150720564, 59.982010417041195], [29.707808491220423, 59.98183103190133], [29.707987475978744, 59.98182735873047], [29.707980145815046, 59.98173766617108], [29.70834544535653, 59.98182001166137], [29.708360107754967, 59.981999396721974], [29.70800946674753, 59.98209643639801]]]}, "properties": {"zone_id": "neva-2025-05-09-004", "aoi": "neva", "date": "2025-05-09", "scene_id": "S2A_MSIL2A_20250509T092231_R093_T36VUM_20250509T115912", "scene_datetime_utc": "2025-05-09T09:22:31.024000+00:00", "detection_status": "detected", "detection_status_ru": "обнаружено", "lon": 29.70808, "lat": 59.98192, "n_pixels": 2, "zone_area_km2": 0.0008, "cover_m2": 11.0, "p_mean": 0.975, "p_max": 0.988, "cover_m2_km2": 13750.0, "h3": "8811068763fffff", "valid_frac_scene": 0.931, "wind_ms": 5.1, "sea": "спокойное", "scene_reliable": true, "field_event_id": "S3:HE419_MarLitter_transect28", "field_profile": "B", "field_date": "2014-04-11", "field_distance_km": 1397.5, "field_date_gap_days": 4046, "field_conc_items_km2": 43.1, "conc_A_items_km2": null, "conc_A_lo80": null, "conc_A_hi80": null, "conc_A_lo95": null, "conc_A_hi95": null, "conc_A_status": "unavailable", "conc_A_status_ru": "концентрация недоступна", "conc_A_reasons": "вне бассейна профиля: nw_atlantic_subtropical", "conc_A_model": "conc-A-c6bce5631d2b", "conc_B_items_km2": null, "conc_B_lo80": null, "conc_B_hi80": null, "conc_B_lo95": null, "conc_B_hi95": null, "conc_B_status": "unavailable", "conc_B_status_ru": "концентрация недоступна", "conc_B_reasons": "вне бассейна профиля: black_sea", "conc_B_model": "conc-B-c6bce5631d2b"}}, {"type": "Feature", "geometry": {"type": "Polygon", "coordinates": [[[30.193259541580225, 59.97330946291171], [30.193250902066108, 59.97321980939958], [30.193072041881216, 59.9732241398145], [30.193063402903512, 59.973134486284785], [30.1932422626065, 59.97313015588544], [30.19323362320141, 59.973040502369344], [30.193599981848926, 59.97312149436034], [30.193608622272347, 59.97321114784336], [30.193429762196484, 59.973215478742524], [30.193438402192513, 59.973305132239105], [30.193259541580225, 59.97330946291171]]]}, "properties": {"zone_id": "neva-2025-05-09-005", "aoi": "neva", "date": "2025-05-09", "scene_id": "S2A_MSIL2A_20250509T092231_R093_T36VUM_20250509T115912", "scene_datetime_utc": "2025-05-09T09:22:31.024000+00:00", "detection_status": "detected", "detection_status_ru": "обнаружено", "lon": 30.19334, "lat": 59.97317, "n_pixels": 1, "zone_area_km2": 0.0005, "cover_m2": 2.7, "p_mean": 0.976, "p_max": 0.976, "cover_m2_km2": 5400.0, "h3": "88110616b9fffff", "valid_frac_scene": 0.931, "wind_ms": 5.1, "sea": "спокойное", "scene_reliable": true, "field_event_id": "S3:HE419_MarLitter_transect28", "field_profile": "B", "field_date": "2014-04-11", "field_distance_km": 1423.5, "field_date_gap_days": 4046, "field_conc_items_km2": 43.1, "conc_A_items_km2": null, "conc_A_lo80": null, "conc_A_hi80": null, "conc_A_lo95": null, "conc_A_hi95": null, "conc_A_status": "unavailable", "conc_A_status_ru": "концентрация недоступна", "conc_A_reasons": "вне бассейна профиля: nw_atlantic_subtropical", "conc_A_model": "conc-A-c6bce5631d2b", "conc_B_items_km2": null, "conc_B_lo80": null, "conc_B_hi80": null, "conc_B_lo95": null, "conc_B_hi95": null, "conc_B_status": "unavailable", "conc_B_status_ru": "концентрация недоступна", "conc_B_reasons": "вне бассейна профиля: black_sea", "conc_B_model": "conc-B-c6bce5631d2b"}}, {"type": "Feature", "geometry": {"type": "Polygon", "coordinates": [[[30.19770809948596, 59.96924771185691], [30.197699449362204, 59.969158058678026], [30.197520611850734, 59.96916239494463], [30.197511962263306, 59.96907274174814], [30.197690799293007, 59.96906840549714], [30.197682149278396, 59.96897875231426], [30.1980484731887, 59.96905973226884], [30.198057124221418, 59.969149385418575], [30.197878286819098, 59.96915372216936], [30.197886937424624, 59.96924337533266], [30.19770809948596, 59.96924771185691]]]}, "properties": {"zone_id": "neva-2025-05-09-006", "aoi": "neva", "date": "2025-05-09", "scene_id": "S2A_MSIL2A_20250509T092231_R093_T36VUM_20250509T115912", "scene_datetime_utc": "2025-05-09T09:22:31.024000+00:00", "detection_status": "detected", "detection_status_ru": "обнаружено", "lon": 30.19778, "lat": 59.96911, "n_pixels": 1, "zone_area_km2": 0.0005, "cover_m2": 6.7, "p_mean": 0.922, "p_max": 0.922, "cover_m2_km2": 13400.0, "h3": "88110616b1fffff", "valid_frac_scene": 0.931, "wind_ms": 5.1, "sea": "спокойное", "scene_reliable": true, "field_event_id": "S3:HE419_MarLitter_transect28", "field_profile": "B", "field_date": "2014-04-11", "field_distance_km": 1423.6, "field_date_gap_days": 4046, "field_conc_items_km2": 43.1, "conc_A_items_km2": null, "conc_A_lo80": null, "conc_A_hi80": null, "conc_A_lo95": null, "conc_A_hi95": null, "conc_A_status": "unavailable", "conc_A_status_ru": "концентрация недоступна", "conc_A_reasons": "вне бассейна профиля: nw_atlantic_subtropical", "conc_A_model": "conc-A-c6bce5631d2b", "conc_B_items_km2": null, "conc_B_lo80": null, "conc_B_hi80": null, "conc_B_lo95": null, "conc_B_hi95": null, "conc_B_status": "unavailable", "conc_B_status_ru": "концентрация недоступна", "conc_B_reasons": "вне бассейна профиля: black_sea", "conc_B_model": "conc-B-c6bce5631d2b"}}, {"type": "Feature", "geometry": {"type": "Polygon", "coordinates": [[[29.700330707136892, 59.96707037222369], [29.700323402022374, 59.966980678896], [29.700144496228628, 59.966984341138364], [29.70012988710302, 59.966804954451376], [29.700308791931665, 59.96680129223534], [29.70030148695547, 59.96671159890236], [29.700659295509364, 59.966704273769636], [29.70066660145065, 59.96679396707629], [29.700845506140972, 59.966790304133276], [29.700852812610922, 59.96687999742499], [29.700673907438045, 59.96688366038118], [29.700681213471558, 59.966973353684295], [29.700330707136892, 59.96707037222369]]]}, "properties": {"zone_id": "neva-2025-05-09-007", "aoi": "neva", "date": "2025-05-09", "scene_id": "S2A_MSIL2A_20250509T092231_R093_T36VUM_20250509T115912", "scene_datetime_utc": "2025-05-09T09:22:31.024000+00:00", "detection_status": "detected", "detection_status_ru": "обнаружено", "lon": 29.70046, "lat": 59.96687, "n_pixels": 3, "zone_area_km2": 0.001, "cover_m2": 23.9, "p_mean": 0.533, "p_max": 0.537, "cover_m2_km2": 23900.0, "h3": "88110680dbfffff", "valid_frac_scene": 0.931, "wind_ms": 5.1, "sea": "спокойное", "scene_reliable": true, "field_event_id": "S3:HE419_MarLitter_transect28", "field_profile": "B", "field_date": "2014-04-11", "field_distance_km": 1396.6, "field_date_gap_days": 4046, "field_conc_items_km2": 43.1, "conc_A_items_km2": null, "conc_A_lo80": null, "conc_A_hi80": null, "conc_A_lo95": null, "conc_A_hi95": null, "conc_A_status": "unavailable", "conc_A_status_ru": "концентрация недоступна", "conc_A_reasons": "вне бассейна профиля: nw_atlantic_subtropical", "conc_A_model": "conc-A-c6bce5631d2b", "conc_B_items_km2": null, "conc_B_lo80": null, "conc_B_hi80": null, "conc_B_lo95": null, "conc_B_hi95": null, "conc_B_status": "unavailable", "conc_B_status_ru": "концентрация недоступна", "conc_B_reasons": "вне бассейна профиля: black_sea", "conc_B_model": "conc-B-c6bce5631d2b"}}, {"type": "Feature", "geometry": {"type": "Polygon", "coordinates": [[[30.08488604963594, 59.918379402735155], [30.084877721459286, 59.9182897391669], [30.084699138355283, 59.91829392047079], [30.0846741555809, 59.91802492970944], [30.08485273724416, 59.918020748450594], [30.084844409277395, 59.91793108487462], [30.085209900413272, 59.91801238520796], [30.085234887509873, 59.918281375834226], [30.08488604963594, 59.918379402735155]]]}, "properties": {"zone_id": "neva-2025-05-09-008", "aoi": "neva", "date": "2025-05-09", "scene_id": "S2A_MSIL2A_20250509T092231_R093_T36VUM_20250509T115912", "scene_datetime_utc": "2025-05-09T09:22:31.024000+00:00", "detection_status": "detected", "detection_status_ru": "обнаружено", "lon": 30.08495, "lat": 59.91815, "n_pixels": 3, "zone_area_km2": 0.0011, "cover_m2": 9.4, "p_mean": 0.757, "p_max": 0.859, "cover_m2_km2": 8545.5, "h3": "8811061663fffff", "valid_frac_scene": 0.931, "wind_ms": 5.1, "sea": "спокойное", "scene_reliable": true, "field_event_id": "S3:HE419_MarLitter_transect28", "field_profile": "B", "field_date": "2014-04-11", "field_distance_km": 1416.2, "field_date_gap_days": 4046, "field_conc_items_km2": 43.1, "conc_A_items_km2": null, "conc_A_lo80": null, "conc_A_hi80": null, "conc_A_lo95": null, "conc_A_hi95": null, "conc_A_status": "unavailable", "conc_A_status_ru": "концентрация недоступна", "conc_A_reasons": "вне бассейна профиля: nw_atlantic_subtropical", "conc_A_model": "conc-A-c6bce5631d2b", "conc_B_items_km2": null, "conc_B_lo80": null, "conc_B_hi80": null, "conc_B_lo95": null, "conc_B_hi95": null, "conc_B_status": "unavailable", "conc_B_status_ru": "концентрация недоступна", "conc_B_reasons": "вне бассейна профиля: black_sea", "conc_B_model": "conc-B-c6bce5631d2b"}}, {"type": "Feature", "geometry": {"type": "Polygon", "coordinates": [[[30.075778473756873, 59.910864528988554], [30.075770172651332, 59.91077486455007], [30.07559162837682, 59.91077903320894], [30.075583327803585, 59.910689368753566], [30.07576187159808, 59.91068520010966], [30.07575357059712, 59.91059553566734], [30.076118959030204, 59.91067686209711], [30.076127261043474, 59.9107665265076], [30.075948716873555, 59.910770695649624], [30.075957018459103, 59.91086036007313], [30.075778473756873, 59.910864528988554]]]}, "properties": {"zone_id": "neva-2025-05-09-009", "aoi": "neva", "date": "2025-05-09", "scene_id": "S2A_MSIL2A_20250509T092231_R093_T36VUM_20250509T115912", "scene_datetime_utc": "2025-05-09T09:22:31.024000+00:00", "detection_status": "detected", "detection_status_ru": "обнаружено", "lon": 30.07586, "lat": 59.91073, "n_pixels": 1, "zone_area_km2": 0.0005, "cover_m2": 4.3, "p_mean": 0.761, "p_max": 0.761, "cover_m2_km2": 8600.0, "h3": "8811061667fffff", "valid_frac_scene": 0.931, "wind_ms": 5.1, "sea": "спокойное", "scene_reliable": true, "field_event_id": "S3:HE419_MarLitter_transect28", "field_profile": "B", "field_date": "2014-04-11", "field_distance_km": 1415.5, "field_date_gap_days": 4046, "field_conc_items_km2": 43.1, "conc_A_items_km2": null, "conc_A_lo80": null, "conc_A_hi80": null, "conc_A_lo95": null, "conc_A_hi95": null, "conc_A_status": "unavailable", "conc_A_status_ru": "концентрация недоступна", "conc_A_reasons": "вне бассейна профиля: nw_atlantic_subtropical", "conc_A_model": "conc-A-c6bce5631d2b", "conc_B_items_km2": null, "conc_B_lo80": null, "conc_B_hi80": null, "conc_B_lo95": null, "conc_B_hi95": null, "conc_B_status": "unavailable", "conc_B_status_ru": "концентрация недоступна", "conc_B_reasons": "вне бассейна профиля: black_sea", "conc_B_model": "conc-B-c6bce5631d2b"}}]}