{"type": "FeatureCollection", "features": [{"type": "Feature", "geometry": {"type": "Polygon", "coordinates": [[[131.90322458934227, 43.315183208117425], [131.9032203045139, 43.315093277980836], [131.90309714425106, 43.315096406637615], [131.90309285962357, 43.315006476489486], [131.9032160197053, 43.31500334784249], [131.90321173491645, 43.314913417702385], [131.9035812144995, 43.31490403099608], [131.90358549983176, 43.31499396110686], [131.9037086598344, 43.31499083193012], [131.90371294536757, 43.315080762029375], [131.90358978518378, 43.3150838912159], [131.9035940705556, 43.31517382132315], [131.90322458934227, 43.315183208117425]]]}, "properties": {"zone_id": "vladivostok-2026-09-10-001", "aoi": "vladivostok", "date": "2026-09-10", "scene_id": "S2C_MSIL2A_20260910T020651_R103_T52TGN_20260910T053309", "scene_datetime_utc": "2026-09-10T02:06:51.025000+00:00", "detection_status": "detected", "detection_status_ru": "обнаружено", "lon": 131.9034, "lat": 43.31504, "n_pixels": 3, "zone_area_km2": 0.0011, "cover_m2": 15.3, "p_mean": 0.905, "p_max": 0.953, "cover_m2_km2": 13909.1, "h3": "88316cceb5fffff", "valid_frac_scene": 1.0, "wind_ms": 2.2, "sea": "спокойное", "scene_reliable": true, "field_event_id": "S4:DOORS3:T23", "field_profile": "B", "field_date": "2024-06-10", "field_distance_km": 6971.4, "field_date_gap_days": 822, "field_conc_items_km2": 102.37, "conc_A_items_km2": null, "conc_A_lo80": null, "conc_A_hi80": null, "conc_A_lo95": null, "conc_A_hi95": null, "conc_A_status": "unavailable", "conc_A_status_ru": "концентрация недоступна", "conc_A_reasons": "вне бассейна профиля: nw_atlantic_subtropical", "conc_A_model": "conc-A-c6bce5631d2b", "conc_B_items_km2": null, "conc_B_lo80": null, "conc_B_hi80": null, "conc_B_lo95": null, "conc_B_hi95": null, "conc_B_status": "unavailable", "conc_B_status_ru": "концентрация недоступна", "conc_B_reasons": "вне бассейна профиля: black_sea", "conc_B_model": "conc-B-c6bce5631d2b"}}, {"type": "Feature", "geometry": {"type": "Polygon", "coordinates": [[[131.9053097380687, 43.31495014058106], [131.9053054502004, 43.31486021060716], [131.90518229063602, 43.31486334149574], [131.90517800296865, 43.31477341151029], [131.90530116235186, 43.31477028063149], [131.90529687452312, 43.31468035065405], [131.9054200337054, 43.31467721965258], [131.9054157457153, 43.314587289683175], [131.9057852226, 43.31457789591353], [131.90578951113355, 43.3146678258536], [131.90591267023666, 43.3146646943224], [131.90591695897112, 43.31475462425095], [131.90579379968685, 43.314757755791916], [131.90579808825996, 43.314847685728466], [131.90542860974494, 43.31485707958613], [131.90543289779438, 43.314947009550266], [131.9053097380687, 43.31495014058106]]]}, "properties": {"zone_id": "vladivostok-2026-09-10-002", "aoi": "vladivostok", "date": "2026-09-10", "scene_id": "S2C_MSIL2A_20260910T020651_R103_T52TGN_20260910T053309", "scene_datetime_utc": "2026-09-10T02:06:51.025000+00:00", "detection_status": "detected", "detection_status_ru": "обнаружено", "lon": 131.90555, "lat": 43.31474, "n_pixels": 4, "zone_area_km2": 0.0014, "cover_m2": 21.6, "p_mean": 0.855, "p_max": 0.98, "cover_m2_km2": 15428.6, "h3": "88316cceb5fffff", "valid_frac_scene": 1.0, "wind_ms": 2.2, "sea": "спокойное", "scene_reliable": true, "field_event_id": "S4:DOORS3:T23", "field_profile": "B", "field_date": "2024-06-10", "field_distance_km": 6971.6, "field_date_gap_days": 822, "field_conc_items_km2": 102.37, "conc_A_items_km2": null, "conc_A_lo80": null, "conc_A_hi80": null, "conc_A_lo95": null, "conc_A_hi95": null, "conc_A_status": "unavailable", "conc_A_status_ru": "концентрация недоступна", "conc_A_reasons": "вне бассейна профиля: nw_atlantic_subtropical", "conc_A_model": "conc-A-c6bce5631d2b", "conc_B_items_km2": null, "conc_B_lo80": null, "conc_B_hi80": null, "conc_B_lo95": null, "conc_B_hi95": null, "conc_B_status": "unavailable", "conc_B_status_ru": "концентрация недоступна", "conc_B_reasons": "вне бассейна профиля: black_sea", "conc_B_model": "conc-B-c6bce5631d2b"}}, {"type": "Feature", "geometry": {"type": "Polygon", "coordinates": [[[131.906022962692, 43.314391772891994], [131.90601867385553, 43.3143018429662], [131.90589551549672, 43.3143049745907], [131.9058869382455, 43.31412511471427], [131.90601009624203, 43.31412198310935], [131.90600580746494, 43.31403205317829], [131.90625212303632, 43.3140257895907], [131.90625641217568, 43.3141157195022], [131.90650272803018, 43.31410945536533], [131.9064984385286, 43.3140195254734], [131.906621596245, 43.31401639321611], [131.90662588592775, 43.314106323098265], [131.90674904380555, 43.314103190698766], [131.9067533336892, 43.31419312056938], [131.9066301756303, 43.31419625297867], [131.90663446535265, 43.3142861828573], [131.90638385945311, 43.31420251739995], [131.90638814881316, 43.31429244729815], [131.90626499051376, 43.31429557931993], [131.9062692797125, 43.31438550922615], [131.906022962692, 43.314391772891994]]]}, "properties": {"zone_id": "vladivostok-2026-09-10-003", "aoi": "vladivostok", "date": "2026-09-10", "scene_id": "S2C_MSIL2A_20260910T020651_R103_T52TGN_20260910T053309", "scene_datetime_utc": "2026-09-10T02:06:51.025000+00:00", "detection_status": "detected", "detection_status_ru": "обнаружено", "lon": 131.90622, "lat": 43.3142, "n_pixels": 5, "zone_area_km2": 0.0017, "cover_m2": 27.1, "p_mean": 0.898, "p_max": 0.988, "cover_m2_km2": 15941.2, "h3": "88316cceb1fffff", "valid_frac_scene": 1.0, "wind_ms": 2.2, "sea": "спокойное", "scene_reliable": true, "field_event_id": "S4:DOORS3:T23", "field_profile": "B", "field_date": "2024-06-10", "field_distance_km": 6971.7, "field_date_gap_days": 822, "field_conc_items_km2": 102.37, "conc_A_items_km2": null, "conc_A_lo80": null, "conc_A_hi80": null, "conc_A_lo95": null, "conc_A_hi95": null, "conc_A_status": "unavailable", "conc_A_status_ru": "концентрация недоступна", "conc_A_reasons": "вне бассейна профиля: nw_atlantic_subtropical", "conc_A_model": "conc-A-c6bce5631d2b", "conc_B_items_km2": null, "conc_B_lo80": null, "conc_B_hi80": null, "conc_B_lo95": null, "conc_B_hi95": null, "conc_B_status": "unavailable", "conc_B_status_ru": "концентрация недоступна", "conc_B_reasons": "вне бассейна профиля: black_sea", "conc_B_model": "conc-B-c6bce5631d2b"}}, {"type": "Feature", "geometry": {"type": "Polygon", "coordinates": [[[131.91107244578183, 43.31426326186529], [131.91106814951874, 43.314173332340914], [131.91094499197195, 43.314176469394965], [131.9109406959099, 43.31408653985902], [131.91106385327555, 43.314083402814774], [131.91105955705214, 43.313993473286864], [131.91142902848676, 43.31398406138894], [131.91143332525357, 43.31407399088746], [131.91155648253994, 43.314070853313495], [131.91156077950768, 43.314160782800435], [131.9114376220402, 43.3141639203842], [131.91144191884663, 43.31425384987918], [131.91107244578183, 43.31426326186529]]]}, "properties": {"zone_id": "vladivostok-2026-09-10-004", "aoi": "vladivostok", "date": "2026-09-10", "scene_id": "S2C_MSIL2A_20260910T020651_R103_T52TGN_20260910T053309", "scene_datetime_utc": "2026-09-10T02:06:51.025000+00:00", "detection_status": "detected", "detection_status_ru": "обнаружено", "lon": 131.91125, "lat": 43.31412, "n_pixels": 3, "zone_area_km2": 0.0011, "cover_m2": 17.6, "p_mean": 0.844, "p_max": 0.973, "cover_m2_km2": 16000.0, "h3": "88316cceb1fffff", "valid_frac_scene": 1.0, "wind_ms": 2.2, "sea": "спокойное", "scene_reliable": true, "field_event_id": "S4:DOORS3:T23", "field_profile": "B", "field_date": "2024-06-10", "field_distance_km": 6972.0, "field_date_gap_days": 822, "field_conc_items_km2": 102.37, "conc_A_items_km2": null, "conc_A_lo80": null, "conc_A_hi80": null, "conc_A_lo95": null, "conc_A_hi95": null, "conc_A_status": "unavailable", "conc_A_status_ru": "концентрация недоступна", "conc_A_reasons": "вне бассейна профиля: nw_atlantic_subtropical", "conc_A_model": "conc-A-c6bce5631d2b", "conc_B_items_km2": null, "conc_B_lo80": null, "conc_B_hi80": null, "conc_B_lo95": null, "conc_B_hi95": null, "conc_B_status": "unavailable", "conc_B_status_ru": "концентрация недоступна", "conc_B_reasons": "вне бассейна профиля: black_sea", "conc_B_model": "conc-B-c6bce5631d2b"}}, {"type": "Feature", "geometry": {"type": "Polygon", "coordinates": [[[131.90109232407798, 43.314427004650376], [131.90108804250693, 43.31433707433188], [131.90096488353842, 43.31434020064938], [131.90096060216828, 43.314250270319356], [131.90108376095563, 43.31424714401161], [131.90107519791232, 43.31406728336584], [131.90082459991268, 43.313983605464756], [131.90081603771245, 43.313803744769345], [131.90093919561386, 43.31380061864287], [131.90093491436224, 43.31371068830229], [131.90118551135743, 43.313794365992614], [131.90118979299106, 43.3138842963119], [131.90131295101435, 43.31388116977837], [131.9013215147032, 43.31406103039214], [131.90119835631762, 43.31406415694519], [131.90120263801055, 43.314154087259205], [131.90145323719915, 43.31423776429382], [131.90145751929387, 43.31432769458478], [131.90133436038465, 43.31433082129958], [131.90133864231797, 43.31442075159855], [131.90109232407798, 43.314427004650376]]]}, "properties": {"zone_id": "vladivostok-2026-09-10-005", "aoi": "vladivostok", "date": "2026-09-10", "scene_id": "S2C_MSIL2A_20260910T020651_R103_T52TGN_20260910T053309", "scene_datetime_utc": "2026-09-10T02:06:51.025000+00:00", "detection_status": "detected", "detection_status_ru": "обнаружено", "lon": 131.90112, "lat": 43.31405, "n_pixels": 6, "zone_area_km2": 0.002, "cover_m2": 24.3, "p_mean": 0.929, "p_max": 0.996, "cover_m2_km2": 12150.0, "h3": "88316cceb5fffff", "valid_frac_scene": 1.0, "wind_ms": 2.2, "sea": "спокойное", "scene_reliable": true, "field_event_id": "S4:DOORS3:T23", "field_profile": "B", "field_date": "2024-06-10", "field_distance_km": 6971.3, "field_date_gap_days": 822, "field_conc_items_km2": 102.37, "conc_A_items_km2": null, "conc_A_lo80": null, "conc_A_hi80": null, "conc_A_lo95": null, "conc_A_hi95": null, "conc_A_status": "unavailable", "conc_A_status_ru": "концентрация недоступна", "conc_A_reasons": "вне бассейна профиля: nw_atlantic_subtropical", "conc_A_model": "conc-A-c6bce5631d2b", "conc_B_items_km2": null, "conc_B_lo80": null, "conc_B_hi80": null, "conc_B_lo95": null, "conc_B_hi95": null, "conc_B_status": "unavailable", "conc_B_status_ru": "концентрация недоступна", "conc_B_reasons": "вне бассейна профиля: black_sea", "conc_B_model": "conc-B-c6bce5631d2b"}}, {"type": "Feature", "geometry": {"type": "Polygon", "coordinates": [[[131.90983657315897, 43.31420469692221], [131.9098322787271, 43.31411476729809], [131.90970912116327, 43.31411790301808], [131.9097048269323, 43.31402797338241], [131.90982798431503, 43.31402483767222], [131.90982368992277, 43.31393490804459], [131.90994684710452, 43.31393177221177], [131.90994255255097, 43.31384184259217], [131.91018886649275, 43.31383557054884], [131.91019316140859, 43.313925500148855], [131.91031631853087, 43.313922363918756], [131.91032490878428, 43.31410222309389], [131.9102017512997, 43.31410535934358], [131.910206046275, 43.31419528893831], [131.90995543627113, 43.31411163144568], [131.90995973088414, 43.31420156106], [131.90983657315897, 43.31420469692221]]]}, "properties": {"zone_id": "vladivostok-2026-09-10-006", "aoi": "vladivostok", "date": "2026-09-10", "scene_id": "S2C_MSIL2A_20260910T020651_R103_T52TGN_20260910T053309", "scene_datetime_utc": "2026-09-10T02:06:51.025000+00:00", "detection_status": "detected", "detection_status_ru": "обнаружено", "lon": 131.91004, "lat": 43.31402, "n_pixels": 4, "zone_area_km2": 0.0013, "cover_m2": 26.3, "p_mean": 0.936, "p_max": 0.973, "cover_m2_km2": 20230.8, "h3": "88316cceb1fffff", "valid_frac_scene": 1.0, "wind_ms": 2.2, "sea": "спокойное", "scene_reliable": true, "field_event_id": "S4:DOORS3:T23", "field_profile": "B", "field_date": "2024-06-10", "field_distance_km": 6971.9, "field_date_gap_days": 822, "field_conc_items_km2": 102.37, "conc_A_items_km2": null, "conc_A_lo80": null, "conc_A_hi80": null, "conc_A_lo95": null, "conc_A_hi95": null, "conc_A_status": "unavailable", "conc_A_status_ru": "концентрация недоступна", "conc_A_reasons": "вне бассейна профиля: nw_atlantic_subtropical", "conc_A_model": "conc-A-c6bce5631d2b", "conc_B_items_km2": null, "conc_B_lo80": null, "conc_B_hi80": null, "conc_B_lo95": null, "conc_B_hi95": null, "conc_B_status": "unavailable", "conc_B_status_ru": "концентрация недоступна", "conc_B_reasons": "вне бассейна профиля: black_sea", "conc_B_model": "conc-B-c6bce5631d2b"}}, {"type": "Feature", "geometry": {"type": "Polygon", "coordinates": [[[131.9119259542801, 43.314061439797065], [131.91192165678873, 43.313971510337744], [131.91179849974299, 43.31397464829919], [131.91179420245263, 43.313884718828334], [131.91191735931724, 43.31388158087669], [131.91191306186556, 43.31379165141387], [131.9122825317971, 43.31378223679383], [131.91228682979212, 43.31387216622724], [131.91240998657744, 43.313869027745895], [131.91241428477346, 43.31395895716775], [131.91229112780704, 43.31396209565889], [131.91229542584176, 43.314052025088785], [131.9119259542801, 43.314061439797065]]]}, "properties": {"zone_id": "vladivostok-2026-09-10-007", "aoi": "vladivostok", "date": "2026-09-10", "scene_id": "S2C_MSIL2A_20260910T020651_R103_T52TGN_20260910T053309", "scene_datetime_utc": "2026-09-10T02:06:51.025000+00:00", "detection_status": "detected", "detection_status_ru": "обнаружено", "lon": 131.9121, "lat": 43.31392, "n_pixels": 3, "zone_area_km2": 0.0011, "cover_m2": 19.2, "p_mean": 0.91, "p_max": 0.929, "cover_m2_km2": 17454.5, "h3": "88316cceb1fffff", "valid_frac_scene": 1.0, "wind_ms": 2.2, "sea": "спокойное", "scene_reliable": true, "field_event_id": "S4:DOORS3:T23", "field_profile": "B", "field_date": "2024-06-10", "field_distance_km": 6972.1, "field_date_gap_days": 822, "field_conc_items_km2": 102.37, "conc_A_items_km2": null, "conc_A_lo80": null, "conc_A_hi80": null, "conc_A_lo95": null, "conc_A_hi95": null, "conc_A_status": "unavailable", "conc_A_status_ru": "концентрация недоступна", "conc_A_reasons": "вне бассейна профиля: nw_atlantic_subtropical", "conc_A_model": "conc-A-c6bce5631d2b", "conc_B_items_km2": null, "conc_B_lo80": null, "conc_B_hi80": null, "conc_B_lo95": null, "conc_B_hi95": null, "conc_B_status": "unavailable", "conc_B_status_ru": "концентрация недоступна", "conc_B_reasons": "вне бассейна профиля: black_sea", "conc_B_model": "conc-B-c6bce5631d2b"}}, {"type": "Feature", "geometry": {"type": "Polygon", "coordinates": [[[131.91253314334293, 43.31386588913214], [131.91252884498562, 43.313775959718335], [131.91240568840124, 43.31377909832229], [131.9124013902449, 43.313689168896914], [131.91252454664811, 43.31368603030275], [131.91252024833045, 43.31359610088542], [131.9126434045327, 43.31359296216864], [131.91263910605375, 43.31350303275936], [131.9128854180365, 43.31349675494814], [131.91288111921514, 43.31340682555669], [131.91325058649713, 43.31339740787612], [131.91325488586187, 43.31348733723816], [131.913378041764, 43.31348419773664], [131.91338234132974, 43.3135741270871], [131.91325918524646, 43.313577266598415], [131.9132634846509, 43.31366719595692], [131.91277085939504, 43.31367975271717], [131.91277515809477, 43.31376968211314], [131.91265200155013, 43.31377282098195], [131.91265630008857, 43.31386275038596], [131.91253314334293, 43.31386588913214]]]}, "properties": {"zone_id": "vladivostok-2026-09-10-008", "aoi": "vladivostok", "date": "2026-09-10", "scene_id": "S2C_MSIL2A_20260910T020651_R103_T52TGN_20260910T053309", "scene_datetime_utc": "2026-09-10T02:06:51.025000+00:00", "detection_status": "detected", "detection_status_ru": "обнаружено", "lon": 131.9129, "lat": 43.3136, "n_pixels": 5, "zone_area_km2": 0.0019, "cover_m2": 31.4, "p_mean": 0.852, "p_max": 0.984, "cover_m2_km2": 16526.3, "h3": "88316cceb1fffff", "valid_frac_scene": 1.0, "wind_ms": 2.2, "sea": "спокойное", "scene_reliable": true, "field_event_id": "S4:DOORS3:T23", "field_profile": "B", "field_date": "2024-06-10", "field_distance_km": 6972.2, "field_date_gap_days": 822, "field_conc_items_km2": 102.37, "conc_A_items_km2": null, "conc_A_lo80": null, "conc_A_hi80": null, "conc_A_lo95": null, "conc_A_hi95": null, "conc_A_status": "unavailable", "conc_A_status_ru": "концентрация недоступна", "conc_A_reasons": "вне бассейна профиля: nw_atlantic_subtropical", "conc_A_model": "conc-A-c6bce5631d2b", "conc_B_items_km2": null, "conc_B_lo80": null, "conc_B_hi80": null, "conc_B_lo95": null, "conc_B_hi95": null, "conc_B_status": "unavailable", "conc_B_status_ru": "концентрация недоступна", "conc_B_reasons": "вне бассейна профиля: black_sea", "conc_B_model": "conc-B-c6bce5631d2b"}}, {"type": "Feature", "geometry": {"type": "Polygon", "coordinates": [[[131.91373890919266, 43.3132949197902], [131.9137346091431, 43.313204990463895], [131.91361145384388, 43.313208130333244], [131.91360715399526, 43.31311820099534], [131.91373030911336, 43.3131150611358], [131.91372600910347, 43.313025131805944], [131.91397661929005, 43.31310878101943], [131.91398091968205, 43.31319871032791], [131.91385776442246, 43.31320185046211], [131.9138620646532, 43.31329177977863], [131.91373890919266, 43.3132949197902]]]}, "properties": {"zone_id": "vladivostok-2026-09-10-009", "aoi": "vladivostok", "date": "2026-09-10", "scene_id": "S2C_MSIL2A_20260910T020651_R103_T52TGN_20260910T053309", "scene_datetime_utc": "2026-09-10T02:06:51.025000+00:00", "detection_status": "detected", "detection_status_ru": "обнаружено", "lon": 131.91379, "lat": 43.31316, "n_pixels": 1, "zone_area_km2": 0.0005, "cover_m2": 5.9, "p_mean": 0.8, "p_max": 0.8, "cover_m2_km2": 11800.0, "h3": "88316cceb1fffff", "valid_frac_scene": 1.0, "wind_ms": 2.2, "sea": "спокойное", "scene_reliable": true, "field_event_id": "S4:DOORS3:T23", "field_profile": "B", "field_date": "2024-06-10", "field_distance_km": 6972.2, "field_date_gap_days": 822, "field_conc_items_km2": 102.37, "conc_A_items_km2": null, "conc_A_lo80": null, "conc_A_hi80": null, "conc_A_lo95": null, "conc_A_hi95": null, "conc_A_status": "unavailable", "conc_A_status_ru": "концентрация недоступна", "conc_A_reasons": "вне бассейна профиля: nw_atlantic_subtropical", "conc_A_model": "conc-A-c6bce5631d2b", "conc_B_items_km2": null, "conc_B_lo80": null, "conc_B_hi80": null, "conc_B_lo95": null, "conc_B_hi95": null, "conc_B_status": "unavailable", "conc_B_status_ru": "концентрация недоступна", "conc_B_reasons": "вне бассейна профиля: black_sea", "conc_B_model": "conc-B-c6bce5631d2b"}}, {"type": "Feature", "geometry": {"type": "Polygon", "coordinates": [[[131.89854785969274, 43.312780825972155], [131.89854358211957, 43.312690895425014], [131.89842042619773, 43.31269401890851], [131.89841614882545, 43.31260408834985], [131.89853930456613, 43.31260096487612], [131.89853502703244, 43.31251103432546], [131.89878561598832, 43.31259471753138], [131.89878989390402, 43.31268464806077], [131.89866673802166, 43.312687771809095], [131.89867101577596, 43.31277770234649], [131.89854785969274, 43.312780825972155]]]}, "properties": {"zone_id": "vladivostok-2026-09-10-010", "aoi": "vladivostok", "date": "2026-09-10", "scene_id": "S2C_MSIL2A_20260910T020651_R103_T52TGN_20260910T053309", "scene_datetime_utc": "2026-09-10T02:06:51.025000+00:00", "detection_status": "detected", "detection_status_ru": "обнаружено", "lon": 131.8986, "lat": 43.31264, "n_pixels": 1, "zone_area_km2": 0.0005, "cover_m2": 3.5, "p_mean": 0.969, "p_max": 0.969, "cover_m2_km2": 7000.0, "h3": "88316cceb5fffff", "valid_frac_scene": 1.0, "wind_ms": 2.2, "sea": "спокойное", "scene_reliable": true, "field_event_id": "S4:DOORS3:T23", "field_profile": "B", "field_date": "2024-06-10", "field_distance_km": 6971.3, "field_date_gap_days": 822, "field_conc_items_km2": 102.37, "conc_A_items_km2": null, "conc_A_lo80": null, "conc_A_hi80": null, "conc_A_lo95": null, "conc_A_hi95": null, "conc_A_status": "unavailable", "conc_A_status_ru": "концентрация недоступна", "conc_A_reasons": "вне бассейна профиля: nw_atlantic_subtropical", "conc_A_model": "conc-A-c6bce5631d2b", "conc_B_items_km2": null, "conc_B_lo80": null, "conc_B_hi80": null, "conc_B_lo95": null, "conc_B_hi95": null, "conc_B_status": "unavailable", "conc_B_status_ru": "концентрация недоступна", "conc_B_reasons": "вне бассейна профиля: black_sea", "conc_B_model": "conc-B-c6bce5631d2b"}}, {"type": "Feature", "geometry": {"type": "Polygon", "coordinates": [[[131.89853074951847, 43.31242110377304], [131.89852647202426, 43.31233117321887], [131.89840331682694, 43.31233429666332], [131.89839476225993, 43.312154435530196], [131.89863679429422, 43.31205825799818], [131.89864107191033, 43.31214818854788], [131.89876422670594, 43.312145064858086], [131.89877278235969, 43.312324925932664], [131.89853074951847, 43.31242110377304]]]}, "properties": {"zone_id": "vladivostok-2026-09-10-011", "aoi": "vladivostok", "date": "2026-09-10", "scene_id": "S2C_MSIL2A_20260910T020651_R103_T52TGN_20260910T053309", "scene_datetime_utc": "2026-09-10T02:06:51.025000+00:00", "detection_status": "detected", "detection_status_ru": "обнаружено", "lon": 131.89858, "lat": 43.31224, "n_pixels": 2, "zone_area_km2": 0.0008, "cover_m2": 8.2, "p_mean": 0.886, "p_max": 0.988, "cover_m2_km2": 10250.0, "h3": "88316cceb5fffff", "valid_frac_scene": 1.0, "wind_ms": 2.2, "sea": "спокойное", "scene_reliable": true, "field_event_id": "S4:DOORS3:T23", "field_profile": "B", "field_date": "2024-06-10", "field_distance_km": 6971.3, "field_date_gap_days": 822, "field_conc_items_km2": 102.37, "conc_A_items_km2": null, "conc_A_lo80": null, "conc_A_hi80": null, "conc_A_lo95": null, "conc_A_hi95": null, "conc_A_status": "unavailable", "conc_A_status_ru": "концентрация недоступна", "conc_A_reasons": "вне бассейна профиля: nw_atlantic_subtropical", "conc_A_model": "conc-A-c6bce5631d2b", "conc_B_items_km2": null, "conc_B_lo80": null, "conc_B_hi80": null, "conc_B_lo95": null, "conc_B_hi95": null, "conc_B_status": "unavailable", "conc_B_status_ru": "концентрация недоступна", "conc_B_reasons": "вне бассейна профиля: black_sea", "conc_B_model": "conc-B-c6bce5631d2b"}}, {"type": "Feature", "geometry": {"type": "Polygon", "coordinates": [[[131.89610531664437, 43.31068181163517], [131.89610104298592, 43.31059188086054], [131.89597789103618, 43.31059500159399], [131.89596934414064, 43.31041514001994], [131.8962113735156, 43.310318967689454], [131.896215647296, 43.31040889845962], [131.89633879884414, 43.310405777480845], [131.8963473468263, 43.31058563899639], [131.89610531664437, 43.31068181163517]]]}, "properties": {"zone_id": "vladivostok-2026-09-10-012", "aoi": "vladivostok", "date": "2026-09-10", "scene_id": "S2C_MSIL2A_20260910T020651_R103_T52TGN_20260910T053309", "scene_datetime_utc": "2026-09-10T02:06:51.025000+00:00", "detection_status": "detected", "detection_status_ru": "обнаружено", "lon": 131.89616, "lat": 43.3105, "n_pixels": 2, "zone_area_km2": 0.0008, "cover_m2": 5.5, "p_mean": 0.865, "p_max": 0.89, "cover_m2_km2": 6875.0, "h3": "88316ccccbfffff", "valid_frac_scene": 1.0, "wind_ms": 2.2, "sea": "спокойное", "scene_reliable": true, "field_event_id": "S4:DOORS3:T23", "field_profile": "B", "field_date": "2024-06-10", "field_distance_km": 6971.2, "field_date_gap_days": 822, "field_conc_items_km2": 102.37, "conc_A_items_km2": null, "conc_A_lo80": null, "conc_A_hi80": null, "conc_A_lo95": null, "conc_A_hi95": null, "conc_A_status": "unavailable", "conc_A_status_ru": "концентрация недоступна", "conc_A_reasons": "вне бассейна профиля: nw_atlantic_subtropical", "conc_A_model": "conc-A-c6bce5631d2b", "conc_B_items_km2": null, "conc_B_lo80": null, "conc_B_hi80": null, "conc_B_lo95": null, "conc_B_hi95": null, "conc_B_status": "unavailable", "conc_B_status_ru": "концентрация недоступна", "conc_B_reasons": "вне бассейна профиля: black_sea", "conc_B_model": "conc-B-c6bce5631d2b"}}, {"type": "Feature", "geometry": {"type": "Polygon", "coordinates": [[[131.8958162802879, 43.309788744968714], [131.89581200718882, 43.309698814157], [131.8955614340957, 43.30961512393392], [131.89555716139824, 43.309525193099205], [131.8956803112339, 43.30952207287996], [131.89567603837506, 43.309432142053225], [131.89592233762502, 43.309425901237], [131.89592661084603, 43.309515832044234], [131.8960497606225, 43.30951271142777], [131.89605830748593, 43.30969257301748], [131.8958162802879, 43.309788744968714]]]}, "properties": {"zone_id": "vladivostok-2026-09-10-013", "aoi": "vladivostok", "date": "2026-09-10", "scene_id": "S2C_MSIL2A_20260910T020651_R103_T52TGN_20260910T053309", "scene_datetime_utc": "2026-09-10T02:06:51.025000+00:00", "detection_status": "detected", "detection_status_ru": "обнаружено", "lon": 131.89583, "lat": 43.30959, "n_pixels": 3, "zone_area_km2": 0.001, "cover_m2": 14.1, "p_mean": 0.946, "p_max": 1.0, "cover_m2_km2": 14100.0, "h3": "88316ccccbfffff", "valid_frac_scene": 1.0, "wind_ms": 2.2, "sea": "спокойное", "scene_reliable": true, "field_event_id": "S4:DOORS3:T23", "field_profile": "B", "field_date": "2024-06-10", "field_distance_km": 6971.3, "field_date_gap_days": 822, "field_conc_items_km2": 102.37, "conc_A_items_km2": null, "conc_A_lo80": null, "conc_A_hi80": null, "conc_A_lo95": null, "conc_A_hi95": null, "conc_A_status": "unavailable", "conc_A_status_ru": "концентрация недоступна", "conc_A_reasons": "вне бассейна профиля: nw_atlantic_subtropical", "conc_A_model": "conc-A-c6bce5631d2b", "conc_B_items_km2": null, "conc_B_lo80": null, "conc_B_hi80": null, "conc_B_lo95": null, "conc_B_hi95": null, "conc_B_status": "unavailable", "conc_B_status_ru": "концентрация недоступна", "conc_B_reasons": "вне бассейна профиля: black_sea", "conc_B_model": "conc-B-c6bce5631d2b"}}, {"type": "Feature", "geometry": {"type": "Polygon", "coordinates": [[[131.88006544380445, 43.305234605578946], [131.88006119460357, 43.30514467344588], [131.87993805190814, 43.30514777659951], [131.87993380290794, 43.30505784445499], [131.88005694542227, 43.305054741311075], [131.8800526962606, 43.304964809174514], [131.8802989808684, 43.304958602508876], [131.8803032303922, 43.30504853462605], [131.88042637284775, 43.305045431084935], [131.88043062257222, 43.305135363190665], [131.8803074799356, 43.305138466741475], [131.88031172949863, 43.30522839885515], [131.88006544380445, 43.305234605578946]]]}, "properties": {"zone_id": "vladivostok-2026-09-10-014", "aoi": "vladivostok", "date": "2026-09-10", "scene_id": "S2C_MSIL2A_20260910T020651_R103_T52TGN_20260910T053309", "scene_datetime_utc": "2026-09-10T02:06:51.025000+00:00", "detection_status": "detected", "detection_status_ru": "обнаружено", "lon": 131.88018, "lat": 43.3051, "n_pixels": 2, "zone_area_km2": 0.0008, "cover_m2": 5.9, "p_mean": 0.782, "p_max": 0.984, "cover_m2_km2": 7375.0, "h3": "88316cccc5fffff", "valid_frac_scene": 1.0, "wind_ms": 2.2, "sea": "спокойное", "scene_reliable": true, "field_event_id": "S4:DOORS3:T23", "field_profile": "B", "field_date": "2024-06-10", "field_distance_km": 6970.5, "field_date_gap_days": 822, "field_conc_items_km2": 102.37, "conc_A_items_km2": null, "conc_A_lo80": null, "conc_A_hi80": null, "conc_A_lo95": null, "conc_A_hi95": null, "conc_A_status": "unavailable", "conc_A_status_ru": "концентрация недоступна", "conc_A_reasons": "вне бассейна профиля: nw_atlantic_subtropical", "conc_A_model": "conc-A-c6bce5631d2b", "conc_B_items_km2": null, "conc_B_lo80": null, "conc_B_hi80": null, "conc_B_lo95": null, "conc_B_hi95": null, "conc_B_status": "unavailable", "conc_B_status_ru": "концентрация недоступна", "conc_B_reasons": "вне бассейна профиля: black_sea", "conc_B_model": "conc-B-c6bce5631d2b"}}, {"type": "Feature", "geometry": {"type": "Polygon", "coordinates": [[[131.89774651095325, 43.303707198956744], [131.897742235916, 43.30361726820275], [131.89761909822474, 43.30362039030383], [131.89761054857152, 43.303440528771006], [131.89785254805108, 43.30334435372594], [131.8978568232102, 43.30343428447547], [131.89797996049992, 43.30343116212913], [131.89798851123942, 43.303611023603416], [131.89774651095325, 43.303707198956744]]]}, "properties": {"zone_id": "vladivostok-2026-09-10-015", "aoi": "vladivostok", "date": "2026-09-10", "scene_id": "S2C_MSIL2A_20260910T020651_R103_T52TGN_20260910T053309", "scene_datetime_utc": "2026-09-10T02:06:51.025000+00:00", "detection_status": "detected", "detection_status_ru": "обнаружено", "lon": 131.8978, "lat": 43.30353, "n_pixels": 2, "zone_area_km2": 0.0008, "cover_m2": 7.8, "p_mean": 0.908, "p_max": 0.945, "cover_m2_km2": 9750.0, "h3": "88316ccccbfffff", "valid_frac_scene": 1.0, "wind_ms": 2.2, "sea": "спокойное", "scene_reliable": true, "field_event_id": "S4:DOORS3:T23", "field_profile": "B", "field_date": "2024-06-10", "field_distance_km": 6971.8, "field_date_gap_days": 822, "field_conc_items_km2": 102.37, "conc_A_items_km2": null, "conc_A_lo80": null, "conc_A_hi80": null, "conc_A_lo95": null, "conc_A_hi95": null, "conc_A_status": "unavailable", "conc_A_status_ru": "концентрация недоступна", "conc_A_reasons": "вне бассейна профиля: nw_atlantic_subtropical", "conc_A_model": "conc-A-c6bce5631d2b", "conc_B_items_km2": null, "conc_B_lo80": null, "conc_B_hi80": null, "conc_B_lo95": null, "conc_B_hi95": null, "conc_B_status": "unavailable", "conc_B_status_ru": "концентрация недоступна", "conc_B_reasons": "вне бассейна профиля: black_sea", "conc_B_model": "conc-B-c6bce5631d2b"}}, {"type": "Feature", "geometry": {"type": "Polygon", "coordinates": [[[131.95346057262563, 43.30093037592713], [131.95345621588766, 43.300840449606774], [131.9533330899308, 43.30084363152235], [131.9533243768771, 43.30066377885643], [131.95356627118815, 43.30056748861697], [131.9535706280468, 43.3006574149327], [131.95369375360153, 43.30065423277231], [131.9537024677411, 43.3008340853786], [131.95346057262563, 43.30093037592713]]]}, "properties": {"zone_id": "vladivostok-2026-09-10-016", "aoi": "vladivostok", "date": "2026-09-10", "scene_id": "S2C_MSIL2A_20260910T020651_R103_T52TGN_20260910T053309", "scene_datetime_utc": "2026-09-10T02:06:51.025000+00:00", "detection_status": "detected", "detection_status_ru": "обнаружено", "lon": 131.95351, "lat": 43.30075, "n_pixels": 2, "zone_area_km2": 0.0008, "cover_m2": 9.4, "p_mean": 0.767, "p_max": 0.769, "cover_m2_km2": 11750.0, "h3": "88316c1b47fffff", "valid_frac_scene": 1.0, "wind_ms": 2.2, "sea": "спокойное", "scene_reliable": true, "field_event_id": "S4:DOORS3:T23", "field_profile": "B", "field_date": "2024-06-10", "field_distance_km": 6975.7, "field_date_gap_days": 822, "field_conc_items_km2": 102.37, "conc_A_items_km2": null, "conc_A_lo80": null, "conc_A_hi80": null, "conc_A_lo95": null, "conc_A_hi95": null, "conc_A_status": "unavailable", "conc_A_status_ru": "концентрация недоступна", "conc_A_reasons": "вне бассейна профиля: nw_atlantic_subtropical", "conc_A_model": "conc-A-c6bce5631d2b", "conc_B_items_km2": null, "conc_B_lo80": null, "conc_B_hi80": null, "conc_B_lo95": null, "conc_B_hi95": null, "conc_B_status": "unavailable", "conc_B_status_ru": "концентрация недоступна", "conc_B_reasons": "вне бассейна профиля: black_sea", "conc_B_model": "conc-B-c6bce5631d2b"}}, {"type": "Feature", "geometry": {"type": "Polygon", "coordinates": [[[131.8624747374852, 43.29820327489078], [131.8624705152523, 43.29811334125941], [131.86234738484774, 43.29811642507728], [131.86234316281534, 43.29802649143453], [131.86246629303892, 43.29802340762629], [131.862462070845, 43.29793347399141], [131.86258520086807, 43.29793039006042], [131.86258097851263, 43.29784045643343], [131.86283146085577, 43.297924221801345], [131.86283990634917, 43.29810408901153], [131.86271677600305, 43.29810717322653], [131.86272099859795, 43.29819710683864], [131.8624747374852, 43.29820327489078]]]}, "properties": {"zone_id": "vladivostok-2026-09-10-017", "aoi": "vladivostok", "date": "2026-09-10", "scene_id": "S2C_MSIL2A_20260910T020651_R103_T52TGN_20260910T053309", "scene_datetime_utc": "2026-09-10T02:06:51.025000+00:00", "detection_status": "detected", "detection_status_ru": "обнаружено", "lon": 131.86261, "lat": 43.29803, "n_pixels": 3, "zone_area_km2": 0.001, "cover_m2": 8.6, "p_mean": 0.776, "p_max": 0.91, "cover_m2_km2": 8600.0, "h3": "88316ccce1fffff", "valid_frac_scene": 1.0, "wind_ms": 2.2, "sea": "спокойное", "scene_reliable": true, "field_event_id": "S4:DOORS3:T23", "field_profile": "B", "field_date": "2024-06-10", "field_distance_km": 6969.7, "field_date_gap_days": 822, "field_conc_items_km2": 102.37, "conc_A_items_km2": null, "conc_A_lo80": null, "conc_A_hi80": null, "conc_A_lo95": null, "conc_A_hi95": null, "conc_A_status": "unavailable", "conc_A_status_ru": "концентрация недоступна", "conc_A_reasons": "вне бассейна профиля: nw_atlantic_subtropical", "conc_A_model": "conc-A-c6bce5631d2b", "conc_B_items_km2": null, "conc_B_lo80": null, "conc_B_hi80": null, "conc_B_lo95": null, "conc_B_hi95": null, "conc_B_status": "unavailable", "conc_B_status_ru": "концентрация недоступна", "conc_B_reasons": "вне бассейна профиля: black_sea", "conc_B_model": "conc-B-c6bce5631d2b"}}, {"type": "Feature", "geometry": {"type": "Polygon", "coordinates": [[[131.76856494591186, 43.23901924452033], [131.76856087051897, 43.23892930269228], [131.7684378494214, 43.23893228217591], [131.76843377422782, 43.23884234033682], [131.76855679514486, 43.23883936086251], [131.76855271978957, 43.238749419030995], [131.76880283692262, 43.23883340151748], [131.7688069126578, 43.23892334332864], [131.7686838915978, 43.238926323076534], [131.7686879671712, 43.23901626489526], [131.76856494591186, 43.23901924452033]]]}, "properties": {"zone_id": "vladivostok-2026-09-10-018", "aoi": "vladivostok", "date": "2026-09-10", "scene_id": "S2C_MSIL2A_20260910T020651_R103_T52TGN_20260910T053309", "scene_datetime_utc": "2026-09-10T02:06:51.025000+00:00", "detection_status": "detected", "detection_status_ru": "обнаружено", "lon": 131.76862, "lat": 43.23888, "n_pixels": 1, "zone_area_km2": 0.0005, "cover_m2": 2.4, "p_mean": 0.502, "p_max": 0.502, "cover_m2_km2": 4800.0, "h3": "88316c5767fffff", "valid_frac_scene": 1.0, "wind_ms": 2.2, "sea": "спокойное", "scene_reliable": true, "field_event_id": "S4:DOORS3:T23", "field_profile": "B", "field_date": "2024-06-10", "field_distance_km": 6967.1, "field_date_gap_days": 822, "field_conc_items_km2": 102.37, "conc_A_items_km2": null, "conc_A_lo80": null, "conc_A_hi80": null, "conc_A_lo95": null, "conc_A_hi95": null, "conc_A_status": "unavailable", "conc_A_status_ru": "концентрация недоступна", "conc_A_reasons": "вне бассейна профиля: nw_atlantic_subtropical", "conc_A_model": "conc-A-c6bce5631d2b", "conc_B_items_km2": null, "conc_B_lo80": null, "conc_B_hi80": null, "conc_B_lo95": null, "conc_B_hi95": null, "conc_B_status": "unavailable", "conc_B_status_ru": "концентрация недоступна", "conc_B_reasons": "вне бассейна профиля: black_sea", "conc_B_model": "conc-B-c6bce5631d2b"}}, {"type": "Feature", "geometry": {"type": "Polygon", "coordinates": [[[131.88474730634414, 43.22173977731155], [131.88474306262992, 43.22164984423265], [131.88462008861634, 43.2216529476633], [131.88461584510196, 43.22156301457297], [131.88473881893526, 43.221559911152006], [131.88473457526015, 43.22146997806963], [131.8849847665431, 43.22155370391406], [131.88498901059836, 43.221643636975315], [131.88486603662392, 43.22164674066998], [131.88487028051844, 43.22173667373919], [131.88474730634414, 43.22173977731155]]]}, "properties": {"zone_id": "vladivostok-2026-09-10-019", "aoi": "vladivostok", "date": "2026-09-10", "scene_id": "S2C_MSIL2A_20260910T020651_R103_T52TGN_20260910T053309", "scene_datetime_utc": "2026-09-10T02:06:51.025000+00:00", "detection_status": "detected", "detection_status_ru": "обнаружено", "lon": 131.8848, "lat": 43.2216, "n_pixels": 1, "zone_area_km2": 0.0005, "cover_m2": 6.7, "p_mean": 0.831, "p_max": 0.831, "cover_m2_km2": 13400.0, "h3": "88316c561bfffff", "valid_frac_scene": 1.0, "wind_ms": 2.2, "sea": "спокойное", "scene_reliable": true, "field_event_id": "S4:DOORS3:T23", "field_profile": "B", "field_date": "2024-06-10", "field_distance_km": 6976.0, "field_date_gap_days": 822, "field_conc_items_km2": 102.37, "conc_A_items_km2": null, "conc_A_lo80": null, "conc_A_hi80": null, "conc_A_lo95": null, "conc_A_hi95": null, "conc_A_status": "unavailable", "conc_A_status_ru": "концентрация недоступна", "conc_A_reasons": "вне бассейна профиля: nw_atlantic_subtropical", "conc_A_model": "conc-A-c6bce5631d2b", "conc_B_items_km2": null, "conc_B_lo80": null, "conc_B_hi80": null, "conc_B_lo95": null, "conc_B_hi95": null, "conc_B_status": "unavailable", "conc_B_status_ru": "концентрация недоступна", "conc_B_reasons": "вне бассейна профиля: black_sea", "conc_B_model": "conc-B-c6bce5631d2b"}}, {"type": "Feature", "geometry": {"type": "Polygon", "coordinates": [[[131.79175110549886, 43.20198886077542], [131.791747001312, 43.20189892013429], [131.79162405706373, 43.201901922505456], [131.7916158491071, 43.20172204119921], [131.79185763255379, 43.201626095725466], [131.79186173686406, 43.201716036362434], [131.79198468071414, 43.20171303374612], [131.79199288975178, 43.201892914996066], [131.79175110549886, 43.20198886077542]]]}, "properties": {"zone_id": "vladivostok-2026-09-10-020", "aoi": "vladivostok", "date": "2026-09-10", "scene_id": "S2C_MSIL2A_20260910T020651_R103_T52TGN_20260910T053309", "scene_datetime_utc": "2026-09-10T02:06:51.025000+00:00", "detection_status": "detected", "detection_status_ru": "обнаружено", "lon": 131.7918, "lat": 43.20181, "n_pixels": 2, "zone_area_km2": 0.0008, "cover_m2": 11.4, "p_mean": 0.916, "p_max": 0.984, "cover_m2_km2": 14250.0, "h3": "88316c5465fffff", "valid_frac_scene": 1.0, "wind_ms": 2.2, "sea": "спокойное", "scene_reliable": true, "field_event_id": "S4:DOORS3:T23", "field_profile": "B", "field_date": "2024-06-10", "field_distance_km": 6970.9, "field_date_gap_days": 822, "field_conc_items_km2": 102.37, "conc_A_items_km2": null, "conc_A_lo80": null, "conc_A_hi80": null, "conc_A_lo95": null, "conc_A_hi95": null, "conc_A_status": "unavailable", "conc_A_status_ru": "концентрация недоступна", "conc_A_reasons": "вне бассейна профиля: nw_atlantic_subtropical", "conc_A_model": "conc-A-c6bce5631d2b", "conc_B_items_km2": null, "conc_B_lo80": null, "conc_B_hi80": null, "conc_B_lo95": null, "conc_B_hi95": null, "conc_B_status": "unavailable", "conc_B_status_ru": "концентрация недоступна", "conc_B_reasons": "вне бассейна профиля: black_sea", "conc_B_model": "conc-B-c6bce5631d2b"}}, {"type": "Feature", "geometry": {"type": "Polygon", "coordinates": [[[131.70071421818656, 43.16113593076405], [131.7007102533938, 43.16104598261051], [131.70058738170962, 43.161048884962696], [131.70058341711496, 43.160958936798394], [131.70070628861927, 43.16095603445529], [131.70070232386303, 43.16086608629834], [131.70095203157308, 43.160950229373675], [131.7009559967073, 43.16104017751076], [131.7008331250597, 43.161043080126525], [131.7008370900323, 43.16113302827098], [131.70071421818656, 43.16113593076405]]]}, "properties": {"zone_id": "vladivostok-2026-09-10-021", "aoi": "vladivostok", "date": "2026-09-10", "scene_id": "S2C_MSIL2A_20260910T020651_R103_T52TGN_20260910T053309", "scene_datetime_utc": "2026-09-10T02:06:51.025000+00:00", "detection_status": "detected", "detection_status_ru": "обнаружено", "lon": 131.70077, "lat": 43.161, "n_pixels": 1, "zone_area_km2": 0.0005, "cover_m2": 3.1, "p_mean": 0.604, "p_max": 0.604, "cover_m2_km2": 6200.0, "h3": "88316c423bfffff", "valid_frac_scene": 1.0, "wind_ms": 2.2, "sea": "спокойное", "scene_reliable": true, "field_event_id": "S4:DOORS3:T23", "field_profile": "B", "field_date": "2024-06-10", "field_distance_km": 6967.3, "field_date_gap_days": 822, "field_conc_items_km2": 102.37, "conc_A_items_km2": null, "conc_A_lo80": null, "conc_A_hi80": null, "conc_A_lo95": null, "conc_A_hi95": null, "conc_A_status": "unavailable", "conc_A_status_ru": "концентрация недоступна", "conc_A_reasons": "вне бассейна профиля: nw_atlantic_subtropical", "conc_A_model": "conc-A-c6bce5631d2b", "conc_B_items_km2": null, "conc_B_lo80": null, "conc_B_hi80": null, "conc_B_lo95": null, "conc_B_hi95": null, "conc_B_status": "unavailable", "conc_B_status_ru": "концентрация недоступна", "conc_B_reasons": "вне бассейна профиля: black_sea", "conc_B_model": "conc-B-c6bce5631d2b"}}, {"type": "Feature", "geometry": {"type": "Polygon", "coordinates": [[[131.757966905183, 43.14329155608073], [131.75796285892622, 43.143201611938714], [131.7578400288467, 43.14320457479763], [131.75783193674843, 43.14302468648989], [131.7580735497898, 43.14292881653949], [131.75807759617027, 43.14301876067742], [131.75820042585323, 43.14301579757363], [131.75820851902938, 43.14319568582581], [131.757966905183, 43.14329155608073]]]}, "properties": {"zone_id": "vladivostok-2026-09-10-022", "aoi": "vladivostok", "date": "2026-09-10", "scene_id": "S2C_MSIL2A_20260910T020651_R103_T52TGN_20260910T053309", "scene_datetime_utc": "2026-09-10T02:06:51.025000+00:00", "detection_status": "detected", "detection_status_ru": "обнаружено", "lon": 131.75802, "lat": 43.14311, "n_pixels": 2, "zone_area_km2": 0.0008, "cover_m2": 9.4, "p_mean": 0.839, "p_max": 0.996, "cover_m2_km2": 11750.0, "h3": "88316c42dbfffff", "valid_frac_scene": 1.0, "wind_ms": 2.2, "sea": "спокойное", "scene_reliable": true, "field_event_id": "S4:DOORS3:T23", "field_profile": "B", "field_date": "2024-06-10", "field_distance_km": 6972.2, "field_date_gap_days": 822, "field_conc_items_km2": 102.37, "conc_A_items_km2": null, "conc_A_lo80": null, "conc_A_hi80": null, "conc_A_lo95": null, "conc_A_hi95": null, "conc_A_status": "unavailable", "conc_A_status_ru": "концентрация недоступна", "conc_A_reasons": "вне бассейна профиля: nw_atlantic_subtropical", "conc_A_model": "conc-A-c6bce5631d2b", "conc_B_items_km2": null, "conc_B_lo80": null, "conc_B_hi80": null, "conc_B_lo95": null, "conc_B_hi95": null, "conc_B_status": "unavailable", "conc_B_status_ru": "концентрация недоступна", "conc_B_reasons": "вне бассейна профиля: black_sea", "conc_B_model": "conc-B-c6bce5631d2b"}}, {"type": "Feature", "geometry": {"type": "Polygon", "coordinates": [[[131.79342228510768, 43.117219104747086], [131.79341819060434, 43.117129162897626], [131.79316854800527, 43.117045219847554], [131.79316445389838, 43.11695527797589], [131.7932872277857, 43.116952278650494], [131.7932831335183, 43.116862336786454], [131.79352458627025, 43.1167663959127], [131.79352868087759, 43.116856337759714], [131.7936514545289, 43.11685333804899], [131.7936637390022, 43.117123163551504], [131.79342228510768, 43.117219104747086]]]}, "properties": {"zone_id": "vladivostok-2026-09-10-023", "aoi": "vladivostok", "date": "2026-09-10", "scene_id": "S2C_MSIL2A_20260910T020651_R103_T52TGN_20260910T053309", "scene_datetime_utc": "2026-09-10T02:06:51.025000+00:00", "detection_status": "detected", "detection_status_ru": "обнаружено", "lon": 131.79344, "lat": 43.11699, "n_pixels": 4, "zone_area_km2": 0.0012, "cover_m2": 14.9, "p_mean": 0.95, "p_max": 0.988, "cover_m2_km2": 12416.7, "h3": "88316c55b1fffff", "valid_frac_scene": 1.0, "wind_ms": 2.2, "sea": "спокойное", "scene_reliable": true, "field_event_id": "S4:DOORS3:T23", "field_profile": "B", "field_date": "2024-06-10", "field_distance_km": 6976.3, "field_date_gap_days": 822, "field_conc_items_km2": 102.37, "conc_A_items_km2": null, "conc_A_lo80": null, "conc_A_hi80": null, "conc_A_lo95": null, "conc_A_hi95": null, "conc_A_status": "unavailable", "conc_A_status_ru": "концентрация недоступна", "conc_A_reasons": "вне бассейна профиля: nw_atlantic_subtropical", "conc_A_model": "conc-A-c6bce5631d2b", "conc_B_items_km2": null, "conc_B_lo80": null, "conc_B_hi80": null, "conc_B_lo95": null, "conc_B_hi95": null, "conc_B_status": "unavailable", "conc_B_status_ru": "концентрация недоступна", "conc_B_reasons": "вне бассейна профиля: black_sea", "conc_B_model": "conc-B-c6bce5631d2b"}}, {"type": "Feature", "geometry": {"type": "Polygon", "coordinates": [[[131.7137730367778, 43.117156336240335], [131.71376905894223, 43.11706638836461], [131.71364627661603, 43.11706930237511], [131.71363832135873, 43.116889406600286], [131.713879907315, 43.116793630612364], [131.71387592937327, 43.11670368273888], [131.71375314778314, 43.11670659684454], [131.71374917003916, 43.11661664896023], [131.71399075475776, 43.116520872767744], [131.71399473284225, 43.116610820635536], [131.71411751421633, 43.11660790627581], [131.7141214924986, 43.116697854132795], [131.7139987109451, 43.11670076850163], [131.71400268906626, 43.116790716366], [131.71412547079916, 43.11678780198806], [131.71412944911808, 43.11687774984161], [131.71400666720572, 43.11688066422866], [131.71401462353964, 43.11706055994885], [131.7137730367778, 43.117156336240335]]]}, "properties": {"zone_id": "vladivostok-2026-09-10-024", "aoi": "vladivostok", "date": "2026-09-10", "scene_id": "S2C_MSIL2A_20260910T020651_R103_T52TGN_20260910T053309", "scene_datetime_utc": "2026-09-10T02:06:51.025000+00:00", "detection_status": "detected", "detection_status_ru": "обнаружено", "lon": 131.71388, "lat": 43.11686, "n_pixels": 4, "zone_area_km2": 0.0015, "cover_m2": 15.7, "p_mean": 0.829, "p_max": 0.965, "cover_m2_km2": 10466.7, "h3": "88316c42a3fffff", "valid_frac_scene": 1.0, "wind_ms": 2.2, "sea": "спокойное", "scene_reliable": true, "field_event_id": "S4:DOORS3:T23", "field_profile": "B", "field_date": "2024-06-10", "field_distance_km": 6970.9, "field_date_gap_days": 822, "field_conc_items_km2": 102.37, "conc_A_items_km2": null, "conc_A_lo80": null, "conc_A_hi80": null, "conc_A_lo95": null, "conc_A_hi95": null, "conc_A_status": "unavailable", "conc_A_status_ru": "концентрация недоступна", "conc_A_reasons": "вне бассейна профиля: nw_atlantic_subtropical", "conc_A_model": "conc-A-c6bce5631d2b", "conc_B_items_km2": null, "conc_B_lo80": null, "conc_B_hi80": null, "conc_B_lo95": null, "conc_B_hi95": null, "conc_B_status": "unavailable", "conc_B_status_ru": "концентрация недоступна", "conc_B_reasons": "вне бассейна профиля: black_sea", "conc_B_model": "conc-B-c6bce5631d2b"}}, {"type": "Feature", "geometry": {"type": "Polygon", "coordinates": [[[131.7139827986437, 43.11634097702698], [131.71397882061416, 43.11625102915404], [131.71385603993951, 43.11625394334573], [131.7138520621077, 43.11616399546197], [131.71409364490754, 43.11606821909792], [131.7140777324015, 43.1157084276117], [131.71420051196296, 43.11570551321147], [131.71419653370285, 43.11561556534475], [131.71444209241199, 43.11560973616777], [131.71444607103095, 43.11569968401628], [131.71456885053746, 43.1156967692213], [131.71457680818924, 43.11587666489497], [131.71433522693474, 43.11597244224226], [131.71434318397874, 43.11615233794207], [131.7141016012705, 43.116248114830746], [131.71410557947948, 43.11633806269459], [131.7139827986437, 43.11634097702698]]]}, "properties": {"zone_id": "vladivostok-2026-09-10-025", "aoi": "vladivostok", "date": "2026-09-10", "scene_id": "S2C_MSIL2A_20260910T020651_R103_T52TGN_20260910T053309", "scene_datetime_utc": "2026-09-10T02:06:51.025000+00:00", "detection_status": "detected", "detection_status_ru": "обнаружено", "lon": 131.71425, "lat": 43.11592, "n_pixels": 7, "zone_area_km2": 0.0022, "cover_m2": 26.7, "p_mean": 0.864, "p_max": 0.973, "cover_m2_km2": 12136.4, "h3": "88316c42b5fffff", "valid_frac_scene": 1.0, "wind_ms": 2.2, "sea": "спокойное", "scene_reliable": true, "field_event_id": "S4:DOORS3:T23", "field_profile": "B", "field_date": "2024-06-10", "field_distance_km": 6971.0, "field_date_gap_days": 822, "field_conc_items_km2": 102.37, "conc_A_items_km2": null, "conc_A_lo80": null, "conc_A_hi80": null, "conc_A_lo95": null, "conc_A_hi95": null, "conc_A_status": "unavailable", "conc_A_status_ru": "концентрация недоступна", "conc_A_reasons": "вне бассейна профиля: nw_atlantic_subtropical", "conc_A_model": "conc-A-c6bce5631d2b", "conc_B_items_km2": null, "conc_B_lo80": null, "conc_B_hi80": null, "conc_B_lo95": null, "conc_B_hi95": null, "conc_B_status": "unavailable", "conc_B_status_ru": "концентрация недоступна", "conc_B_reasons": "вне бассейна профиля: black_sea", "conc_B_model": "conc-B-c6bce5631d2b"}}, {"type": "Feature", "geometry": {"type": "Polygon", "coordinates": [[[131.79681446361909, 43.11074320338046], [131.79681036507455, 43.11065326168937], [131.79668760414762, 43.11065626444559], [131.79667940747382, 43.11047638103948], [131.79692082992426, 43.110380433746165], [131.7969249285915, 43.110470375433046], [131.797047689122, 43.11046737243254], [131.79705588687176, 43.11064725578234], [131.79681446361909, 43.11074320338046]]]}, "properties": {"zone_id": "vladivostok-2026-09-10-026", "aoi": "vladivostok", "date": "2026-09-10", "scene_id": "S2C_MSIL2A_20260910T020651_R103_T52TGN_20260910T053309", "scene_datetime_utc": "2026-09-10T02:06:51.025000+00:00", "detection_status": "detected", "detection_status_ru": "обнаружено", "lon": 131.79687, "lat": 43.11056, "n_pixels": 2, "zone_area_km2": 0.0008, "cover_m2": 5.9, "p_mean": 0.675, "p_max": 0.694, "cover_m2_km2": 7375.0, "h3": "88316c55b3fffff", "valid_frac_scene": 1.0, "wind_ms": 2.2, "sea": "спокойное", "scene_reliable": true, "field_event_id": "S4:DOORS3:T23", "field_profile": "B", "field_date": "2024-06-10", "field_distance_km": 6976.9, "field_date_gap_days": 822, "field_conc_items_km2": 102.37, "conc_A_items_km2": null, "conc_A_lo80": null, "conc_A_hi80": null, "conc_A_lo95": null, "conc_A_hi95": null, "conc_A_status": "unavailable", "conc_A_status_ru": "концентрация недоступна", "conc_A_reasons": "вне бассейна профиля: nw_atlantic_subtropical", "conc_A_model": "conc-A-c6bce5631d2b", "conc_B_items_km2": null, "conc_B_lo80": null, "conc_B_hi80": null, "conc_B_lo95": null, "conc_B_hi95": null, "conc_B_status": "unavailable", "conc_B_status_ru": "концентрация недоступна", "conc_B_reasons": "вне бассейна профиля: black_sea", "conc_B_model": "conc-B-c6bce5631d2b"}}, {"type": "Feature", "geometry": {"type": "Polygon", "coordinates": [[[131.80121592757362, 43.09947024857459], [131.80121182419995, 43.09938030704426], [131.80108908625826, 43.09938331389622], [131.8010767767883, 43.09911348926662], [131.80131814810017, 43.099017533959746], [131.8013222515775, 43.099107475487614], [131.8014449889437, 43.09910446840088], [131.80145730002664, 43.0993742929459], [131.80121592757362, 43.09947024857459]]]}, "properties": {"zone_id": "vladivostok-2026-09-10-027", "aoi": "vladivostok", "date": "2026-09-10", "scene_id": "S2C_MSIL2A_20260910T020651_R103_T52TGN_20260910T053309", "scene_datetime_utc": "2026-09-10T02:06:51.025000+00:00", "detection_status": "detected", "detection_status_ru": "обнаружено", "lon": 131.80127, "lat": 43.09924, "n_pixels": 3, "zone_area_km2": 0.0011, "cover_m2": 11.0, "p_mean": 0.97, "p_max": 0.992, "cover_m2_km2": 10000.0, "h3": "88316c4667fffff", "valid_frac_scene": 1.0, "wind_ms": 2.2, "sea": "спокойное", "scene_reliable": true, "field_event_id": "S4:DOORS3:T23", "field_profile": "B", "field_date": "2024-06-10", "field_distance_km": 6977.9, "field_date_gap_days": 822, "field_conc_items_km2": 102.37, "conc_A_items_km2": null, "conc_A_lo80": null, "conc_A_hi80": null, "conc_A_lo95": null, "conc_A_hi95": null, "conc_A_status": "unavailable", "conc_A_status_ru": "концентрация недоступна", "conc_A_reasons": "вне бассейна профиля: nw_atlantic_subtropical", "conc_A_model": "conc-A-c6bce5631d2b", "conc_B_items_km2": null, "conc_B_lo80": null, "conc_B_hi80": null, "conc_B_lo95": null, "conc_B_hi95": null, "conc_B_status": "unavailable", "conc_B_status_ru": "концентрация недоступна", "conc_B_reasons": "вне бассейна профиля: black_sea", "conc_B_model": "conc-B-c6bce5631d2b"}}, {"type": "Feature", "geometry": {"type": "Polygon", "coordinates": [[[131.63440493250428, 43.086416942186645], [131.63440107506676, 43.08632698799543], [131.63427834619674, 43.0863298152343], [131.6342744889562, 43.086239861032546], [131.63439721764703, 43.08623703380251], [131.63438950286084, 43.08605712541161], [131.63451223117553, 43.086054298067765], [131.63450837362987, 43.085964343878594], [131.6346311017476, 43.085961516412134], [131.6346272440405, 43.08587156223011], [131.63487655792974, 43.08595586108478], [131.63488427411397, 43.086135769408365], [131.63464267497542, 43.086231378948014], [131.63464653275355, 43.08632133312326], [131.63452380391905, 43.086324160625075], [131.63452766153574, 43.086414114807454], [131.63440493250428, 43.086416942186645]]]}, "properties": {"zone_id": "vladivostok-2026-09-10-028", "aoi": "vladivostok", "date": "2026-09-10", "scene_id": "S2C_MSIL2A_20260910T020651_R103_T52TGN_20260910T053309", "scene_datetime_utc": "2026-09-10T02:06:51.025000+00:00", "detection_status": "detected", "detection_status_ru": "обнаружено", "lon": 131.6346, "lat": 43.08613, "n_pixels": 5, "zone_area_km2": 0.0015, "cover_m2": 30.2, "p_mean": 0.993, "p_max": 1.0, "cover_m2_km2": 20133.3, "h3": "88316c4189fffff", "valid_frac_scene": 1.0, "wind_ms": 2.2, "sea": "спокойное", "scene_reliable": true, "field_event_id": "S4:DOORS3:T23", "field_profile": "B", "field_date": "2024-06-10", "field_distance_km": 6967.4, "field_date_gap_days": 822, "field_conc_items_km2": 102.37, "conc_A_items_km2": null, "conc_A_lo80": null, "conc_A_hi80": null, "conc_A_lo95": null, "conc_A_hi95": null, "conc_A_status": "unavailable", "conc_A_status_ru": "концентрация недоступна", "conc_A_reasons": "вне бассейна профиля: nw_atlantic_subtropical", "conc_A_model": "conc-A-c6bce5631d2b", "conc_B_items_km2": null, "conc_B_lo80": null, "conc_B_hi80": null, "conc_B_lo95": null, "conc_B_hi95": null, "conc_B_status": "unavailable", "conc_B_status_ru": "концентрация недоступна", "conc_B_reasons": "вне бассейна профиля: black_sea", "conc_B_model": "conc-B-c6bce5631d2b"}}, {"type": "Feature", "geometry": {"type": "Polygon", "coordinates": [[[131.90762370759396, 43.055304548993696], [131.90761945504389, 43.055214615111325], [131.90749681659761, 43.05521773354162], [131.90748831191365, 43.05503786575207], [131.90761095000246, 43.055034747341274], [131.90760669751108, 43.05494481345363], [131.90785197327244, 43.054938576257825], [131.90785622612128, 43.05502851012598], [131.90797886415135, 43.055025391321465], [131.9079873702653, 43.05520525903303], [131.9078647318777, 43.055208377857035], [131.90786898478527, 43.055298311719916], [131.90762370759396, 43.055304548993696]]]}, "properties": {"zone_id": "vladivostok-2026-09-10-029", "aoi": "vladivostok", "date": "2026-09-10", "scene_id": "S2C_MSIL2A_20260910T020651_R103_T52TGN_20260910T053309", "scene_datetime_utc": "2026-09-10T02:06:51.025000+00:00", "detection_status": "detected", "detection_status_ru": "обнаружено", "lon": 131.90774, "lat": 43.05512, "n_pixels": 4, "zone_area_km2": 0.0012, "cover_m2": 23.5, "p_mean": 0.845, "p_max": 1.0, "cover_m2_km2": 19583.3, "h3": "88316c09e7fffff", "valid_frac_scene": 1.0, "wind_ms": 2.2, "sea": "спокойное", "scene_reliable": true, "field_event_id": "S4:DOORS3:T23", "field_profile": "B", "field_date": "2024-06-10", "field_distance_km": 6987.8, "field_date_gap_days": 822, "field_conc_items_km2": 102.37, "conc_A_items_km2": null, "conc_A_lo80": null, "conc_A_hi80": null, "conc_A_lo95": null, "conc_A_hi95": null, "conc_A_status": "unavailable", "conc_A_status_ru": "концентрация недоступна", "conc_A_reasons": "вне бассейна профиля: nw_atlantic_subtropical", "conc_A_model": "conc-A-c6bce5631d2b", "conc_B_items_km2": null, "conc_B_lo80": null, "conc_B_hi80": null, "conc_B_lo95": null, "conc_B_hi95": null, "conc_B_status": "unavailable", "conc_B_status_ru": "концентрация недоступна", "conc_B_reasons": "вне бассейна профиля: black_sea", "conc_B_model": "conc-B-c6bce5631d2b"}}, {"type": "Feature", "geometry": {"type": "Polygon", "coordinates": [[[131.9414525554213, 43.025805964366086], [131.94144825786813, 43.02571603273671], [131.9413256818637, 43.025719185695316], [131.9413213845088, 43.025629254054316], [131.94144396033477, 43.02562610110556], [131.94143966282115, 43.02553616947264], [131.9416891119274, 43.02561979481476], [131.9416934098177, 43.02570972642619], [131.9415708338528, 43.025712879647], [131.94157513158441, 43.02580281126653], [131.9414525554213, 43.025805964366086]]]}, "properties": {"zone_id": "vladivostok-2026-09-10-030", "aoi": "vladivostok", "date": "2026-09-10", "scene_id": "S2C_MSIL2A_20260910T020651_R103_T52TGN_20260910T053309", "scene_datetime_utc": "2026-09-10T02:06:51.025000+00:00", "detection_status": "detected", "detection_status_ru": "обнаружено", "lon": 131.94151, "lat": 43.02567, "n_pixels": 1, "zone_area_km2": 0.0005, "cover_m2": 6.3, "p_mean": 0.996, "p_max": 0.996, "cover_m2_km2": 12600.0, "h3": "88316c726dfffff", "valid_frac_scene": 1.0, "wind_ms": 2.2, "sea": "спокойное", "scene_reliable": true, "field_event_id": "S4:DOORS3:T23", "field_profile": "B", "field_date": "2024-06-10", "field_distance_km": 6991.9, "field_date_gap_days": 822, "field_conc_items_km2": 102.37, "conc_A_items_km2": null, "conc_A_lo80": null, "conc_A_hi80": null, "conc_A_lo95": null, "conc_A_hi95": null, "conc_A_status": "unavailable", "conc_A_status_ru": "концентрация недоступна", "conc_A_reasons": "вне бассейна профиля: nw_atlantic_subtropical", "conc_A_model": "conc-A-c6bce5631d2b", "conc_B_items_km2": null, "conc_B_lo80": null, "conc_B_hi80": null, "conc_B_lo95": null, "conc_B_hi95": null, "conc_B_status": "unavailable", "conc_B_status_ru": "концентрация недоступна", "conc_B_reasons": "вне бассейна профиля: black_sea", "conc_B_model": "conc-B-c6bce5631d2b"}}]}