{"type": "FeatureCollection", "features": [{"type": "Feature", "geometry": {"type": "Polygon", "coordinates": [[[37.87028651287419, 44.68194322336517], [37.87028826222737, 44.68185321658753], [37.870162104216995, 44.68185196845388], [37.87016560328927, 44.68167195490198], [37.87041966767055, 44.68158444422843], [37.8704179185372, 44.68167445101437], [37.870544076173466, 44.68167569886158], [37.870540578272696, 44.681855712436864], [37.87028651287419, 44.68194322336517]]]}, "properties": {"zone_id": "novorossiysk-2025-08-25-001", "aoi": "novorossiysk", "date": "2025-08-25", "scene_id": "S2B_MSIL2A_20250825T082559_R021_T37TCK_20250825T104951", "scene_datetime_utc": "2025-08-25T08:25:59.024000+00:00", "detection_status": "detected", "detection_status_ru": "обнаружено", "lon": 37.87035, "lat": 44.68176, "n_pixels": 2, "zone_area_km2": 0.0008, "cover_m2": 9.4, "p_mean": 0.761, "p_max": 0.929, "cover_m2_km2": 11750.0, "h3": "882d721059fffff", "valid_frac_scene": 0.999, "wind_ms": 5.5, "sea": "спокойное", "scene_reliable": true, "field_event_id": "S4:DOORS3:T12", "field_profile": "B", "field_date": "2024-06-04", "field_distance_km": 258.5, "field_date_gap_days": 447, "field_conc_items_km2": 48.97, "conc_A_items_km2": null, "conc_A_lo80": null, "conc_A_hi80": null, "conc_A_lo95": null, "conc_A_hi95": null, "conc_A_status": "unavailable", "conc_A_status_ru": "концентрация недоступна", "conc_A_reasons": "вне бассейна профиля: nw_atlantic_subtropical", "conc_A_model": "conc-A-c6bce5631d2b", "conc_B_items_km2": 592.0, "conc_B_lo80": 126.3, "conc_B_hi80": 1989.0, "conc_B_lo95": 78.8, "conc_B_hi95": 3724.2, "conc_B_status": "research_estimate", "conc_B_status_ru": "исследовательская оценка", "conc_B_reasons": "ближайшее полевое измерение в 258 км (> 60 км); месяц 8 вне месяцев обучения [6]; log_dist_coast_km = 1.2 вне диапазона обучения [1.7; 5.0]", "conc_B_model": "conc-B-c6bce5631d2b"}}, {"type": "Feature", "geometry": {"type": "Polygon", "coordinates": [[[37.86920536992841, 44.679141775404595], [37.86920712078457, 44.679051768616205], [37.869080968900406, 44.67905051934946], [37.869084470978564, 44.67887050577603], [37.86933852461054, 44.6787829973579], [37.86933677397421, 44.678873004154624], [37.869462925484335, 44.67887425313495], [37.869459424577514, 44.679054266731754], [37.86920536992841, 44.679141775404595]]]}, "properties": {"zone_id": "novorossiysk-2025-08-25-002", "aoi": "novorossiysk", "date": "2025-08-25", "scene_id": "S2B_MSIL2A_20250825T082559_R021_T37TCK_20250825T104951", "scene_datetime_utc": "2025-08-25T08:25:59.024000+00:00", "detection_status": "detected", "detection_status_ru": "обнаружено", "lon": 37.86927, "lat": 44.67896, "n_pixels": 2, "zone_area_km2": 0.0008, "cover_m2": 7.1, "p_mean": 0.908, "p_max": 0.914, "cover_m2_km2": 8875.0, "h3": "882d721059fffff", "valid_frac_scene": 0.999, "wind_ms": 5.5, "sea": "спокойное", "scene_reliable": true, "field_event_id": "S4:DOORS3:T12", "field_profile": "B", "field_date": "2024-06-04", "field_distance_km": 258.1, "field_date_gap_days": 447, "field_conc_items_km2": 48.97, "conc_A_items_km2": null, "conc_A_lo80": null, "conc_A_hi80": null, "conc_A_lo95": null, "conc_A_hi95": null, "conc_A_status": "unavailable", "conc_A_status_ru": "концентрация недоступна", "conc_A_reasons": "вне бассейна профиля: nw_atlantic_subtropical", "conc_A_model": "conc-A-c6bce5631d2b", "conc_B_items_km2": 592.0, "conc_B_lo80": 126.3, "conc_B_hi80": 1989.0, "conc_B_lo95": 78.8, "conc_B_hi95": 3724.2, "conc_B_status": "research_estimate", "conc_B_status_ru": "исследовательская оценка", "conc_B_reasons": "ближайшее полевое измерение в 258 км (> 60 км); месяц 8 вне месяцев обучения [6]; log_dist_coast_km = 1.2 вне диапазона обучения [1.7; 5.0]", "conc_B_model": "conc-B-c6bce5631d2b"}}, {"type": "Feature", "geometry": {"type": "Polygon", "coordinates": [[[37.866803389101634, 44.6729062970393], [37.86680514329516, 44.67281629022691], [37.86667900504349, 44.672815038443446], [37.86668075942395, 44.67272503163351], [37.86693478952712, 44.672637528234105], [37.86693303554519, 44.67272753505335], [37.86705917361813, 44.67272878655434], [37.86705741982315, 44.672818793376], [37.86693128155504, 44.672817541871105], [37.866929527556685, 44.672907548687384], [37.866803389101634, 44.6729062970393]]]}, "properties": {"zone_id": "novorossiysk-2025-08-25-003", "aoi": "novorossiysk", "date": "2025-08-25", "scene_id": "S2B_MSIL2A_20250825T082559_R021_T37TCK_20250825T104951", "scene_datetime_utc": "2025-08-25T08:25:59.024000+00:00", "detection_status": "detected", "detection_status_ru": "обнаружено", "lon": 37.86687, "lat": 44.67277, "n_pixels": 1, "zone_area_km2": 0.0005, "cover_m2": 3.9, "p_mean": 0.988, "p_max": 0.988, "cover_m2_km2": 7800.0, "h3": "882d72105dfffff", "valid_frac_scene": 0.999, "wind_ms": 5.5, "sea": "спокойное", "scene_reliable": true, "field_event_id": "S4:DOORS3:T12", "field_profile": "B", "field_date": "2024-06-04", "field_distance_km": 257.4, "field_date_gap_days": 447, "field_conc_items_km2": 48.97, "conc_A_items_km2": null, "conc_A_lo80": null, "conc_A_hi80": null, "conc_A_lo95": null, "conc_A_hi95": null, "conc_A_status": "unavailable", "conc_A_status_ru": "концентрация недоступна", "conc_A_reasons": "вне бассейна профиля: nw_atlantic_subtropical", "conc_A_model": "conc-A-c6bce5631d2b", "conc_B_items_km2": 592.0, "conc_B_lo80": 126.3, "conc_B_hi80": 1989.0, "conc_B_lo95": 78.8, "conc_B_hi95": 3724.2, "conc_B_status": "research_estimate", "conc_B_status_ru": "исследовательская оценка", "conc_B_reasons": "ближайшее полевое измерение в 257 км (> 60 км); месяц 8 вне месяцев обучения [6]; log_dist_coast_km = 1.2 вне диапазона обучения [1.7; 5.0]", "conc_B_model": "conc-B-c6bce5631d2b"}}, {"type": "Feature", "geometry": {"type": "Polygon", "coordinates": [[[37.90376173498235, 44.666605269342625], [37.90376343159865, 44.666515261298905], [37.90363730542663, 44.666514050467455], [37.90364069902559, 44.66633403438312], [37.90389464699449, 44.66624644783969], [37.90389295059714, 44.666336455891624], [37.90401907639484, 44.666337666436995], [37.90401568396652, 44.66651768254399], [37.90376173498235, 44.666605269342625]]]}, "properties": {"zone_id": "novorossiysk-2025-08-25-004", "aoi": "novorossiysk", "date": "2025-08-25", "scene_id": "S2B_MSIL2A_20250825T082559_R021_T37TCK_20250825T104951", "scene_datetime_utc": "2025-08-25T08:25:59.024000+00:00", "detection_status": "detected", "detection_status_ru": "обнаружено", "lon": 37.90383, "lat": 44.66643, "n_pixels": 2, "zone_area_km2": 0.0008, "cover_m2": 7.5, "p_mean": 0.965, "p_max": 0.992, "cover_m2_km2": 9375.0, "h3": "882d72101dfffff", "valid_frac_scene": 0.999, "wind_ms": 5.5, "sea": "спокойное", "scene_reliable": true, "field_event_id": "S4:DOORS3:T13", "field_profile": "B", "field_date": "2024-06-04", "field_distance_km": 257.3, "field_date_gap_days": 447, "field_conc_items_km2": 263.57, "conc_A_items_km2": null, "conc_A_lo80": null, "conc_A_hi80": null, "conc_A_lo95": null, "conc_A_hi95": null, "conc_A_status": "unavailable", "conc_A_status_ru": "концентрация недоступна", "conc_A_reasons": "вне бассейна профиля: nw_atlantic_subtropical", "conc_A_model": "conc-A-c6bce5631d2b", "conc_B_items_km2": 901.4, "conc_B_lo80": 192.7, "conc_B_hi80": 3027.3, "conc_B_lo95": 120.4, "conc_B_hi95": 5668.0, "conc_B_status": "research_estimate", "conc_B_status_ru": "исследовательская оценка", "conc_B_reasons": "ближайшее полевое измерение в 257 км (> 60 км); месяц 8 вне месяцев обучения [6]; log_dist_coast_km = 0.0 вне диапазона обучения [1.7; 5.0]", "conc_B_model": "conc-B-c6bce5631d2b"}}, {"type": "Feature", "geometry": {"type": "Polygon", "coordinates": [[[37.90377870078766, 44.66570518883894], [37.903780397324475, 44.66561518078045], [37.903654273103484, 44.665613969986794], [37.903655969827454, 44.66552396193062], [37.90390991421303, 44.66543637530589], [37.9039082178872, 44.665526383371095], [37.90403434192899, 44.665527593882466], [37.90403264579031, 44.66561760194998], [37.903906521553424, 44.66561639143484], [37.9039048252117, 44.66570639949711], [37.90377870078766, 44.66570518883894]]]}, "properties": {"zone_id": "novorossiysk-2025-08-25-005", "aoi": "novorossiysk", "date": "2025-08-25", "scene_id": "S2B_MSIL2A_20250825T082559_R021_T37TCK_20250825T104951", "scene_datetime_utc": "2025-08-25T08:25:59.024000+00:00", "detection_status": "detected", "detection_status_ru": "обнаружено", "lon": 37.90384, "lat": 44.66557, "n_pixels": 1, "zone_area_km2": 0.0005, "cover_m2": 5.9, "p_mean": 0.733, "p_max": 0.733, "cover_m2_km2": 11800.0, "h3": "882d72101dfffff", "valid_frac_scene": 0.999, "wind_ms": 5.5, "sea": "спокойное", "scene_reliable": true, "field_event_id": "S4:DOORS3:T13", "field_profile": "B", "field_date": "2024-06-04", "field_distance_km": 257.2, "field_date_gap_days": 447, "field_conc_items_km2": 263.57, "conc_A_items_km2": null, "conc_A_lo80": null, "conc_A_hi80": null, "conc_A_lo95": null, "conc_A_hi95": null, "conc_A_status": "unavailable", "conc_A_status_ru": "концентрация недоступна", "conc_A_reasons": "вне бассейна профиля: nw_atlantic_subtropical", "conc_A_model": "conc-A-c6bce5631d2b", "conc_B_items_km2": 621.6, "conc_B_lo80": 132.7, "conc_B_hi80": 2088.3, "conc_B_lo95": 82.8, "conc_B_hi95": 3910.2, "conc_B_status": "research_estimate", "conc_B_status_ru": "исследовательская оценка", "conc_B_reasons": "ближайшее полевое измерение в 257 км (> 60 км); месяц 8 вне месяцев обучения [6]; log_dist_coast_km = 1.0 вне диапазона обучения [1.7; 5.0]", "conc_B_model": "conc-B-c6bce5631d2b"}}, {"type": "Feature", "geometry": {"type": "Polygon", "coordinates": [[[37.90597361023101, 44.66302550676756], [37.90597530321324, 44.66293549860065], [37.9058491847098, 44.66293429028749], [37.905852571040604, 44.66275427395678], [37.90610650003851, 44.66266668225366], [37.906104807275135, 44.662756690428765], [37.9062309254043, 44.6627578984559], [37.90622754024391, 44.66293791480924], [37.90597361023101, 44.66302550676756]]]}, "properties": {"zone_id": "novorossiysk-2025-08-25-006", "aoi": "novorossiysk", "date": "2025-08-25", "scene_id": "S2B_MSIL2A_20250825T082559_R021_T37TCK_20250825T104951", "scene_datetime_utc": "2025-08-25T08:25:59.024000+00:00", "detection_status": "detected", "detection_status_ru": "обнаружено", "lon": 37.90604, "lat": 44.66285, "n_pixels": 2, "zone_area_km2": 0.0008, "cover_m2": 11.8, "p_mean": 0.955, "p_max": 1.0, "cover_m2_km2": 14750.0, "h3": "882d721003fffff", "valid_frac_scene": 0.999, "wind_ms": 5.5, "sea": "спокойное", "scene_reliable": true, "field_event_id": "S4:DOORS3:T13", "field_profile": "B", "field_date": "2024-06-04", "field_distance_km": 256.9, "field_date_gap_days": 447, "field_conc_items_km2": 263.57, "conc_A_items_km2": null, "conc_A_lo80": null, "conc_A_hi80": null, "conc_A_lo95": null, "conc_A_hi95": null, "conc_A_status": "unavailable", "conc_A_status_ru": "концентрация недоступна", "conc_A_reasons": "вне бассейна профиля: nw_atlantic_subtropical", "conc_A_model": "conc-A-c6bce5631d2b", "conc_B_items_km2": 621.6, "conc_B_lo80": 132.7, "conc_B_hi80": 2088.3, "conc_B_lo95": 82.8, "conc_B_hi95": 3910.2, "conc_B_status": "research_estimate", "conc_B_status_ru": "исследовательская оценка", "conc_B_reasons": "ближайшее полевое измерение в 257 км (> 60 км); месяц 8 вне месяцев обучения [6]; log_dist_coast_km = 1.0 вне диапазона обучения [1.7; 5.0]", "conc_B_model": "conc-B-c6bce5631d2b"}}, {"type": "Feature", "geometry": {"type": "Polygon", "coordinates": [[[37.905157154447274, 44.61926566864234], [37.90515884611094, 44.61917565980752], [37.905032822406945, 44.619174451518354], [37.90503451425732, 44.61908444268584], [37.90528825273718, 44.61899685027606], [37.90528656128398, 44.6190868591176], [37.905412584809184, 44.619088067124935], [37.905410893542694, 44.61917807596877], [37.90528486982286, 44.61917686795766], [37.90528317835382, 44.61926687679625], [37.905157154447274, 44.61926566864234]]]}, "properties": {"zone_id": "novorossiysk-2025-08-25-007", "aoi": "novorossiysk", "date": "2025-08-25", "scene_id": "S2B_MSIL2A_20250825T082559_R021_T37TCK_20250825T104951", "scene_datetime_utc": "2025-08-25T08:25:59.024000+00:00", "detection_status": "detected", "detection_status_ru": "обнаружено", "lon": 37.90522, "lat": 44.61913, "n_pixels": 1, "zone_area_km2": 0.0005, "cover_m2": 2.7, "p_mean": 0.573, "p_max": 0.573, "cover_m2_km2": 5400.0, "h3": "882d721119fffff", "valid_frac_scene": 0.999, "wind_ms": 5.5, "sea": "спокойное", "scene_reliable": true, "field_event_id": "S4:DOORS3:T13", "field_profile": "B", "field_date": "2024-06-04", "field_distance_km": 252.2, "field_date_gap_days": 447, "field_conc_items_km2": 263.57, "conc_A_items_km2": null, "conc_A_lo80": null, "conc_A_hi80": null, "conc_A_lo95": null, "conc_A_hi95": null, "conc_A_status": "unavailable", "conc_A_status_ru": "концентрация недоступна", "conc_A_reasons": "вне бассейна профиля: nw_atlantic_subtropical", "conc_A_model": "conc-A-c6bce5631d2b", "conc_B_items_km2": 669.0, "conc_B_lo80": 142.9, "conc_B_hi80": 2247.5, "conc_B_lo95": 89.2, "conc_B_hi95": 4208.2, "conc_B_status": "research_estimate", "conc_B_status_ru": "исследовательская оценка", "conc_B_reasons": "ближайшее полевое измерение в 252 км (> 60 км); месяц 8 вне месяцев обучения [6]; log_dist_coast_km = 0.8 вне диапазона обучения [1.7; 5.0]", "conc_B_model": "conc-B-c6bce5631d2b"}}, {"type": "Feature", "geometry": {"type": "MultiPolygon", "coordinates": [[[[37.839671342973766, 44.60367488423263], [37.839797330330526, 44.603676164294846], [37.839800913652944, 44.603496150179005], [37.83967492668509, 44.603494870124784], [37.83967851036286, 44.60331485601102], [37.8395525237923, 44.60331357582585], [37.83955431581305, 44.60322356877072], [37.839300550676334, 44.60331101503866], [37.839298758258295, 44.60340102208429], [37.83942474500653, 44.60340230255135], [37.83941936828542, 44.603672323691384], [37.839545355625404, 44.603673604031485], [37.83954356356271, 44.603763611079195], [37.83966955110552, 44.60376489128435], [37.839671342973766, 44.60367488423263]]], [[[37.839667759228895, 44.60385489833455], [37.83954177149162, 44.60385361812542], [37.83953818732429, 44.60403363221343], [37.83966417545047, 44.60403491243057], [37.83966238354868, 44.60412491947634], [37.839916151728005, 44.604037472448], [37.8399197347286, 44.603857458336016], [37.83979374697456, 44.60385617840476], [37.83979553865674, 44.60376617135055], [37.83966955110552, 44.60376489128435], [37.839667759228895, 44.60385489833455]]]]}, "properties": {"zone_id": "novorossiysk-2025-08-25-008", "aoi": "novorossiysk", "date": "2025-08-25", "scene_id": "S2B_MSIL2A_20250825T082559_R021_T37TCK_20250825T104951", "scene_datetime_utc": "2025-08-25T08:25:59.024000+00:00", "detection_status": "detected", "detection_status_ru": "обнаружено", "lon": 37.83963, "lat": 44.60368, "n_pixels": 5, "zone_area_km2": 0.0021, "cover_m2": 19.6, "p_mean": 0.968, "p_max": 0.992, "cover_m2_km2": 9333.3, "h3": "882d721327fffff", "valid_frac_scene": 0.999, "wind_ms": 5.5, "sea": "спокойное", "scene_reliable": true, "field_event_id": "S4:DOORS3:T12", "field_profile": "B", "field_date": "2024-06-04", "field_distance_km": 249.4, "field_date_gap_days": 447, "field_conc_items_km2": 48.97, "conc_A_items_km2": null, "conc_A_lo80": null, "conc_A_hi80": null, "conc_A_lo95": null, "conc_A_hi95": null, "conc_A_status": "unavailable", "conc_A_status_ru": "концентрация недоступна", "conc_A_reasons": "вне бассейна профиля: nw_atlantic_subtropical", "conc_A_model": "conc-A-c6bce5631d2b", "conc_B_items_km2": 434.7, "conc_B_lo80": 92.5, "conc_B_hi80": 1461.2, "conc_B_lo95": 57.6, "conc_B_hi95": 2736.2, "conc_B_status": "research_estimate", "conc_B_status_ru": "исследовательская оценка", "conc_B_reasons": "ближайшее полевое измерение в 249 км (> 60 км); месяц 8 вне месяцев обучения [6]", "conc_B_model": "conc-B-c6bce5631d2b"}}, {"type": "Feature", "geometry": {"type": "Polygon", "coordinates": [[[37.83906291974733, 44.60258839734117], [37.83906471247874, 44.6024983902902], [37.838938727700125, 44.602497109446276], [37.83894231352665, 44.60231709534786], [37.83919607482632, 44.60222964982137], [37.839194282314516, 44.60231965688078], [37.83932026672103, 44.602320937438826], [37.83931668206114, 44.602500951561225], [37.83906291974733, 44.60258839734117]]]}, "properties": {"zone_id": "novorossiysk-2025-08-25-009", "aoi": "novorossiysk", "date": "2025-08-25", "scene_id": "S2B_MSIL2A_20250825T082559_R021_T37TCK_20250825T104951", "scene_datetime_utc": "2025-08-25T08:25:59.024000+00:00", "detection_status": "detected", "detection_status_ru": "обнаружено", "lon": 37.83913, "lat": 44.60241, "n_pixels": 2, "zone_area_km2": 0.0008, "cover_m2": 10.6, "p_mean": 0.998, "p_max": 1.0, "cover_m2_km2": 13250.0, "h3": "882d721327fffff", "valid_frac_scene": 0.999, "wind_ms": 5.5, "sea": "спокойное", "scene_reliable": true, "field_event_id": "S4:DOORS3:T12", "field_profile": "B", "field_date": "2024-06-04", "field_distance_km": 249.3, "field_date_gap_days": 447, "field_conc_items_km2": 48.97, "conc_A_items_km2": null, "conc_A_lo80": null, "conc_A_hi80": null, "conc_A_lo95": null, "conc_A_hi95": null, "conc_A_status": "unavailable", "conc_A_status_ru": "концентрация недоступна", "conc_A_reasons": "вне бассейна профиля: nw_atlantic_subtropical", "conc_A_model": "conc-A-c6bce5631d2b", "conc_B_items_km2": 434.7, "conc_B_lo80": 92.5, "conc_B_hi80": 1461.2, "conc_B_lo95": 57.6, "conc_B_hi95": 2736.2, "conc_B_status": "research_estimate", "conc_B_status_ru": "исследовательская оценка", "conc_B_reasons": "ближайшее полевое измерение в 249 км (> 60 км); месяц 8 вне месяцев обучения [6]", "conc_B_model": "conc-B-c6bce5631d2b"}}]}