{"type": "FeatureCollection", "features": [{"type": "Feature", "geometry": {"type": "Polygon", "coordinates": [[[131.97794698735942, 43.0622287152779], [131.97794263099544, 43.06213878718972], [131.97781998650197, 43.06214198138587], [131.97781127419174, 43.061962125184216], [131.9779339183277, 43.061958931008036], [131.9779252057401, 43.06177907481927], [131.97804784949847, 43.06177588053181], [131.978043493056, 43.06168595244475], [131.97828442337513, 43.061589635427175], [131.97828878015505, 43.06167956349605], [131.97841142367452, 43.06167636882484], [131.97842013765208, 43.061856224937294], [131.97829749377513, 43.061859419628476], [131.97831056435558, 43.062129203813804], [131.97818791992225, 43.0621323984037], [131.97819227664374, 43.0622223264719], [131.97794698735942, 43.0622287152779]]]}, "properties": {"zone_id": "vladivostok-2025-12-04-001", "aoi": "vladivostok", "date": "2025-12-04", "scene_id": "S2C_MSIL2A_20251204T021051_R103_T52TGN_20251204T044909", "scene_datetime_utc": "2025-12-04T02:10:51.025000+00:00", "detection_status": "detected", "detection_status_ru": "обнаружено", "lon": 131.97812, "lat": 43.06193, "n_pixels": 8, "zone_area_km2": 0.0021, "cover_m2": 114.9, "p_mean": 0.834, "p_max": 0.996, "cover_m2_km2": 54714.3, "h3": "88316c08e1fffff", "valid_frac_scene": 0.988, "wind_ms": 3.5, "sea": "спокойное", "scene_reliable": false, "field_event_id": "S4:DOORS3:T23", "field_profile": "B", "field_date": "2024-06-10", "field_distance_km": 6992.1, "field_date_gap_days": 542, "field_conc_items_km2": 102.37, "conc_A_items_km2": null, "conc_A_lo80": null, "conc_A_hi80": null, "conc_A_lo95": null, "conc_A_hi95": null, "conc_A_status": "unavailable", "conc_A_status_ru": "концентрация недоступна", "conc_A_reasons": "вне бассейна профиля: nw_atlantic_subtropical", "conc_A_model": "conc-A-c6bce5631d2b", "conc_B_items_km2": null, "conc_B_lo80": null, "conc_B_hi80": null, "conc_B_lo95": null, "conc_B_hi95": null, "conc_B_status": "unavailable", "conc_B_status_ru": "концентрация недоступна", "conc_B_reasons": "вне бассейна профиля: black_sea", "conc_B_model": "conc-B-c6bce5631d2b"}}]}