{"type": "FeatureCollection", "features": [{"type": "Feature", "geometry": {"type": "Polygon", "coordinates": [[[39.56055543526621, 43.60387257630485], [39.560554599230656, 43.60378253925789], [39.56043069821758, 43.60378314672412], [39.56042902652763, 43.60360307262215], [39.56067599160216, 43.60351182051366], [39.56067682781086, 43.60360185756301], [39.56080072844666, 43.60360124983203], [39.560802401245205, 43.60378132392262], [39.56055543526621, 43.60387257630485]]]}, "properties": {"zone_id": "sochi-2026-04-26-001", "aoi": "sochi", "date": "2026-04-26", "scene_id": "S2A_MSIL2A_20260426T082021_R121_T37TEJ_20260426T122009", "scene_datetime_utc": "2026-04-26T08:20:21.024000+00:00", "detection_status": "detected", "detection_status_ru": "обнаружено", "lon": 39.56062, "lat": 43.60369, "n_pixels": 2, "zone_area_km2": 0.0008, "cover_m2": 5.5, "p_mean": 0.637, "p_max": 0.651, "cover_m2_km2": 6875.0, "h3": "882d568217fffff", "valid_frac_scene": 1.0, "wind_ms": 2.6, "sea": "спокойное", "scene_reliable": true, "field_event_id": "S4:DOORS3:T17", "field_profile": "B", "field_date": "2024-06-04", "field_distance_km": 180.1, "field_date_gap_days": 691, "field_conc_items_km2": 89.61, "conc_A_items_km2": null, "conc_A_lo80": null, "conc_A_hi80": null, "conc_A_lo95": null, "conc_A_hi95": null, "conc_A_status": "unavailable", "conc_A_status_ru": "концентрация недоступна", "conc_A_reasons": "вне бассейна профиля: nw_atlantic_subtropical", "conc_A_model": "conc-A-c6bce5631d2b", "conc_B_items_km2": 402.4, "conc_B_lo80": 85.6, "conc_B_hi80": 1352.9, "conc_B_lo95": 53.3, "conc_B_hi95": 2533.4, "conc_B_status": "research_estimate", "conc_B_status_ru": "исследовательская оценка", "conc_B_reasons": "ближайшее полевое измерение в 180 км (> 60 км); месяц 4 вне месяцев обучения [6]", "conc_B_model": "conc-B-c6bce5631d2b"}}, {"type": "Feature", "geometry": {"type": "Polygon", "coordinates": [[[39.748553380242285, 43.556424860854705], [39.74855226567938, 43.556334826439], [39.74842846657399, 43.556335636949655], [39.74842735220053, 43.55624560252997], [39.74855115112164, 43.55624479202184], [39.74855003656905, 43.55615475760325], [39.74879874894836, 43.5562431706035], [39.74879986387468, 43.55633320501559], [39.74867606477961, 43.55633401579431], [39.7486771795268, 43.55642405020748], [39.748553380242285, 43.556424860854705]]]}, "properties": {"zone_id": "sochi-2026-04-26-002", "aoi": "sochi", "date": "2026-04-26", "scene_id": "S2A_MSIL2A_20260426T082021_R121_T37TEJ_20260426T122009", "scene_datetime_utc": "2026-04-26T08:20:21.024000+00:00", "detection_status": "detected", "detection_status_ru": "обнаружено", "lon": 39.74861, "lat": 43.55629, "n_pixels": 1, "zone_area_km2": 0.0005, "cover_m2": 4.7, "p_mean": 0.667, "p_max": 0.667, "cover_m2_km2": 9400.0, "h3": "882d568e01fffff", "valid_frac_scene": 1.0, "wind_ms": 2.6, "sea": "спокойное", "scene_reliable": true, "field_event_id": "S4:DOORS3:T17", "field_profile": "B", "field_date": "2024-06-04", "field_distance_km": 184.2, "field_date_gap_days": 691, "field_conc_items_km2": 89.61, "conc_A_items_km2": null, "conc_A_lo80": null, "conc_A_hi80": null, "conc_A_lo95": null, "conc_A_hi95": null, "conc_A_status": "unavailable", "conc_A_status_ru": "концентрация недоступна", "conc_A_reasons": "вне бассейна профиля: nw_atlantic_subtropical", "conc_A_model": "conc-A-c6bce5631d2b", "conc_B_items_km2": 666.4, "conc_B_lo80": 142.3, "conc_B_hi80": 2238.7, "conc_B_lo95": 88.8, "conc_B_hi95": 4191.6, "conc_B_status": "research_estimate", "conc_B_status_ru": "исследовательская оценка", "conc_B_reasons": "ближайшее полевое измерение в 184 км (> 60 км); месяц 4 вне месяцев обучения [6]; log_dist_coast_km = 0.9 вне диапазона обучения [1.7; 5.0]", "conc_B_model": "conc-B-c6bce5631d2b"}}, {"type": "Feature", "geometry": {"type": "Polygon", "coordinates": [[[39.74592916002258, 43.55446109483549], [39.74592804944291, 43.554371060334866], [39.745804254283506, 43.55437186797518], [39.74580203350812, 43.55419179896452], [39.74604851233618, 43.55410014905752], [39.746049623084694, 43.55419018355996], [39.74617341786527, 43.554189375656634], [39.746175639746276, 43.55436944465214], [39.74592916002258, 43.55446109483549]]]}, "properties": {"zone_id": "sochi-2026-04-26-003", "aoi": "sochi", "date": "2026-04-26", "scene_id": "S2A_MSIL2A_20260426T082021_R121_T37TEJ_20260426T122009", "scene_datetime_utc": "2026-04-26T08:20:21.024000+00:00", "detection_status": "detected", "detection_status_ru": "обнаружено", "lon": 39.74599, "lat": 43.55428, "n_pixels": 2, "zone_area_km2": 0.0008, "cover_m2": 19.2, "p_mean": 0.914, "p_max": 0.953, "cover_m2_km2": 24000.0, "h3": "882d568e01fffff", "valid_frac_scene": 1.0, "wind_ms": 2.6, "sea": "спокойное", "scene_reliable": true, "field_event_id": "S4:DOORS3:T17", "field_profile": "B", "field_date": "2024-06-04", "field_distance_km": 183.9, "field_date_gap_days": 691, "field_conc_items_km2": 89.61, "conc_A_items_km2": null, "conc_A_lo80": null, "conc_A_hi80": null, "conc_A_lo95": null, "conc_A_hi95": null, "conc_A_status": "unavailable", "conc_A_status_ru": "концентрация недоступна", "conc_A_reasons": "вне бассейна профиля: nw_atlantic_subtropical", "conc_A_model": "conc-A-c6bce5631d2b", "conc_B_items_km2": 621.6, "conc_B_lo80": 132.7, "conc_B_hi80": 2088.3, "conc_B_lo95": 82.8, "conc_B_hi95": 3910.2, "conc_B_status": "research_estimate", "conc_B_status_ru": "исследовательская оценка", "conc_B_reasons": "ближайшее полевое измерение в 184 км (> 60 км); месяц 4 вне месяцев обучения [6]; log_dist_coast_km = 1.0 вне диапазона обучения [1.7; 5.0]", "conc_B_model": "conc-B-c6bce5631d2b"}}, {"type": "Feature", "geometry": {"type": "Polygon", "coordinates": [[[39.72184721256659, 43.54912313179022], [39.72184613803965, 43.54903309671955], [39.72172235313806, 43.54903387820899], [39.72172020446757, 43.54885380805845], [39.72196669883265, 43.5487622098828], [39.72196777352888, 43.54885224495535], [39.72209155805207, 43.54885146320279], [39.72209370782791, 43.54903153333865], [39.72184721256659, 43.54912313179022]]]}, "properties": {"zone_id": "sochi-2026-04-26-004", "aoi": "sochi", "date": "2026-04-26", "scene_id": "S2A_MSIL2A_20260426T082021_R121_T37TEJ_20260426T122009", "scene_datetime_utc": "2026-04-26T08:20:21.024000+00:00", "detection_status": "detected", "detection_status_ru": "обнаружено", "lon": 39.72191, "lat": 43.54894, "n_pixels": 2, "zone_area_km2": 0.0008, "cover_m2": 4.7, "p_mean": 0.669, "p_max": 0.827, "cover_m2_km2": 5875.0, "h3": "882d568e6bfffff", "valid_frac_scene": 1.0, "wind_ms": 2.6, "sea": "спокойное", "scene_reliable": true, "field_event_id": "S4:DOORS3:T17", "field_profile": "B", "field_date": "2024-06-04", "field_distance_km": 182.3, "field_date_gap_days": 691, "field_conc_items_km2": 89.61, "conc_A_items_km2": null, "conc_A_lo80": null, "conc_A_hi80": null, "conc_A_lo95": null, "conc_A_hi95": null, "conc_A_status": "unavailable", "conc_A_status_ru": "концентрация недоступна", "conc_A_reasons": "вне бассейна профиля: nw_atlantic_subtropical", "conc_A_model": "conc-A-c6bce5631d2b", "conc_B_items_km2": 591.0, "conc_B_lo80": 126.1, "conc_B_hi80": 1985.7, "conc_B_lo95": 78.7, "conc_B_hi95": 3718.1, "conc_B_status": "research_estimate", "conc_B_status_ru": "исследовательская оценка", "conc_B_reasons": "ближайшее полевое измерение в 182 км (> 60 км); месяц 4 вне месяцев обучения [6]; log_dist_coast_km = 1.2 вне диапазона обучения [1.7; 5.0]", "conc_B_model": "conc-B-c6bce5631d2b"}}, {"type": "Feature", "geometry": {"type": "Polygon", "coordinates": [[[39.76079169968785, 43.545088851401616], [39.76079056735166, 43.544998817060495], [39.76066679179572, 43.54499964065298], [39.76066452750744, 43.544819571961256], [39.760788302695026, 43.54481874837392], [39.76078717037456, 43.54472871402845], [39.761035853054466, 43.5448171007973], [39.761036985748525, 43.544907135136164], [39.761160761104556, 43.54490631114431], [39.76116189398804, 43.54499634547914], [39.76103811844782, 43.54499716947358], [39.761039251152376, 43.545087203809544], [39.76079169968785, 43.545088851401616]]]}, "properties": {"zone_id": "sochi-2026-04-26-005", "aoi": "sochi", "date": "2026-04-26", "scene_id": "S2A_MSIL2A_20260426T082021_R121_T37TEJ_20260426T122009", "scene_datetime_utc": "2026-04-26T08:20:21.024000+00:00", "detection_status": "detected", "detection_status_ru": "обнаружено", "lon": 39.76089, "lat": 43.54492, "n_pixels": 3, "zone_area_km2": 0.001, "cover_m2": 28.6, "p_mean": 0.945, "p_max": 0.98, "cover_m2_km2": 28600.0, "h3": "882d568e3dfffff", "valid_frac_scene": 1.0, "wind_ms": 2.6, "sea": "спокойное", "scene_reliable": true, "field_event_id": "S4:DOORS3:T17", "field_profile": "B", "field_date": "2024-06-04", "field_distance_km": 183.8, "field_date_gap_days": 691, "field_conc_items_km2": 89.61, "conc_A_items_km2": null, "conc_A_lo80": null, "conc_A_hi80": null, "conc_A_lo95": null, "conc_A_hi95": null, "conc_A_status": "unavailable", "conc_A_status_ru": "концентрация недоступна", "conc_A_reasons": "вне бассейна профиля: nw_atlantic_subtropical", "conc_A_model": "conc-A-c6bce5631d2b", "conc_B_items_km2": 666.4, "conc_B_lo80": 142.3, "conc_B_hi80": 2238.7, "conc_B_lo95": 88.8, "conc_B_hi95": 4191.6, "conc_B_status": "research_estimate", "conc_B_status_ru": "исследовательская оценка", "conc_B_reasons": "ближайшее полевое измерение в 184 км (> 60 км); месяц 4 вне месяцев обучения [6]; log_dist_coast_km = 0.9 вне диапазона обучения [1.7; 5.0]", "conc_B_model": "conc-B-c6bce5631d2b"}}, {"type": "Feature", "geometry": {"type": "Polygon", "coordinates": [[[39.767253605312746, 43.5373020622918], [39.767252463669685, 43.53721202796324], [39.76712870422895, 43.53721285843358], [39.76712642132689, 43.53703278976693], [39.767372797655355, 43.53694109437243], [39.76737393946666, 43.53703112870272], [39.76749769852861, 43.53703029796969], [39.7674999825353, 43.537210366620755], [39.767253605312746, 43.5373020622918]]]}, "properties": {"zone_id": "sochi-2026-04-26-006", "aoi": "sochi", "date": "2026-04-26", "scene_id": "S2A_MSIL2A_20260426T082021_R121_T37TEJ_20260426T122009", "scene_datetime_utc": "2026-04-26T08:20:21.024000+00:00", "detection_status": "detected", "detection_status_ru": "обнаружено", "lon": 39.76731, "lat": 43.53712, "n_pixels": 2, "zone_area_km2": 0.0008, "cover_m2": 10.6, "p_mean": 0.994, "p_max": 0.996, "cover_m2_km2": 13250.0, "h3": "882d568c49fffff", "valid_frac_scene": 1.0, "wind_ms": 2.6, "sea": "спокойное", "scene_reliable": true, "field_event_id": "S4:DOORS3:T17", "field_profile": "B", "field_date": "2024-06-04", "field_distance_km": 183.4, "field_date_gap_days": 691, "field_conc_items_km2": 89.61, "conc_A_items_km2": null, "conc_A_lo80": null, "conc_A_hi80": null, "conc_A_lo95": null, "conc_A_hi95": null, "conc_A_status": "unavailable", "conc_A_status_ru": "концентрация недоступна", "conc_A_reasons": "вне бассейна профиля: nw_atlantic_subtropical", "conc_A_model": "conc-A-c6bce5631d2b", "conc_B_items_km2": 621.6, "conc_B_lo80": 132.7, "conc_B_hi80": 2088.3, "conc_B_lo95": 82.8, "conc_B_hi95": 3910.2, "conc_B_status": "research_estimate", "conc_B_status_ru": "исследовательская оценка", "conc_B_reasons": "ближайшее полевое измерение в 183 км (> 60 км); месяц 4 вне месяцев обучения [6]; log_dist_coast_km = 1.0 вне диапазона обучения [1.7; 5.0]", "conc_B_model": "conc-B-c6bce5631d2b"}}, {"type": "Feature", "geometry": {"type": "Polygon", "coordinates": [[[39.788409384058845, 43.536617878313514], [39.78840821096678, 43.53652784442634], [39.78828445354679, 43.53652869778534], [39.788283280644244, 43.536438663894046], [39.78840703788014, 43.53643781053769], [39.78840586479893, 43.53634777664762], [39.788529621845306, 43.536346923159996], [39.78852844858544, 43.53625688927114], [39.78877713592176, 43.53634521578294], [39.78877948319417, 43.53652528354565], [39.78865572579047, 43.53652613730648], [39.788656899250725, 43.53661617118833], [39.788409384058845, 43.536617878313514]]]}, "properties": {"zone_id": "sochi-2026-04-26-007", "aoi": "sochi", "date": "2026-04-26", "scene_id": "S2A_MSIL2A_20260426T082021_R121_T37TEJ_20260426T122009", "scene_datetime_utc": "2026-04-26T08:20:21.024000+00:00", "detection_status": "detected", "detection_status_ru": "обнаружено", "lon": 39.78855, "lat": 43.53645, "n_pixels": 3, "zone_area_km2": 0.001, "cover_m2": 25.5, "p_mean": 0.888, "p_max": 0.988, "cover_m2_km2": 25500.0, "h3": "882d568c43fffff", "valid_frac_scene": 1.0, "wind_ms": 2.6, "sea": "спокойное", "scene_reliable": true, "field_event_id": "S4:DOORS3:T17", "field_profile": "B", "field_date": "2024-06-04", "field_distance_km": 184.4, "field_date_gap_days": 691, "field_conc_items_km2": 89.61, "conc_A_items_km2": null, "conc_A_lo80": null, "conc_A_hi80": null, "conc_A_lo95": null, "conc_A_hi95": null, "conc_A_status": "unavailable", "conc_A_status_ru": "концентрация недоступна", "conc_A_reasons": "вне бассейна профиля: nw_atlantic_subtropical", "conc_A_model": "conc-A-c6bce5631d2b", "conc_B_items_km2": 666.4, "conc_B_lo80": 142.3, "conc_B_hi80": 2238.7, "conc_B_lo95": 88.8, "conc_B_hi95": 4191.6, "conc_B_status": "research_estimate", "conc_B_status_ru": "исследовательская оценка", "conc_B_reasons": "ближайшее полевое измерение в 184 км (> 60 км); месяц 4 вне месяцев обучения [6]; log_dist_coast_km = 0.9 вне диапазона обучения [1.7; 5.0]", "conc_B_model": "conc-B-c6bce5631d2b"}}, {"type": "Feature", "geometry": {"type": "Polygon", "coordinates": [[[39.74999385353959, 43.47285610968222], [39.749992740083734, 43.47276607397516], [39.74986911173493, 43.472766884810994], [39.74986799846773, 43.47267684909997], [39.749991626633026, 43.47267603826666], [39.74999051318747, 43.47258600255672], [39.75023888294817, 43.472674416199126], [39.75023999676588, 43.47276445190256], [39.75011636842738, 43.472765263005684], [39.750117482066734, 43.47285529871019], [39.74999385353959, 43.47285610968222]]]}, "properties": {"zone_id": "sochi-2026-04-26-008", "aoi": "sochi", "date": "2026-04-26", "scene_id": "S2A_MSIL2A_20260426T082021_R121_T37TEJ_20260426T122009", "scene_datetime_utc": "2026-04-26T08:20:21.024000+00:00", "detection_status": "detected", "detection_status_ru": "обнаружено", "lon": 39.75005, "lat": 43.47272, "n_pixels": 1, "zone_area_km2": 0.0005, "cover_m2": 5.5, "p_mean": 0.953, "p_max": 0.953, "cover_m2_km2": 11000.0, "h3": "882d568f25fffff", "valid_frac_scene": 1.0, "wind_ms": 2.6, "sea": "спокойное", "scene_reliable": true, "field_event_id": "S4:DOORS3:T17", "field_profile": "B", "field_date": "2024-06-04", "field_distance_km": 176.9, "field_date_gap_days": 691, "field_conc_items_km2": 89.61, "conc_A_items_km2": null, "conc_A_lo80": null, "conc_A_hi80": null, "conc_A_lo95": null, "conc_A_hi95": null, "conc_A_status": "unavailable", "conc_A_status_ru": "концентрация недоступна", "conc_A_reasons": "вне бассейна профиля: nw_atlantic_subtropical", "conc_A_model": "conc-A-c6bce5631d2b", "conc_B_items_km2": 406.7, "conc_B_lo80": 86.5, "conc_B_hi80": 1367.2, "conc_B_lo95": 53.9, "conc_B_hi95": 2560.2, "conc_B_status": "research_estimate", "conc_B_status_ru": "исследовательская оценка", "conc_B_reasons": "ближайшее полевое измерение в 177 км (> 60 км); месяц 4 вне месяцев обучения [6]", "conc_B_model": "conc-B-c6bce5631d2b"}}, {"type": "Feature", "geometry": {"type": "Polygon", "coordinates": [[[39.81023614182, 43.46587195784758], [39.81023493922609, 43.46578192332155], [39.81011132688419, 43.465782799176395], [39.810110124479266, 43.46569276464617], [39.81023373663775, 43.465691888794076], [39.81023253405496, 43.46560185426514], [39.810479757988396, 43.46560010216558], [39.81048096093802, 43.46569013668904], [39.810604573079814, 43.465689260436115], [39.810605776218424, 43.46577929495538], [39.81048216389321, 43.46578017121105], [39.810483366853965, 43.465870205731605], [39.81023614182, 43.46587195784758]]]}, "properties": {"zone_id": "sochi-2026-04-26-009", "aoi": "sochi", "date": "2026-04-26", "scene_id": "S2A_MSIL2A_20260426T082021_R121_T37TEJ_20260426T122009", "scene_datetime_utc": "2026-04-26T08:20:21.024000+00:00", "detection_status": "detected", "detection_status_ru": "обнаружено", "lon": 39.81036, "lat": 43.46574, "n_pixels": 2, "zone_area_km2": 0.0008, "cover_m2": 9.0, "p_mean": 0.849, "p_max": 0.973, "cover_m2_km2": 11250.0, "h3": "882d568d01fffff", "valid_frac_scene": 1.0, "wind_ms": 2.6, "sea": "спокойное", "scene_reliable": true, "field_event_id": "S4:DOORS3:T17", "field_profile": "B", "field_date": "2024-06-04", "field_distance_km": 179.4, "field_date_gap_days": 691, "field_conc_items_km2": 89.61, "conc_A_items_km2": null, "conc_A_lo80": null, "conc_A_hi80": null, "conc_A_lo95": null, "conc_A_hi95": null, "conc_A_status": "unavailable", "conc_A_status_ru": "концентрация недоступна", "conc_A_reasons": "вне бассейна профиля: nw_atlantic_subtropical", "conc_A_model": "conc-A-c6bce5631d2b", "conc_B_items_km2": 448.2, "conc_B_lo80": 95.5, "conc_B_hi80": 1506.5, "conc_B_lo95": 59.4, "conc_B_hi95": 2821.1, "conc_B_status": "research_estimate", "conc_B_status_ru": "исследовательская оценка", "conc_B_reasons": "ближайшее полевое измерение в 179 км (> 60 км); месяц 4 вне месяцев обучения [6]", "conc_B_model": "conc-B-c6bce5631d2b"}}, {"type": "Feature", "geometry": {"type": "Polygon", "coordinates": [[[39.815290939609966, 43.46484555402059], [39.815289729557314, 43.46475551959123], [39.81516611946179, 43.46475640089378], [39.815164909598145, 43.464666366460214], [39.81528851951026, 43.46466548516041], [39.81528730946881, 43.46457545072814], [39.81553573931769, 43.464663722159976], [39.81553694973157, 43.46475375658528], [39.81541333964724, 43.46475463815506], [39.81541454988331, 43.46484467258166], [39.815290939609966, 43.46484555402059]]]}, "properties": {"zone_id": "sochi-2026-04-26-010", "aoi": "sochi", "date": "2026-04-26", "scene_id": "S2A_MSIL2A_20260426T082021_R121_T37TEJ_20260426T122009", "scene_datetime_utc": "2026-04-26T08:20:21.024000+00:00", "detection_status": "detected", "detection_status_ru": "обнаружено", "lon": 39.81535, "lat": 43.46471, "n_pixels": 1, "zone_area_km2": 0.0005, "cover_m2": 3.5, "p_mean": 0.835, "p_max": 0.835, "cover_m2_km2": 7000.0, "h3": "882d568d01fffff", "valid_frac_scene": 1.0, "wind_ms": 2.6, "sea": "спокойное", "scene_reliable": true, "field_event_id": "S4:DOORS3:T17", "field_profile": "B", "field_date": "2024-06-04", "field_distance_km": 179.5, "field_date_gap_days": 691, "field_conc_items_km2": 89.61, "conc_A_items_km2": null, "conc_A_lo80": null, "conc_A_hi80": null, "conc_A_lo95": null, "conc_A_hi95": null, "conc_A_status": "unavailable", "conc_A_status_ru": "концентрация недоступна", "conc_A_reasons": "вне бассейна профиля: nw_atlantic_subtropical", "conc_A_model": "conc-A-c6bce5631d2b", "conc_B_items_km2": 464.8, "conc_B_lo80": 99.0, "conc_B_hi80": 1562.1, "conc_B_lo95": 61.7, "conc_B_hi95": 2925.1, "conc_B_status": "research_estimate", "conc_B_status_ru": "исследовательская оценка", "conc_B_reasons": "ближайшее полевое измерение в 180 км (> 60 км); месяц 4 вне месяцев обучения [6]", "conc_B_model": "conc-B-c6bce5631d2b"}}, {"type": "Feature", "geometry": {"type": "Polygon", "coordinates": [[[39.81553452890942, 43.46457368773323], [39.81553331850673, 43.46448365330502], [39.81540970897264, 43.46448453486653], [39.81540849875896, 43.46439450043412], [39.81553210810966, 43.46439361887538], [39.815530897718176, 43.464303584444274], [39.815779326794235, 43.464391855357064], [39.815780537558126, 43.4644818897812], [39.81565692803523, 43.46448277160991], [39.815658138621316, 43.46457280603536], [39.81553452890942, 43.46457368773323]]]}, "properties": {"zone_id": "sochi-2026-04-26-011", "aoi": "sochi", "date": "2026-04-26", "scene_id": "S2A_MSIL2A_20260426T082021_R121_T37TEJ_20260426T122009", "scene_datetime_utc": "2026-04-26T08:20:21.024000+00:00", "detection_status": "detected", "detection_status_ru": "обнаружено", "lon": 39.81559, "lat": 43.46444, "n_pixels": 1, "zone_area_km2": 0.0005, "cover_m2": 2.7, "p_mean": 0.894, "p_max": 0.894, "cover_m2_km2": 5400.0, "h3": "882d568d01fffff", "valid_frac_scene": 1.0, "wind_ms": 2.6, "sea": "спокойное", "scene_reliable": true, "field_event_id": "S4:DOORS3:T17", "field_profile": "B", "field_date": "2024-06-04", "field_distance_km": 179.5, "field_date_gap_days": 691, "field_conc_items_km2": 89.61, "conc_A_items_km2": null, "conc_A_lo80": null, "conc_A_hi80": null, "conc_A_lo95": null, "conc_A_hi95": null, "conc_A_status": "unavailable", "conc_A_status_ru": "концентрация недоступна", "conc_A_reasons": "вне бассейна профиля: nw_atlantic_subtropical", "conc_A_model": "conc-A-c6bce5631d2b", "conc_B_items_km2": 464.8, "conc_B_lo80": 99.0, "conc_B_hi80": 1562.1, "conc_B_lo95": 61.7, "conc_B_hi95": 2925.1, "conc_B_status": "research_estimate", "conc_B_status_ru": "исследовательская оценка", "conc_B_reasons": "ближайшее полевое измерение в 180 км (> 60 км); месяц 4 вне месяцев обучения [6]", "conc_B_model": "conc-B-c6bce5631d2b"}}, {"type": "Feature", "geometry": {"type": "Polygon", "coordinates": [[[39.80000965796357, 43.45910068937674], [39.800008470827905, 43.459010654517435], [39.799884871970555, 43.45901151921066], [39.79988368502374, 43.458921484347194], [39.80000728369773, 43.45892061965668], [39.80000609657305, 43.45883058479447], [39.80025448102924, 43.45891888987491], [39.80025566852614, 43.45900892473027], [39.80013206967977, 43.45900978969065], [39.8001332569988, 43.45909982454726], [39.80000965796357, 43.45910068937674]]]}, "properties": {"zone_id": "sochi-2026-04-26-012", "aoi": "sochi", "date": "2026-04-26", "scene_id": "S2A_MSIL2A_20260426T082021_R121_T37TEJ_20260426T122009", "scene_datetime_utc": "2026-04-26T08:20:21.024000+00:00", "detection_status": "detected", "detection_status_ru": "обнаружено", "lon": 39.80007, "lat": 43.45897, "n_pixels": 1, "zone_area_km2": 0.0005, "cover_m2": 2.7, "p_mean": 0.702, "p_max": 0.702, "cover_m2_km2": 5400.0, "h3": "882d568d63fffff", "valid_frac_scene": 1.0, "wind_ms": 2.6, "sea": "спокойное", "scene_reliable": true, "field_event_id": "S4:DOORS3:T17", "field_profile": "B", "field_date": "2024-06-04", "field_distance_km": 178.3, "field_date_gap_days": 691, "field_conc_items_km2": 89.61, "conc_A_items_km2": null, "conc_A_lo80": null, "conc_A_hi80": null, "conc_A_lo95": null, "conc_A_hi95": null, "conc_A_status": "unavailable", "conc_A_status_ru": "концентрация недоступна", "conc_A_reasons": "вне бассейна профиля: nw_atlantic_subtropical", "conc_A_model": "conc-A-c6bce5631d2b", "conc_B_items_km2": 419.0, "conc_B_lo80": 89.2, "conc_B_hi80": 1408.6, "conc_B_lo95": 55.5, "conc_B_hi95": 2637.7, "conc_B_status": "research_estimate", "conc_B_status_ru": "исследовательская оценка", "conc_B_reasons": "ближайшее полевое измерение в 178 км (> 60 км); месяц 4 вне месяцев обучения [6]", "conc_B_model": "conc-B-c6bce5631d2b"}}, {"type": "Feature", "geometry": {"type": "Polygon", "coordinates": [[[39.795757529789974, 43.41762031108017], [39.795756350671844, 43.41753027547204], [39.795632836089815, 43.41753113491824], [39.795631657160115, 43.417441099305954], [39.795755171559165, 43.41744023986245], [39.79575399245194, 43.41735020425141], [39.796002200340915, 43.41743852057527], [39.79600337981953, 43.417528556179484], [39.795879865248416, 43.41752941589245], [39.79588104454952, 43.417619451497906], [39.795757529789974, 43.41762031108017]]]}, "properties": {"zone_id": "sochi-2026-04-26-013", "aoi": "sochi", "date": "2026-04-26", "scene_id": "S2A_MSIL2A_20260426T082021_R121_T37TEJ_20260426T122009", "scene_datetime_utc": "2026-04-26T08:20:21.024000+00:00", "detection_status": "detected", "detection_status_ru": "обнаружено", "lon": 39.79582, "lat": 43.41748, "n_pixels": 1, "zone_area_km2": 0.0005, "cover_m2": 2.7, "p_mean": 0.827, "p_max": 0.827, "cover_m2_km2": 5400.0, "h3": "882d561243fffff", "valid_frac_scene": 1.0, "wind_ms": 2.6, "sea": "спокойное", "scene_reliable": true, "field_event_id": "S4:DOORS3:T17", "field_profile": "B", "field_date": "2024-06-04", "field_distance_km": 174.5, "field_date_gap_days": 691, "field_conc_items_km2": 89.61, "conc_A_items_km2": null, "conc_A_lo80": null, "conc_A_hi80": null, "conc_A_lo95": null, "conc_A_hi95": null, "conc_A_status": "unavailable", "conc_A_status_ru": "концентрация недоступна", "conc_A_reasons": "вне бассейна профиля: nw_atlantic_subtropical", "conc_A_model": "conc-A-c6bce5631d2b", "conc_B_items_km2": 383.8, "conc_B_lo80": 81.6, "conc_B_hi80": 1290.3, "conc_B_lo95": 50.8, "conc_B_hi95": 2416.3, "conc_B_status": "research_estimate", "conc_B_status_ru": "исследовательская оценка", "conc_B_reasons": "ближайшее полевое измерение в 175 км (> 60 км); месяц 4 вне месяцев обучения [6]", "conc_B_model": "conc-B-c6bce5631d2b"}}, {"type": "Feature", "geometry": {"type": "Polygon", "coordinates": [[[39.82341615756446, 43.41679418815644], [39.823414937500935, 43.41670415315057], [39.82329142544208, 43.416705042455945], [39.823288985697886, 43.4165249724343], [39.823412497390834, 43.41652408313448], [39.82341127734424, 43.416434048124266], [39.8236583003473, 43.416432269130055], [39.823659520759804, 43.41652230413471], [39.82378303243583, 43.41652141443475], [39.823785473643674, 43.41670148443415], [39.82366196160174, 43.41670237413967], [39.823663182031176, 43.41679240913996], [39.82341615756446, 43.41679418815644]]]}, "properties": {"zone_id": "sochi-2026-04-26-014", "aoi": "sochi", "date": "2026-04-26", "scene_id": "S2A_MSIL2A_20260426T082021_R121_T37TEJ_20260426T122009", "scene_datetime_utc": "2026-04-26T08:20:21.024000+00:00", "detection_status": "detected", "detection_status_ru": "обнаружено", "lon": 39.82354, "lat": 43.41661, "n_pixels": 4, "zone_area_km2": 0.0012, "cover_m2": 15.7, "p_mean": 0.896, "p_max": 1.0, "cover_m2_km2": 13083.3, "h3": "882d561203fffff", "valid_frac_scene": 1.0, "wind_ms": 2.6, "sea": "спокойное", "scene_reliable": true, "field_event_id": "S4:DOORS3:T17", "field_profile": "B", "field_date": "2024-06-04", "field_distance_km": 175.9, "field_date_gap_days": 691, "field_conc_items_km2": 89.61, "conc_A_items_km2": null, "conc_A_lo80": null, "conc_A_hi80": null, "conc_A_lo95": null, "conc_A_hi95": null, "conc_A_status": "unavailable", "conc_A_status_ru": "концентрация недоступна", "conc_A_reasons": "вне бассейна профиля: nw_atlantic_subtropical", "conc_A_model": "conc-A-c6bce5631d2b", "conc_B_items_km2": 419.0, "conc_B_lo80": 89.2, "conc_B_hi80": 1408.6, "conc_B_lo95": 55.5, "conc_B_hi95": 2637.7, "conc_B_status": "research_estimate", "conc_B_status_ru": "исследовательская оценка", "conc_B_reasons": "ближайшее полевое измерение в 176 км (> 60 км); месяц 4 вне месяцев обучения [6]", "conc_B_model": "conc-B-c6bce5631d2b"}}, {"type": "Feature", "geometry": {"type": "Polygon", "coordinates": [[[39.92934814586363, 43.39725321965356], [39.929346769791415, 43.39716318689], [39.92922330092779, 43.397164190244766], [39.929220549167965, 43.396984124706975], [39.92946610992197, 43.396892085111894], [39.92946748615784, 43.39698211787668], [39.92959095464324, 43.396981114261635], [39.929593707499585, 43.3971611797806], [39.92934814586363, 43.39725321965356]]]}, "properties": {"zone_id": "sochi-2026-04-26-015", "aoi": "sochi", "date": "2026-04-26", "scene_id": "S2A_MSIL2A_20260426T082021_R121_T37TEJ_20260426T122009", "scene_datetime_utc": "2026-04-26T08:20:21.024000+00:00", "detection_status": "detected", "detection_status_ru": "обнаружено", "lon": 39.92941, "lat": 43.39707, "n_pixels": 2, "zone_area_km2": 0.0008, "cover_m2": 17.6, "p_mean": 0.975, "p_max": 0.996, "cover_m2_km2": 22000.0, "h3": "882d5610ebfffff", "valid_frac_scene": 1.0, "wind_ms": 2.6, "sea": "спокойное", "scene_reliable": true, "field_event_id": "S4:DOORS3:T23", "field_profile": "B", "field_date": "2024-06-10", "field_distance_km": 176.6, "field_date_gap_days": 685, "field_conc_items_km2": 102.37, "conc_A_items_km2": null, "conc_A_lo80": null, "conc_A_hi80": null, "conc_A_lo95": null, "conc_A_hi95": null, "conc_A_status": "unavailable", "conc_A_status_ru": "концентрация недоступна", "conc_A_reasons": "вне бассейна профиля: nw_atlantic_subtropical", "conc_A_model": "conc-A-c6bce5631d2b", "conc_B_items_km2": 621.6, "conc_B_lo80": 132.7, "conc_B_hi80": 2088.3, "conc_B_lo95": 82.8, "conc_B_hi95": 3910.2, "conc_B_status": "research_estimate", "conc_B_status_ru": "исследовательская оценка", "conc_B_reasons": "ближайшее полевое измерение в 177 км (> 60 км); месяц 4 вне месяцев обучения [6]; log_dist_coast_km = 1.0 вне диапазона обучения [1.7; 5.0]", "conc_B_model": "conc-B-c6bce5631d2b"}}, {"type": "Feature", "geometry": {"type": "Polygon", "coordinates": [[[39.83475886769486, 43.37024917563474], [39.83475763283365, 43.37015914015172], [39.834634215618465, 43.37016004094059], [39.834632980945486, 43.370070005453314], [39.834509563907105, 43.37007090610621], [39.834508329422356, 43.36998087061466], [39.83426026157951, 43.36989263601668], [39.83425902747119, 43.36980260051661], [39.83438244397343, 43.36980170013849], [39.83438120968831, 43.36971166463977], [39.834628042310634, 43.369709863489675], [39.83462927696078, 43.36979989898277], [39.83487610992532, 43.369798097294385], [39.834877344946214, 43.36988813278038], [39.83500076160243, 43.36988723173364], [39.83500446724691, 43.37015733817449], [39.83475886769486, 43.37024917563474]]]}, "properties": {"zone_id": "sochi-2026-04-26-016", "aoi": "sochi", "date": "2026-04-26", "scene_id": "S2A_MSIL2A_20260426T082021_R121_T37TEJ_20260426T122009", "scene_datetime_utc": "2026-04-26T08:20:21.024000+00:00", "detection_status": "detected", "detection_status_ru": "обнаружено", "lon": 39.83469, "lat": 43.36996, "n_pixels": 7, "zone_area_km2": 0.002, "cover_m2": 35.7, "p_mean": 0.763, "p_max": 0.902, "cover_m2_km2": 17850.0, "h3": "882d561311fffff", "valid_frac_scene": 1.0, "wind_ms": 2.6, "sea": "спокойное", "scene_reliable": true, "field_event_id": "S4:DOORS3:T17", "field_profile": "B", "field_date": "2024-06-04", "field_distance_km": 172.6, "field_date_gap_days": 691, "field_conc_items_km2": 89.61, "conc_A_items_km2": null, "conc_A_lo80": null, "conc_A_hi80": null, "conc_A_lo95": null, "conc_A_hi95": null, "conc_A_status": "unavailable", "conc_A_status_ru": "концентрация недоступна", "conc_A_reasons": "вне бассейна профиля: nw_atlantic_subtropical", "conc_A_model": "conc-A-c6bce5631d2b", "conc_B_items_km2": 402.4, "conc_B_lo80": 85.6, "conc_B_hi80": 1352.9, "conc_B_lo95": 53.3, "conc_B_hi95": 2533.4, "conc_B_status": "research_estimate", "conc_B_status_ru": "исследовательская оценка", "conc_B_reasons": "ближайшее полевое измерение в 173 км (> 60 км); месяц 4 вне месяцев обучения [6]", "conc_B_model": "conc-B-c6bce5631d2b"}}, {"type": "Feature", "geometry": {"type": "Polygon", "coordinates": [[[39.85107639394787, 43.36319547639546], [39.851075135259784, 43.363105441178966], [39.850951732862264, 43.36310635945757], [39.85095047436244, 43.36301632423673], [39.851073876577516, 43.363015405961], [39.85107261790107, 43.36292537074157], [39.85132068099021, 43.36301356901014], [39.85132194003738, 43.36310360422236], [39.85119853765149, 43.36310452276723], [39.851199796522025, 43.36319455798086], [39.85107639394787, 43.36319547639546]]]}, "properties": {"zone_id": "sochi-2026-04-26-017", "aoi": "sochi", "date": "2026-04-26", "scene_id": "S2A_MSIL2A_20260426T082021_R121_T37TEJ_20260426T122009", "scene_datetime_utc": "2026-04-26T08:20:21.024000+00:00", "detection_status": "detected", "detection_status_ru": "обнаружено", "lon": 39.85114, "lat": 43.36306, "n_pixels": 1, "zone_area_km2": 0.0005, "cover_m2": 4.3, "p_mean": 0.71, "p_max": 0.71, "cover_m2_km2": 8600.0, "h3": "882d561069fffff", "valid_frac_scene": 1.0, "wind_ms": 2.6, "sea": "спокойное", "scene_reliable": true, "field_event_id": "S4:DOORS3:T17", "field_profile": "B", "field_date": "2024-06-04", "field_distance_km": 173.0, "field_date_gap_days": 691, "field_conc_items_km2": 89.61, "conc_A_items_km2": null, "conc_A_lo80": null, "conc_A_hi80": null, "conc_A_lo95": null, "conc_A_hi95": null, "conc_A_status": "unavailable", "conc_A_status_ru": "концентрация недоступна", "conc_A_reasons": "вне бассейна профиля: nw_atlantic_subtropical", "conc_A_model": "conc-A-c6bce5631d2b", "conc_B_items_km2": 418.0, "conc_B_lo80": 89.0, "conc_B_hi80": 1405.2, "conc_B_lo95": 55.4, "conc_B_hi95": 2631.4, "conc_B_status": "research_estimate", "conc_B_status_ru": "исследовательская оценка", "conc_B_reasons": "ближайшее полевое измерение в 173 км (> 60 км); месяц 4 вне месяцев обучения [6]", "conc_B_model": "conc-B-c6bce5631d2b"}}]}