{"type": "FeatureCollection", "features": [{"type": "Feature", "geometry": {"type": "Polygon", "coordinates": [[[131.8509706455709, 43.17594616615581], [131.8509664582049, 43.17585622969394], [131.85071649976135, 43.17577242215525], [131.85070812584541, 43.17559254918446], [131.8508310110437, 43.17558948480705], [131.8508268239348, 43.175499548328624], [131.85107678138243, 43.175583355656805], [131.85108096887043, 43.17567329211435], [131.85120385419074, 43.17567022733194], [131.85120804187792, 43.17576016377815], [131.85133092735882, 43.175757098854355], [131.85133511524515, 43.17584703528923], [131.85121222958438, 43.175850100222604], [131.85121641731013, 43.17594003666533], [131.8509706455709, 43.17594616615581]]]}, "properties": {"zone_id": "vladivostok-2025-12-24-001", "aoi": "vladivostok", "date": "2025-12-24", "scene_id": "S2C_MSIL2A_20251224T021121_R103_T52TGN_20251224T045209", "scene_datetime_utc": "2025-12-24T02:11:21.025000+00:00", "detection_status": "detected", "detection_status_ru": "обнаружено", "lon": 131.85099, "lat": 43.17574, "n_pixels": 4, "zone_area_km2": 0.0014, "cover_m2": 14.9, "p_mean": 0.729, "p_max": 0.969, "cover_m2_km2": 10642.9, "h3": "88316c541bfffff", "valid_frac_scene": 0.56, "wind_ms": 7.9, "sea": "волнение", "scene_reliable": false, "field_event_id": "S4:DOORS3:T23", "field_profile": "B", "field_date": "2024-06-10", "field_distance_km": 6976.5, "field_date_gap_days": 562, "field_conc_items_km2": 102.37, "conc_A_items_km2": null, "conc_A_lo80": null, "conc_A_hi80": null, "conc_A_lo95": null, "conc_A_hi95": null, "conc_A_status": "unavailable", "conc_A_status_ru": "концентрация недоступна", "conc_A_reasons": "вне бассейна профиля: nw_atlantic_subtropical", "conc_A_model": "conc-A-c6bce5631d2b", "conc_B_items_km2": null, "conc_B_lo80": null, "conc_B_hi80": null, "conc_B_lo95": null, "conc_B_hi95": null, "conc_B_status": "unavailable", "conc_B_status_ru": "концентрация недоступна", "conc_B_reasons": "вне бассейна профиля: black_sea", "conc_B_model": "conc-B-c6bce5631d2b"}}, {"type": "Feature", "geometry": {"type": "Polygon", "coordinates": [[[131.86807759680966, 43.1734473203954], [131.86807338470618, 43.17335738523795], [131.86782341521777, 43.17327361546689], [131.8678149918273, 43.173093745104715], [131.86793787017945, 43.173090662495795], [131.86793365833347, 43.17300072732173], [131.86818362682556, 43.173084496882595], [131.86818783905065, 43.17317443203565], [131.86831071752442, 43.17317134902173], [131.8683191423926, 43.17335121930336], [131.86807759680966, 43.1734473203954]]]}, "properties": {"zone_id": "vladivostok-2025-12-24-002", "aoi": "vladivostok", "date": "2025-12-24", "scene_id": "S2C_MSIL2A_20251224T021121_R103_T52TGN_20251224T045209", "scene_datetime_utc": "2025-12-24T02:11:21.025000+00:00", "detection_status": "detected", "detection_status_ru": "обнаружено", "lon": 131.86807, "lat": 43.17322, "n_pixels": 4, "zone_area_km2": 0.0012, "cover_m2": 16.1, "p_mean": 0.969, "p_max": 0.996, "cover_m2_km2": 13416.7, "h3": "88316c56a3fffff", "valid_frac_scene": 0.56, "wind_ms": 7.9, "sea": "волнение", "scene_reliable": false, "field_event_id": "S4:DOORS3:T23", "field_profile": "B", "field_date": "2024-06-10", "field_distance_km": 6977.8, "field_date_gap_days": 562, "field_conc_items_km2": 102.37, "conc_A_items_km2": null, "conc_A_lo80": null, "conc_A_hi80": null, "conc_A_lo95": null, "conc_A_hi95": null, "conc_A_status": "unavailable", "conc_A_status_ru": "концентрация недоступна", "conc_A_reasons": "вне бассейна профиля: nw_atlantic_subtropical", "conc_A_model": "conc-A-c6bce5631d2b", "conc_B_items_km2": null, "conc_B_lo80": null, "conc_B_hi80": null, "conc_B_lo95": null, "conc_B_hi95": null, "conc_B_status": "unavailable", "conc_B_status_ru": "концентрация недоступна", "conc_B_reasons": "вне бассейна профиля: black_sea", "conc_B_model": "conc-B-c6bce5631d2b"}}, {"type": "Feature", "geometry": {"type": "Polygon", "coordinates": [[[131.85505304972816, 43.155314937300474], [131.85504885939102, 43.155225000833305], [131.8549260154571, 43.15522806858912], [131.85492182531897, 43.15513813211061], [131.8550446690732, 43.15513506436438], [131.85504047877467, 43.15504512789371], [131.85491763520014, 43.15504819563036], [131.8549134451006, 43.154958259148366], [131.85503628849546, 43.154955191421294], [131.8550320982355, 43.15486525494715], [131.8552777846079, 43.15485911911706], [131.8552819752272, 43.15494905557203], [131.8554048185641, 43.154945987449835], [131.85541320022003, 43.15512586033538], [131.85517170330564, 43.155221932945764], [131.85517589382246, 43.15531186940334], [131.85505304972816, 43.155314937300474]]]}, "properties": {"zone_id": "vladivostok-2025-12-24-003", "aoi": "vladivostok", "date": "2025-12-24", "scene_id": "S2C_MSIL2A_20251224T021121_R103_T52TGN_20251224T045209", "scene_datetime_utc": "2025-12-24T02:11:21.025000+00:00", "detection_status": "detected", "detection_status_ru": "обнаружено", "lon": 131.85516, "lat": 43.15506, "n_pixels": 4, "zone_area_km2": 0.0013, "cover_m2": 15.3, "p_mean": 0.966, "p_max": 0.996, "cover_m2_km2": 11769.2, "h3": "88316c54c7fffff", "valid_frac_scene": 0.56, "wind_ms": 7.9, "sea": "волнение", "scene_reliable": false, "field_event_id": "S4:DOORS3:T23", "field_profile": "B", "field_date": "2024-06-10", "field_distance_km": 6978.1, "field_date_gap_days": 562, "field_conc_items_km2": 102.37, "conc_A_items_km2": null, "conc_A_lo80": null, "conc_A_hi80": null, "conc_A_lo95": null, "conc_A_hi95": null, "conc_A_status": "unavailable", "conc_A_status_ru": "концентрация недоступна", "conc_A_reasons": "вне бассейна профиля: nw_atlantic_subtropical", "conc_A_model": "conc-A-c6bce5631d2b", "conc_B_items_km2": null, "conc_B_lo80": null, "conc_B_hi80": null, "conc_B_lo95": null, "conc_B_hi95": null, "conc_B_status": "unavailable", "conc_B_status_ru": "концентрация недоступна", "conc_B_reasons": "вне бассейна профиля: black_sea", "conc_B_model": "conc-B-c6bce5631d2b"}}, {"type": "Feature", "geometry": {"type": "Polygon", "coordinates": [[[131.97630259178854, 43.05362753730058], [131.97629823913584, 43.05353760894237], [131.9761756115998, 43.05354080086823], [131.9761625542979, 43.05327101575304], [131.97628518129784, 43.0532678238571], [131.97628082872524, 43.053177895491814], [131.97615820190398, 43.05318108737778], [131.97615384953008, 43.05309115900073], [131.97627647617267, 43.05308796712473], [131.97627212364011, 43.05299803875589], [131.97651737650781, 43.05299165463026], [131.97652172939772, 43.053081582979146], [131.97664435598017, 43.05307839070954], [131.97666612162365, 43.053528032377514], [131.97654349414773, 43.05353122469701], [131.97654784715783, 43.05362115303527], [131.97630259178854, 43.05362753730058]]]}, "properties": {"zone_id": "vladivostok-2025-12-24-004", "aoi": "vladivostok", "date": "2025-12-24", "scene_id": "S2C_MSIL2A_20251224T021121_R103_T52TGN_20251224T045209", "scene_datetime_utc": "2025-12-24T02:11:21.025000+00:00", "detection_status": "detected", "detection_status_ru": "обнаружено", "lon": 131.97642, "lat": 43.05332, "n_pixels": 9, "zone_area_km2": 0.0023, "cover_m2": 181.2, "p_mean": 0.98, "p_max": 1.0, "cover_m2_km2": 78782.6, "h3": "88316c08a9fffff", "valid_frac_scene": 0.56, "wind_ms": 7.9, "sea": "волнение", "scene_reliable": false, "field_event_id": "S4:DOORS3:T23", "field_profile": "B", "field_date": "2024-06-10", "field_distance_km": 6992.5, "field_date_gap_days": 562, "field_conc_items_km2": 102.37, "conc_A_items_km2": null, "conc_A_lo80": null, "conc_A_hi80": null, "conc_A_lo95": null, "conc_A_hi95": null, "conc_A_status": "unavailable", "conc_A_status_ru": "концентрация недоступна", "conc_A_reasons": "вне бассейна профиля: nw_atlantic_subtropical", "conc_A_model": "conc-A-c6bce5631d2b", "conc_B_items_km2": null, "conc_B_lo80": null, "conc_B_hi80": null, "conc_B_lo95": null, "conc_B_hi95": null, "conc_B_status": "unavailable", "conc_B_status_ru": "концентрация недоступна", "conc_B_reasons": "вне бассейна профиля: black_sea", "conc_B_model": "conc-B-c6bce5631d2b"}}, {"type": "Feature", "geometry": {"type": "Polygon", "coordinates": [[[131.90690530439932, 43.040105697929704], [131.9069010551555, 43.04001576375042], [131.90677844690603, 43.04001888053392], [131.90676994883427, 43.03983901215058], [131.90689255672652, 43.03983589538656], [131.90688830754138, 43.039745961202], [131.90713352291, 43.03973972729994], [131.90713777245236, 43.03982966146501], [131.90726038028595, 43.03982654430749], [131.90726887978656, 43.04000641261288], [131.90714627159576, 43.0400095297899], [131.9071505211968, 43.040099463949694], [131.90690530439932, 43.040105697929704]]]}, "properties": {"zone_id": "vladivostok-2025-12-24-005", "aoi": "vladivostok", "date": "2025-12-24", "scene_id": "S2C_MSIL2A_20251224T021121_R103_T52TGN_20251224T045209", "scene_datetime_utc": "2025-12-24T02:11:21.025000+00:00", "detection_status": "detected", "detection_status_ru": "обнаружено", "lon": 131.90702, "lat": 43.03992, "n_pixels": 4, "zone_area_km2": 0.0012, "cover_m2": 12.9, "p_mean": 0.856, "p_max": 0.957, "cover_m2_km2": 10750.0, "h3": "88316c09a1fffff", "valid_frac_scene": 0.56, "wind_ms": 7.9, "sea": "волнение", "scene_reliable": false, "field_event_id": "S4:DOORS3:T23", "field_profile": "B", "field_date": "2024-06-10", "field_distance_km": 6988.7, "field_date_gap_days": 562, "field_conc_items_km2": 102.37, "conc_A_items_km2": null, "conc_A_lo80": null, "conc_A_hi80": null, "conc_A_lo95": null, "conc_A_hi95": null, "conc_A_status": "unavailable", "conc_A_status_ru": "концентрация недоступна", "conc_A_reasons": "вне бассейна профиля: nw_atlantic_subtropical", "conc_A_model": "conc-A-c6bce5631d2b", "conc_B_items_km2": null, "conc_B_lo80": null, "conc_B_hi80": null, "conc_B_lo95": null, "conc_B_hi95": null, "conc_B_status": "unavailable", "conc_B_status_ru": "концентрация недоступна", "conc_B_reasons": "вне бассейна профиля: black_sea", "conc_B_model": "conc-B-c6bce5631d2b"}}, {"type": "Feature", "geometry": {"type": "Polygon", "coordinates": [[[131.90651623571202, 43.03966537685578], [131.90651198710177, 43.03957544263848], [131.9063893796867, 43.03957855897976], [131.9063808828821, 43.039398690520414], [131.90650348993998, 43.03939557419861], [131.9064992413884, 43.03930563997605], [131.90674445508827, 43.039299406958406], [131.90674870399707, 43.0393893411615], [131.90687131099628, 43.03938622444619], [131.9068798092297, 43.03956609282761], [131.9067572018733, 43.0395692095624], [131.90676145084072, 43.03965914376022], [131.90651623571202, 43.03966537685578]]]}, "properties": {"zone_id": "vladivostok-2025-12-24-006", "aoi": "vladivostok", "date": "2025-12-24", "scene_id": "S2C_MSIL2A_20251224T021121_R103_T52TGN_20251224T045209", "scene_datetime_utc": "2025-12-24T02:11:21.025000+00:00", "detection_status": "detected", "detection_status_ru": "обнаружено", "lon": 131.90663, "lat": 43.03948, "n_pixels": 4, "zone_area_km2": 0.0012, "cover_m2": 30.2, "p_mean": 0.99, "p_max": 0.996, "cover_m2_km2": 25166.7, "h3": "88316c09a1fffff", "valid_frac_scene": 0.56, "wind_ms": 7.9, "sea": "волнение", "scene_reliable": false, "field_event_id": "S4:DOORS3:T23", "field_profile": "B", "field_date": "2024-06-10", "field_distance_km": 6988.7, "field_date_gap_days": 562, "field_conc_items_km2": 102.37, "conc_A_items_km2": null, "conc_A_lo80": null, "conc_A_hi80": null, "conc_A_lo95": null, "conc_A_hi95": null, "conc_A_status": "unavailable", "conc_A_status_ru": "концентрация недоступна", "conc_A_reasons": "вне бассейна профиля: nw_atlantic_subtropical", "conc_A_model": "conc-A-c6bce5631d2b", "conc_B_items_km2": null, "conc_B_lo80": null, "conc_B_hi80": null, "conc_B_lo95": null, "conc_B_hi95": null, "conc_B_status": "unavailable", "conc_B_status_ru": "концентрация недоступна", "conc_B_reasons": "вне бассейна профиля: black_sea", "conc_B_model": "conc-B-c6bce5631d2b"}}, {"type": "Feature", "geometry": {"type": "Polygon", "coordinates": [[[131.95461588753386, 42.988099040825006], [131.9546115764479, 42.988009109667516], [131.95448907684585, 42.98801227451108], [131.9544804550896, 42.98783241217103], [131.95460295433543, 42.987829247347264], [131.9545986433089, 42.98773931618448], [131.95472114235682, 42.98773615123969], [131.95471683117205, 42.98764622008503], [131.95496614039308, 42.98772982095735], [131.9549747635345, 42.98790968322177], [131.95473407603006, 42.98800594469305], [131.95473838729416, 42.988095875840635], [131.95461588753386, 42.988099040825006]]]}, "properties": {"zone_id": "vladivostok-2025-12-24-007", "aoi": "vladivostok", "date": "2025-12-24", "scene_id": "S2C_MSIL2A_20251224T021121_R103_T52TGN_20251224T045209", "scene_datetime_utc": "2025-12-24T02:11:21.025000+00:00", "detection_status": "detected", "detection_status_ru": "обнаружено", "lon": 131.95473, "lat": 42.98787, "n_pixels": 4, "zone_area_km2": 0.0012, "cover_m2": 24.3, "p_mean": 0.985, "p_max": 1.0, "cover_m2_km2": 20250.0, "h3": "88316c723dfffff", "valid_frac_scene": 0.56, "wind_ms": 7.9, "sea": "волнение", "scene_reliable": false, "field_event_id": "S4:DOORS3:T23", "field_profile": "B", "field_date": "2024-06-10", "field_distance_km": 6995.1, "field_date_gap_days": 562, "field_conc_items_km2": 102.37, "conc_A_items_km2": null, "conc_A_lo80": null, "conc_A_hi80": null, "conc_A_lo95": null, "conc_A_hi95": null, "conc_A_status": "unavailable", "conc_A_status_ru": "концентрация недоступна", "conc_A_reasons": "вне бассейна профиля: nw_atlantic_subtropical", "conc_A_model": "conc-A-c6bce5631d2b", "conc_B_items_km2": null, "conc_B_lo80": null, "conc_B_hi80": null, "conc_B_lo95": null, "conc_B_hi95": null, "conc_B_status": "unavailable", "conc_B_status_ru": "концентрация недоступна", "conc_B_reasons": "вне бассейна профиля: black_sea", "conc_B_model": "conc-B-c6bce5631d2b"}}, {"type": "Feature", "geometry": {"type": "Polygon", "coordinates": [[[131.94478796010137, 42.985201042013834], [131.94478366377774, 42.985111110014294], [131.9446611688453, 42.985114264170114], [131.9446525766135, 42.984934400146024], [131.94477507118978, 42.98493124600993], [131.94477077492544, 42.98484131400511], [131.94489326930386, 42.98483815974797], [131.9448889728812, 42.98474822775124], [131.94513825800144, 42.98483185084098], [131.94514685161838, 42.985011714789714], [131.9449061586904, 42.985107955727585], [131.94491045519212, 42.98519788771726], [131.94478796010137, 42.985201042013834]]]}, "properties": {"zone_id": "vladivostok-2025-12-24-008", "aoi": "vladivostok", "date": "2025-12-24", "scene_id": "S2C_MSIL2A_20251224T021121_R103_T52TGN_20251224T045209", "scene_datetime_utc": "2025-12-24T02:11:21.025000+00:00", "detection_status": "detected", "detection_status_ru": "обнаружено", "lon": 131.9449, "lat": 42.98497, "n_pixels": 4, "zone_area_km2": 0.0012, "cover_m2": 15.7, "p_mean": 0.815, "p_max": 0.992, "cover_m2_km2": 13083.3, "h3": "88316c7223fffff", "valid_frac_scene": 0.56, "wind_ms": 7.9, "sea": "волнение", "scene_reliable": false, "field_event_id": "S4:DOORS3:T23", "field_profile": "B", "field_date": "2024-06-10", "field_distance_km": 6994.6, "field_date_gap_days": 562, "field_conc_items_km2": 102.37, "conc_A_items_km2": null, "conc_A_lo80": null, "conc_A_hi80": null, "conc_A_lo95": null, "conc_A_hi95": null, "conc_A_status": "unavailable", "conc_A_status_ru": "концентрация недоступна", "conc_A_reasons": "вне бассейна профиля: nw_atlantic_subtropical", "conc_A_model": "conc-A-c6bce5631d2b", "conc_B_items_km2": null, "conc_B_lo80": null, "conc_B_hi80": null, "conc_B_lo95": null, "conc_B_hi95": null, "conc_B_status": "unavailable", "conc_B_status_ru": "концентрация недоступна", "conc_B_reasons": "вне бассейна профиля: black_sea", "conc_B_model": "conc-B-c6bce5631d2b"}}, {"type": "Feature", "geometry": {"type": "Polygon", "coordinates": [[[131.97702262923454, 42.97968424473498], [131.97701828676074, 42.979594315270546], [131.97689580635122, 42.97959750359649], [131.97688712181952, 42.979417644642346], [131.97700960187302, 42.979414456336336], [131.9770052594591, 42.97932452686658], [131.97725021915016, 42.97931814988187], [131.9772545619201, 42.979408079331684], [131.97737704191368, 42.97940489063306], [131.9773857278695, 42.979584749507474], [131.97726324751986, 42.97958793822603], [131.97726759034973, 42.979677867670546], [131.97702262923454, 42.97968424473498]]]}, "properties": {"zone_id": "vladivostok-2025-12-24-009", "aoi": "vladivostok", "date": "2025-12-24", "scene_id": "S2C_MSIL2A_20251224T021121_R103_T52TGN_20251224T045209", "scene_datetime_utc": "2025-12-24T02:11:21.025000+00:00", "detection_status": "detected", "detection_status_ru": "обнаружено", "lon": 131.97714, "lat": 42.9795, "n_pixels": 4, "zone_area_km2": 0.0012, "cover_m2": 20.0, "p_mean": 0.854, "p_max": 1.0, "cover_m2_km2": 16666.7, "h3": "88316c72edfffff", "valid_frac_scene": 0.56, "wind_ms": 7.9, "sea": "волнение", "scene_reliable": false, "field_event_id": "S4:DOORS3:T23", "field_profile": "B", "field_date": "2024-06-10", "field_distance_km": 6997.2, "field_date_gap_days": 562, "field_conc_items_km2": 102.37, "conc_A_items_km2": null, "conc_A_lo80": null, "conc_A_hi80": null, "conc_A_lo95": null, "conc_A_hi95": null, "conc_A_status": "unavailable", "conc_A_status_ru": "концентрация недоступна", "conc_A_reasons": "вне бассейна профиля: nw_atlantic_subtropical", "conc_A_model": "conc-A-c6bce5631d2b", "conc_B_items_km2": null, "conc_B_lo80": null, "conc_B_hi80": null, "conc_B_lo95": null, "conc_B_hi95": null, "conc_B_status": "unavailable", "conc_B_status_ru": "концентрация недоступна", "conc_B_reasons": "вне бассейна профиля: black_sea", "conc_B_model": "conc-B-c6bce5631d2b"}}]}