{"type": "FeatureCollection", "features": [{"type": "Feature", "geometry": {"type": "Polygon", "coordinates": [[[39.70925806217158, 43.552353388900464], [39.70925700626463, 43.55226335363333], [39.70900836702009, 43.55217485403542], [39.709007311491426, 43.55208481876061], [39.70913110298086, 43.552084050994694], [39.70913004727283, 43.55199401572082], [39.70950142115902, 43.55199171162612], [39.70950247741981, 43.55208174689279], [39.70962626888968, 43.55208097859078], [39.70962732533962, 43.552171013853595], [39.70950353368549, 43.552171782158005], [39.70950458995606, 43.55226181742178], [39.70925806217158, 43.552353388900464]]]}, "properties": {"zone_id": "sochi-2026-08-07-001", "aoi": "sochi", "date": "2026-08-07", "scene_id": "S2B_MSIL2A_20260807T081609_R121_T37TEJ_20260807T122023", "scene_datetime_utc": "2026-08-07T08:16:09.024000+00:00", "detection_status": "detected", "detection_status_ru": "обнаружено", "lon": 39.70932, "lat": 43.55215, "n_pixels": 4, "zone_area_km2": 0.0012, "cover_m2": 14.9, "p_mean": 0.851, "p_max": 0.945, "cover_m2_km2": 12416.7, "h3": "882d568e45fffff", "valid_frac_scene": 1.0, "wind_ms": 5.1, "sea": "спокойное", "scene_reliable": false, "field_event_id": "S4:DOORS3:T17", "field_profile": "B", "field_date": "2024-06-04", "field_distance_km": 182.0, "field_date_gap_days": 794, "field_conc_items_km2": 89.61, "conc_A_items_km2": null, "conc_A_lo80": null, "conc_A_hi80": null, "conc_A_lo95": null, "conc_A_hi95": null, "conc_A_status": "unavailable", "conc_A_status_ru": "концентрация недоступна", "conc_A_reasons": "вне бассейна профиля: nw_atlantic_subtropical", "conc_A_model": "conc-A-c6bce5631d2b", "conc_B_items_km2": 591.0, "conc_B_lo80": 126.1, "conc_B_hi80": 1985.8, "conc_B_lo95": 78.7, "conc_B_hi95": 3718.2, "conc_B_status": "research_estimate", "conc_B_status_ru": "исследовательская оценка", "conc_B_reasons": "ближайшее полевое измерение в 182 км (> 60 км); месяц 8 вне месяцев обучения [6]; log_dist_coast_km = 1.2 вне диапазона обучения [1.7; 5.0]", "conc_B_model": "conc-B-c6bce5631d2b"}}, {"type": "Feature", "geometry": {"type": "Polygon", "coordinates": [[[39.74958387134455, 43.549664976724415], [39.749582755510595, 43.54957494222304], [39.74933406956583, 43.54948653063461], [39.74933183866066, 43.549306461614506], [39.74945562335279, 43.54930565022941], [39.749454507723726, 43.549215615719724], [39.74970319272154, 43.54930402705718], [39.74970430872422, 43.549394061560335], [39.74982809358507, 43.54939324977068], [39.749830325974365, 43.54957331876759], [39.74958387134455, 43.549664976724415]]]}, "properties": {"zone_id": "sochi-2026-08-07-002", "aoi": "sochi", "date": "2026-08-07", "scene_id": "S2B_MSIL2A_20260807T081609_R121_T37TEJ_20260807T122023", "scene_datetime_utc": "2026-08-07T08:16:09.024000+00:00", "detection_status": "detected", "detection_status_ru": "обнаружено", "lon": 39.74958, "lat": 43.54944, "n_pixels": 4, "zone_area_km2": 0.0012, "cover_m2": 22.7, "p_mean": 0.868, "p_max": 0.996, "cover_m2_km2": 18916.7, "h3": "882d568e07fffff", "valid_frac_scene": 1.0, "wind_ms": 5.1, "sea": "спокойное", "scene_reliable": false, "field_event_id": "S4:DOORS3:T17", "field_profile": "B", "field_date": "2024-06-04", "field_distance_km": 183.6, "field_date_gap_days": 794, "field_conc_items_km2": 89.61, "conc_A_items_km2": null, "conc_A_lo80": null, "conc_A_hi80": null, "conc_A_lo95": null, "conc_A_hi95": null, "conc_A_status": "unavailable", "conc_A_status_ru": "концентрация недоступна", "conc_A_reasons": "вне бассейна профиля: nw_atlantic_subtropical", "conc_A_model": "conc-A-c6bce5631d2b", "conc_B_items_km2": 621.6, "conc_B_lo80": 132.7, "conc_B_hi80": 2088.3, "conc_B_lo95": 82.8, "conc_B_hi95": 3910.2, "conc_B_status": "research_estimate", "conc_B_status_ru": "исследовательская оценка", "conc_B_reasons": "ближайшее полевое измерение в 184 км (> 60 км); месяц 8 вне месяцев обучения [6]; log_dist_coast_km = 1.0 вне диапазона обучения [1.7; 5.0]", "conc_B_model": "conc-B-c6bce5631d2b"}}, {"type": "Feature", "geometry": {"type": "Polygon", "coordinates": [[[39.79254874601016, 43.531366821743745], [39.79254756697548, 43.531276787863476], [39.79229889519117, 43.531188469357446], [39.7922977165355, 43.53109843546891], [39.79242146273173, 43.53109757785069], [39.79242028389747, 43.53100754396338], [39.7926665967086, 43.53091579444716], [39.79266777590548, 43.531005828330564], [39.79279152190129, 43.53100497031328], [39.792795060076834, 43.53127507194673], [39.79254874601016, 43.531366821743745]]]}, "properties": {"zone_id": "sochi-2026-08-07-003", "aoi": "sochi", "date": "2026-08-07", "scene_id": "S2B_MSIL2A_20260807T081609_R121_T37TEJ_20260807T122023", "scene_datetime_utc": "2026-08-07T08:16:09.024000+00:00", "detection_status": "detected", "detection_status_ru": "обнаружено", "lon": 39.79258, "lat": 43.53114, "n_pixels": 4, "zone_area_km2": 0.0012, "cover_m2": 32.2, "p_mean": 0.924, "p_max": 0.953, "cover_m2_km2": 26833.3, "h3": "882d568c43fffff", "valid_frac_scene": 1.0, "wind_ms": 5.1, "sea": "спокойное", "scene_reliable": false, "field_event_id": "S4:DOORS3:T17", "field_profile": "B", "field_date": "2024-06-04", "field_distance_km": 184.1, "field_date_gap_days": 794, "field_conc_items_km2": 89.61, "conc_A_items_km2": null, "conc_A_lo80": null, "conc_A_hi80": null, "conc_A_lo95": null, "conc_A_hi95": null, "conc_A_status": "unavailable", "conc_A_status_ru": "концентрация недоступна", "conc_A_reasons": "вне бассейна профиля: nw_atlantic_subtropical", "conc_A_model": "conc-A-c6bce5631d2b", "conc_B_items_km2": 621.6, "conc_B_lo80": 132.7, "conc_B_hi80": 2088.3, "conc_B_lo95": 82.8, "conc_B_hi95": 3910.2, "conc_B_status": "research_estimate", "conc_B_status_ru": "исследовательская оценка", "conc_B_reasons": "ближайшее полевое измерение в 184 км (> 60 км); месяц 8 вне месяцев обучения [6]; log_dist_coast_km = 1.0 вне диапазона обучения [1.7; 5.0]", "conc_B_model": "conc-B-c6bce5631d2b"}}, {"type": "Feature", "geometry": {"type": "Polygon", "coordinates": [[[39.888814687844864, 43.47114093144996], [39.888813368386955, 43.47105089884155], [39.88868974782563, 43.47105185973111], [39.88868710929504, 43.47087179450392], [39.88881072948945, 43.47087083362037], [39.88880941004985, 43.4707808010076], [39.88905665005345, 43.47077887884562], [39.889057969859955, 43.47086891145238], [39.88918159003605, 43.47086795016796], [39.889184230034296, 43.47104801537111], [39.88906060949129, 43.47104897666155], [39.88906192931611, 43.47113900926394], [39.888814687844864, 43.47114093144996]]]}, "properties": {"zone_id": "sochi-2026-08-07-004", "aoi": "sochi", "date": "2026-08-07", "scene_id": "S2B_MSIL2A_20260807T081609_R121_T37TEJ_20260807T122023", "scene_datetime_utc": "2026-08-07T08:16:09.024000+00:00", "detection_status": "detected", "detection_status_ru": "обнаружено", "lon": 39.88894, "lat": 43.47096, "n_pixels": 4, "zone_area_km2": 0.0012, "cover_m2": 36.1, "p_mean": 0.848, "p_max": 0.988, "cover_m2_km2": 30083.3, "h3": "882d568da1fffff", "valid_frac_scene": 1.0, "wind_ms": 5.1, "sea": "спокойное", "scene_reliable": false, "field_event_id": "S4:DOORS3:T17", "field_profile": "B", "field_date": "2024-06-04", "field_distance_km": 183.9, "field_date_gap_days": 794, "field_conc_items_km2": 89.61, "conc_A_items_km2": null, "conc_A_lo80": null, "conc_A_hi80": null, "conc_A_lo95": null, "conc_A_hi95": null, "conc_A_status": "unavailable", "conc_A_status_ru": "концентрация недоступна", "conc_A_reasons": "вне бассейна профиля: nw_atlantic_subtropical", "conc_A_model": "conc-A-c6bce5631d2b", "conc_B_items_km2": 666.4, "conc_B_lo80": 142.3, "conc_B_hi80": 2238.9, "conc_B_lo95": 88.8, "conc_B_hi95": 4192.0, "conc_B_status": "research_estimate", "conc_B_status_ru": "исследовательская оценка", "conc_B_reasons": "ближайшее полевое измерение в 184 км (> 60 км); месяц 8 вне месяцев обучения [6]; log_dist_coast_km = 0.9 вне диапазона обучения [1.7; 5.0]", "conc_B_model": "conc-B-c6bce5631d2b"}}]}