{"type": "FeatureCollection", "features": [{"type": "Feature", "geometry": {"type": "Polygon", "coordinates": [[[29.91199642195307, 60.081439208030154], [29.911988508332605, 60.08134953251241], [29.911809015878042, 60.08135348607155], [29.91179318975961, 60.081174135002], [29.911972681241966, 60.08117018147134], [29.9119647677718, 60.08108050594803], [29.912323749614, 60.081072598185216], [29.91233166405636, 60.081162273680015], [29.912511155388405, 60.08115831941936], [29.912519070366976, 60.0812479948981], [29.912698562135002, 60.081244040379836], [29.912706477649788, 60.08133371584249], [29.912526985395658, 60.08133767037497], [29.912534900474448, 60.081427345849974], [29.91199642195307, 60.081439208030154]]]}, "properties": {"zone_id": "neva-2025-06-04-001", "aoi": "neva", "date": "2025-06-04", "scene_id": "S2B_MSIL2A_20250604T093029_R136_T36VUM_20250604T112816", "scene_datetime_utc": "2025-06-04T09:30:29.024000+00:00", "detection_status": "detected", "detection_status_ru": "обнаружено", "lon": 29.91221, "lat": 60.08126, "n_pixels": 5, "zone_area_km2": 0.0014, "cover_m2": 26.7, "p_mean": 0.872, "p_max": 0.961, "cover_m2_km2": 19071.4, "h3": "88110684b3fffff", "valid_frac_scene": 1.0, "wind_ms": 8.9, "sea": "шторм", "scene_reliable": false, "field_event_id": "S3:HE419_MarLitter_transect28", "field_profile": "B", "field_date": "2014-04-11", "field_distance_km": 1411.2, "field_date_gap_days": 4072, "field_conc_items_km2": 43.1, "conc_A_items_km2": null, "conc_A_lo80": null, "conc_A_hi80": null, "conc_A_lo95": null, "conc_A_hi95": null, "conc_A_status": "unavailable", "conc_A_status_ru": "концентрация недоступна", "conc_A_reasons": "вне бассейна профиля: nw_atlantic_subtropical", "conc_A_model": "conc-A-c6bce5631d2b", "conc_B_items_km2": null, "conc_B_lo80": null, "conc_B_hi80": null, "conc_B_lo95": null, "conc_B_hi95": null, "conc_B_status": "unavailable", "conc_B_status_ru": "концентрация недоступна", "conc_B_reasons": "вне бассейна профиля: black_sea", "conc_B_model": "conc-B-c6bce5631d2b"}}, {"type": "Feature", "geometry": {"type": "Polygon", "coordinates": [[[29.911871104018363, 60.06167498453697], [29.91186319704076, 60.06158530873938], [29.91168381190562, 60.06158926135549], [29.911667999071355, 60.06140990972627], [29.911847383235653, 60.06140595713862], [29.911839476408147, 60.06131628133547], [29.91201886003699, 60.061312328518895], [29.912010952774096, 60.06122265272814], [29.912377627144572, 60.06130442215634], [29.912401352145995, 60.06157344943214], [29.912221967160956, 60.061577402777694], [29.912229875109418, 60.06166707854682], [29.911871104018363, 60.06167498453697]]]}, "properties": {"zone_id": "neva-2025-06-04-002", "aoi": "neva", "date": "2025-06-04", "scene_id": "S2B_MSIL2A_20250604T093029_R136_T36VUM_20250604T112816", "scene_datetime_utc": "2025-06-04T09:30:29.024000+00:00", "detection_status": "detected", "detection_status_ru": "обнаружено", "lon": 29.91205, "lat": 60.06146, "n_pixels": 5, "zone_area_km2": 0.0014, "cover_m2": 61.2, "p_mean": 0.991, "p_max": 0.996, "cover_m2_km2": 43714.3, "h3": "881106ba4bfffff", "valid_frac_scene": 1.0, "wind_ms": 8.9, "sea": "шторм", "scene_reliable": false, "field_event_id": "S3:HE419_MarLitter_transect28", "field_profile": "B", "field_date": "2014-04-11", "field_distance_km": 1410.6, "field_date_gap_days": 4072, "field_conc_items_km2": 43.1, "conc_A_items_km2": null, "conc_A_lo80": null, "conc_A_hi80": null, "conc_A_lo95": null, "conc_A_hi95": null, "conc_A_status": "unavailable", "conc_A_status_ru": "концентрация недоступна", "conc_A_reasons": "вне бассейна профиля: nw_atlantic_subtropical", "conc_A_model": "conc-A-c6bce5631d2b", "conc_B_items_km2": null, "conc_B_lo80": null, "conc_B_hi80": null, "conc_B_lo95": null, "conc_B_hi95": null, "conc_B_status": "unavailable", "conc_B_status_ru": "концентрация недоступна", "conc_B_reasons": "вне бассейна профиля: black_sea", "conc_B_model": "conc-B-c6bce5631d2b"}}, {"type": "Feature", "geometry": {"type": "Polygon", "coordinates": [[[29.871064281938764, 59.958163383577734], [29.87105651810125, 59.958073703137664], [29.870877686259977, 59.95807759640754], [29.870854396487214, 59.95780855503437], [29.871204293105425, 59.95771108790301], [29.871212057228977, 59.95780076833643], [29.871390887526378, 59.957796874624215], [29.87139865218088, 59.957886555041824], [29.871577482911263, 59.95788266107348], [29.871585248096714, 59.95797234147522], [29.871406416884366, 59.957976235457565], [29.87141418163684, 59.95806591587147], [29.871064281938764, 59.958163383577734]]]}, "properties": {"zone_id": "neva-2025-06-04-003", "aoi": "neva", "date": "2025-06-04", "scene_id": "S2B_MSIL2A_20250604T093029_R136_T36VUM_20250604T112816", "scene_datetime_utc": "2025-06-04T09:30:29.024000+00:00", "detection_status": "detected", "detection_status_ru": "обнаружено", "lon": 29.87118, "lat": 59.95794, "n_pixels": 4, "zone_area_km2": 0.0012, "cover_m2": 36.5, "p_mean": 0.929, "p_max": 0.988, "cover_m2_km2": 30416.7, "h3": "8811068ec7fffff", "valid_frac_scene": 1.0, "wind_ms": 8.9, "sea": "шторм", "scene_reliable": false, "field_event_id": "S3:HE419_MarLitter_transect28", "field_profile": "B", "field_date": "2014-04-11", "field_distance_km": 1405.6, "field_date_gap_days": 4072, "field_conc_items_km2": 43.1, "conc_A_items_km2": null, "conc_A_lo80": null, "conc_A_hi80": null, "conc_A_lo95": null, "conc_A_hi95": null, "conc_A_status": "unavailable", "conc_A_status_ru": "концентрация недоступна", "conc_A_reasons": "вне бассейна профиля: nw_atlantic_subtropical", "conc_A_model": "conc-A-c6bce5631d2b", "conc_B_items_km2": null, "conc_B_lo80": null, "conc_B_hi80": null, "conc_B_lo95": null, "conc_B_hi95": null, "conc_B_status": "unavailable", "conc_B_status_ru": "концентрация недоступна", "conc_B_reasons": "вне бассейна профиля: black_sea", "conc_B_model": "conc-B-c6bce5631d2b"}}, {"type": "Feature", "geometry": {"type": "Polygon", "coordinates": [[[29.789495273048377, 59.936284337462425], [29.789487736244396, 59.93619465040804], [29.789309009610513, 59.93619843232948], [29.789293937107843, 59.936019058188194], [29.789472662779005, 59.936015276293915], [29.789465126117594, 59.93592558923413], [29.79000130140186, 59.93591424214016], [29.790008839507344, 59.9360039291592], [29.790187564988397, 59.93600014629696], [29.79019510362277, 59.936089833300585], [29.789845189369593, 59.9361870858392], [29.78985272713631, 59.936276772866385], [29.789495273048377, 59.936284337462425]]]}, "properties": {"zone_id": "neva-2025-06-04-004", "aoi": "neva", "date": "2025-06-04", "scene_id": "S2B_MSIL2A_20250604T093029_R136_T36VUM_20250604T112816", "scene_datetime_utc": "2025-06-04T09:30:29.024000+00:00", "detection_status": "detected", "detection_status_ru": "обнаружено", "lon": 29.78971, "lat": 59.93609, "n_pixels": 5, "zone_area_km2": 0.0014, "cover_m2": 70.2, "p_mean": 0.953, "p_max": 0.996, "cover_m2_km2": 50142.9, "h3": "8811068e5dfffff", "valid_frac_scene": 1.0, "wind_ms": 8.9, "sea": "шторм", "scene_reliable": false, "field_event_id": "S3:HE419_MarLitter_transect28", "field_profile": "B", "field_date": "2014-04-11", "field_distance_km": 1400.7, "field_date_gap_days": 4072, "field_conc_items_km2": 43.1, "conc_A_items_km2": null, "conc_A_lo80": null, "conc_A_hi80": null, "conc_A_lo95": null, "conc_A_hi95": null, "conc_A_status": "unavailable", "conc_A_status_ru": "концентрация недоступна", "conc_A_reasons": "вне бассейна профиля: nw_atlantic_subtropical", "conc_A_model": "conc-A-c6bce5631d2b", "conc_B_items_km2": null, "conc_B_lo80": null, "conc_B_hi80": null, "conc_B_lo95": null, "conc_B_hi95": null, "conc_B_status": "unavailable", "conc_B_status_ru": "концентрация недоступна", "conc_B_reasons": "вне бассейна профиля: black_sea", "conc_B_model": "conc-B-c6bce5631d2b"}}]}