{"type": "FeatureCollection", "features": [{"type": "Feature", "geometry": {"type": "Polygon", "coordinates": [[[49.35885825455144, 53.46748291254704], [49.35886172112766, 53.467393062239], [49.35871114289648, 53.467390993637416], [49.35871460977175, 53.467301143334616], [49.3590192318385, 53.46721543001683], [49.359015765617336, 53.467305280334614], [49.35916634356813, 53.46730734855009], [49.359162877646014, 53.467397198873115], [49.359012299377504, 53.46739513065089], [49.359008833119, 53.467484980965665], [49.35885825455144, 53.46748291254704]]]}, "properties": {"zone_id": "kuibyshev-2025-05-25-001", "aoi": "kuibyshev", "date": "2025-05-25", "scene_id": "S2B_MSIL2A_20250525T074609_R135_T39UUV_20250525T084305", "scene_datetime_utc": "2025-05-25T07:46:09.024000+00:00", "detection_status": "detected", "detection_status_ru": "обнаружено", "lon": 49.35894, "lat": 53.46735, "n_pixels": 1, "zone_area_km2": 0.0005, "cover_m2": 7.1, "p_mean": 0.98, "p_max": 0.98, "cover_m2_km2": 14200.0, "h3": "881081d2a3fffff", "valid_frac_scene": 1.0, "wind_ms": 3.7, "sea": "спокойное", "scene_reliable": true, "field_event_id": "S4:DOORS3:T23", "field_profile": "B", "field_date": "2024-06-10", "field_distance_km": 1365.5, "field_date_gap_days": 349, "field_conc_items_km2": 102.37, "conc_A_items_km2": null, "conc_A_lo80": null, "conc_A_hi80": null, "conc_A_lo95": null, "conc_A_hi95": null, "conc_A_status": "unavailable", "conc_A_status_ru": "концентрация недоступна", "conc_A_reasons": "вне бассейна профиля: nw_atlantic_subtropical", "conc_A_model": "conc-A-c6bce5631d2b", "conc_B_items_km2": null, "conc_B_lo80": null, "conc_B_hi80": null, "conc_B_lo95": null, "conc_B_hi95": null, "conc_B_status": "unavailable", "conc_B_status_ru": "концентрация недоступна", "conc_B_reasons": "вне бассейна профиля: black_sea", "conc_B_model": "conc-B-c6bce5631d2b"}}, {"type": "Feature", "geometry": {"type": "Polygon", "coordinates": [[[49.48103179602945, 53.46352513002252], [49.48103500413918, 53.46343527436513], [49.48073706670298, 53.463341589421226], [49.48074027541358, 53.46325173377334], [49.480890847851555, 53.463253648504455], [49.48089405622717, 53.463163792848825], [49.48119520051953, 53.46316762172953], [49.48119199277934, 53.46325747739764], [49.48134256526913, 53.463259391559696], [49.481336150372364, 53.4634391029039], [49.48103179602945, 53.46352513002252]]]}, "properties": {"zone_id": "kuibyshev-2025-05-25-002", "aoi": "kuibyshev", "date": "2025-05-25", "scene_id": "S2B_MSIL2A_20250525T074609_R135_T39UUV_20250525T084305", "scene_datetime_utc": "2025-05-25T07:46:09.024000+00:00", "detection_status": "detected", "detection_status_ru": "обнаружено", "lon": 49.48106, "lat": 53.46333, "n_pixels": 3, "zone_area_km2": 0.001, "cover_m2": 9.4, "p_mean": 0.975, "p_max": 0.996, "cover_m2_km2": 9400.0, "h3": "881081d56bfffff", "valid_frac_scene": 1.0, "wind_ms": 3.7, "sea": "спокойное", "scene_reliable": true, "field_event_id": "S4:DOORS3:T23", "field_profile": "B", "field_date": "2024-06-10", "field_distance_km": 1368.9, "field_date_gap_days": 349, "field_conc_items_km2": 102.37, "conc_A_items_km2": null, "conc_A_lo80": null, "conc_A_hi80": null, "conc_A_lo95": null, "conc_A_hi95": null, "conc_A_status": "unavailable", "conc_A_status_ru": "концентрация недоступна", "conc_A_reasons": "вне бассейна профиля: nw_atlantic_subtropical", "conc_A_model": "conc-A-c6bce5631d2b", "conc_B_items_km2": null, "conc_B_lo80": null, "conc_B_hi80": null, "conc_B_lo95": null, "conc_B_hi95": null, "conc_B_status": "unavailable", "conc_B_status_ru": "концентрация недоступна", "conc_B_reasons": "вне бассейна профиля: black_sea", "conc_B_model": "conc-B-c6bce5631d2b"}}, {"type": "Feature", "geometry": {"type": "Polygon", "coordinates": [[[49.358173261463726, 53.46180992823529], [49.35817672876977, 53.46172007787224], [49.3580261706634, 53.46171800855738], [49.358029638268384, 53.46162815819958], [49.35818019605715, 53.4616302275077], [49.35818366332586, 53.46154037714163], [49.35848477832418, 53.46154451517547], [49.35848131169069, 53.46163436555502], [49.35863186953545, 53.46163643429422], [49.3586284032009, 53.46172628467899], [49.35847784503852, 53.46172421593306], [49.358474378367696, 53.46181406630957], [49.358173261463726, 53.46180992823529]]]}, "properties": {"zone_id": "kuibyshev-2025-05-25-003", "aoi": "kuibyshev", "date": "2025-05-25", "scene_id": "S2B_MSIL2A_20250525T074609_R135_T39UUV_20250525T084305", "scene_datetime_utc": "2025-05-25T07:46:09.024000+00:00", "detection_status": "detected", "detection_status_ru": "обнаружено", "lon": 49.35833, "lat": 53.46168, "n_pixels": 2, "zone_area_km2": 0.0008, "cover_m2": 5.9, "p_mean": 0.618, "p_max": 0.678, "cover_m2_km2": 7375.0, "h3": "881081d2a3fffff", "valid_frac_scene": 1.0, "wind_ms": 3.7, "sea": "спокойное", "scene_reliable": true, "field_event_id": "S4:DOORS3:T23", "field_profile": "B", "field_date": "2024-06-10", "field_distance_km": 1364.9, "field_date_gap_days": 349, "field_conc_items_km2": 102.37, "conc_A_items_km2": null, "conc_A_lo80": null, "conc_A_hi80": null, "conc_A_lo95": null, "conc_A_hi95": null, "conc_A_status": "unavailable", "conc_A_status_ru": "концентрация недоступна", "conc_A_reasons": "вне бассейна профиля: nw_atlantic_subtropical", "conc_A_model": "conc-A-c6bce5631d2b", "conc_B_items_km2": null, "conc_B_lo80": null, "conc_B_hi80": null, "conc_B_lo95": null, "conc_B_hi95": null, "conc_B_status": "unavailable", "conc_B_status_ru": "концентрация недоступна", "conc_B_reasons": "вне бассейна профиля: black_sea", "conc_B_model": "conc-B-c6bce5631d2b"}}, {"type": "Feature", "geometry": {"type": "Polygon", "coordinates": [[[49.46472639777752, 53.46035011155308], [49.46472963994156, 53.46026025652995], [49.46457907922747, 53.46025832150855], [49.464585564138474, 53.460078611470436], [49.46473612421727, 53.460080546479226], [49.464739366328935, 53.45999069145161], [49.46504048590362, 53.4599945608876], [49.465037244427236, 53.460084415927824], [49.465187804558404, 53.46008635036764], [49.46518132218856, 53.46026606045619], [49.465030761422106, 53.46026412600378], [49.46502751989336, 53.4603539810395], [49.46472639777752, 53.46035011155308]]]}, "properties": {"zone_id": "kuibyshev-2025-05-25-004", "aoi": "kuibyshev", "date": "2025-05-25", "scene_id": "S2B_MSIL2A_20250525T074609_R135_T39UUV_20250525T084305", "scene_datetime_utc": "2025-05-25T07:46:09.024000+00:00", "detection_status": "detected", "detection_status_ru": "обнаружено", "lon": 49.46488, "lat": 53.46017, "n_pixels": 4, "zone_area_km2": 0.0012, "cover_m2": 19.6, "p_mean": 0.997, "p_max": 1.0, "cover_m2_km2": 16333.3, "h3": "881081d569fffff", "valid_frac_scene": 1.0, "wind_ms": 3.7, "sea": "спокойное", "scene_reliable": true, "field_event_id": "S4:DOORS3:T23", "field_profile": "B", "field_date": "2024-06-10", "field_distance_km": 1368.1, "field_date_gap_days": 349, "field_conc_items_km2": 102.37, "conc_A_items_km2": null, "conc_A_lo80": null, "conc_A_hi80": null, "conc_A_lo95": null, "conc_A_hi95": null, "conc_A_status": "unavailable", "conc_A_status_ru": "концентрация недоступна", "conc_A_reasons": "вне бассейна профиля: nw_atlantic_subtropical", "conc_A_model": "conc-A-c6bce5631d2b", "conc_B_items_km2": null, "conc_B_lo80": null, "conc_B_hi80": null, "conc_B_lo95": null, "conc_B_hi95": null, "conc_B_status": "unavailable", "conc_B_status_ru": "концентрация недоступна", "conc_B_reasons": "вне бассейна профиля: black_sea", "conc_B_model": "conc-B-c6bce5631d2b"}}, {"type": "Feature", "geometry": {"type": "Polygon", "coordinates": [[[49.48343449023259, 53.455285179191016], [49.4834376923076, 53.45519532330904], [49.483287148198094, 53.455193411983785], [49.483293552931514, 53.45501370022782], [49.4834440964059, 53.455015611540624], [49.483447298429176, 53.454925755654166], [49.48374518340638, 53.45501943359735], [49.48374198200097, 53.45510928949476], [49.483892525844624, 53.4551112002449], [49.48388932473954, 53.45520105614705], [49.48373878057832, 53.45519914539069], [49.48373557913843, 53.4552890012851], [49.48343449023259, 53.455285179191016]]]}, "properties": {"zone_id": "kuibyshev-2025-05-25-005", "aoi": "kuibyshev", "date": "2025-05-25", "scene_id": "S2B_MSIL2A_20250525T074609_R135_T39UUV_20250525T084305", "scene_datetime_utc": "2025-05-25T07:46:09.024000+00:00", "detection_status": "detected", "detection_status_ru": "обнаружено", "lon": 49.48357, "lat": 53.45512, "n_pixels": 3, "zone_area_km2": 0.001, "cover_m2": 13.7, "p_mean": 0.983, "p_max": 0.996, "cover_m2_km2": 13700.0, "h3": "881081d561fffff", "valid_frac_scene": 1.0, "wind_ms": 3.7, "sea": "спокойное", "scene_reliable": true, "field_event_id": "S4:DOORS3:T23", "field_profile": "B", "field_date": "2024-06-10", "field_distance_km": 1368.2, "field_date_gap_days": 349, "field_conc_items_km2": 102.37, "conc_A_items_km2": null, "conc_A_lo80": null, "conc_A_hi80": null, "conc_A_lo95": null, "conc_A_hi95": null, "conc_A_status": "unavailable", "conc_A_status_ru": "концентрация недоступна", "conc_A_reasons": "вне бассейна профиля: nw_atlantic_subtropical", "conc_A_model": "conc-A-c6bce5631d2b", "conc_B_items_km2": null, "conc_B_lo80": null, "conc_B_hi80": null, "conc_B_lo95": null, "conc_B_hi95": null, "conc_B_status": "unavailable", "conc_B_status_ru": "концентрация недоступна", "conc_B_reasons": "вне бассейна профиля: black_sea", "conc_B_model": "conc-B-c6bce5631d2b"}}, {"type": "Feature", "geometry": {"type": "Polygon", "coordinates": [[[49.451620803083415, 53.45209024401619], [49.45162407193321, 53.45200038942178], [49.45147354136, 53.45199843809301], [49.45147681050968, 53.45190858350346], [49.451627340765405, 53.45191053482586], [49.45163060958, 53.451820680228465], [49.451931669509285, 53.45182458229176], [49.451928401329646, 53.45191443690189], [49.45207893163816, 53.45191638765549], [49.45207566375841, 53.452006242270464], [49.45192513313241, 53.452004291510505], [49.45192186491758, 53.452094146117616], [49.451620803083415, 53.45209024401619]]]}, "properties": {"zone_id": "kuibyshev-2025-05-25-006", "aoi": "kuibyshev", "date": "2025-05-25", "scene_id": "S2B_MSIL2A_20250525T074609_R135_T39UUV_20250525T084305", "scene_datetime_utc": "2025-05-25T07:46:09.024000+00:00", "detection_status": "detected", "detection_status_ru": "обнаружено", "lon": 49.45178, "lat": 53.45196, "n_pixels": 2, "zone_area_km2": 0.0008, "cover_m2": 7.1, "p_mean": 0.99, "p_max": 0.992, "cover_m2_km2": 8875.0, "h3": "881081d0bbfffff", "valid_frac_scene": 1.0, "wind_ms": 3.7, "sea": "спокойное", "scene_reliable": true, "field_event_id": "S4:DOORS3:T23", "field_profile": "B", "field_date": "2024-06-10", "field_distance_km": 1366.9, "field_date_gap_days": 349, "field_conc_items_km2": 102.37, "conc_A_items_km2": null, "conc_A_lo80": null, "conc_A_hi80": null, "conc_A_lo95": null, "conc_A_hi95": null, "conc_A_status": "unavailable", "conc_A_status_ru": "концентрация недоступна", "conc_A_reasons": "вне бассейна профиля: nw_atlantic_subtropical", "conc_A_model": "conc-A-c6bce5631d2b", "conc_B_items_km2": null, "conc_B_lo80": null, "conc_B_hi80": null, "conc_B_lo95": null, "conc_B_hi95": null, "conc_B_status": "unavailable", "conc_B_status_ru": "концентрация недоступна", "conc_B_reasons": "вне бассейна профиля: black_sea", "conc_B_model": "conc-B-c6bce5631d2b"}}]}