{"type": "FeatureCollection", "features": [{"type": "Feature", "geometry": {"type": "Polygon", "coordinates": [[[131.91545825139025, 43.305417678110146], [131.91545394998846, 43.305327748797254], [131.91533081078103, 43.30533089006402], [131.91532220839906, 43.30515103141334], [131.91556418454658, 43.30505481947831], [131.91556848606987, 43.30514474878668], [131.9156916248755, 43.30514160727476], [131.91570022834375, 43.30532146586658], [131.91545825139025, 43.305417678110146]]]}, "properties": {"zone_id": "vladivostok-2026-08-11-001", "aoi": "vladivostok", "date": "2026-08-11", "scene_id": "S2C_MSIL2A_20260811T020651_R103_T52TGN_20260811T053610", "scene_datetime_utc": "2026-08-11T02:06:51.025000+00:00", "detection_status": "detected", "detection_status_ru": "обнаружено", "lon": 131.91551, "lat": 43.30524, "n_pixels": 2, "zone_area_km2": 0.0008, "cover_m2": 6.3, "p_mean": 0.676, "p_max": 0.725, "cover_m2_km2": 7875.0, "h3": "88316cceb3fffff", "valid_frac_scene": 1.0, "wind_ms": 2.9, "sea": "спокойное", "scene_reliable": true, "field_event_id": "S4:DOORS3:T23", "field_profile": "B", "field_date": "2024-06-10", "field_distance_km": 6972.9, "field_date_gap_days": 792, "field_conc_items_km2": 102.37, "conc_A_items_km2": null, "conc_A_lo80": null, "conc_A_hi80": null, "conc_A_lo95": null, "conc_A_hi95": null, "conc_A_status": "unavailable", "conc_A_status_ru": "концентрация недоступна", "conc_A_reasons": "вне бассейна профиля: nw_atlantic_subtropical", "conc_A_model": "conc-A-c6bce5631d2b", "conc_B_items_km2": null, "conc_B_lo80": null, "conc_B_hi80": null, "conc_B_lo95": null, "conc_B_hi95": null, "conc_B_status": "unavailable", "conc_B_status_ru": "концентрация недоступна", "conc_B_reasons": "вне бассейна профиля: black_sea", "conc_B_model": "conc-B-c6bce5631d2b"}}, {"type": "Feature", "geometry": {"type": "Polygon", "coordinates": [[[131.91457047474515, 43.30490008795028], [131.9145661747297, 43.30481015855814], [131.91444303646972, 43.30481329883936], [131.91443873665517, 43.30472336943564], [131.91456187473415, 43.30472022916423], [131.91455757475842, 43.30463029976858], [131.9148081508326, 43.304713948224276], [131.91481245119027, 43.304803877598566], [131.91468931296993, 43.30480701814454], [131.91469361316638, 43.30489694752688], [131.91457047474515, 43.30490008795028]]]}, "properties": {"zone_id": "vladivostok-2026-08-11-002", "aoi": "vladivostok", "date": "2026-08-11", "scene_id": "S2C_MSIL2A_20260811T020651_R103_T52TGN_20260811T053610", "scene_datetime_utc": "2026-08-11T02:06:51.025000+00:00", "detection_status": "detected", "detection_status_ru": "обнаружено", "lon": 131.91463, "lat": 43.30476, "n_pixels": 1, "zone_area_km2": 0.0005, "cover_m2": 2.7, "p_mean": 0.925, "p_max": 0.925, "cover_m2_km2": 5400.0, "h3": "88316cceb3fffff", "valid_frac_scene": 1.0, "wind_ms": 2.9, "sea": "спокойное", "scene_reliable": true, "field_event_id": "S4:DOORS3:T23", "field_profile": "B", "field_date": "2024-06-10", "field_distance_km": 6972.8, "field_date_gap_days": 792, "field_conc_items_km2": 102.37, "conc_A_items_km2": null, "conc_A_lo80": null, "conc_A_hi80": null, "conc_A_lo95": null, "conc_A_hi95": null, "conc_A_status": "unavailable", "conc_A_status_ru": "концентрация недоступна", "conc_A_reasons": "вне бассейна профиля: nw_atlantic_subtropical", "conc_A_model": "conc-A-c6bce5631d2b", "conc_B_items_km2": null, "conc_B_lo80": null, "conc_B_hi80": null, "conc_B_lo95": null, "conc_B_hi95": null, "conc_B_status": "unavailable", "conc_B_status_ru": "концентрация недоступна", "conc_B_reasons": "вне бассейна профиля: black_sea", "conc_B_model": "conc-B-c6bce5631d2b"}}, {"type": "Feature", "geometry": {"type": "Polygon", "coordinates": [[[131.78072818993857, 43.300581556375775], [131.7807240878481, 43.30049161644571], [131.7806009439692, 43.300494612394516], [131.78059684207878, 43.30040467245336], [131.7807199857766, 43.30040167651393], [131.780715883724, 43.300311736580404], [131.78096627311547, 43.30039568423781], [131.78097037554917, 43.30048562415089], [131.7808472317081, 43.300488620364504], [131.78085133397965, 43.30057856028522], [131.78072818993857, 43.300581556375775]]]}, "properties": {"zone_id": "vladivostok-2026-08-11-003", "aoi": "vladivostok", "date": "2026-08-11", "scene_id": "S2C_MSIL2A_20260811T020651_R103_T52TGN_20260811T053610", "scene_datetime_utc": "2026-08-11T02:06:51.025000+00:00", "detection_status": "detected", "detection_status_ru": "обнаружено", "lon": 131.78078, "lat": 43.30045, "n_pixels": 1, "zone_area_km2": 0.0005, "cover_m2": 11.8, "p_mean": 0.545, "p_max": 0.545, "cover_m2_km2": 23600.0, "h3": "88316ccd33fffff", "valid_frac_scene": 1.0, "wind_ms": 2.9, "sea": "спокойное", "scene_reliable": true, "field_event_id": "S4:DOORS3:T23", "field_profile": "B", "field_date": "2024-06-10", "field_distance_km": 6964.1, "field_date_gap_days": 792, "field_conc_items_km2": 102.37, "conc_A_items_km2": null, "conc_A_lo80": null, "conc_A_hi80": null, "conc_A_lo95": null, "conc_A_hi95": null, "conc_A_status": "unavailable", "conc_A_status_ru": "концентрация недоступна", "conc_A_reasons": "вне бассейна профиля: nw_atlantic_subtropical", "conc_A_model": "conc-A-c6bce5631d2b", "conc_B_items_km2": null, "conc_B_lo80": null, "conc_B_hi80": null, "conc_B_lo95": null, "conc_B_hi95": null, "conc_B_status": "unavailable", "conc_B_status_ru": "концентрация недоступна", "conc_B_reasons": "вне бассейна профиля: black_sea", "conc_B_model": "conc-B-c6bce5631d2b"}}, {"type": "Feature", "geometry": {"type": "Polygon", "coordinates": [[[131.771715065794, 43.294857857478], [131.77171097780615, 43.2947679167703], [131.77158784453619, 43.29477090270214], [131.77158375674824, 43.29468096198337], [131.7717068898372, 43.294677976060846], [131.77170280188707, 43.29458803534968], [131.7719490676463, 43.294582063126136], [131.7719531559585, 43.29467200381864], [131.77207628899086, 43.294669017498975], [131.77208037750296, 43.29475895818044], [131.77195724428955, 43.294761944509446], [131.77196133263948, 43.29485188519849], [131.771715065794, 43.294857857478]]]}, "properties": {"zone_id": "vladivostok-2026-08-11-004", "aoi": "vladivostok", "date": "2026-08-11", "scene_id": "S2C_MSIL2A_20260811T020651_R103_T52TGN_20260811T053610", "scene_datetime_utc": "2026-08-11T02:06:51.025000+00:00", "detection_status": "detected", "detection_status_ru": "обнаружено", "lon": 131.77183, "lat": 43.29472, "n_pixels": 2, "zone_area_km2": 0.0008, "cover_m2": 31.8, "p_mean": 0.743, "p_max": 0.937, "cover_m2_km2": 39750.0, "h3": "88316c52ddfffff", "valid_frac_scene": 1.0, "wind_ms": 2.9, "sea": "спокойное", "scene_reliable": true, "field_event_id": "S4:DOORS3:T23", "field_profile": "B", "field_date": "2024-06-10", "field_distance_km": 6963.8, "field_date_gap_days": 792, "field_conc_items_km2": 102.37, "conc_A_items_km2": null, "conc_A_lo80": null, "conc_A_hi80": null, "conc_A_lo95": null, "conc_A_hi95": null, "conc_A_status": "unavailable", "conc_A_status_ru": "концентрация недоступна", "conc_A_reasons": "вне бассейна профиля: nw_atlantic_subtropical", "conc_A_model": "conc-A-c6bce5631d2b", "conc_B_items_km2": null, "conc_B_lo80": null, "conc_B_hi80": null, "conc_B_lo95": null, "conc_B_hi95": null, "conc_B_status": "unavailable", "conc_B_status_ru": "концентрация недоступна", "conc_B_reasons": "вне бассейна профиля: black_sea", "conc_B_model": "conc-B-c6bce5631d2b"}}, {"type": "Feature", "geometry": {"type": "Polygon", "coordinates": [[[131.76958503104962, 43.294099132614924], [131.76958094630913, 43.294009191733124], [131.76933059800842, 43.293925217893324], [131.76932242934578, 43.293745336083795], [131.76944556078266, 43.29374235264676], [131.76944147629857, 43.29365241174871], [131.76969182359989, 43.293736385375546], [131.7696999933487, 43.29391626712914], [131.7698231250911, 43.29391328327631], [131.76982721017484, 43.294003224141214], [131.76970407825138, 43.29400620800336], [131.76970816317294, 43.29409614887584], [131.76958503104962, 43.294099132614924]]]}, "properties": {"zone_id": "vladivostok-2026-08-11-005", "aoi": "vladivostok", "date": "2026-08-11", "scene_id": "S2C_MSIL2A_20260811T020651_R103_T52TGN_20260811T053610", "scene_datetime_utc": "2026-08-11T02:06:51.025000+00:00", "detection_status": "detected", "detection_status_ru": "обнаружено", "lon": 131.76955, "lat": 43.29387, "n_pixels": 3, "zone_area_km2": 0.0011, "cover_m2": 50.6, "p_mean": 0.719, "p_max": 0.792, "cover_m2_km2": 46000.0, "h3": "88316c52ddfffff", "valid_frac_scene": 1.0, "wind_ms": 2.9, "sea": "спокойное", "scene_reliable": true, "field_event_id": "S4:DOORS3:T23", "field_profile": "B", "field_date": "2024-06-10", "field_distance_km": 6963.7, "field_date_gap_days": 792, "field_conc_items_km2": 102.37, "conc_A_items_km2": null, "conc_A_lo80": null, "conc_A_hi80": null, "conc_A_lo95": null, "conc_A_hi95": null, "conc_A_status": "unavailable", "conc_A_status_ru": "концентрация недоступна", "conc_A_reasons": "вне бассейна профиля: nw_atlantic_subtropical", "conc_A_model": "conc-A-c6bce5631d2b", "conc_B_items_km2": null, "conc_B_lo80": null, "conc_B_hi80": null, "conc_B_lo95": null, "conc_B_hi95": null, "conc_B_status": "unavailable", "conc_B_status_ru": "концентрация недоступна", "conc_B_reasons": "вне бассейна профиля: black_sea", "conc_B_model": "conc-B-c6bce5631d2b"}}, {"type": "Feature", "geometry": {"type": "Polygon", "coordinates": [[[131.76820608023746, 43.2935922990757], [131.76820199760135, 43.29350235808101], [131.7680788665192, 43.29350534016627], [131.768074784083, 43.29341539916053], [131.7681979149841, 43.29341241708459], [131.76819383238572, 43.29332247608645], [131.76868635507776, 43.29331054649616], [131.76869043840028, 43.29340048745701], [131.76881356920725, 43.293397504719174], [131.76881765272964, 43.293487445669], [131.76869452174165, 43.293490428416156], [131.76869860510186, 43.29358036937358], [131.76820608023746, 43.2935922990757]]]}, "properties": {"zone_id": "vladivostok-2026-08-11-006", "aoi": "vladivostok", "date": "2026-08-11", "scene_id": "S2C_MSIL2A_20260811T020651_R103_T52TGN_20260811T053610", "scene_datetime_utc": "2026-08-11T02:06:51.025000+00:00", "detection_status": "detected", "detection_status_ru": "обнаружено", "lon": 131.76845, "lat": 43.29345, "n_pixels": 4, "zone_area_km2": 0.0014, "cover_m2": 68.2, "p_mean": 0.619, "p_max": 0.714, "cover_m2_km2": 48714.3, "h3": "88316c52ddfffff", "valid_frac_scene": 1.0, "wind_ms": 2.9, "sea": "спокойное", "scene_reliable": true, "field_event_id": "S4:DOORS3:T23", "field_profile": "B", "field_date": "2024-06-10", "field_distance_km": 6963.7, "field_date_gap_days": 792, "field_conc_items_km2": 102.37, "conc_A_items_km2": null, "conc_A_lo80": null, "conc_A_hi80": null, "conc_A_lo95": null, "conc_A_hi95": null, "conc_A_status": "unavailable", "conc_A_status_ru": "концентрация недоступна", "conc_A_reasons": "вне бассейна профиля: nw_atlantic_subtropical", "conc_A_model": "conc-A-c6bce5631d2b", "conc_B_items_km2": null, "conc_B_lo80": null, "conc_B_hi80": null, "conc_B_lo95": null, "conc_B_hi95": null, "conc_B_status": "unavailable", "conc_B_status_ru": "концентрация недоступна", "conc_B_reasons": "вне бассейна профиля: black_sea", "conc_B_model": "conc-B-c6bce5631d2b"}}, {"type": "Feature", "geometry": {"type": "Polygon", "coordinates": [[[131.76770130939232, 43.29333440355867], [131.76769722753684, 43.293244462521535], [131.76757409692243, 43.29324744404932], [131.7675659336301, 43.29306756195124], [131.7673196730689, 43.293073524572414], [131.76731559181303, 43.29298358350215], [131.7671924616852, 43.292986564604846], [131.7671883806292, 43.292896623523546], [131.76743055910467, 43.29280072013998], [131.76743464050392, 43.292890661204396], [131.7676809003033, 43.292884698355714], [131.76768498208347, 43.292974639399766], [131.76780811213592, 43.29297165776753], [131.76781219411595, 43.29306159880054], [131.76805845452645, 43.293055635120325], [131.76806253688736, 43.29314557613297], [131.76818566724538, 43.29314259408499], [131.76818974980614, 43.29323253508659], [131.76806661926705, 43.29323551714389], [131.7680707016656, 43.29332545815308], [131.7678203581324, 43.29324148086137], [131.7678244401689, 43.29333142188918], [131.76770130939232, 43.29333440355867]]]}, "properties": {"zone_id": "vladivostok-2026-08-11-007", "aoi": "vladivostok", "date": "2026-08-11", "scene_id": "S2C_MSIL2A_20260811T020651_R103_T52TGN_20260811T053610", "scene_datetime_utc": "2026-08-11T02:06:51.025000+00:00", "detection_status": "detected", "detection_status_ru": "обнаружено", "lon": 131.7677, "lat": 43.29309, "n_pixels": 5, "zone_area_km2": 0.002, "cover_m2": 82.0, "p_mean": 0.702, "p_max": 0.863, "cover_m2_km2": 41000.0, "h3": "88316c52ddfffff", "valid_frac_scene": 1.0, "wind_ms": 2.9, "sea": "спокойное", "scene_reliable": true, "field_event_id": "S4:DOORS3:T23", "field_profile": "B", "field_date": "2024-06-10", "field_distance_km": 6963.7, "field_date_gap_days": 792, "field_conc_items_km2": 102.37, "conc_A_items_km2": null, "conc_A_lo80": null, "conc_A_hi80": null, "conc_A_lo95": null, "conc_A_hi95": null, "conc_A_status": "unavailable", "conc_A_status_ru": "концентрация недоступна", "conc_A_reasons": "вне бассейна профиля: nw_atlantic_subtropical", "conc_A_model": "conc-A-c6bce5631d2b", "conc_B_items_km2": null, "conc_B_lo80": null, "conc_B_hi80": null, "conc_B_lo95": null, "conc_B_hi95": null, "conc_B_status": "unavailable", "conc_B_status_ru": "концентрация недоступна", "conc_B_reasons": "вне бассейна профиля: black_sea", "conc_B_model": "conc-B-c6bce5631d2b"}}, {"type": "Feature", "geometry": {"type": "Polygon", "coordinates": [[[131.7640041426557, 43.29063263306434], [131.76400006663314, 43.290542691703706], [131.76387694108462, 43.290545669104056], [131.76386878945792, 43.29036578635894], [131.76399191464446, 43.29036280897719], [131.76398376273096, 43.290182926243794], [131.76422593603306, 43.2900870297697], [131.7642300123236, 43.290176971120395], [131.7643531370917, 43.29017399336015], [131.76436944316595, 43.29053375870843], [131.7642463176738, 43.29053673650588], [131.7642503940584, 43.29062667784793], [131.7640041426557, 43.29063263306434]]]}, "properties": {"zone_id": "vladivostok-2026-08-11-008", "aoi": "vladivostok", "date": "2026-08-11", "scene_id": "S2C_MSIL2A_20260811T020651_R103_T52TGN_20260811T053610", "scene_datetime_utc": "2026-08-11T02:06:51.025000+00:00", "detection_status": "detected", "detection_status_ru": "обнаружено", "lon": 131.76414, "lat": 43.29039, "n_pixels": 6, "zone_area_km2": 0.0017, "cover_m2": 88.2, "p_mean": 0.763, "p_max": 0.929, "cover_m2_km2": 51882.4, "h3": "88316c52c3fffff", "valid_frac_scene": 1.0, "wind_ms": 2.9, "sea": "спокойное", "scene_reliable": true, "field_event_id": "S4:DOORS3:T23", "field_profile": "B", "field_date": "2024-06-10", "field_distance_km": 6963.6, "field_date_gap_days": 792, "field_conc_items_km2": 102.37, "conc_A_items_km2": null, "conc_A_lo80": null, "conc_A_hi80": null, "conc_A_lo95": null, "conc_A_hi95": null, "conc_A_status": "unavailable", "conc_A_status_ru": "концентрация недоступна", "conc_A_reasons": "вне бассейна профиля: nw_atlantic_subtropical", "conc_A_model": "conc-A-c6bce5631d2b", "conc_B_items_km2": null, "conc_B_lo80": null, "conc_B_hi80": null, "conc_B_lo95": null, "conc_B_hi95": null, "conc_B_status": "unavailable", "conc_B_status_ru": "концентрация недоступна", "conc_B_reasons": "вне бассейна профиля: black_sea", "conc_B_model": "conc-B-c6bce5631d2b"}}, {"type": "Feature", "geometry": {"type": "Polygon", "coordinates": [[[131.82304163310718, 43.290540290260374], [131.82303747010596, 43.29045035342879], [131.82291435094552, 43.290453394370275], [131.82290602536258, 43.29027352068286], [131.82314809981577, 43.29017750187823], [131.82315226294037, 43.29026743870554], [131.82327538170046, 43.29026439751835], [131.82328370836916, 43.290444271148765], [131.82304163310718, 43.290540290260374]]]}, "properties": {"zone_id": "vladivostok-2026-08-11-009", "aoi": "vladivostok", "date": "2026-08-11", "scene_id": "S2C_MSIL2A_20260811T020651_R103_T52TGN_20260811T053610", "scene_datetime_utc": "2026-08-11T02:06:51.025000+00:00", "detection_status": "detected", "detection_status_ru": "обнаружено", "lon": 131.82309, "lat": 43.29036, "n_pixels": 2, "zone_area_km2": 0.0008, "cover_m2": 7.8, "p_mean": 0.837, "p_max": 0.992, "cover_m2_km2": 9750.0, "h3": "88316ccd89fffff", "valid_frac_scene": 1.0, "wind_ms": 2.9, "sea": "спокойное", "scene_reliable": true, "field_event_id": "S4:DOORS3:T23", "field_profile": "B", "field_date": "2024-06-10", "field_distance_km": 6967.6, "field_date_gap_days": 792, "field_conc_items_km2": 102.37, "conc_A_items_km2": null, "conc_A_lo80": null, "conc_A_hi80": null, "conc_A_lo95": null, "conc_A_hi95": null, "conc_A_status": "unavailable", "conc_A_status_ru": "концентрация недоступна", "conc_A_reasons": "вне бассейна профиля: nw_atlantic_subtropical", "conc_A_model": "conc-A-c6bce5631d2b", "conc_B_items_km2": null, "conc_B_lo80": null, "conc_B_hi80": null, "conc_B_lo95": null, "conc_B_hi95": null, "conc_B_status": "unavailable", "conc_B_status_ru": "концентрация недоступна", "conc_B_reasons": "вне бассейна профиля: black_sea", "conc_B_model": "conc-B-c6bce5631d2b"}}, {"type": "Feature", "geometry": {"type": "Polygon", "coordinates": [[[131.76656088331677, 43.276344455762555], [131.7665568055613, 43.27625451437078], [131.76643370909022, 43.276257493741696], [131.7664255539974, 43.276077610934344], [131.76666766831733, 43.27598171070978], [131.7666717461973, 43.27607165209743], [131.76679484226898, 43.27606867248052], [131.766802998447, 43.27624855523203], [131.76656088331677, 43.276344455762555]]]}, "properties": {"zone_id": "vladivostok-2026-08-11-010", "aoi": "vladivostok", "date": "2026-08-11", "scene_id": "S2C_MSIL2A_20260811T020651_R103_T52TGN_20260811T053610", "scene_datetime_utc": "2026-08-11T02:06:51.025000+00:00", "detection_status": "detected", "detection_status_ru": "обнаружено", "lon": 131.76661, "lat": 43.27616, "n_pixels": 2, "zone_area_km2": 0.0008, "cover_m2": 7.8, "p_mean": 0.924, "p_max": 0.988, "cover_m2_km2": 9750.0, "h3": "88316c529dfffff", "valid_frac_scene": 1.0, "wind_ms": 2.9, "sea": "спокойное", "scene_reliable": true, "field_event_id": "S4:DOORS3:T23", "field_profile": "B", "field_date": "2024-06-10", "field_distance_km": 6964.6, "field_date_gap_days": 792, "field_conc_items_km2": 102.37, "conc_A_items_km2": null, "conc_A_lo80": null, "conc_A_hi80": null, "conc_A_lo95": null, "conc_A_hi95": null, "conc_A_status": "unavailable", "conc_A_status_ru": "концентрация недоступна", "conc_A_reasons": "вне бассейна профиля: nw_atlantic_subtropical", "conc_A_model": "conc-A-c6bce5631d2b", "conc_B_items_km2": null, "conc_B_lo80": null, "conc_B_hi80": null, "conc_B_lo95": null, "conc_B_hi95": null, "conc_B_status": "unavailable", "conc_B_status_ru": "концентрация недоступна", "conc_B_reasons": "вне бассейна профиля: black_sea", "conc_B_model": "conc-B-c6bce5631d2b"}}, {"type": "Feature", "geometry": {"type": "Polygon", "coordinates": [[[131.63921402869772, 43.16113142626055], [131.63921015412686, 43.16104147359587], [131.63908727628967, 43.16104430990147], [131.63908340191657, 43.160954357226224], [131.63920627957387, 43.160951520929494], [131.63920240503873, 43.16086156826141], [131.6394520348349, 43.160945847940546], [131.63945590974765, 43.161035800589204], [131.6393330319462, 43.16103863715845], [131.63933690669694, 43.16112858981427], [131.63921402869772, 43.16113142626055]]]}, "properties": {"zone_id": "vladivostok-2026-08-11-011", "aoi": "vladivostok", "date": "2026-08-11", "scene_id": "S2C_MSIL2A_20260811T020651_R103_T52TGN_20260811T053610", "scene_datetime_utc": "2026-08-11T02:06:51.025000+00:00", "detection_status": "detected", "detection_status_ru": "обнаружено", "lon": 131.63927, "lat": 43.161, "n_pixels": 1, "zone_area_km2": 0.0005, "cover_m2": 3.5, "p_mean": 0.996, "p_max": 0.996, "cover_m2_km2": 7000.0, "h3": "88316c4315fffff", "valid_frac_scene": 1.0, "wind_ms": 2.9, "sea": "спокойное", "scene_reliable": true, "field_event_id": "S4:DOORS3:T23", "field_profile": "B", "field_date": "2024-06-10", "field_distance_km": 6963.1, "field_date_gap_days": 792, "field_conc_items_km2": 102.37, "conc_A_items_km2": null, "conc_A_lo80": null, "conc_A_hi80": null, "conc_A_lo95": null, "conc_A_hi95": null, "conc_A_status": "unavailable", "conc_A_status_ru": "концентрация недоступна", "conc_A_reasons": "вне бассейна профиля: nw_atlantic_subtropical", "conc_A_model": "conc-A-c6bce5631d2b", "conc_B_items_km2": null, "conc_B_lo80": null, "conc_B_hi80": null, "conc_B_lo95": null, "conc_B_hi95": null, "conc_B_status": "unavailable", "conc_B_status_ru": "концентрация недоступна", "conc_B_reasons": "вне бассейна профиля: black_sea", "conc_B_model": "conc-B-c6bce5631d2b"}}, {"type": "Feature", "geometry": {"type": "Polygon", "coordinates": [[[131.73694588932366, 43.14892907707352], [131.7369418730932, 43.14883913143376], [131.7368190295589, 43.14884207203238], [131.7368150135266, 43.1487521263817], [131.7369378568812, 43.14874918579226], [131.73693384068773, 43.148659240149065], [131.73718354353488, 43.14874330421821], [131.73718756010632, 43.14883324984131], [131.737064716609, 43.1488361907034], [131.7370687330192, 43.14892613633397], [131.73694588932366, 43.14892907707352]]]}, "properties": {"zone_id": "vladivostok-2026-08-11-012", "aoi": "vladivostok", "date": "2026-08-11", "scene_id": "S2C_MSIL2A_20260811T020651_R103_T52TGN_20260811T053610", "scene_datetime_utc": "2026-08-11T02:06:51.025000+00:00", "detection_status": "detected", "detection_status_ru": "обнаружено", "lon": 131.737, "lat": 43.14879, "n_pixels": 1, "zone_area_km2": 0.0005, "cover_m2": 3.5, "p_mean": 0.596, "p_max": 0.596, "cover_m2_km2": 7000.0, "h3": "88316c42c3fffff", "valid_frac_scene": 1.0, "wind_ms": 2.9, "sea": "спокойное", "scene_reliable": true, "field_event_id": "S4:DOORS3:T23", "field_profile": "B", "field_date": "2024-06-10", "field_distance_km": 6970.5, "field_date_gap_days": 792, "field_conc_items_km2": 102.37, "conc_A_items_km2": null, "conc_A_lo80": null, "conc_A_hi80": null, "conc_A_lo95": null, "conc_A_hi95": null, "conc_A_status": "unavailable", "conc_A_status_ru": "концентрация недоступна", "conc_A_reasons": "вне бассейна профиля: nw_atlantic_subtropical", "conc_A_model": "conc-A-c6bce5631d2b", "conc_B_items_km2": null, "conc_B_lo80": null, "conc_B_hi80": null, "conc_B_lo95": null, "conc_B_hi95": null, "conc_B_status": "unavailable", "conc_B_status_ru": "концентрация недоступна", "conc_B_reasons": "вне бассейна профиля: black_sea", "conc_B_model": "conc-B-c6bce5631d2b"}}, {"type": "Feature", "geometry": {"type": "Polygon", "coordinates": [[[131.7633199041053, 43.09562012361466], [131.76331585674495, 43.095530179127024], [131.7631931225404, 43.09553314512072], [131.76318907537788, 43.09544320062211], [131.76331180940323, 43.095440234637685], [131.7633077620802, 43.09535029014663], [131.76355727739804, 43.09543430227443], [131.76356132509815, 43.095524246745235], [131.76343859093086, 43.095527213001866], [131.76344263847042, 43.09561715748022], [131.7633199041053, 43.09562012361466]]]}, "properties": {"zone_id": "vladivostok-2026-08-11-013", "aoi": "vladivostok", "date": "2026-08-11", "scene_id": "S2C_MSIL2A_20260811T020651_R103_T52TGN_20260811T053610", "scene_datetime_utc": "2026-08-11T02:06:51.025000+00:00", "detection_status": "detected", "detection_status_ru": "обнаружено", "lon": 131.76338, "lat": 43.09548, "n_pixels": 1, "zone_area_km2": 0.0005, "cover_m2": 6.7, "p_mean": 0.6, "p_max": 0.6, "cover_m2_km2": 13400.0, "h3": "88316c4709fffff", "valid_frac_scene": 1.0, "wind_ms": 2.9, "sea": "спокойное", "scene_reliable": true, "field_event_id": "S4:DOORS3:T23", "field_profile": "B", "field_date": "2024-06-10", "field_distance_km": 6975.6, "field_date_gap_days": 792, "field_conc_items_km2": 102.37, "conc_A_items_km2": null, "conc_A_lo80": null, "conc_A_hi80": null, "conc_A_lo95": null, "conc_A_hi95": null, "conc_A_status": "unavailable", "conc_A_status_ru": "концентрация недоступна", "conc_A_reasons": "вне бассейна профиля: nw_atlantic_subtropical", "conc_A_model": "conc-A-c6bce5631d2b", "conc_B_items_km2": null, "conc_B_lo80": null, "conc_B_hi80": null, "conc_B_lo95": null, "conc_B_hi95": null, "conc_B_status": "unavailable", "conc_B_status_ru": "концентрация недоступна", "conc_B_reasons": "вне бассейна профиля: black_sea", "conc_B_model": "conc-B-c6bce5631d2b"}}, {"type": "Feature", "geometry": {"type": "Polygon", "coordinates": [[[131.84754054906023, 43.07563538130019], [131.8475363813537, 43.07554544298854], [131.84741369589403, 43.07554849818025], [131.8474053608965, 43.07536862153261], [131.84752804599825, 43.07536556635999], [131.84752387834925, 43.075275628043094], [131.84777341614418, 43.075359455620685], [131.84777758417027, 43.07544939391672], [131.84790026939342, 43.07544633834049], [131.84790443761767, 43.075536276625236], [131.84778175221555, 43.07553933221103], [131.84778592028002, 43.07562927050359], [131.84754054906023, 43.07563538130019]]]}, "properties": {"zone_id": "vladivostok-2026-08-11-014", "aoi": "vladivostok", "date": "2026-08-11", "scene_id": "S2C_MSIL2A_20260811T020651_R103_T52TGN_20260811T053610", "scene_datetime_utc": "2026-08-11T02:06:51.025000+00:00", "detection_status": "detected", "detection_status_ru": "обнаружено", "lon": 131.84764, "lat": 43.07547, "n_pixels": 3, "zone_area_km2": 0.001, "cover_m2": 12.9, "p_mean": 0.817, "p_max": 0.957, "cover_m2_km2": 12900.0, "h3": "88316c4611fffff", "valid_frac_scene": 1.0, "wind_ms": 2.9, "sea": "спокойное", "scene_reliable": true, "field_event_id": "S4:DOORS3:T23", "field_profile": "B", "field_date": "2024-06-10", "field_distance_km": 6982.5, "field_date_gap_days": 792, "field_conc_items_km2": 102.37, "conc_A_items_km2": null, "conc_A_lo80": null, "conc_A_hi80": null, "conc_A_lo95": null, "conc_A_hi95": null, "conc_A_status": "unavailable", "conc_A_status_ru": "концентрация недоступна", "conc_A_reasons": "вне бассейна профиля: nw_atlantic_subtropical", "conc_A_model": "conc-A-c6bce5631d2b", "conc_B_items_km2": null, "conc_B_lo80": null, "conc_B_hi80": null, "conc_B_lo95": null, "conc_B_hi95": null, "conc_B_status": "unavailable", "conc_B_status_ru": "концентрация недоступна", "conc_B_reasons": "вне бассейна профиля: black_sea", "conc_B_model": "conc-B-c6bce5631d2b"}}, {"type": "Feature", "geometry": {"type": "Polygon", "coordinates": [[[131.97336609592293, 43.00048912631088], [131.9733617556246, 43.00039919687537], [131.97323923349103, 43.00040238251767], [131.9732348933909, 43.00031245307044], [131.97335741534627, 43.0003092674381], [131.97335307508789, 43.00021933799904], [131.97360245919714, 43.000302895780514], [131.97360679983188, 43.00039282519787], [131.97348427773824, 43.00039601110211], [131.97348861821476, 43.00048594052765], [131.97336609592293, 43.00048912631088]]]}, "properties": {"zone_id": "vladivostok-2026-08-11-015", "aoi": "vladivostok", "date": "2026-08-11", "scene_id": "S2C_MSIL2A_20260811T020651_R103_T52TGN_20260811T053610", "scene_datetime_utc": "2026-08-11T02:06:51.025000+00:00", "detection_status": "detected", "detection_status_ru": "обнаружено", "lon": 131.97342, "lat": 43.00035, "n_pixels": 1, "zone_area_km2": 0.0005, "cover_m2": 3.9, "p_mean": 0.769, "p_max": 0.769, "cover_m2_km2": 7800.0, "h3": "88316c720bfffff", "valid_frac_scene": 1.0, "wind_ms": 2.9, "sea": "спокойное", "scene_reliable": true, "field_event_id": "S4:DOORS3:T23", "field_profile": "B", "field_date": "2024-06-10", "field_distance_km": 6995.6, "field_date_gap_days": 792, "field_conc_items_km2": 102.37, "conc_A_items_km2": null, "conc_A_lo80": null, "conc_A_hi80": null, "conc_A_lo95": null, "conc_A_hi95": null, "conc_A_status": "unavailable", "conc_A_status_ru": "концентрация недоступна", "conc_A_reasons": "вне бассейна профиля: nw_atlantic_subtropical", "conc_A_model": "conc-A-c6bce5631d2b", "conc_B_items_km2": null, "conc_B_lo80": null, "conc_B_hi80": null, "conc_B_lo95": null, "conc_B_hi95": null, "conc_B_status": "unavailable", "conc_B_status_ru": "концентрация недоступна", "conc_B_reasons": "вне бассейна профиля: black_sea", "conc_B_model": "conc-B-c6bce5631d2b"}}, {"type": "Feature", "geometry": {"type": "Polygon", "coordinates": [[[131.68261510953528, 42.99471249700963], [131.68261119411872, 42.99462254489389], [131.68248865268944, 42.994625418952054], [131.6824847374692, 42.99453546682564], [131.68260727872016, 42.99453259277646], [131.6826033633396, 42.994442640657326], [131.68285236116805, 42.99452684428499], [131.68285627692327, 42.99461679638446], [131.68273373553, 42.994619670704694], [131.6827376511249, 42.994709622811435], [131.68261510953528, 42.99471249700963]]]}, "properties": {"zone_id": "vladivostok-2026-08-11-016", "aoi": "vladivostok", "date": "2026-08-11", "scene_id": "S2C_MSIL2A_20260811T020651_R103_T52TGN_20260811T053610", "scene_datetime_utc": "2026-08-11T02:06:51.025000+00:00", "detection_status": "detected", "detection_status_ru": "обнаружено", "lon": 131.68267, "lat": 42.99458, "n_pixels": 1, "zone_area_km2": 0.0005, "cover_m2": 9.0, "p_mean": 0.988, "p_max": 0.988, "cover_m2_km2": 18000.0, "h3": "88316c4ee7fffff", "valid_frac_scene": 1.0, "wind_ms": 2.9, "sea": "спокойное", "scene_reliable": true, "field_event_id": "S4:DOORS3:T23", "field_profile": "B", "field_date": "2024-06-10", "field_distance_km": 6976.3, "field_date_gap_days": 792, "field_conc_items_km2": 102.37, "conc_A_items_km2": null, "conc_A_lo80": null, "conc_A_hi80": null, "conc_A_lo95": null, "conc_A_hi95": null, "conc_A_status": "unavailable", "conc_A_status_ru": "концентрация недоступна", "conc_A_reasons": "вне бассейна профиля: nw_atlantic_subtropical", "conc_A_model": "conc-A-c6bce5631d2b", "conc_B_items_km2": null, "conc_B_lo80": null, "conc_B_hi80": null, "conc_B_lo95": null, "conc_B_hi95": null, "conc_B_status": "unavailable", "conc_B_status_ru": "концентрация недоступна", "conc_B_reasons": "вне бассейна профиля: black_sea", "conc_B_model": "conc-B-c6bce5631d2b"}}, {"type": "Feature", "geometry": {"type": "Polygon", "coordinates": [[[131.94828009067498, 42.9838504701162], [131.94827578946388, 42.98376053837807], [131.94815329759788, 42.98376369619198], [131.94814469559122, 42.983583832690655], [131.94838537726133, 42.98348758523787], [131.94838967859113, 42.983577516971444], [131.9485121700614, 42.98357435891549], [131.94852077313652, 42.98375422235757], [131.94828009067498, 42.9838504701162]]]}, "properties": {"zone_id": "vladivostok-2026-08-11-017", "aoi": "vladivostok", "date": "2026-08-11", "scene_id": "S2C_MSIL2A_20260811T020651_R103_T52TGN_20260811T053610", "scene_datetime_utc": "2026-08-11T02:06:51.025000+00:00", "detection_status": "detected", "detection_status_ru": "обнаружено", "lon": 131.94833, "lat": 42.98367, "n_pixels": 2, "zone_area_km2": 0.0008, "cover_m2": 11.4, "p_mean": 0.855, "p_max": 0.961, "cover_m2_km2": 14250.0, "h3": "88316c7235fffff", "valid_frac_scene": 1.0, "wind_ms": 2.9, "sea": "спокойное", "scene_reliable": true, "field_event_id": "S4:DOORS3:T23", "field_profile": "B", "field_date": "2024-06-10", "field_distance_km": 6995.0, "field_date_gap_days": 792, "field_conc_items_km2": 102.37, "conc_A_items_km2": null, "conc_A_lo80": null, "conc_A_hi80": null, "conc_A_lo95": null, "conc_A_hi95": null, "conc_A_status": "unavailable", "conc_A_status_ru": "концентрация недоступна", "conc_A_reasons": "вне бассейна профиля: nw_atlantic_subtropical", "conc_A_model": "conc-A-c6bce5631d2b", "conc_B_items_km2": null, "conc_B_lo80": null, "conc_B_hi80": null, "conc_B_lo95": null, "conc_B_hi95": null, "conc_B_status": "unavailable", "conc_B_status_ru": "концентрация недоступна", "conc_B_reasons": "вне бассейна профиля: black_sea", "conc_B_model": "conc-B-c6bce5631d2b"}}]}