{"type": "FeatureCollection", "features": [{"type": "Feature", "geometry": {"type": "Polygon", "coordinates": [[[39.748032566365254, 43.554357309943086], [39.748031452658125, 43.55426727548397], [39.747907657770526, 43.554268085400246], [39.74790654425282, 43.55417805093718], [39.74803033895614, 43.55417724102344], [39.74802922525933, 43.554087206561455], [39.748277928347335, 43.55417562079388], [39.74827904241784, 43.55426565524935], [39.74815524754056, 43.55426646543368], [39.74815636143196, 43.55435649989025], [39.748032566365254, 43.554357309943086]]]}, "properties": {"zone_id": "sochi-2026-09-10-001", "aoi": "sochi", "date": "2026-09-10", "scene_id": "S2A_MSIL2A_20260910T081641_R078_T37TEJ_20260910T142115", "scene_datetime_utc": "2026-09-10T08:16:41.024000+00:00", "detection_status": "detected", "detection_status_ru": "обнаружено", "lon": 39.74809, "lat": 43.55422, "n_pixels": 1, "zone_area_km2": 0.0005, "cover_m2": 3.5, "p_mean": 0.714, "p_max": 0.714, "cover_m2_km2": 7000.0, "h3": "882d568e07fffff", "valid_frac_scene": 1.0, "wind_ms": 2.3, "sea": "спокойное", "scene_reliable": true, "field_event_id": "S4:DOORS3:T17", "field_profile": "B", "field_date": "2024-06-04", "field_distance_km": 184.0, "field_date_gap_days": 828, "field_conc_items_km2": 89.61, "conc_A_items_km2": null, "conc_A_lo80": null, "conc_A_hi80": null, "conc_A_lo95": null, "conc_A_hi95": null, "conc_A_status": "unavailable", "conc_A_status_ru": "концентрация недоступна", "conc_A_reasons": "вне бассейна профиля: nw_atlantic_subtropical", "conc_A_model": "conc-A-c6bce5631d2b", "conc_B_items_km2": 666.4, "conc_B_lo80": 142.3, "conc_B_hi80": 2238.7, "conc_B_lo95": 88.8, "conc_B_hi95": 4191.8, "conc_B_status": "research_estimate", "conc_B_status_ru": "исследовательская оценка", "conc_B_reasons": "ближайшее полевое измерение в 184 км (> 60 км); месяц 9 вне месяцев обучения [6]; log_dist_coast_km = 0.9 вне диапазона обучения [1.7; 5.0]", "conc_B_model": "conc-B-c6bce5631d2b"}}, {"type": "Feature", "geometry": {"type": "Polygon", "coordinates": [[[39.74589695529966, 43.551850093730025], [39.7458958448691, 43.55176005918745], [39.7457720550532, 43.55176086675456], [39.745769834575995, 43.55158079766004], [39.74601630286629, 43.55148914785752], [39.746017413465665, 43.55157918240189], [39.74614120290279, 43.5515783745718], [39.746143424485474, 43.55175844365118], [39.74589695529966, 43.551850093730025]]]}, "properties": {"zone_id": "sochi-2026-09-10-002", "aoi": "sochi", "date": "2026-09-10", "scene_id": "S2A_MSIL2A_20260910T081641_R078_T37TEJ_20260910T142115", "scene_datetime_utc": "2026-09-10T08:16:41.024000+00:00", "detection_status": "detected", "detection_status_ru": "обнаружено", "lon": 39.74596, "lat": 43.55167, "n_pixels": 2, "zone_area_km2": 0.0008, "cover_m2": 22.4, "p_mean": 0.849, "p_max": 0.996, "cover_m2_km2": 28000.0, "h3": "882d568e05fffff", "valid_frac_scene": 1.0, "wind_ms": 2.3, "sea": "спокойное", "scene_reliable": true, "field_event_id": "S4:DOORS3:T17", "field_profile": "B", "field_date": "2024-06-04", "field_distance_km": 183.7, "field_date_gap_days": 828, "field_conc_items_km2": 89.61, "conc_A_items_km2": null, "conc_A_lo80": null, "conc_A_hi80": null, "conc_A_lo95": null, "conc_A_hi95": null, "conc_A_status": "unavailable", "conc_A_status_ru": "концентрация недоступна", "conc_A_reasons": "вне бассейна профиля: nw_atlantic_subtropical", "conc_A_model": "conc-A-c6bce5631d2b", "conc_B_items_km2": 666.4, "conc_B_lo80": 142.3, "conc_B_hi80": 2238.7, "conc_B_lo95": 88.8, "conc_B_hi95": 4191.8, "conc_B_status": "research_estimate", "conc_B_status_ru": "исследовательская оценка", "conc_B_reasons": "ближайшее полевое измерение в 184 км (> 60 км); месяц 9 вне месяцев обучения [6]; log_dist_coast_km = 0.9 вне диапазона обучения [1.7; 5.0]", "conc_B_model": "conc-B-c6bce5631d2b"}}, {"type": "Feature", "geometry": {"type": "Polygon", "coordinates": [[[39.74750872699712, 43.54202500388797], [39.74750761454866, 43.541934969223156], [39.74738384488257, 43.54193577839076], [39.747380508120564, 43.54166567438005], [39.74762693373067, 43.54157402125797], [39.747628046342676, 43.54166405592605], [39.74775181544601, 43.541663246498096], [39.747755153865384, 43.54193335048604], [39.74750872699712, 43.54202500388797]]]}, "properties": {"zone_id": "sochi-2026-09-10-003", "aoi": "sochi", "date": "2026-09-10", "scene_id": "S2A_MSIL2A_20260910T081641_R078_T37TEJ_20260910T142115", "scene_datetime_utc": "2026-09-10T08:16:41.024000+00:00", "detection_status": "detected", "detection_status_ru": "обнаружено", "lon": 39.74757, "lat": 43.5418, "n_pixels": 3, "zone_area_km2": 0.0011, "cover_m2": 20.4, "p_mean": 0.78, "p_max": 0.953, "cover_m2_km2": 18545.5, "h3": "882d568e29fffff", "valid_frac_scene": 1.0, "wind_ms": 2.3, "sea": "спокойное", "scene_reliable": true, "field_event_id": "S4:DOORS3:T17", "field_profile": "B", "field_date": "2024-06-04", "field_distance_km": 182.9, "field_date_gap_days": 828, "field_conc_items_km2": 89.61, "conc_A_items_km2": null, "conc_A_lo80": null, "conc_A_hi80": null, "conc_A_lo95": null, "conc_A_hi95": null, "conc_A_status": "unavailable", "conc_A_status_ru": "концентрация недоступна", "conc_A_reasons": "вне бассейна профиля: nw_atlantic_subtropical", "conc_A_model": "conc-A-c6bce5631d2b", "conc_B_items_km2": 591.0, "conc_B_lo80": 126.1, "conc_B_hi80": 1985.7, "conc_B_lo95": 78.7, "conc_B_hi95": 3718.1, "conc_B_status": "research_estimate", "conc_B_status_ru": "исследовательская оценка", "conc_B_reasons": "ближайшее полевое измерение в 183 км (> 60 км); месяц 9 вне месяцев обучения [6]; log_dist_coast_km = 1.2 вне диапазона обучения [1.7; 5.0]", "conc_B_model": "conc-B-c6bce5631d2b"}}, {"type": "Feature", "geometry": {"type": "Polygon", "coordinates": [[[39.86629860526774, 43.487431397074516], [39.866297318501395, 43.48734136418064], [39.86617366397776, 43.48734230100658], [39.866171090830164, 43.487162235208594], [39.86641711220493, 43.487070328539396], [39.866418399137025, 43.4871603614347], [39.86654205328152, 43.48715942434719], [39.86654462753081, 43.48733949012762], [39.86629860526774, 43.487431397074516]]]}, "properties": {"zone_id": "sochi-2026-09-10-004", "aoi": "sochi", "date": "2026-09-10", "scene_id": "S2A_MSIL2A_20260910T081641_R078_T37TEJ_20260910T142115", "scene_datetime_utc": "2026-09-10T08:16:41.024000+00:00", "detection_status": "detected", "detection_status_ru": "обнаружено", "lon": 39.86636, "lat": 43.48725, "n_pixels": 2, "zone_area_km2": 0.0008, "cover_m2": 10.6, "p_mean": 0.882, "p_max": 0.961, "cover_m2_km2": 13250.0, "h3": "882d568debfffff", "valid_frac_scene": 1.0, "wind_ms": 2.3, "sea": "спокойное", "scene_reliable": true, "field_event_id": "S4:DOORS3:T17", "field_profile": "B", "field_date": "2024-06-04", "field_distance_km": 184.1, "field_date_gap_days": 828, "field_conc_items_km2": 89.61, "conc_A_items_km2": null, "conc_A_lo80": null, "conc_A_hi80": null, "conc_A_lo95": null, "conc_A_hi95": null, "conc_A_status": "unavailable", "conc_A_status_ru": "концентрация недоступна", "conc_A_reasons": "вне бассейна профиля: nw_atlantic_subtropical", "conc_A_model": "conc-A-c6bce5631d2b", "conc_B_items_km2": 591.0, "conc_B_lo80": 126.1, "conc_B_hi80": 1985.7, "conc_B_lo95": 78.7, "conc_B_hi95": 3718.1, "conc_B_status": "research_estimate", "conc_B_status_ru": "исследовательская оценка", "conc_B_reasons": "ближайшее полевое измерение в 184 км (> 60 км); месяц 9 вне месяцев обучения [6]; log_dist_coast_km = 1.2 вне диапазона обучения [1.7; 5.0]", "conc_B_model": "conc-B-c6bce5631d2b"}}, {"type": "Feature", "geometry": {"type": "Polygon", "coordinates": [[[39.86418877265531, 43.486907107298], [39.86418748904608, 43.48681707434567], [39.86406383552304, 43.4868180088811], [39.86406255210336, 43.486727975924396], [39.86418620544279, 43.48672704139188], [39.864184921845435, 43.48663700843664], [39.86443351210383, 43.48672517192576], [39.86443479607435, 43.48681520487369], [39.86431114256318, 43.486816139676534], [39.86431242635602, 43.48690617262594], [39.86418877265531, 43.486907107298]]]}, "properties": {"zone_id": "sochi-2026-09-10-005", "aoi": "sochi", "date": "2026-09-10", "scene_id": "S2A_MSIL2A_20260910T081641_R078_T37TEJ_20260910T142115", "scene_datetime_utc": "2026-09-10T08:16:41.024000+00:00", "detection_status": "detected", "detection_status_ru": "обнаружено", "lon": 39.86425, "lat": 43.48677, "n_pixels": 1, "zone_area_km2": 0.0005, "cover_m2": 5.5, "p_mean": 0.957, "p_max": 0.957, "cover_m2_km2": 11000.0, "h3": "882d568debfffff", "valid_frac_scene": 1.0, "wind_ms": 2.3, "sea": "спокойное", "scene_reliable": true, "field_event_id": "S4:DOORS3:T17", "field_profile": "B", "field_date": "2024-06-04", "field_distance_km": 184.0, "field_date_gap_days": 828, "field_conc_items_km2": 89.61, "conc_A_items_km2": null, "conc_A_lo80": null, "conc_A_hi80": null, "conc_A_lo95": null, "conc_A_hi95": null, "conc_A_status": "unavailable", "conc_A_status_ru": "концентрация недоступна", "conc_A_reasons": "вне бассейна профиля: nw_atlantic_subtropical", "conc_A_model": "conc-A-c6bce5631d2b", "conc_B_items_km2": 591.0, "conc_B_lo80": 126.1, "conc_B_hi80": 1985.7, "conc_B_lo95": 78.7, "conc_B_hi95": 3718.1, "conc_B_status": "research_estimate", "conc_B_status_ru": "исследовательская оценка", "conc_B_reasons": "ближайшее полевое измерение в 184 км (> 60 км); месяц 9 вне месяцев обучения [6]; log_dist_coast_km = 1.2 вне диапазона обучения [1.7; 5.0]", "conc_B_model": "conc-B-c6bce5631d2b"}}, {"type": "Feature", "geometry": {"type": "Polygon", "coordinates": [[[39.83957533384318, 43.48664027867615], [39.8395740868021, 43.48655024514342], [39.839450433032106, 43.48655115305744], [39.83944918618042, 43.48646111952041], [39.839572839766795, 43.48646021160924], [39.839571592737265, 43.486370178073614], [39.83982014692225, 43.48645839538579], [39.83982139432477, 43.48654842891429], [39.83969774056632, 43.48654933709571], [39.83969898779101, 43.48663937062559], [39.83957533384318, 43.48664027867615]]]}, "properties": {"zone_id": "sochi-2026-09-10-006", "aoi": "sochi", "date": "2026-09-10", "scene_id": "S2A_MSIL2A_20260910T081641_R078_T37TEJ_20260910T142115", "scene_datetime_utc": "2026-09-10T08:16:41.024000+00:00", "detection_status": "detected", "detection_status_ru": "обнаружено", "lon": 39.83964, "lat": 43.4865, "n_pixels": 1, "zone_area_km2": 0.0005, "cover_m2": 13.3, "p_mean": 0.753, "p_max": 0.753, "cover_m2_km2": 26600.0, "h3": "882d568d13fffff", "valid_frac_scene": 1.0, "wind_ms": 2.3, "sea": "спокойное", "scene_reliable": true, "field_event_id": "S4:DOORS3:T17", "field_profile": "B", "field_date": "2024-06-04", "field_distance_km": 182.7, "field_date_gap_days": 828, "field_conc_items_km2": 89.61, "conc_A_items_km2": null, "conc_A_lo80": null, "conc_A_hi80": null, "conc_A_lo95": null, "conc_A_hi95": null, "conc_A_status": "unavailable", "conc_A_status_ru": "концентрация недоступна", "conc_A_reasons": "вне бассейна профиля: nw_atlantic_subtropical", "conc_A_model": "conc-A-c6bce5631d2b", "conc_B_items_km2": 539.0, "conc_B_lo80": 114.9, "conc_B_hi80": 1811.2, "conc_B_lo95": 71.7, "conc_B_hi95": 3391.4, "conc_B_status": "research_estimate", "conc_B_status_ru": "исследовательская оценка", "conc_B_reasons": "ближайшее полевое измерение в 183 км (> 60 км); месяц 9 вне месяцев обучения [6]", "conc_B_model": "conc-B-c6bce5631d2b"}}, {"type": "Feature", "geometry": {"type": "Polygon", "coordinates": [[[39.75518736840179, 43.47291196938419], [39.755186247233794, 43.47282193378543], [39.75506261891859, 43.472822750237064], [39.75506149793928, 43.472732714634304], [39.755185126070984, 43.47273189818522], [39.75518400491336, 43.472641862583565], [39.75543238231884, 43.47273026488611], [39.75543350384864, 43.47282030048121], [39.755309875543816, 43.472821117200134], [39.75531099689531, 43.47291115279637], [39.75518736840179, 43.47291196938419]]]}, "properties": {"zone_id": "sochi-2026-09-10-007", "aoi": "sochi", "date": "2026-09-10", "scene_id": "S2A_MSIL2A_20260910T081641_R078_T37TEJ_20260910T142115", "scene_datetime_utc": "2026-09-10T08:16:41.024000+00:00", "detection_status": "detected", "detection_status_ru": "обнаружено", "lon": 39.75525, "lat": 43.47278, "n_pixels": 1, "zone_area_km2": 0.0005, "cover_m2": 2.0, "p_mean": 0.627, "p_max": 0.627, "cover_m2_km2": 4000.0, "h3": "882d568f25fffff", "valid_frac_scene": 1.0, "wind_ms": 2.3, "sea": "спокойное", "scene_reliable": true, "field_event_id": "S4:DOORS3:T17", "field_profile": "B", "field_date": "2024-06-04", "field_distance_km": 177.2, "field_date_gap_days": 828, "field_conc_items_km2": 89.61, "conc_A_items_km2": null, "conc_A_lo80": null, "conc_A_hi80": null, "conc_A_lo95": null, "conc_A_hi95": null, "conc_A_status": "unavailable", "conc_A_status_ru": "концентрация недоступна", "conc_A_reasons": "вне бассейна профиля: nw_atlantic_subtropical", "conc_A_model": "conc-A-c6bce5631d2b", "conc_B_items_km2": 406.7, "conc_B_lo80": 86.5, "conc_B_hi80": 1367.2, "conc_B_lo95": 53.9, "conc_B_hi95": 2560.3, "conc_B_status": "research_estimate", "conc_B_status_ru": "исследовательская оценка", "conc_B_reasons": "ближайшее полевое измерение в 177 км (> 60 км); месяц 9 вне месяцев обучения [6]", "conc_B_model": "conc-B-c6bce5631d2b"}}, {"type": "Feature", "geometry": {"type": "Polygon", "coordinates": [[[39.803240293830896, 43.46970312379696], [39.8032391014605, 43.46961308917639], [39.8031154810983, 43.46961395752938], [39.803113096740965, 43.46943388827847], [39.80335914418868, 43.46934211682752], [39.803360336725994, 43.46943215144971], [39.80348395671024, 43.469431282834876], [39.803486342168334, 43.46961135206951], [39.803240293830896, 43.46970312379696]]]}, "properties": {"zone_id": "sochi-2026-09-10-008", "aoi": "sochi", "date": "2026-09-10", "scene_id": "S2A_MSIL2A_20260910T081641_R078_T37TEJ_20260910T142115", "scene_datetime_utc": "2026-09-10T08:16:41.024000+00:00", "detection_status": "detected", "detection_status_ru": "обнаружено", "lon": 39.8033, "lat": 43.46952, "n_pixels": 2, "zone_area_km2": 0.0008, "cover_m2": 4.7, "p_mean": 0.939, "p_max": 0.976, "cover_m2_km2": 5875.0, "h3": "882d568d09fffff", "valid_frac_scene": 1.0, "wind_ms": 2.3, "sea": "спокойное", "scene_reliable": true, "field_event_id": "S4:DOORS3:T17", "field_profile": "B", "field_date": "2024-06-04", "field_distance_km": 179.3, "field_date_gap_days": 828, "field_conc_items_km2": 89.61, "conc_A_items_km2": null, "conc_A_lo80": null, "conc_A_hi80": null, "conc_A_lo95": null, "conc_A_hi95": null, "conc_A_status": "unavailable", "conc_A_status_ru": "концентрация недоступна", "conc_A_reasons": "вне бассейна профиля: nw_atlantic_subtropical", "conc_A_model": "conc-A-c6bce5631d2b", "conc_B_items_km2": 448.2, "conc_B_lo80": 95.5, "conc_B_hi80": 1506.6, "conc_B_lo95": 59.4, "conc_B_hi95": 2821.2, "conc_B_status": "research_estimate", "conc_B_status_ru": "исследовательская оценка", "conc_B_reasons": "ближайшее полевое измерение в 179 км (> 60 км); месяц 9 вне месяцев обучения [6]", "conc_B_model": "conc-B-c6bce5631d2b"}}, {"type": "Feature", "geometry": {"type": "Polygon", "coordinates": [[[39.75637985983656, 43.46939240906428], [39.75637873703617, 43.46930237343466], [39.756255115928674, 43.469303191123075], [39.75625399331695, 43.469213155489435], [39.75637761424099, 43.46921233780358], [39.756376491451, 43.469122302171044], [39.75662373291656, 43.46912066640353], [39.75662485607348, 43.469210702030956], [39.756748476981926, 43.46920988394419], [39.7567496003275, 43.4692999195676], [39.75662597923559, 43.46930073765691], [39.7566271024029, 43.46939077328142], [39.75637985983656, 43.46939240906428]]]}, "properties": {"zone_id": "sochi-2026-09-10-009", "aoi": "sochi", "date": "2026-09-10", "scene_id": "S2A_MSIL2A_20260910T081641_R078_T37TEJ_20260910T142115", "scene_datetime_utc": "2026-09-10T08:16:41.024000+00:00", "detection_status": "detected", "detection_status_ru": "обнаружено", "lon": 39.7565, "lat": 43.46926, "n_pixels": 2, "zone_area_km2": 0.0008, "cover_m2": 9.4, "p_mean": 0.992, "p_max": 1.0, "cover_m2_km2": 11750.0, "h3": "882d568f25fffff", "valid_frac_scene": 1.0, "wind_ms": 2.3, "sea": "спокойное", "scene_reliable": true, "field_event_id": "S4:DOORS3:T17", "field_profile": "B", "field_date": "2024-06-04", "field_distance_km": 176.9, "field_date_gap_days": 828, "field_conc_items_km2": 89.61, "conc_A_items_km2": null, "conc_A_lo80": null, "conc_A_hi80": null, "conc_A_lo95": null, "conc_A_hi95": null, "conc_A_status": "unavailable", "conc_A_status_ru": "концентрация недоступна", "conc_A_reasons": "вне бассейна профиля: nw_atlantic_subtropical", "conc_A_model": "conc-A-c6bce5631d2b", "conc_B_items_km2": 406.7, "conc_B_lo80": 86.5, "conc_B_hi80": 1367.2, "conc_B_lo95": 53.9, "conc_B_hi95": 2560.3, "conc_B_status": "research_estimate", "conc_B_status_ru": "исследовательская оценка", "conc_B_reasons": "ближайшее полевое измерение в 177 км (> 60 км); месяц 9 вне месяцев обучения [6]", "conc_B_model": "conc-B-c6bce5631d2b"}}, {"type": "Feature", "geometry": {"type": "Polygon", "coordinates": [[[39.81750379038465, 43.463929323816004], [39.81750257708671, 43.4638392894218], [39.81737896892614, 43.46384017310163], [39.81737775581721, 43.46375013870322], [39.81750136379437, 43.463749255026144], [39.817500150507655, 43.46365922062905], [39.81774857973185, 43.4637474872712], [39.81774979339098, 43.46383752166133], [39.81762618524165, 43.463838405608364], [39.817627398723, 43.463928439999805], [39.81750379038465, 43.463929323816004]]]}, "properties": {"zone_id": "sochi-2026-09-10-010", "aoi": "sochi", "date": "2026-09-10", "scene_id": "S2A_MSIL2A_20260910T081641_R078_T37TEJ_20260910T142115", "scene_datetime_utc": "2026-09-10T08:16:41.024000+00:00", "detection_status": "detected", "detection_status_ru": "обнаружено", "lon": 39.81756, "lat": 43.46379, "n_pixels": 1, "zone_area_km2": 0.0005, "cover_m2": 2.4, "p_mean": 0.698, "p_max": 0.698, "cover_m2_km2": 4800.0, "h3": "882d568d07fffff", "valid_frac_scene": 1.0, "wind_ms": 2.3, "sea": "спокойное", "scene_reliable": true, "field_event_id": "S4:DOORS3:T17", "field_profile": "B", "field_date": "2024-06-04", "field_distance_km": 179.6, "field_date_gap_days": 828, "field_conc_items_km2": 89.61, "conc_A_items_km2": null, "conc_A_lo80": null, "conc_A_hi80": null, "conc_A_lo95": null, "conc_A_hi95": null, "conc_A_status": "unavailable", "conc_A_status_ru": "концентрация недоступна", "conc_A_reasons": "вне бассейна профиля: nw_atlantic_subtropical", "conc_A_model": "conc-A-c6bce5631d2b", "conc_B_items_km2": 431.8, "conc_B_lo80": 91.9, "conc_B_hi80": 1451.4, "conc_B_lo95": 57.2, "conc_B_hi95": 2717.9, "conc_B_status": "research_estimate", "conc_B_status_ru": "исследовательская оценка", "conc_B_reasons": "ближайшее полевое измерение в 180 км (> 60 км); месяц 9 вне месяцев обучения [6]", "conc_B_model": "conc-B-c6bce5631d2b"}}, {"type": "Feature", "geometry": {"type": "Polygon", "coordinates": [[[39.87265254234824, 43.45631828669434], [39.872651247551346, 43.4562282534605], [39.87252765665266, 43.45622919662245], [39.87252636204508, 43.45613916338422], [39.872649952760455, 43.45613822022523], [39.872648657975546, 43.45604818698848], [39.87277224850161, 43.45604724369889], [39.87277095353937, 43.45595721046364], [39.87301942953577, 43.45604535671902], [39.873020724870635, 43.4561353899469], [39.87289713417323, 43.45613633350657], [39.87289842933077, 43.456226366735955], [39.87265254234824, 43.45631828669434]]]}, "properties": {"zone_id": "sochi-2026-09-10-011", "aoi": "sochi", "date": "2026-09-10", "scene_id": "S2A_MSIL2A_20260910T081641_R078_T37TEJ_20260910T142115", "scene_datetime_utc": "2026-09-10T08:16:41.024000+00:00", "detection_status": "detected", "detection_status_ru": "обнаружено", "lon": 39.87277, "lat": 43.45614, "n_pixels": 2, "zone_area_km2": 0.0008, "cover_m2": 11.0, "p_mean": 0.788, "p_max": 0.898, "cover_m2_km2": 13750.0, "h3": "882d5612d1fffff", "valid_frac_scene": 1.0, "wind_ms": 2.3, "sea": "спокойное", "scene_reliable": true, "field_event_id": "S4:DOORS3:T17", "field_profile": "B", "field_date": "2024-06-04", "field_distance_km": 181.8, "field_date_gap_days": 828, "field_conc_items_km2": 89.61, "conc_A_items_km2": null, "conc_A_lo80": null, "conc_A_hi80": null, "conc_A_lo95": null, "conc_A_hi95": null, "conc_A_status": "unavailable", "conc_A_status_ru": "концентрация недоступна", "conc_A_reasons": "вне бассейна профиля: nw_atlantic_subtropical", "conc_A_model": "conc-A-c6bce5631d2b", "conc_B_items_km2": 591.0, "conc_B_lo80": 126.1, "conc_B_hi80": 1985.7, "conc_B_lo95": 78.7, "conc_B_hi95": 3718.1, "conc_B_status": "research_estimate", "conc_B_status_ru": "исследовательская оценка", "conc_B_reasons": "ближайшее полевое измерение в 182 км (> 60 км); месяц 9 вне месяцев обучения [6]; log_dist_coast_km = 1.2 вне диапазона обучения [1.7; 5.0]", "conc_B_model": "conc-B-c6bce5631d2b"}}, {"type": "Feature", "geometry": {"type": "Polygon", "coordinates": [[[39.90347698088668, 43.43455854801433], [39.9034756413754, 43.43446851518883], [39.90335209580031, 43.434469491277746], [39.90334941716255, 43.43428942561624], [39.903472962371424, 43.43428844953342], [39.90347162287873, 43.43419841670354], [39.903720052770595, 43.43428649696744], [39.9037213926357, 43.434376529789766], [39.9038449380091, 43.43437555330353], [39.90384627806351, 43.43446558612134], [39.903722732507006, 43.43446656261064], [39.903724072384506, 43.43455659543003], [39.90347698088668, 43.43455854801433]]]}, "properties": {"zone_id": "sochi-2026-09-10-012", "aoi": "sochi", "date": "2026-09-10", "scene_id": "S2A_MSIL2A_20260910T081641_R078_T37TEJ_20260910T142115", "scene_datetime_utc": "2026-09-10T08:16:41.024000+00:00", "detection_status": "detected", "detection_status_ru": "обнаружено", "lon": 39.90358, "lat": 43.43439, "n_pixels": 3, "zone_area_km2": 0.001, "cover_m2": 40.0, "p_mean": 0.822, "p_max": 0.996, "cover_m2_km2": 40000.0, "h3": "882d5612b9fffff", "valid_frac_scene": 1.0, "wind_ms": 2.3, "sea": "спокойное", "scene_reliable": true, "field_event_id": "S4:DOORS3:T23", "field_profile": "B", "field_date": "2024-06-10", "field_distance_km": 180.9, "field_date_gap_days": 822, "field_conc_items_km2": 102.37, "conc_A_items_km2": null, "conc_A_lo80": null, "conc_A_hi80": null, "conc_A_lo95": null, "conc_A_hi95": null, "conc_A_status": "unavailable", "conc_A_status_ru": "концентрация недоступна", "conc_A_reasons": "вне бассейна профиля: nw_atlantic_subtropical", "conc_A_model": "conc-A-c6bce5631d2b", "conc_B_items_km2": 901.4, "conc_B_lo80": 192.7, "conc_B_hi80": 3027.3, "conc_B_lo95": 120.4, "conc_B_hi95": 5668.0, "conc_B_status": "research_estimate", "conc_B_status_ru": "исследовательская оценка", "conc_B_reasons": "ближайшее полевое измерение в 181 км (> 60 км); месяц 9 вне месяцев обучения [6]; log_dist_coast_km = 0.0 вне диапазона обучения [1.7; 5.0]", "conc_B_model": "conc-B-c6bce5631d2b"}}]}