{"type": "FeatureCollection", "features": [{"type": "Feature", "geometry": {"type": "Polygon", "coordinates": [[[37.64112424589559, 44.66639264172691], [37.64112634890426, 44.66630264253562], [37.64100023560361, 44.66630114168354], [37.641004441981465, 44.666121143305816], [37.6412587705966, 44.66603414565154], [37.641260873370854, 44.66594414644955], [37.6413869859111, 44.66594564700446], [37.64138908848047, 44.66585564779629], [37.64163921102112, 44.66594864769664], [37.64163710883195, 44.666038646912675], [37.64151099607699, 44.66603714663152], [37.64150679127905, 44.6662171450497], [37.64125246221476, 44.66630414324849], [37.64125035940111, 44.66639414244445], [37.64112424589559, 44.66639264172691]]]}, "properties": {"zone_id": "novorossiysk-2025-08-22-001", "aoi": "novorossiysk", "date": "2025-08-22", "scene_id": "S2B_MSIL2A_20250822T081609_R121_T37TCK_20250822T101230", "scene_datetime_utc": "2025-08-22T08:16:09.024000+00:00", "detection_status": "detected", "detection_status_ru": "обнаружено", "lon": 37.64129, "lat": 44.66613, "n_pixels": 5, "zone_area_km2": 0.0015, "cover_m2": 22.0, "p_mean": 0.763, "p_max": 0.988, "cover_m2_km2": 14666.7, "h3": "882d728b3bfffff", "valid_frac_scene": 1.0, "wind_ms": 3.1, "sea": "спокойное", "scene_reliable": true, "field_event_id": "S4:DOORS3:T12", "field_profile": "B", "field_date": "2024-06-04", "field_distance_km": 252.6, "field_date_gap_days": 444, "field_conc_items_km2": 48.97, "conc_A_items_km2": null, "conc_A_lo80": null, "conc_A_hi80": null, "conc_A_lo95": null, "conc_A_hi95": null, "conc_A_status": "unavailable", "conc_A_status_ru": "концентрация недоступна", "conc_A_reasons": "вне бассейна профиля: nw_atlantic_subtropical", "conc_A_model": "conc-A-c6bce5631d2b", "conc_B_items_km2": 901.4, "conc_B_lo80": 192.7, "conc_B_hi80": 3027.3, "conc_B_lo95": 120.4, "conc_B_hi95": 5668.0, "conc_B_status": "research_estimate", "conc_B_status_ru": "исследовательская оценка", "conc_B_reasons": "ближайшее полевое измерение в 253 км (> 60 км); месяц 8 вне месяцев обучения [6]; log_dist_coast_km = 0.0 вне диапазона обучения [1.7; 5.0]", "conc_B_model": "conc-B-c6bce5631d2b"}}, {"type": "Feature", "geometry": {"type": "Polygon", "coordinates": [[[37.90267924380516, 44.66380411782537], [37.90268094193081, 44.66371410976993], [37.90255482187821, 44.66371289780241], [37.9025582184958, 44.66353288169466], [37.902684338158245, 44.66353409365461], [37.902686036260036, 44.66344408559475], [37.90293827521864, 44.66344650908935], [37.902936577507006, 44.66353651715678], [37.903062697193306, 44.66353772869899], [37.903059302136334, 44.663717744837], [37.90293318205987, 44.66371653328722], [37.90293148432438, 44.66380654135022], [37.90267924380516, 44.66380411782537]]]}, "properties": {"zone_id": "novorossiysk-2025-08-22-002", "aoi": "novorossiysk", "date": "2025-08-22", "scene_id": "S2B_MSIL2A_20250822T081609_R121_T37TCK_20250822T101230", "scene_datetime_utc": "2025-08-22T08:16:09.024000+00:00", "detection_status": "detected", "detection_status_ru": "обнаружено", "lon": 37.90281, "lat": 44.66363, "n_pixels": 4, "zone_area_km2": 0.0012, "cover_m2": 21.6, "p_mean": 0.949, "p_max": 0.996, "cover_m2_km2": 18000.0, "h3": "882d721003fffff", "valid_frac_scene": 1.0, "wind_ms": 3.1, "sea": "спокойное", "scene_reliable": true, "field_event_id": "S4:DOORS3:T13", "field_profile": "B", "field_date": "2024-06-04", "field_distance_km": 257.0, "field_date_gap_days": 444, "field_conc_items_km2": 263.57, "conc_A_items_km2": null, "conc_A_lo80": null, "conc_A_hi80": null, "conc_A_lo95": null, "conc_A_hi95": null, "conc_A_status": "unavailable", "conc_A_status_ru": "концентрация недоступна", "conc_A_reasons": "вне бассейна профиля: nw_atlantic_subtropical", "conc_A_model": "conc-A-c6bce5631d2b", "conc_B_items_km2": 621.6, "conc_B_lo80": 132.7, "conc_B_hi80": 2088.3, "conc_B_lo95": 82.8, "conc_B_hi95": 3910.2, "conc_B_status": "research_estimate", "conc_B_status_ru": "исследовательская оценка", "conc_B_reasons": "ближайшее полевое измерение в 257 км (> 60 км); месяц 8 вне месяцев обучения [6]; log_dist_coast_km = 1.0 вне диапазона обучения [1.7; 5.0]", "conc_B_model": "conc-B-c6bce5631d2b"}}, {"type": "Feature", "geometry": {"type": "Polygon", "coordinates": [[[37.81138687793559, 44.66208016068945], [37.81138871720809, 44.66199015547291], [37.8112626049094, 44.661988842734104], [37.81126628381863, 44.66180883230475], [37.81139239572725, 44.66181014503535], [37.81139423497391, 44.66172013981436], [37.811644619570345, 44.66181277007888], [37.811642780705135, 44.6619027753066], [37.811768892834635, 44.66190408762362], [37.81176705415586, 44.66199409285394], [37.81164094183132, 44.66199278053281], [37.81163910294889, 44.662082785757555], [37.81138687793559, 44.66208016068945]]]}, "properties": {"zone_id": "novorossiysk-2025-08-22-003", "aoi": "novorossiysk", "date": "2025-08-22", "scene_id": "S2B_MSIL2A_20250822T081609_R121_T37TCK_20250822T101230", "scene_datetime_utc": "2025-08-22T08:16:09.024000+00:00", "detection_status": "detected", "detection_status_ru": "обнаружено", "lon": 37.8115, "lat": 44.66192, "n_pixels": 3, "zone_area_km2": 0.001, "cover_m2": 13.3, "p_mean": 0.807, "p_max": 0.996, "cover_m2_km2": 13300.0, "h3": "882d72135bfffff", "valid_frac_scene": 1.0, "wind_ms": 3.1, "sea": "спокойное", "scene_reliable": true, "field_event_id": "S4:DOORS3:T12", "field_profile": "B", "field_date": "2024-06-04", "field_distance_km": 255.1, "field_date_gap_days": 444, "field_conc_items_km2": 48.97, "conc_A_items_km2": null, "conc_A_lo80": null, "conc_A_hi80": null, "conc_A_lo95": null, "conc_A_hi95": null, "conc_A_status": "unavailable", "conc_A_status_ru": "концентрация недоступна", "conc_A_reasons": "вне бассейна профиля: nw_atlantic_subtropical", "conc_A_model": "conc-A-c6bce5631d2b", "conc_B_items_km2": 592.0, "conc_B_lo80": 126.3, "conc_B_hi80": 1989.0, "conc_B_lo95": 78.8, "conc_B_hi95": 3724.2, "conc_B_status": "research_estimate", "conc_B_status_ru": "исследовательская оценка", "conc_B_reasons": "ближайшее полевое измерение в 255 км (> 60 км); месяц 8 вне месяцев обучения [6]; log_dist_coast_km = 1.2 вне диапазона обучения [1.7; 5.0]", "conc_B_model": "conc-B-c6bce5631d2b"}}, {"type": "Feature", "geometry": {"type": "Polygon", "coordinates": [[[37.907577914708384, 44.644765886502036], [37.90757960413286, 44.644675877998], [37.90745352513078, 44.64467467184169], [37.90745521474223, 44.64458466333995], [37.90770906157832, 44.64449706699514], [37.90770737236455, 44.64458707550588], [37.90783345118757, 44.64458828138011], [37.90783176216077, 44.64467828989315], [37.90770568314286, 44.64467708401514], [37.907703993913266, 44.64476709252295], [37.907577914708384, 44.644765886502036]]]}, "properties": {"zone_id": "novorossiysk-2025-08-22-004", "aoi": "novorossiysk", "date": "2025-08-22", "scene_id": "S2B_MSIL2A_20250822T081609_R121_T37TCK_20250822T101230", "scene_datetime_utc": "2025-08-22T08:16:09.024000+00:00", "detection_status": "detected", "detection_status_ru": "обнаружено", "lon": 37.90764, "lat": 44.64463, "n_pixels": 1, "zone_area_km2": 0.0005, "cover_m2": 5.9, "p_mean": 1.0, "p_max": 1.0, "cover_m2_km2": 11800.0, "h3": "882d72102bfffff", "valid_frac_scene": 1.0, "wind_ms": 3.1, "sea": "спокойное", "scene_reliable": true, "field_event_id": "S4:DOORS3:T13", "field_profile": "B", "field_date": "2024-06-04", "field_distance_km": 255.0, "field_date_gap_days": 444, "field_conc_items_km2": 263.57, "conc_A_items_km2": null, "conc_A_lo80": null, "conc_A_hi80": null, "conc_A_lo95": null, "conc_A_hi95": null, "conc_A_status": "unavailable", "conc_A_status_ru": "концентрация недоступна", "conc_A_reasons": "вне бассейна профиля: nw_atlantic_subtropical", "conc_A_model": "conc-A-c6bce5631d2b", "conc_B_items_km2": 669.0, "conc_B_lo80": 142.9, "conc_B_hi80": 2247.5, "conc_B_lo95": 89.2, "conc_B_hi95": 4208.2, "conc_B_status": "research_estimate", "conc_B_status_ru": "исследовательская оценка", "conc_B_reasons": "ближайшее полевое измерение в 255 км (> 60 км); месяц 8 вне месяцев обучения [6]; log_dist_coast_km = 0.8 вне диапазона обучения [1.7; 5.0]", "conc_B_model": "conc-B-c6bce5631d2b"}}, {"type": "Feature", "geometry": {"type": "Polygon", "coordinates": [[[37.63726133374413, 44.63204728276775], [37.637263440207114, 44.63195728317746], [37.63713740151006, 44.631955778963885], [37.63714372142386, 44.63168578019808], [37.637269759536885, 44.63168728439757], [37.6372760787779, 44.631417285604165], [37.6375302598701, 44.63133029394764], [37.637528153865496, 44.63142029355783], [37.63765419142408, 44.631421797326084], [37.63764366222654, 44.631871795378], [37.63738947891403, 44.63195878725198], [37.637387372645726, 44.63204878684696], [37.63726133374413, 44.63204728276775]]]}, "properties": {"zone_id": "novorossiysk-2025-08-22-005", "aoi": "novorossiysk", "date": "2025-08-22", "scene_id": "S2B_MSIL2A_20250822T081609_R121_T37TCK_20250822T101230", "scene_datetime_utc": "2025-08-22T08:16:09.024000+00:00", "detection_status": "detected", "detection_status_ru": "обнаружено", "lon": 37.63741, "lat": 44.63171, "n_pixels": 8, "zone_area_km2": 0.0022, "cover_m2": 63.9, "p_mean": 0.876, "p_max": 0.976, "cover_m2_km2": 29045.5, "h3": "882d72894dfffff", "valid_frac_scene": 1.0, "wind_ms": 3.1, "sea": "спокойное", "scene_reliable": true, "field_event_id": "S4:DOORS3:T12", "field_profile": "B", "field_date": "2024-06-04", "field_distance_km": 248.8, "field_date_gap_days": 444, "field_conc_items_km2": 48.97, "conc_A_items_km2": null, "conc_A_lo80": null, "conc_A_hi80": null, "conc_A_lo95": null, "conc_A_hi95": null, "conc_A_status": "unavailable", "conc_A_status_ru": "концентрация недоступна", "conc_A_reasons": "вне бассейна профиля: nw_atlantic_subtropical", "conc_A_model": "conc-A-c6bce5631d2b", "conc_B_items_km2": 520.5, "conc_B_lo80": 111.0, "conc_B_hi80": 1749.2, "conc_B_lo95": 69.2, "conc_B_hi95": 3275.4, "conc_B_status": "research_estimate", "conc_B_status_ru": "исследовательская оценка", "conc_B_reasons": "ближайшее полевое измерение в 249 км (> 60 км); месяц 8 вне месяцев обучения [6]", "conc_B_model": "conc-B-c6bce5631d2b"}}, {"type": "Feature", "geometry": {"type": "Polygon", "coordinates": [[[37.72192328942125, 44.61754196475699], [37.72192526404125, 44.617451961866585], [37.72179925242713, 44.617450551442275], [37.72180122723245, 44.61736054855477], [37.72192723865201, 44.617361958974676], [37.721929213253524, 44.61727195608128], [37.722055224487775, 44.6172733663578], [37.722057198885494, 44.61718336345851], [37.72230724698401, 44.61727618649384], [37.72230329893908, 44.617456192305546], [37.72217728729723, 44.61745478229822], [37.722175313066344, 44.617544785197424], [37.72192328942125, 44.61754196475699]]]}, "properties": {"zone_id": "novorossiysk-2025-08-22-006", "aoi": "novorossiysk", "date": "2025-08-22", "scene_id": "S2B_MSIL2A_20250822T081609_R121_T37TCK_20250822T101230", "scene_datetime_utc": "2025-08-22T08:16:09.024000+00:00", "detection_status": "detected", "detection_status_ru": "обнаружено", "lon": 37.72207, "lat": 44.61738, "n_pixels": 3, "zone_area_km2": 0.001, "cover_m2": 18.4, "p_mean": 0.787, "p_max": 0.929, "cover_m2_km2": 18400.0, "h3": "882d72c6cbfffff", "valid_frac_scene": 1.0, "wind_ms": 3.1, "sea": "спокойное", "scene_reliable": true, "field_event_id": "S4:DOORS3:T12", "field_profile": "B", "field_date": "2024-06-04", "field_distance_km": 248.6, "field_date_gap_days": 444, "field_conc_items_km2": 48.97, "conc_A_items_km2": null, "conc_A_lo80": null, "conc_A_hi80": null, "conc_A_lo95": null, "conc_A_hi95": null, "conc_A_status": "unavailable", "conc_A_status_ru": "концентрация недоступна", "conc_A_reasons": "вне бассейна профиля: nw_atlantic_subtropical", "conc_A_model": "conc-A-c6bce5631d2b", "conc_B_items_km2": 520.5, "conc_B_lo80": 111.0, "conc_B_hi80": 1749.2, "conc_B_lo95": 69.2, "conc_B_hi95": 3275.4, "conc_B_status": "research_estimate", "conc_B_status_ru": "исследовательская оценка", "conc_B_reasons": "ближайшее полевое измерение в 249 км (> 60 км); месяц 8 вне месяцев обучения [6]", "conc_B_model": "conc-B-c6bce5631d2b"}}]}