{"type": "FeatureCollection", "features": [{"type": "Feature", "geometry": {"type": "Polygon", "coordinates": [[[44.673881047460696, 48.88083343887247], [44.67388163230351, 48.88074348229715], [44.67374524048446, 48.88074309648715], [44.67374582556896, 48.88065313991163], [44.67388221714343, 48.880653525720405], [44.67388280198044, 48.88056356914225], [44.67415558464891, 48.88056434027343], [44.674155000301056, 48.88065429685402], [44.674291391884225, 48.880654682178836], [44.674290807778064, 48.880744638759225], [44.67415441595032, 48.880744253433186], [44.674153831596676, 48.88083421001094], [44.673881047460696, 48.88083343887247]]]}, "properties": {"zone_id": "volgograd-2026-08-31-001", "aoi": "volgograd", "date": "2026-08-31", "scene_id": "S2A_MSIL2A_20260831T081021_R078_T38UMV_20260831T133408", "scene_datetime_utc": "2026-08-31T08:10:21.025000+00:00", "detection_status": "detected", "detection_status_ru": "обнаружено", "lon": 44.67402, "lat": 48.8807, "n_pixels": 2, "zone_area_km2": 0.0008, "cover_m2": 8.2, "p_mean": 0.673, "p_max": 0.769, "cover_m2_km2": 10250.0, "h3": "882d48a087fffff", "valid_frac_scene": 1.0, "wind_ms": 2.7, "sea": "спокойное", "scene_reliable": true, "field_event_id": "S4:DOORS3:T23", "field_profile": "B", "field_date": "2024-06-10", "field_distance_km": 766.6, "field_date_gap_days": 812, "field_conc_items_km2": 102.37, "conc_A_items_km2": null, "conc_A_lo80": null, "conc_A_hi80": null, "conc_A_lo95": null, "conc_A_hi95": null, "conc_A_status": "unavailable", "conc_A_status_ru": "концентрация недоступна", "conc_A_reasons": "вне бассейна профиля: nw_atlantic_subtropical", "conc_A_model": "conc-A-c6bce5631d2b", "conc_B_items_km2": null, "conc_B_lo80": null, "conc_B_hi80": null, "conc_B_lo95": null, "conc_B_hi95": null, "conc_B_status": "unavailable", "conc_B_status_ru": "концентрация недоступна", "conc_B_reasons": "вне бассейна профиля: black_sea", "conc_B_model": "conc-B-c6bce5631d2b"}}, {"type": "Feature", "geometry": {"type": "Polygon", "coordinates": [[[44.711781653001026, 48.86006406036565], [44.711782169498285, 48.85997410314521], [44.71164583363507, 48.85997376226988], [44.711646350374075, 48.85988380504909], [44.71191953786229, 48.85979452941204], [44.71191902161446, 48.859884486636396], [44.7120553572385, 48.85988482718824], [44.712054841232415, 48.859974784412245], [44.71191850536407, 48.85997444385933], [44.71191798911112, 48.86006440108085], [44.711781653001026, 48.86006406036565]]]}, "properties": {"zone_id": "volgograd-2026-08-31-002", "aoi": "volgograd", "date": "2026-08-31", "scene_id": "S2A_MSIL2A_20260831T081021_R078_T38UMV_20260831T133408", "scene_datetime_utc": "2026-08-31T08:10:21.025000+00:00", "detection_status": "detected", "detection_status_ru": "обнаружено", "lon": 44.71185, "lat": 48.85993, "n_pixels": 1, "zone_area_km2": 0.0005, "cover_m2": 4.7, "p_mean": 0.529, "p_max": 0.529, "cover_m2_km2": 9400.0, "h3": "882d48ae41fffff", "valid_frac_scene": 1.0, "wind_ms": 2.7, "sea": "спокойное", "scene_reliable": true, "field_event_id": "S4:DOORS3:T23", "field_profile": "B", "field_date": "2024-06-10", "field_distance_km": 765.4, "field_date_gap_days": 812, "field_conc_items_km2": 102.37, "conc_A_items_km2": null, "conc_A_lo80": null, "conc_A_hi80": null, "conc_A_lo95": null, "conc_A_hi95": null, "conc_A_status": "unavailable", "conc_A_status_ru": "концентрация недоступна", "conc_A_reasons": "вне бассейна профиля: nw_atlantic_subtropical", "conc_A_model": "conc-A-c6bce5631d2b", "conc_B_items_km2": null, "conc_B_lo80": null, "conc_B_hi80": null, "conc_B_lo95": null, "conc_B_hi95": null, "conc_B_status": "unavailable", "conc_B_status_ru": "концентрация недоступна", "conc_B_reasons": "вне бассейна профиля: black_sea", "conc_B_model": "conc-B-c6bce5631d2b"}}, {"type": "Feature", "geometry": {"type": "Polygon", "coordinates": [[[44.663661804890374, 48.85894419079809], [44.66366240759542, 48.85885423397237], [44.66352607539862, 48.85885383620656], [44.663526678344965, 48.858763879380696], [44.66379994470773, 48.8586747179188], [44.66379934225296, 48.858764674748606], [44.66393567421142, 48.85876507219077], [44.66393507199795, 48.85885502902041], [44.66379873979519, 48.85885463157698], [44.66379813733444, 48.85894458840395], [44.663661804890374, 48.85894419079809]]]}, "properties": {"zone_id": "volgograd-2026-08-31-003", "aoi": "volgograd", "date": "2026-08-31", "scene_id": "S2A_MSIL2A_20260831T081021_R078_T38UMV_20260831T133408", "scene_datetime_utc": "2026-08-31T08:10:21.025000+00:00", "detection_status": "detected", "detection_status_ru": "обнаружено", "lon": 44.66373, "lat": 48.85881, "n_pixels": 1, "zone_area_km2": 0.0005, "cover_m2": 4.3, "p_mean": 0.91, "p_max": 0.91, "cover_m2_km2": 8600.0, "h3": "882d48a0adfffff", "valid_frac_scene": 1.0, "wind_ms": 2.7, "sea": "спокойное", "scene_reliable": true, "field_event_id": "S4:DOORS3:T23", "field_profile": "B", "field_date": "2024-06-10", "field_distance_km": 764.1, "field_date_gap_days": 812, "field_conc_items_km2": 102.37, "conc_A_items_km2": null, "conc_A_lo80": null, "conc_A_hi80": null, "conc_A_lo95": null, "conc_A_hi95": null, "conc_A_status": "unavailable", "conc_A_status_ru": "концентрация недоступна", "conc_A_reasons": "вне бассейна профиля: nw_atlantic_subtropical", "conc_A_model": "conc-A-c6bce5631d2b", "conc_B_items_km2": null, "conc_B_lo80": null, "conc_B_hi80": null, "conc_B_lo95": null, "conc_B_hi95": null, "conc_B_status": "unavailable", "conc_B_status_ru": "концентрация недоступна", "conc_B_reasons": "вне бассейна профиля: black_sea", "conc_B_model": "conc-B-c6bce5631d2b"}}, {"type": "Feature", "geometry": {"type": "Polygon", "coordinates": [[[44.662728630611426, 48.85579291360798], [44.66272923492169, 48.85570295674148], [44.66259291129526, 48.85570255789126], [44.66259351584678, 48.85561260102458], [44.66286676667415, 48.85552344169075], [44.66286616261412, 48.855613398561346], [44.663002486002284, 48.855613797087955], [44.663001882183515, 48.85570375395839], [44.662865558551104, 48.85570335543053], [44.662864954485094, 48.855793312298275], [44.662728630611426, 48.85579291360798]]]}, "properties": {"zone_id": "volgograd-2026-08-31-004", "aoi": "volgograd", "date": "2026-08-31", "scene_id": "S2A_MSIL2A_20260831T081021_R078_T38UMV_20260831T133408", "scene_datetime_utc": "2026-08-31T08:10:21.025000+00:00", "detection_status": "detected", "detection_status_ru": "обнаружено", "lon": 44.6628, "lat": 48.85566, "n_pixels": 1, "zone_area_km2": 0.0005, "cover_m2": 3.5, "p_mean": 0.561, "p_max": 0.561, "cover_m2_km2": 7000.0, "h3": "882d48a0adfffff", "valid_frac_scene": 1.0, "wind_ms": 2.7, "sea": "спокойное", "scene_reliable": true, "field_event_id": "S4:DOORS3:T23", "field_profile": "B", "field_date": "2024-06-10", "field_distance_km": 763.7, "field_date_gap_days": 812, "field_conc_items_km2": 102.37, "conc_A_items_km2": null, "conc_A_lo80": null, "conc_A_hi80": null, "conc_A_lo95": null, "conc_A_hi95": null, "conc_A_status": "unavailable", "conc_A_status_ru": "концентрация недоступна", "conc_A_reasons": "вне бассейна профиля: nw_atlantic_subtropical", "conc_A_model": "conc-A-c6bce5631d2b", "conc_B_items_km2": null, "conc_B_lo80": null, "conc_B_hi80": null, "conc_B_lo95": null, "conc_B_hi95": null, "conc_B_status": "unavailable", "conc_B_status_ru": "концентрация недоступна", "conc_B_reasons": "вне бассейна профиля: black_sea", "conc_B_model": "conc-B-c6bce5631d2b"}}, {"type": "Feature", "geometry": {"type": "Polygon", "coordinates": [[[44.68890565487833, 48.85541672127993], [44.68890621227868, 48.85532676417469], [44.68876988932075, 48.855326396276396], [44.688771004601655, 48.855146482063965], [44.68904420669112, 48.8550572605841], [44.6890436495433, 48.85514721769474], [44.68917997201827, 48.85514758526838], [44.68917885820283, 48.85532749948774], [44.68890565487833, 48.85541672127993]]]}, "properties": {"zone_id": "volgograd-2026-08-31-005", "aoi": "volgograd", "date": "2026-08-31", "scene_id": "S2A_MSIL2A_20260831T081021_R078_T38UMV_20260831T133408", "scene_datetime_utc": "2026-08-31T08:10:21.025000+00:00", "detection_status": "detected", "detection_status_ru": "обнаружено", "lon": 44.68897, "lat": 48.85524, "n_pixels": 2, "zone_area_km2": 0.0008, "cover_m2": 8.2, "p_mean": 0.682, "p_max": 0.831, "cover_m2_km2": 10250.0, "h3": "882d48a0a7fffff", "valid_frac_scene": 1.0, "wind_ms": 2.7, "sea": "спокойное", "scene_reliable": true, "field_event_id": "S4:DOORS3:T23", "field_profile": "B", "field_date": "2024-06-10", "field_distance_km": 764.3, "field_date_gap_days": 812, "field_conc_items_km2": 102.37, "conc_A_items_km2": null, "conc_A_lo80": null, "conc_A_hi80": null, "conc_A_lo95": null, "conc_A_hi95": null, "conc_A_status": "unavailable", "conc_A_status_ru": "концентрация недоступна", "conc_A_reasons": "вне бассейна профиля: nw_atlantic_subtropical", "conc_A_model": "conc-A-c6bce5631d2b", "conc_B_items_km2": null, "conc_B_lo80": null, "conc_B_hi80": null, "conc_B_lo95": null, "conc_B_hi95": null, "conc_B_status": "unavailable", "conc_B_status_ru": "концентрация недоступна", "conc_B_reasons": "вне бассейна профиля: black_sea", "conc_B_model": "conc-B-c6bce5631d2b"}}]}